{
  "type": "FeatureCollection",
  "features": [
    {
      "type": "Feature",
      "properties": {
        "spill_id": "palsar_698",
        "confidence": 0.95
      },
      "geometry": {
        "type": "Polygon",
        "coordinates": [
          [
            [
              72.50957,
              19.063867
            ],
            [
              72.5,
              18.962695
            ],
            [
              72.545117,
              19.014648
            ],
            [
              72.561523,
              18.999609
            ],
            [
              72.5,
              18.928516
            ],
            [
              72.5,
              18.812305
            ],
            [
              72.530078,
              18.832812
            ],
            [
              72.558789,
              18.827344
            ],
            [
              72.527344,
              18.801367
            ],
            [
              72.662695,
              18.819141
            ],
            [
              72.647656,
              18.801367
            ],
            [
              72.848633,
              18.802734
            ],
            [
              72.848633,
              18.871094
            ],
            [
              72.807617,
              18.898438
            ],
            [
              72.848633,
              18.917578
            ],
            [
              72.848633,
              19.003711
            ],
            [
              72.822656,
              18.996875
            ],
            [
              72.800781,
              18.913477
            ],
            [
              72.743359,
              18.871094
            ],
            [
              72.713281,
              18.876562
            ],
            [
              72.770703,
              18.935352
            ],
            [
              72.688672,
              18.918945
            ],
            [
              72.681836,
              18.886133
            ],
            [
              72.595703,
              18.87793
            ],
            [
              72.606641,
              18.854688
            ],
            [
              72.573828,
              18.85332
            ],
            [
              72.545117,
              18.950391
            ],
            [
              72.582031,
              18.96543
            ],
            [
              72.571094,
              19.005078
            ],
            [
              72.625781,
              19.108984
            ],
            [
              72.787109,
              19.15
            ],
            [
              72.633984,
              19.15
            ],
            [
              72.50957,
              19.063867
            ]
          ]
        ]
      }
    }
  ]
}