{
  "type": "FeatureCollection",
  "features": [
    {
      "type": "Feature",
      "properties": {
        "spill_id": "palsar_709",
        "confidence": 0.83
      },
      "geometry": {
        "type": "Polygon",
        "coordinates": [
          [
            [
              72.803516,
              18.890234
            ],
            [
              72.803516,
              18.882031
            ],
            [
              72.80625,
              18.876562
            ],
            [
              72.80625,
              18.868359
            ],
            [
              72.808984,
              18.862891
            ],
            [
              72.813086,
              18.858789
            ],
            [
              72.819922,
              18.856055
            ],
            [
              72.829492,
              18.845117
            ],
            [
              72.839062,
              18.841016
            ],
            [
              72.847266,
              18.841016
            ],
            [
              72.848633,
              18.842383
            ],
            [
              72.848633,
              18.856055
            ],
            [
              72.84043,
              18.858789
            ],
            [
              72.834961,
              18.865625
            ],
            [
              72.833594,
              18.871094
            ],
            [
              72.829492,
              18.875195
            ],
            [
              72.829492,
              18.876562
            ],
            [
              72.828125,
              18.876562
            ],
            [
              72.818555,
              18.886133
            ],
            [
              72.817187,
              18.886133
            ],
            [
              72.813086,
              18.890234
            ],
            [
              72.808984,
              18.890234
            ],
            [
              72.807617,
              18.891602
            ],
            [
              72.80625,
              18.890234
            ],
            [
              72.803516,
              18.890234
            ]
          ]
        ]
      }
    },
    {
      "type": "Feature",
      "properties": {
        "spill_id": "palsar_709",
        "confidence": 0.83
      },
      "geometry": {
        "type": "Polygon",
        "coordinates": [
          [
            [
              72.710547,
              18.953125
            ],
            [
              72.70918,
              18.951758
            ],
            [
              72.70918,
              18.949023
            ],
            [
              72.710547,
              18.947656
            ],
            [
              72.710547,
              18.944922
            ],
            [
              72.711914,
              18.943555
            ],
            [
              72.711914,
              18.942188
            ],
            [
              72.713281,
              18.94082
            ],
            [
              72.713281,
              18.939453
            ],
            [
              72.716016,
              18.936719
            ],
            [
              72.716016,
              18.935352
            ],
            [
              72.717383,
              18.933984
            ],
            [
              72.717383,
              18.932617
            ],
            [
              72.71875,
              18.93125
            ],
            [
              72.71875,
              18.929883
            ],
            [
              72.721484,
              18.927148
            ],
            [
              72.722852,
              18.927148
            ],
            [
              72.724219,
              18.925781
            ],
            [
              72.725586,
              18.927148
            ],
            [
              72.72832,
              18.927148
            ],
            [
              72.732422,
              18.93125
            ],
            [
              72.732422,
              18.935352
            ],
            [
              72.731055,
              18.936719
            ],
            [
              72.731055,
              18.938086
            ],
            [
              72.72832,
              18.94082
            ],
            [
              72.726953,
              18.94082
            ],
            [
              72.724219,
              18.943555
            ],
            [
              72.722852,
              18.943555
            ],
            [
              72.720117,
              18.946289
            ],
            [
              72.720117,
              18.947656
            ],
            [
              72.717383,
              18.950391
            ],
            [
              72.717383,
              18.951758
            ],
            [
              72.716016,
              18.951758
            ],
            [
              72.714648,
              18.953125
            ],
            [
              72.710547,
              18.953125
            ]
          ]
        ]
      }
    },
    {
      "type": "Feature",
      "properties": {
        "spill_id": "palsar_709",
        "confidence": 0.83
      },
      "geometry": {
        "type": "Polygon",
        "coordinates": [
          [
            [
              72.843164,
              19.021484
            ],
            [
              72.841797,
              19.021484
            ],
            [
              72.84043,
              19.022852
            ],
            [
              72.829492,
              19.022852
            ],
            [
              72.822656,
              19.016016
            ],
            [
              72.819922,
              19.020117
            ],
            [
              72.813086,
              19.020117
            ],
            [
              72.813086,
              19.016016
            ],
            [
              72.81582,
              19.016016
            ],
            [
              72.819922,
              19.011914
            ],
            [
              72.821289,
              19.011914
            ],
            [
              72.824023,
              19.00918
            ],
            [
              72.824023,
              19.006445
            ],
            [
              72.828125,
              19.002344
            ],
            [
              72.829492,
              19.002344
            ],
            [
              72.832227,
              19.005078
            ],
            [
              72.833594,
              19.005078
            ],
            [
              72.833594,
              19.006445
            ],
            [
              72.834961,
              19.007812
            ],
            [
              72.837695,
              19.007812
            ],
            [
              72.84043,
              19.010547
            ],
            [
              72.841797,
              19.010547
            ],
            [
              72.843164,
              19.011914
            ],
            [
              72.843164,
              19.013281
            ],
            [
              72.844531,
              19.014648
            ],
            [
              72.844531,
              19.01875
            ],
            [
              72.843164,
              19.020117
            ],
            [
              72.843164,
              19.021484
            ]
          ]
        ]
      }
    },
    {
      "type": "Feature",
      "properties": {
        "spill_id": "palsar_709",
        "confidence": 0.83
      },
      "geometry": {
        "type": "Polygon",
        "coordinates": [
          [
            [
              72.830859,
              19.067969
            ],
            [
              72.828125,
              19.069336
            ],
            [
              72.819922,
              19.069336
            ],
            [
              72.814453,
              19.065234
            ],
            [
              72.80625,
              19.065234
            ],
            [
              72.800781,
              19.0625
            ],
            [
              72.793945,
              19.0625
            ],
            [
              72.784375,
              19.047461
            ],
            [
              72.781641,
              19.037891
            ],
            [
              72.781641,
              19.031055
            ],
            [
              72.785742,
              19.02832
            ],
            [
              72.788477,
              19.02832
            ],
            [
              72.792578,
              19.032422
            ],
            [
              72.79668,
              19.039258
            ],
            [
              72.800781,
              19.055664
            ],
            [
              72.803516,
              19.058398
            ],
            [
              72.810352,
              19.061133
            ],
            [
              72.814453,
              19.058398
            ],
            [
              72.81582,
              19.039258
            ],
            [
              72.818555,
              19.035156
            ],
            [
              72.821289,
              19.035156
            ],
            [
              72.829492,
              19.047461
            ],
            [
              72.830859,
              19.067969
            ]
          ]
        ]
      }
    },
    {
      "type": "Feature",
      "properties": {
        "spill_id": "palsar_709",
        "confidence": 0.83
      },
      "geometry": {
        "type": "Polygon",
        "coordinates": [
          [
            [
              72.639453,
              19.054297
            ],
            [
              72.644922,
              19.00918
            ],
            [
              72.651758,
              18.999609
            ],
            [
              72.66543,
              18.996875
            ],
            [
              72.690039,
              19.024219
            ],
            [
              72.703711,
              19.016016
            ],
            [
              72.703711,
              19.000977
            ],
            [
              72.694141,
              18.985938
            ],
            [
              72.722852,
              18.964062
            ],
            [
              72.746094,
              18.927148
            ],
            [
              72.766602,
              18.909375
            ],
            [
              72.748828,
              18.865625
            ],
            [
              72.776172,
              18.813672
            ],
            [
              72.793945,
              18.805469
            ],
            [
              72.800781,
              18.823242
            ],
            [
              72.778906,
              18.845117
            ],
            [
              72.785742,
              18.864258
            ],
            [
              72.778906,
              18.8875
            ],
            [
              72.784375,
              18.929883
            ],
            [
              72.761133,
              18.970898
            ],
            [
              72.741992,
              18.973633
            ],
            [
              72.726953,
              18.985938
            ],
            [
              72.726953,
              19.005078
            ],
            [
              72.717383,
              19.011914
            ],
            [
              72.711914,
              19.033789
            ],
            [
              72.720117,
              19.063867
            ],
            [
              72.699609,
              19.074805
            ],
            [
              72.691406,
              19.036523
            ],
            [
              72.668164,
              19.050195
            ],
            [
              72.639453,
              19.054297
            ]
          ]
        ]
      }
    },
    {
      "type": "Feature",
      "properties": {
        "spill_id": "palsar_709",
        "confidence": 0.83
      },
      "geometry": {
        "type": "Polygon",
        "coordinates": [
          [
            [
              72.654492,
              19.092578
            ],
            [
              72.651758,
              19.089844
            ],
            [
              72.650391,
              19.089844
            ],
            [
              72.650391,
              19.088477
            ],
            [
              72.647656,
              19.085742
            ],
            [
              72.647656,
              19.077539
            ],
            [
              72.649023,
              19.076172
            ],
            [
              72.649023,
              19.067969
            ],
            [
              72.650391,
              19.066602
            ],
            [
              72.651758,
              19.0625
            ],
            [
              72.653125,
              19.0625
            ],
            [
              72.657227,
              19.059766
            ],
            [
              72.664062,
              19.059766
            ],
            [
              72.66543,
              19.058398
            ],
            [
              72.666797,
              19.058398
            ],
            [
              72.668164,
              19.059766
            ],
            [
              72.669531,
              19.059766
            ],
            [
              72.673633,
              19.063867
            ],
            [
              72.673633,
              19.065234
            ],
            [
              72.675,
              19.066602
            ],
            [
              72.675,
              19.076172
            ],
            [
              72.676367,
              19.077539
            ],
            [
              72.676367,
              19.080273
            ],
            [
              72.677734,
              19.081641
            ],
            [
              72.677734,
              19.083008
            ],
            [
              72.675,
              19.085742
            ],
            [
              72.673633,
              19.085742
            ],
            [
              72.672266,
              19.087109
            ],
            [
              72.669531,
              19.087109
            ],
            [
              72.666797,
              19.089844
            ],
            [
              72.66543,
              19.089844
            ],
            [
              72.664062,
              19.091211
            ],
            [
              72.661328,
              19.091211
            ],
            [
              72.659961,
              19.092578
            ],
            [
              72.654492,
              19.092578
            ]
          ]
        ]
      }
    },
    {
      "type": "Feature",
      "properties": {
        "spill_id": "palsar_709",
        "confidence": 0.83
      },
      "geometry": {
        "type": "Polygon",
        "coordinates": [
          [
            [
              72.833594,
              19.117188
            ],
            [
              72.830859,
              19.119922
            ],
            [
              72.826758,
              19.119922
            ],
            [
              72.825391,
              19.118555
            ],
            [
              72.824023,
              19.118555
            ],
            [
              72.822656,
              19.117188
            ],
            [
              72.821289,
              19.117188
            ],
            [
              72.821289,
              19.11582
            ],
            [
              72.818555,
              19.113086
            ],
            [
              72.817187,
              19.113086
            ],
            [
              72.817187,
              19.108984
            ],
            [
              72.818555,
              19.107617
            ],
            [
              72.819922,
              19.107617
            ],
            [
              72.821289,
              19.10625
            ],
            [
              72.822656,
              19.10625
            ],
            [
              72.824023,
              19.107617
            ],
            [
              72.826758,
              19.107617
            ],
            [
              72.829492,
              19.110352
            ],
            [
              72.830859,
              19.110352
            ],
            [
              72.832227,
              19.111719
            ],
            [
              72.833594,
              19.111719
            ],
            [
              72.834961,
              19.113086
            ],
            [
              72.834961,
              19.114453
            ],
            [
              72.833594,
              19.11582
            ],
            [
              72.833594,
              19.117188
            ]
          ]
        ]
      }
    },
    {
      "type": "Feature",
      "properties": {
        "spill_id": "palsar_709",
        "confidence": 0.83
      },
      "geometry": {
        "type": "Polygon",
        "coordinates": [
          [
            [
              72.716016,
              19.139062
            ],
            [
              72.711914,
              19.133594
            ],
            [
              72.711914,
              19.121289
            ],
            [
              72.713281,
              19.119922
            ],
            [
              72.713281,
              19.117188
            ],
            [
              72.71875,
              19.110352
            ],
            [
              72.71875,
              19.10625
            ],
            [
              72.720117,
              19.104883
            ],
            [
              72.720117,
              19.083008
            ],
            [
              72.722852,
              19.080273
            ],
            [
              72.726953,
              19.080273
            ],
            [
              72.72832,
              19.081641
            ],
            [
              72.731055,
              19.081641
            ],
            [
              72.735156,
              19.088477
            ],
            [
              72.735156,
              19.091211
            ],
            [
              72.739258,
              19.100781
            ],
            [
              72.739258,
              19.108984
            ],
            [
              72.732422,
              19.11582
            ],
            [
              72.731055,
              19.119922
            ],
            [
              72.72832,
              19.122656
            ],
            [
              72.724219,
              19.130859
            ],
            [
              72.724219,
              19.134961
            ],
            [
              72.721484,
              19.139062
            ],
            [
              72.716016,
              19.139062
            ]
          ]
        ]
      }
    }
  ]
}