{
  "type": "FeatureCollection",
  "features": [
    {
      "type": "Feature",
      "properties": {
        "spill_id": "palsar_274",
        "confidence": 0.85
      },
      "geometry": {
        "type": "Polygon",
        "coordinates": [
          [
            [
              72.603906,
              18.912109
            ],
            [
              72.602539,
              18.910742
            ],
            [
              72.602539,
              18.909375
            ],
            [
              72.601172,
              18.908008
            ],
            [
              72.599805,
              18.908008
            ],
            [
              72.599805,
              18.906641
            ],
            [
              72.59707,
              18.902539
            ],
            [
              72.59707,
              18.888867
            ],
            [
              72.598438,
              18.8875
            ],
            [
              72.598438,
              18.886133
            ],
            [
              72.601172,
              18.882031
            ],
            [
              72.605273,
              18.882031
            ],
            [
              72.606641,
              18.880664
            ],
            [
              72.609375,
              18.880664
            ],
            [
              72.614844,
              18.886133
            ],
            [
              72.614844,
              18.890234
            ],
            [
              72.613477,
              18.891602
            ],
            [
              72.613477,
              18.894336
            ],
            [
              72.612109,
              18.895703
            ],
            [
              72.612109,
              18.89707
            ],
            [
              72.610742,
              18.898438
            ],
            [
              72.610742,
              18.899805
            ],
            [
              72.608008,
              18.903906
            ],
            [
              72.608008,
              18.906641
            ],
            [
              72.606641,
              18.908008
            ],
            [
              72.608008,
              18.909375
            ],
            [
              72.608008,
              18.912109
            ],
            [
              72.603906,
              18.912109
            ]
          ]
        ]
      }
    },
    {
      "type": "Feature",
      "properties": {
        "spill_id": "palsar_274",
        "confidence": 0.85
      },
      "geometry": {
        "type": "Polygon",
        "coordinates": [
          [
            [
              72.632617,
              18.903906
            ],
            [
              72.628516,
              18.888867
            ],
            [
              72.633984,
              18.886133
            ],
            [
              72.651758,
              18.865625
            ],
            [
              72.675,
              18.864258
            ],
            [
              72.690039,
              18.85332
            ],
            [
              72.694141,
              18.847852
            ],
            [
              72.695508,
              18.838281
            ],
            [
              72.699609,
              18.831445
            ],
            [
              72.703711,
              18.830078
            ],
            [
              72.70918,
              18.846484
            ],
            [
              72.707812,
              18.871094
            ],
            [
              72.710547,
              18.879297
            ],
            [
              72.698242,
              18.903906
            ],
            [
              72.702344,
              18.916211
            ],
            [
              72.699609,
              18.918945
            ],
            [
              72.692773,
              18.917578
            ],
            [
              72.691406,
              18.903906
            ],
            [
              72.679102,
              18.8875
            ],
            [
              72.672266,
              18.872461
            ],
            [
              72.662695,
              18.884766
            ],
            [
              72.66543,
              18.901172
            ],
            [
              72.658594,
              18.905273
            ],
            [
              72.646289,
              18.901172
            ],
            [
              72.632617,
              18.903906
            ]
          ]
        ]
      }
    },
    {
      "type": "Feature",
      "properties": {
        "spill_id": "palsar_274",
        "confidence": 0.85
      },
      "geometry": {
        "type": "Polygon",
        "coordinates": [
          [
            [
              72.724219,
              18.972266
            ],
            [
              72.721484,
              18.972266
            ],
            [
              72.721484,
              18.969531
            ],
            [
              72.720117,
              18.968164
            ],
            [
              72.720117,
              18.966797
            ],
            [
              72.717383,
              18.964062
            ],
            [
              72.717383,
              18.962695
            ],
            [
              72.714648,
              18.959961
            ],
            [
              72.714648,
              18.955859
            ],
            [
              72.716016,
              18.954492
            ],
            [
              72.716016,
              18.953125
            ],
            [
              72.717383,
              18.951758
            ],
            [
              72.717383,
              18.950391
            ],
            [
              72.71875,
              18.950391
            ],
            [
              72.720117,
              18.949023
            ],
            [
              72.721484,
              18.949023
            ],
            [
              72.722852,
              18.950391
            ],
            [
              72.725586,
              18.950391
            ],
            [
              72.726953,
              18.951758
            ],
            [
              72.72832,
              18.951758
            ],
            [
              72.729688,
              18.953125
            ],
            [
              72.729688,
              18.954492
            ],
            [
              72.731055,
              18.955859
            ],
            [
              72.731055,
              18.966797
            ],
            [
              72.729688,
              18.968164
            ],
            [
              72.729688,
              18.969531
            ],
            [
              72.72832,
              18.969531
            ],
            [
              72.726953,
              18.970898
            ],
            [
              72.725586,
              18.970898
            ],
            [
              72.724219,
              18.972266
            ]
          ]
        ]
      }
    },
    {
      "type": "Feature",
      "properties": {
        "spill_id": "palsar_274",
        "confidence": 0.85
      },
      "geometry": {
        "type": "Polygon",
        "coordinates": [
          [
            [
              72.841797,
              19.130859
            ],
            [
              72.824023,
              19.126758
            ],
            [
              72.822656,
              19.111719
            ],
            [
              72.787109,
              19.061133
            ],
            [
              72.757031,
              19.046094
            ],
            [
              72.724219,
              19.078906
            ],
            [
              72.647656,
              19.095312
            ],
            [
              72.639453,
              19.077539
            ],
            [
              72.606641,
              19.058398
            ],
            [
              72.594336,
              19.066602
            ],
            [
              72.595703,
              19.092578
            ],
            [
              72.586133,
              19.10625
            ],
            [
              72.557422,
              19.104883
            ],
            [
              72.538281,
              19.081641
            ],
            [
              72.539648,
              19.069336
            ],
            [
              72.5875,
              19.061133
            ],
            [
              72.566992,
              19.040625
            ],
            [
              72.57793,
              19.01875
            ],
            [
              72.556055,
              19.007812
            ],
            [
              72.562891,
              18.980469
            ],
            [
              72.590234,
              18.975
            ],
            [
              72.572461,
              18.949023
            ],
            [
              72.608008,
              18.942188
            ],
            [
              72.625781,
              18.920312
            ],
            [
              72.636719,
              18.928516
            ],
            [
              72.655859,
              18.92168
            ],
            [
              72.657227,
              18.939453
            ],
            [
              72.707812,
              18.980469
            ],
            [
              72.694141,
              19.003711
            ],
            [
              72.737891,
              19.011914
            ],
            [
              72.750195,
              18.998242
            ],
            [
              72.81582,
              19.061133
            ],
            [
              72.837695,
              19.093945
            ],
            [
              72.841797,
              19.130859
            ]
          ]
        ]
      }
    },
    {
      "type": "Feature",
      "properties": {
        "spill_id": "palsar_274",
        "confidence": 0.85
      },
      "geometry": {
        "type": "Polygon",
        "coordinates": [
          [
            [
              72.542383,
              19.148633
            ],
            [
              72.542383,
              19.145898
            ],
            [
              72.545117,
              19.145898
            ],
            [
              72.550586,
              19.14043
            ],
            [
              72.551953,
              19.14043
            ],
            [
              72.554688,
              19.143164
            ],
            [
              72.554688,
              19.148633
            ],
            [
              72.55332,
              19.15
            ],
            [
              72.54375,
              19.15
            ],
            [
              72.542383,
              19.148633
            ]
          ]
        ]
      }
    }
  ]
}