{
  "type": "FeatureCollection",
  "features": [
    {
      "type": "Feature",
      "properties": {
        "spill_id": "palsar_666",
        "confidence": 0.83
      },
      "geometry": {
        "type": "Polygon",
        "coordinates": [
          [
            [
              72.5,
              18.821875
            ],
            [
              72.5,
              18.812305
            ],
            [
              72.502734,
              18.815039
            ],
            [
              72.505469,
              18.812305
            ],
            [
              72.506836,
              18.812305
            ],
            [
              72.506836,
              18.815039
            ],
            [
              72.508203,
              18.816406
            ],
            [
              72.508203,
              18.817773
            ],
            [
              72.506836,
              18.819141
            ],
            [
              72.506836,
              18.823242
            ],
            [
              72.505469,
              18.823242
            ],
            [
              72.504102,
              18.821875
            ],
            [
              72.502734,
              18.823242
            ],
            [
              72.501367,
              18.821875
            ],
            [
              72.5,
              18.821875
            ]
          ]
        ]
      }
    },
    {
      "type": "Feature",
      "properties": {
        "spill_id": "palsar_666",
        "confidence": 0.83
      },
      "geometry": {
        "type": "Polygon",
        "coordinates": [
          [
            [
              72.633984,
              18.832812
            ],
            [
              72.63125,
              18.830078
            ],
            [
              72.63125,
              18.821875
            ],
            [
              72.632617,
              18.820508
            ],
            [
              72.632617,
              18.819141
            ],
            [
              72.633984,
              18.817773
            ],
            [
              72.635352,
              18.817773
            ],
            [
              72.638086,
              18.815039
            ],
            [
              72.644922,
              18.812305
            ],
            [
              72.649023,
              18.808203
            ],
            [
              72.649023,
              18.806836
            ],
            [
              72.653125,
              18.802734
            ],
            [
              72.653125,
              18.801367
            ],
            [
              72.661328,
              18.801367
            ],
            [
              72.664062,
              18.804102
            ],
            [
              72.664062,
              18.806836
            ],
            [
              72.662695,
              18.808203
            ],
            [
              72.662695,
              18.810938
            ],
            [
              72.659961,
              18.813672
            ],
            [
              72.659961,
              18.815039
            ],
            [
              72.657227,
              18.817773
            ],
            [
              72.657227,
              18.819141
            ],
            [
              72.649023,
              18.827344
            ],
            [
              72.649023,
              18.828711
            ],
            [
              72.644922,
              18.832812
            ],
            [
              72.643555,
              18.832812
            ],
            [
              72.642187,
              18.83418
            ],
            [
              72.636719,
              18.83418
            ],
            [
              72.635352,
              18.832812
            ],
            [
              72.633984,
              18.832812
            ]
          ]
        ]
      }
    },
    {
      "type": "Feature",
      "properties": {
        "spill_id": "palsar_666",
        "confidence": 0.83
      },
      "geometry": {
        "type": "Polygon",
        "coordinates": [
          [
            [
              72.683203,
              18.83418
            ],
            [
              72.683203,
              18.827344
            ],
            [
              72.68457,
              18.825977
            ],
            [
              72.68457,
              18.823242
            ],
            [
              72.685938,
              18.821875
            ],
            [
              72.685938,
              18.819141
            ],
            [
              72.687305,
              18.817773
            ],
            [
              72.688672,
              18.810938
            ],
            [
              72.695508,
              18.804102
            ],
            [
              72.698242,
              18.804102
            ],
            [
              72.699609,
              18.802734
            ],
            [
              72.700977,
              18.802734
            ],
            [
              72.702344,
              18.804102
            ],
            [
              72.70918,
              18.804102
            ],
            [
              72.710547,
              18.805469
            ],
            [
              72.713281,
              18.805469
            ],
            [
              72.714648,
              18.806836
            ],
            [
              72.716016,
              18.806836
            ],
            [
              72.716016,
              18.813672
            ],
            [
              72.714648,
              18.815039
            ],
            [
              72.714648,
              18.816406
            ],
            [
              72.70918,
              18.821875
            ],
            [
              72.707812,
              18.825977
            ],
            [
              72.698242,
              18.835547
            ],
            [
              72.696875,
              18.835547
            ],
            [
              72.694141,
              18.838281
            ],
            [
              72.688672,
              18.838281
            ],
            [
              72.683203,
              18.83418
            ]
          ]
        ]
      }
    },
    {
      "type": "Feature",
      "properties": {
        "spill_id": "palsar_666",
        "confidence": 0.83
      },
      "geometry": {
        "type": "Polygon",
        "coordinates": [
          [
            [
              72.638086,
              18.854688
            ],
            [
              72.638086,
              18.847852
            ],
            [
              72.639453,
              18.846484
            ],
            [
              72.639453,
              18.842383
            ],
            [
              72.642187,
              18.839648
            ],
            [
              72.644922,
              18.839648
            ],
            [
              72.647656,
              18.842383
            ],
            [
              72.647656,
              18.846484
            ],
            [
              72.646289,
              18.847852
            ],
            [
              72.646289,
              18.849219
            ],
            [
              72.643555,
              18.851953
            ],
            [
              72.643555,
              18.85332
            ],
            [
              72.642187,
              18.85332
            ],
            [
              72.64082,
              18.854688
            ],
            [
              72.638086,
              18.854688
            ]
          ]
        ]
      }
    },
    {
      "type": "Feature",
      "properties": {
        "spill_id": "palsar_666",
        "confidence": 0.83
      },
      "geometry": {
        "type": "Polygon",
        "coordinates": [
          [
            [
              72.5,
              18.871094
            ],
            [
              72.5,
              18.841016
            ],
            [
              72.506836,
              18.831445
            ],
            [
              72.510938,
              18.830078
            ],
            [
              72.523242,
              18.820508
            ],
            [
              72.528711,
              18.808203
            ],
            [
              72.53418,
              18.801367
            ],
            [
              72.55332,
              18.801367
            ],
            [
              72.554688,
              18.806836
            ],
            [
              72.545117,
              18.817773
            ],
            [
              72.542383,
              18.828711
            ],
            [
              72.535547,
              18.839648
            ],
            [
              72.524609,
              18.847852
            ],
            [
              72.505469,
              18.868359
            ],
            [
              72.5,
              18.871094
            ]
          ]
        ]
      }
    },
    {
      "type": "Feature",
      "properties": {
        "spill_id": "palsar_666",
        "confidence": 0.83
      },
      "geometry": {
        "type": "Polygon",
        "coordinates": [
          [
            [
              72.517773,
              18.939453
            ],
            [
              72.516406,
              18.938086
            ],
            [
              72.515039,
              18.938086
            ],
            [
              72.513672,
              18.936719
            ],
            [
              72.513672,
              18.932617
            ],
            [
              72.512305,
              18.93125
            ],
            [
              72.512305,
              18.923047
            ],
            [
              72.513672,
              18.92168
            ],
            [
              72.513672,
              18.920312
            ],
            [
              72.515039,
              18.918945
            ],
            [
              72.515039,
              18.917578
            ],
            [
              72.517773,
              18.914844
            ],
            [
              72.520508,
              18.914844
            ],
            [
              72.521875,
              18.913477
            ],
            [
              72.523242,
              18.914844
            ],
            [
              72.524609,
              18.914844
            ],
            [
              72.525977,
              18.916211
            ],
            [
              72.525977,
              18.917578
            ],
            [
              72.527344,
              18.918945
            ],
            [
              72.527344,
              18.929883
            ],
            [
              72.525977,
              18.93125
            ],
            [
              72.525977,
              18.935352
            ],
            [
              72.523242,
              18.938086
            ],
            [
              72.521875,
              18.938086
            ],
            [
              72.520508,
              18.939453
            ],
            [
              72.517773,
              18.939453
            ]
          ]
        ]
      }
    },
    {
      "type": "Feature",
      "properties": {
        "spill_id": "palsar_666",
        "confidence": 0.83
      },
      "geometry": {
        "type": "Polygon",
        "coordinates": [
          [
            [
              72.5,
              19.078906
            ],
            [
              72.5,
              19.058398
            ],
            [
              72.502734,
              19.058398
            ],
            [
              72.505469,
              19.055664
            ],
            [
              72.506836,
              19.055664
            ],
            [
              72.506836,
              19.057031
            ],
            [
              72.508203,
              19.058398
            ],
            [
              72.508203,
              19.073438
            ],
            [
              72.506836,
              19.074805
            ],
            [
              72.506836,
              19.076172
            ],
            [
              72.505469,
              19.077539
            ],
            [
              72.502734,
              19.077539
            ],
            [
              72.501367,
              19.078906
            ],
            [
              72.5,
              19.078906
            ]
          ]
        ]
      }
    },
    {
      "type": "Feature",
      "properties": {
        "spill_id": "palsar_666",
        "confidence": 0.83
      },
      "geometry": {
        "type": "Polygon",
        "coordinates": [
          [
            [
              72.720117,
              19.088477
            ],
            [
              72.720117,
              19.076172
            ],
            [
              72.722852,
              19.07207
            ],
            [
              72.722852,
              19.069336
            ],
            [
              72.733789,
              19.055664
            ],
            [
              72.733789,
              19.047461
            ],
            [
              72.740625,
              19.039258
            ],
            [
              72.746094,
              19.039258
            ],
            [
              72.754297,
              19.035156
            ],
            [
              72.7625,
              19.035156
            ],
            [
              72.777539,
              19.048828
            ],
            [
              72.770703,
              19.0625
            ],
            [
              72.766602,
              19.066602
            ],
            [
              72.755664,
              19.069336
            ],
            [
              72.746094,
              19.074805
            ],
            [
              72.731055,
              19.088477
            ],
            [
              72.72832,
              19.088477
            ],
            [
              72.724219,
              19.091211
            ],
            [
              72.720117,
              19.088477
            ]
          ]
        ]
      }
    },
    {
      "type": "Feature",
      "properties": {
        "spill_id": "palsar_666",
        "confidence": 0.83
      },
      "geometry": {
        "type": "Polygon",
        "coordinates": [
          [
            [
              72.5,
              19.126758
            ],
            [
              72.519141,
              19.087109
            ],
            [
              72.562891,
              19.05293
            ],
            [
              72.542383,
              19.036523
            ],
            [
              72.508203,
              19.05293
            ],
            [
              72.5,
              19.043359
            ],
            [
              72.5,
              19.00918
            ],
            [
              72.536914,
              18.981836
            ],
            [
              72.546484,
              18.944922
            ],
            [
              72.575195,
              18.94082
            ],
            [
              72.601172,
              18.864258
            ],
            [
              72.59707,
              18.85332
            ],
            [
              72.579297,
              18.871094
            ],
            [
              72.572461,
              18.862891
            ],
            [
              72.582031,
              18.828711
            ],
            [
              72.599805,
              18.819141
            ],
            [
              72.618945,
              18.841016
            ],
            [
              72.62168,
              18.872461
            ],
            [
              72.636719,
              18.858789
            ],
            [
              72.64082,
              18.869727
            ],
            [
              72.629883,
              18.89707
            ],
            [
              72.598438,
              18.932617
            ],
            [
              72.566992,
              19.021484
            ],
            [
              72.586133,
              19.029687
            ],
            [
              72.59707,
              19.000977
            ],
            [
              72.612109,
              19.016016
            ],
            [
              72.59707,
              19.065234
            ],
            [
              72.610742,
              19.121289
            ],
            [
              72.573828,
              19.067969
            ],
            [
              72.551953,
              19.076172
            ],
            [
              72.530078,
              19.110352
            ],
            [
              72.5,
              19.126758
            ]
          ]
        ]
      }
    },
    {
      "type": "Feature",
      "properties": {
        "spill_id": "palsar_666",
        "confidence": 0.83
      },
      "geometry": {
        "type": "Polygon",
        "coordinates": [
          [
            [
              72.703711,
              19.129492
            ],
            [
              72.702344,
              19.128125
            ],
            [
              72.702344,
              19.126758
            ],
            [
              72.700977,
              19.125391
            ],
            [
              72.700977,
              19.121289
            ],
            [
              72.702344,
              19.119922
            ],
            [
              72.702344,
              19.117188
            ],
            [
              72.705078,
              19.114453
            ],
            [
              72.706445,
              19.114453
            ],
            [
              72.707812,
              19.113086
            ],
            [
              72.710547,
              19.113086
            ],
            [
              72.713281,
              19.11582
            ],
            [
              72.713281,
              19.118555
            ],
            [
              72.714648,
              19.119922
            ],
            [
              72.714648,
              19.121289
            ],
            [
              72.713281,
              19.122656
            ],
            [
              72.713281,
              19.125391
            ],
            [
              72.710547,
              19.128125
            ],
            [
              72.70918,
              19.128125
            ],
            [
              72.707812,
              19.129492
            ],
            [
              72.703711,
              19.129492
            ]
          ]
        ]
      }
    },
    {
      "type": "Feature",
      "properties": {
        "spill_id": "palsar_666",
        "confidence": 0.83
      },
      "geometry": {
        "type": "Polygon",
        "coordinates": [
          [
            [
              72.777539,
              19.148633
            ],
            [
              72.778906,
              19.147266
            ],
            [
              72.777539,
              19.145898
            ],
            [
              72.778906,
              19.144531
            ],
            [
              72.778906,
              19.143164
            ],
            [
              72.780273,
              19.143164
            ],
            [
              72.781641,
              19.141797
            ],
            [
              72.784375,
              19.141797
            ],
            [
              72.785742,
              19.143164
            ],
            [
              72.787109,
              19.143164
            ],
            [
              72.788477,
              19.144531
            ],
            [
              72.788477,
              19.145898
            ],
            [
              72.789844,
              19.147266
            ],
            [
              72.789844,
              19.15
            ],
            [
              72.778906,
              19.15
            ],
            [
              72.777539,
              19.148633
            ]
          ]
        ]
      }
    }
  ]
}