{
  "type": "FeatureCollection",
  "features": [
    {
      "type": "Feature",
      "properties": {
        "spill_id": "palsar_34",
        "confidence": 0.83
      },
      "geometry": {
        "type": "Polygon",
        "coordinates": [
          [
            [
              72.795312,
              18.80957
            ],
            [
              72.793945,
              18.810938
            ],
            [
              72.792578,
              18.810938
            ],
            [
              72.791211,
              18.812305
            ],
            [
              72.789844,
              18.812305
            ],
            [
              72.785742,
              18.808203
            ],
            [
              72.785742,
              18.802734
            ],
            [
              72.791211,
              18.802734
            ],
            [
              72.793945,
              18.805469
            ],
            [
              72.793945,
              18.808203
            ],
            [
              72.795312,
              18.80957
            ]
          ]
        ]
      }
    },
    {
      "type": "Feature",
      "properties": {
        "spill_id": "palsar_34",
        "confidence": 0.83
      },
      "geometry": {
        "type": "Polygon",
        "coordinates": [
          [
            [
              72.843164,
              18.876562
            ],
            [
              72.839062,
              18.873828
            ],
            [
              72.837695,
              18.856055
            ],
            [
              72.834961,
              18.850586
            ],
            [
              72.833594,
              18.839648
            ],
            [
              72.81582,
              18.804102
            ],
            [
              72.817187,
              18.801367
            ],
            [
              72.843164,
              18.801367
            ],
            [
              72.848633,
              18.808203
            ],
            [
              72.848633,
              18.873828
            ],
            [
              72.843164,
              18.876562
            ]
          ]
        ]
      }
    },
    {
      "type": "Feature",
      "properties": {
        "spill_id": "palsar_34",
        "confidence": 0.83
      },
      "geometry": {
        "type": "Polygon",
        "coordinates": [
          [
            [
              72.832227,
              18.8875
            ],
            [
              72.825391,
              18.8875
            ],
            [
              72.824023,
              18.886133
            ],
            [
              72.822656,
              18.880664
            ],
            [
              72.821289,
              18.879297
            ],
            [
              72.821289,
              18.873828
            ],
            [
              72.819922,
              18.872461
            ],
            [
              72.819922,
              18.866992
            ],
            [
              72.818555,
              18.865625
            ],
            [
              72.817187,
              18.858789
            ],
            [
              72.810352,
              18.85332
            ],
            [
              72.808984,
              18.85332
            ],
            [
              72.80625,
              18.847852
            ],
            [
              72.80625,
              18.842383
            ],
            [
              72.804883,
              18.841016
            ],
            [
              72.804883,
              18.836914
            ],
            [
              72.80625,
              18.835547
            ],
            [
              72.807617,
              18.836914
            ],
            [
              72.810352,
              18.836914
            ],
            [
              72.814453,
              18.841016
            ],
            [
              72.814453,
              18.842383
            ],
            [
              72.817187,
              18.845117
            ],
            [
              72.817187,
              18.849219
            ],
            [
              72.824023,
              18.858789
            ],
            [
              72.824023,
              18.861523
            ],
            [
              72.828125,
              18.865625
            ],
            [
              72.832227,
              18.866992
            ],
            [
              72.832227,
              18.871094
            ],
            [
              72.833594,
              18.872461
            ],
            [
              72.833594,
              18.876562
            ],
            [
              72.834961,
              18.87793
            ],
            [
              72.833594,
              18.879297
            ],
            [
              72.834961,
              18.880664
            ],
            [
              72.833594,
              18.882031
            ],
            [
              72.833594,
              18.886133
            ],
            [
              72.832227,
              18.8875
            ]
          ]
        ]
      }
    },
    {
      "type": "Feature",
      "properties": {
        "spill_id": "palsar_34",
        "confidence": 0.83
      },
      "geometry": {
        "type": "Polygon",
        "coordinates": [
          [
            [
              72.722852,
              18.899805
            ],
            [
              72.71875,
              18.899805
            ],
            [
              72.716016,
              18.89707
            ],
            [
              72.716016,
              18.892969
            ],
            [
              72.714648,
              18.891602
            ],
            [
              72.713281,
              18.883398
            ],
            [
              72.710547,
              18.87793
            ],
            [
              72.707812,
              18.875195
            ],
            [
              72.706445,
              18.869727
            ],
            [
              72.705078,
              18.868359
            ],
            [
              72.706445,
              18.839648
            ],
            [
              72.707812,
              18.838281
            ],
            [
              72.713281,
              18.839648
            ],
            [
              72.717383,
              18.84375
            ],
            [
              72.71875,
              18.846484
            ],
            [
              72.71875,
              18.850586
            ],
            [
              72.720117,
              18.851953
            ],
            [
              72.720117,
              18.854688
            ],
            [
              72.724219,
              18.864258
            ],
            [
              72.724219,
              18.876562
            ],
            [
              72.725586,
              18.87793
            ],
            [
              72.724219,
              18.879297
            ],
            [
              72.724219,
              18.884766
            ],
            [
              72.722852,
              18.886133
            ],
            [
              72.722852,
              18.890234
            ],
            [
              72.724219,
              18.891602
            ],
            [
              72.724219,
              18.89707
            ],
            [
              72.722852,
              18.899805
            ]
          ]
        ]
      }
    },
    {
      "type": "Feature",
      "properties": {
        "spill_id": "palsar_34",
        "confidence": 0.83
      },
      "geometry": {
        "type": "Polygon",
        "coordinates": [
          [
            [
              72.839062,
              19.026953
            ],
            [
              72.833594,
              19.022852
            ],
            [
              72.824023,
              18.985938
            ],
            [
              72.814453,
              18.972266
            ],
            [
              72.80625,
              18.949023
            ],
            [
              72.808984,
              18.928516
            ],
            [
              72.817187,
              18.933984
            ],
            [
              72.821289,
              18.943555
            ],
            [
              72.824023,
              18.943555
            ],
            [
              72.826758,
              18.938086
            ],
            [
              72.825391,
              18.913477
            ],
            [
              72.829492,
              18.903906
            ],
            [
              72.834961,
              18.906641
            ],
            [
              72.834961,
              18.917578
            ],
            [
              72.84043,
              18.924414
            ],
            [
              72.848633,
              18.944922
            ],
            [
              72.848633,
              18.972266
            ],
            [
              72.841797,
              18.977734
            ],
            [
              72.841797,
              18.988672
            ],
            [
              72.848633,
              19.002344
            ],
            [
              72.848633,
              19.025586
            ],
            [
              72.839062,
              19.026953
            ]
          ]
        ]
      }
    },
    {
      "type": "Feature",
      "properties": {
        "spill_id": "palsar_34",
        "confidence": 0.83
      },
      "geometry": {
        "type": "Polygon",
        "coordinates": [
          [
            [
              72.520508,
              19.133594
            ],
            [
              72.508203,
              19.132227
            ],
            [
              72.5,
              19.125391
            ],
            [
              72.5,
              19.058398
            ],
            [
              72.505469,
              19.058398
            ],
            [
              72.510938,
              19.065234
            ],
            [
              72.513672,
              19.073438
            ],
            [
              72.520508,
              19.084375
            ],
            [
              72.521875,
              19.099414
            ],
            [
              72.528711,
              19.111719
            ],
            [
              72.528711,
              19.117188
            ],
            [
              72.530078,
              19.118555
            ],
            [
              72.528711,
              19.119922
            ],
            [
              72.527344,
              19.128125
            ],
            [
              72.524609,
              19.132227
            ],
            [
              72.520508,
              19.133594
            ]
          ]
        ]
      }
    },
    {
      "type": "Feature",
      "properties": {
        "spill_id": "palsar_34",
        "confidence": 0.83
      },
      "geometry": {
        "type": "Polygon",
        "coordinates": [
          [
            [
              72.826758,
              19.15
            ],
            [
              72.818555,
              19.15
            ],
            [
              72.818555,
              19.147266
            ],
            [
              72.817187,
              19.145898
            ],
            [
              72.817187,
              19.143164
            ],
            [
              72.81582,
              19.141797
            ],
            [
              72.81582,
              19.129492
            ],
            [
              72.811719,
              19.122656
            ],
            [
              72.811719,
              19.114453
            ],
            [
              72.813086,
              19.113086
            ],
            [
              72.814453,
              19.113086
            ],
            [
              72.81582,
              19.114453
            ],
            [
              72.819922,
              19.11582
            ],
            [
              72.824023,
              19.119922
            ],
            [
              72.824023,
              19.129492
            ],
            [
              72.825391,
              19.130859
            ],
            [
              72.825391,
              19.132227
            ],
            [
              72.826758,
              19.133594
            ],
            [
              72.826758,
              19.136328
            ],
            [
              72.828125,
              19.137695
            ],
            [
              72.828125,
              19.148633
            ],
            [
              72.826758,
              19.15
            ]
          ]
        ]
      }
    }
  ]
}