{
  "type": "FeatureCollection",
  "features": [
    {
      "type": "Feature",
      "properties": {
        "spill_id": "palsar_751",
        "confidence": 0.89
      },
      "geometry": {
        "type": "Polygon",
        "coordinates": [
          [
            [
              72.525977,
              18.825977
            ],
            [
              72.524609,
              18.820508
            ],
            [
              72.523242,
              18.819141
            ],
            [
              72.523242,
              18.813672
            ],
            [
              72.524609,
              18.810938
            ],
            [
              72.527344,
              18.80957
            ],
            [
              72.535547,
              18.80957
            ],
            [
              72.547852,
              18.819141
            ],
            [
              72.550586,
              18.813672
            ],
            [
              72.550586,
              18.804102
            ],
            [
              72.551953,
              18.801367
            ],
            [
              72.565625,
              18.801367
            ],
            [
              72.566992,
              18.804102
            ],
            [
              72.566992,
              18.808203
            ],
            [
              72.565625,
              18.810938
            ],
            [
              72.551953,
              18.820508
            ],
            [
              72.551953,
              18.831445
            ],
            [
              72.547852,
              18.835547
            ],
            [
              72.538281,
              18.835547
            ],
            [
              72.532812,
              18.832812
            ],
            [
              72.525977,
              18.825977
            ]
          ]
        ]
      }
    },
    {
      "type": "Feature",
      "properties": {
        "spill_id": "palsar_751",
        "confidence": 0.89
      },
      "geometry": {
        "type": "Polygon",
        "coordinates": [
          [
            [
              72.643555,
              18.841016
            ],
            [
              72.638086,
              18.835547
            ],
            [
              72.635352,
              18.830078
            ],
            [
              72.636719,
              18.816406
            ],
            [
              72.627148,
              18.804102
            ],
            [
              72.628516,
              18.801367
            ],
            [
              72.661328,
              18.801367
            ],
            [
              72.662695,
              18.802734
            ],
            [
              72.664062,
              18.801367
            ],
            [
              72.66543,
              18.802734
            ],
            [
              72.666797,
              18.801367
            ],
            [
              72.669531,
              18.801367
            ],
            [
              72.673633,
              18.804102
            ],
            [
              72.673633,
              18.80957
            ],
            [
              72.668164,
              18.812305
            ],
            [
              72.669531,
              18.817773
            ],
            [
              72.673633,
              18.821875
            ],
            [
              72.673633,
              18.827344
            ],
            [
              72.675,
              18.828711
            ],
            [
              72.672266,
              18.839648
            ],
            [
              72.670898,
              18.841016
            ],
            [
              72.666797,
              18.841016
            ],
            [
              72.662695,
              18.836914
            ],
            [
              72.657227,
              18.836914
            ],
            [
              72.653125,
              18.841016
            ],
            [
              72.643555,
              18.841016
            ]
          ]
        ]
      }
    },
    {
      "type": "Feature",
      "properties": {
        "spill_id": "palsar_751",
        "confidence": 0.89
      },
      "geometry": {
        "type": "Polygon",
        "coordinates": [
          [
            [
              72.617578,
              18.875195
            ],
            [
              72.614844,
              18.873828
            ],
            [
              72.613477,
              18.875195
            ],
            [
              72.610742,
              18.872461
            ],
            [
              72.609375,
              18.864258
            ],
            [
              72.5875,
              18.84375
            ],
            [
              72.582031,
              18.835547
            ],
            [
              72.580664,
              18.831445
            ],
            [
              72.580664,
              18.816406
            ],
            [
              72.57793,
              18.808203
            ],
            [
              72.580664,
              18.801367
            ],
            [
              72.5875,
              18.801367
            ],
            [
              72.602539,
              18.816406
            ],
            [
              72.606641,
              18.825977
            ],
            [
              72.606641,
              18.836914
            ],
            [
              72.609375,
              18.84375
            ],
            [
              72.625781,
              18.857422
            ],
            [
              72.625781,
              18.864258
            ],
            [
              72.623047,
              18.869727
            ],
            [
              72.617578,
              18.875195
            ]
          ]
        ]
      }
    },
    {
      "type": "Feature",
      "properties": {
        "spill_id": "palsar_751",
        "confidence": 0.89
      },
      "geometry": {
        "type": "Polygon",
        "coordinates": [
          [
            [
              72.679102,
              18.882031
            ],
            [
              72.672266,
              18.882031
            ],
            [
              72.670898,
              18.880664
            ],
            [
              72.669531,
              18.880664
            ],
            [
              72.668164,
              18.879297
            ],
            [
              72.666797,
              18.875195
            ],
            [
              72.66543,
              18.873828
            ],
            [
              72.664062,
              18.873828
            ],
            [
              72.664062,
              18.872461
            ],
            [
              72.661328,
              18.869727
            ],
            [
              72.661328,
              18.866992
            ],
            [
              72.659961,
              18.865625
            ],
            [
              72.659961,
              18.856055
            ],
            [
              72.661328,
              18.854688
            ],
            [
              72.661328,
              18.85332
            ],
            [
              72.664062,
              18.850586
            ],
            [
              72.670898,
              18.850586
            ],
            [
              72.675,
              18.854688
            ],
            [
              72.676367,
              18.854688
            ],
            [
              72.676367,
              18.856055
            ],
            [
              72.679102,
              18.858789
            ],
            [
              72.679102,
              18.864258
            ],
            [
              72.677734,
              18.865625
            ],
            [
              72.677734,
              18.872461
            ],
            [
              72.679102,
              18.873828
            ],
            [
              72.679102,
              18.876562
            ],
            [
              72.680469,
              18.87793
            ],
            [
              72.680469,
              18.880664
            ],
            [
              72.679102,
              18.882031
            ]
          ]
        ]
      }
    },
    {
      "type": "Feature",
      "properties": {
        "spill_id": "palsar_751",
        "confidence": 0.89
      },
      "geometry": {
        "type": "Polygon",
        "coordinates": [
          [
            [
              72.588867,
              18.970898
            ],
            [
              72.588867,
              18.957227
            ],
            [
              72.591602,
              18.953125
            ],
            [
              72.599805,
              18.951758
            ],
            [
              72.609375,
              18.959961
            ],
            [
              72.623047,
              18.958594
            ],
            [
              72.63125,
              18.953125
            ],
            [
              72.635352,
              18.949023
            ],
            [
              72.639453,
              18.939453
            ],
            [
              72.642187,
              18.936719
            ],
            [
              72.644922,
              18.936719
            ],
            [
              72.647656,
              18.944922
            ],
            [
              72.646289,
              18.946289
            ],
            [
              72.642187,
              18.966797
            ],
            [
              72.635352,
              18.975
            ],
            [
              72.63125,
              18.976367
            ],
            [
              72.627148,
              18.976367
            ],
            [
              72.625781,
              18.975
            ],
            [
              72.62168,
              18.975
            ],
            [
              72.620312,
              18.976367
            ],
            [
              72.605273,
              18.975
            ],
            [
              72.603906,
              18.976367
            ],
            [
              72.594336,
              18.977734
            ],
            [
              72.588867,
              18.970898
            ]
          ]
        ]
      }
    },
    {
      "type": "Feature",
      "properties": {
        "spill_id": "palsar_751",
        "confidence": 0.89
      },
      "geometry": {
        "type": "Polygon",
        "coordinates": [
          [
            [
              72.780273,
              19.021484
            ],
            [
              72.780273,
              19.01875
            ],
            [
              72.778906,
              19.017383
            ],
            [
              72.780273,
              19.016016
            ],
            [
              72.780273,
              19.014648
            ],
            [
              72.784375,
              19.010547
            ],
            [
              72.791211,
              19.010547
            ],
            [
              72.792578,
              19.011914
            ],
            [
              72.792578,
              19.016016
            ],
            [
              72.791211,
              19.017383
            ],
            [
              72.791211,
              19.01875
            ],
            [
              72.789844,
              19.020117
            ],
            [
              72.787109,
              19.020117
            ],
            [
              72.785742,
              19.021484
            ],
            [
              72.780273,
              19.021484
            ]
          ]
        ]
      }
    },
    {
      "type": "Feature",
      "properties": {
        "spill_id": "palsar_751",
        "confidence": 0.89
      },
      "geometry": {
        "type": "Polygon",
        "coordinates": [
          [
            [
              72.564258,
              19.051562
            ],
            [
              72.54375,
              19.050195
            ],
            [
              72.515039,
              19.033789
            ],
            [
              72.5,
              19.035156
            ],
            [
              72.5,
              19.014648
            ],
            [
              72.506836,
              19.011914
            ],
            [
              72.504102,
              19.000977
            ],
            [
              72.512305,
              18.990039
            ],
            [
              72.510938,
              18.98457
            ],
            [
              72.5,
              18.976367
            ],
            [
              72.5,
              18.947656
            ],
            [
              72.519141,
              18.953125
            ],
            [
              72.530078,
              18.936719
            ],
            [
              72.527344,
              18.927148
            ],
            [
              72.530078,
              18.918945
            ],
            [
              72.539648,
              18.913477
            ],
            [
              72.562891,
              18.924414
            ],
            [
              72.561523,
              18.938086
            ],
            [
              72.571094,
              18.958594
            ],
            [
              72.569727,
              18.981836
            ],
            [
              72.572461,
              18.998242
            ],
            [
              72.588867,
              19.016016
            ],
            [
              72.576562,
              19.025586
            ],
            [
              72.573828,
              19.043359
            ],
            [
              72.564258,
              19.051562
            ]
          ]
        ]
      }
    },
    {
      "type": "Feature",
      "properties": {
        "spill_id": "palsar_751",
        "confidence": 0.89
      },
      "geometry": {
        "type": "Polygon",
        "coordinates": [
          [
            [
              72.732422,
              19.087109
            ],
            [
              72.70918,
              19.092578
            ],
            [
              72.690039,
              19.078906
            ],
            [
              72.688672,
              19.059766
            ],
            [
              72.658594,
              19.043359
            ],
            [
              72.658594,
              19.037891
            ],
            [
              72.670898,
              19.025586
            ],
            [
              72.666797,
              19.01875
            ],
            [
              72.653125,
              19.01875
            ],
            [
              72.618945,
              19.029687
            ],
            [
              72.59707,
              19.02832
            ],
            [
              72.594336,
              19.01875
            ],
            [
              72.601172,
              19.017383
            ],
            [
              72.610742,
              19.002344
            ],
            [
              72.643555,
              18.999609
            ],
            [
              72.658594,
              18.98457
            ],
            [
              72.66543,
              18.987305
            ],
            [
              72.673633,
              19.002344
            ],
            [
              72.690039,
              19.007812
            ],
            [
              72.700977,
              18.999609
            ],
            [
              72.696875,
              18.972266
            ],
            [
              72.716016,
              18.968164
            ],
            [
              72.732422,
              18.990039
            ],
            [
              72.735156,
              19.003711
            ],
            [
              72.703711,
              19.024219
            ],
            [
              72.699609,
              19.048828
            ],
            [
              72.732422,
              19.087109
            ]
          ]
        ]
      }
    },
    {
      "type": "Feature",
      "properties": {
        "spill_id": "palsar_751",
        "confidence": 0.89
      },
      "geometry": {
        "type": "Polygon",
        "coordinates": [
          [
            [
              72.848633,
              19.119922
            ],
            [
              72.843164,
              19.118555
            ],
            [
              72.84043,
              19.113086
            ],
            [
              72.843164,
              19.099414
            ],
            [
              72.829492,
              19.085742
            ],
            [
              72.829492,
              19.073438
            ],
            [
              72.817187,
              19.055664
            ],
            [
              72.789844,
              19.054297
            ],
            [
              72.780273,
              19.048828
            ],
            [
              72.754297,
              19.05293
            ],
            [
              72.748828,
              19.048828
            ],
            [
              72.754297,
              19.035156
            ],
            [
              72.765234,
              19.02832
            ],
            [
              72.793945,
              19.039258
            ],
            [
              72.807617,
              19.039258
            ],
            [
              72.814453,
              19.033789
            ],
            [
              72.814453,
              19.016016
            ],
            [
              72.798047,
              18.992773
            ],
            [
              72.802148,
              18.983203
            ],
            [
              72.814453,
              18.983203
            ],
            [
              72.828125,
              18.992773
            ],
            [
              72.837695,
              19.016016
            ],
            [
              72.848633,
              19.02832
            ],
            [
              72.848633,
              19.119922
            ]
          ]
        ]
      }
    },
    {
      "type": "Feature",
      "properties": {
        "spill_id": "palsar_751",
        "confidence": 0.89
      },
      "geometry": {
        "type": "Polygon",
        "coordinates": [
          [
            [
              72.843164,
              19.15
            ],
            [
              72.843164,
              19.147266
            ],
            [
              72.841797,
              19.145898
            ],
            [
              72.841797,
              19.141797
            ],
            [
              72.843164,
              19.14043
            ],
            [
              72.847266,
              19.14043
            ],
            [
              72.848633,
              19.141797
            ],
            [
              72.848633,
              19.15
            ],
            [
              72.843164,
              19.15
            ]
          ]
        ]
      }
    },
    {
      "type": "Feature",
      "properties": {
        "spill_id": "palsar_751",
        "confidence": 0.89
      },
      "geometry": {
        "type": "Polygon",
        "coordinates": [
          [
            [
              72.636719,
              19.15
            ],
            [
              72.636719,
              19.148633
            ],
            [
              72.633984,
              19.145898
            ],
            [
              72.633984,
              19.144531
            ],
            [
              72.632617,
              19.143164
            ],
            [
              72.632617,
              19.14043
            ],
            [
              72.63125,
              19.139062
            ],
            [
              72.63125,
              19.136328
            ],
            [
              72.632617,
              19.134961
            ],
            [
              72.632617,
              19.132227
            ],
            [
              72.633984,
              19.130859
            ],
            [
              72.635352,
              19.130859
            ],
            [
              72.636719,
              19.129492
            ],
            [
              72.64082,
              19.129492
            ],
            [
              72.642187,
              19.130859
            ],
            [
              72.642187,
              19.132227
            ],
            [
              72.643555,
              19.133594
            ],
            [
              72.643555,
              19.136328
            ],
            [
              72.644922,
              19.137695
            ],
            [
              72.644922,
              19.14043
            ],
            [
              72.646289,
              19.141797
            ],
            [
              72.646289,
              19.145898
            ],
            [
              72.643555,
              19.148633
            ],
            [
              72.643555,
              19.15
            ],
            [
              72.636719,
              19.15
            ]
          ]
        ]
      }
    }
  ]
}