{
  "type": "FeatureCollection",
  "features": [
    {
      "type": "Feature",
      "properties": {
        "spill_id": "palsar_369",
        "confidence": 0.84
      },
      "geometry": {
        "type": "Polygon",
        "coordinates": [
          [
            [
              72.512305,
              18.813672
            ],
            [
              72.512305,
              18.80957
            ],
            [
              72.513672,
              18.808203
            ],
            [
              72.513672,
              18.804102
            ],
            [
              72.515039,
              18.802734
            ],
            [
              72.515039,
              18.801367
            ],
            [
              72.532812,
              18.801367
            ],
            [
              72.532812,
              18.802734
            ],
            [
              72.53418,
              18.804102
            ],
            [
              72.53418,
              18.805469
            ],
            [
              72.532812,
              18.806836
            ],
            [
              72.532812,
              18.808203
            ],
            [
              72.531445,
              18.80957
            ],
            [
              72.531445,
              18.810938
            ],
            [
              72.530078,
              18.812305
            ],
            [
              72.528711,
              18.812305
            ],
            [
              72.525977,
              18.815039
            ],
            [
              72.524609,
              18.815039
            ],
            [
              72.523242,
              18.816406
            ],
            [
              72.516406,
              18.816406
            ],
            [
              72.515039,
              18.815039
            ],
            [
              72.513672,
              18.815039
            ],
            [
              72.512305,
              18.813672
            ]
          ]
        ]
      }
    },
    {
      "type": "Feature",
      "properties": {
        "spill_id": "palsar_369",
        "confidence": 0.84
      },
      "geometry": {
        "type": "Polygon",
        "coordinates": [
          [
            [
              72.825391,
              18.815039
            ],
            [
              72.825391,
              18.813672
            ],
            [
              72.824023,
              18.812305
            ],
            [
              72.824023,
              18.804102
            ],
            [
              72.826758,
              18.801367
            ],
            [
              72.848633,
              18.801367
            ],
            [
              72.848633,
              18.810938
            ],
            [
              72.845898,
              18.813672
            ],
            [
              72.844531,
              18.813672
            ],
            [
              72.843164,
              18.815039
            ],
            [
              72.841797,
              18.815039
            ],
            [
              72.84043,
              18.816406
            ],
            [
              72.837695,
              18.816406
            ],
            [
              72.836328,
              18.817773
            ],
            [
              72.828125,
              18.817773
            ],
            [
              72.825391,
              18.815039
            ]
          ]
        ]
      }
    },
    {
      "type": "Feature",
      "properties": {
        "spill_id": "palsar_369",
        "confidence": 0.84
      },
      "geometry": {
        "type": "Polygon",
        "coordinates": [
          [
            [
              72.833594,
              18.866992
            ],
            [
              72.833594,
              18.862891
            ],
            [
              72.834961,
              18.864258
            ],
            [
              72.836328,
              18.862891
            ],
            [
              72.836328,
              18.854688
            ],
            [
              72.839062,
              18.851953
            ],
            [
              72.841797,
              18.851953
            ],
            [
              72.843164,
              18.85332
            ],
            [
              72.843164,
              18.856055
            ],
            [
              72.839062,
              18.860156
            ],
            [
              72.839062,
              18.861523
            ],
            [
              72.836328,
              18.864258
            ],
            [
              72.836328,
              18.866992
            ],
            [
              72.833594,
              18.866992
            ]
          ]
        ]
      }
    },
    {
      "type": "Feature",
      "properties": {
        "spill_id": "palsar_369",
        "confidence": 0.84
      },
      "geometry": {
        "type": "Polygon",
        "coordinates": [
          [
            [
              72.845898,
              18.917578
            ],
            [
              72.844531,
              18.917578
            ],
            [
              72.843164,
              18.918945
            ],
            [
              72.84043,
              18.918945
            ],
            [
              72.839062,
              18.917578
            ],
            [
              72.836328,
              18.917578
            ],
            [
              72.834961,
              18.916211
            ],
            [
              72.825391,
              18.916211
            ],
            [
              72.825391,
              18.913477
            ],
            [
              72.826758,
              18.913477
            ],
            [
              72.829492,
              18.910742
            ],
            [
              72.844531,
              18.910742
            ],
            [
              72.845898,
              18.912109
            ],
            [
              72.845898,
              18.917578
            ]
          ]
        ]
      }
    },
    {
      "type": "Feature",
      "properties": {
        "spill_id": "palsar_369",
        "confidence": 0.84
      },
      "geometry": {
        "type": "Polygon",
        "coordinates": [
          [
            [
              72.720117,
              18.93125
            ],
            [
              72.721484,
              18.924414
            ],
            [
              72.731055,
              18.914844
            ],
            [
              72.746094,
              18.909375
            ],
            [
              72.761133,
              18.909375
            ],
            [
              72.781641,
              18.899805
            ],
            [
              72.787109,
              18.894336
            ],
            [
              72.781641,
              18.879297
            ],
            [
              72.787109,
              18.875195
            ],
            [
              72.79668,
              18.876562
            ],
            [
              72.802148,
              18.890234
            ],
            [
              72.817187,
              18.8875
            ],
            [
              72.836328,
              18.872461
            ],
            [
              72.848633,
              18.876562
            ],
            [
              72.848633,
              18.883398
            ],
            [
              72.844531,
              18.8875
            ],
            [
              72.824023,
              18.89707
            ],
            [
              72.817187,
              18.89707
            ],
            [
              72.787109,
              18.914844
            ],
            [
              72.763867,
              18.918945
            ],
            [
              72.744727,
              18.933984
            ],
            [
              72.725586,
              18.936719
            ],
            [
              72.720117,
              18.93125
            ]
          ]
        ]
      }
    },
    {
      "type": "Feature",
      "properties": {
        "spill_id": "palsar_369",
        "confidence": 0.84
      },
      "geometry": {
        "type": "Polygon",
        "coordinates": [
          [
            [
              72.54375,
              18.977734
            ],
            [
              72.54375,
              18.972266
            ],
            [
              72.545117,
              18.970898
            ],
            [
              72.545117,
              18.969531
            ],
            [
              72.551953,
              18.962695
            ],
            [
              72.55332,
              18.962695
            ],
            [
              72.557422,
              18.959961
            ],
            [
              72.560156,
              18.959961
            ],
            [
              72.561523,
              18.958594
            ],
            [
              72.565625,
              18.958594
            ],
            [
              72.566992,
              18.957227
            ],
            [
              72.569727,
              18.957227
            ],
            [
              72.571094,
              18.955859
            ],
            [
              72.57793,
              18.955859
            ],
            [
              72.579297,
              18.957227
            ],
            [
              72.580664,
              18.957227
            ],
            [
              72.583398,
              18.959961
            ],
            [
              72.572461,
              18.970898
            ],
            [
              72.571094,
              18.970898
            ],
            [
              72.568359,
              18.973633
            ],
            [
              72.566992,
              18.973633
            ],
            [
              72.562891,
              18.976367
            ],
            [
              72.557422,
              18.976367
            ],
            [
              72.556055,
              18.977734
            ],
            [
              72.55332,
              18.977734
            ],
            [
              72.551953,
              18.979102
            ],
            [
              72.545117,
              18.979102
            ],
            [
              72.54375,
              18.977734
            ]
          ]
        ]
      }
    },
    {
      "type": "Feature",
      "properties": {
        "spill_id": "palsar_369",
        "confidence": 0.84
      },
      "geometry": {
        "type": "Polygon",
        "coordinates": [
          [
            [
              72.716016,
              19.01875
            ],
            [
              72.713281,
              19.016016
            ],
            [
              72.713281,
              19.010547
            ],
            [
              72.714648,
              19.00918
            ],
            [
              72.714648,
              19.007812
            ],
            [
              72.716016,
              19.006445
            ],
            [
              72.717383,
              19.006445
            ],
            [
              72.71875,
              19.005078
            ],
            [
              72.71875,
              19.003711
            ],
            [
              72.720117,
              19.003711
            ],
            [
              72.721484,
              19.002344
            ],
            [
              72.724219,
              19.002344
            ],
            [
              72.725586,
              19.003711
            ],
            [
              72.726953,
              19.003711
            ],
            [
              72.726953,
              19.005078
            ],
            [
              72.725586,
              19.006445
            ],
            [
              72.725586,
              19.00918
            ],
            [
              72.724219,
              19.010547
            ],
            [
              72.724219,
              19.016016
            ],
            [
              72.721484,
              19.01875
            ],
            [
              72.716016,
              19.01875
            ]
          ]
        ]
      }
    },
    {
      "type": "Feature",
      "properties": {
        "spill_id": "palsar_369",
        "confidence": 0.84
      },
      "geometry": {
        "type": "Polygon",
        "coordinates": [
          [
            [
              72.685938,
              19.035156
            ],
            [
              72.685938,
              19.033789
            ],
            [
              72.687305,
              19.032422
            ],
            [
              72.687305,
              19.031055
            ],
            [
              72.688672,
              19.029687
            ],
            [
              72.688672,
              19.02832
            ],
            [
              72.690039,
              19.02832
            ],
            [
              72.694141,
              19.024219
            ],
            [
              72.694141,
              19.022852
            ],
            [
              72.695508,
              19.021484
            ],
            [
              72.695508,
              19.020117
            ],
            [
              72.698242,
              19.017383
            ],
            [
              72.702344,
              19.017383
            ],
            [
              72.703711,
              19.01875
            ],
            [
              72.705078,
              19.01875
            ],
            [
              72.706445,
              19.020117
            ],
            [
              72.706445,
              19.024219
            ],
            [
              72.705078,
              19.024219
            ],
            [
              72.703711,
              19.025586
            ],
            [
              72.702344,
              19.025586
            ],
            [
              72.698242,
              19.029687
            ],
            [
              72.698242,
              19.031055
            ],
            [
              72.694141,
              19.035156
            ],
            [
              72.685938,
              19.035156
            ]
          ]
        ]
      }
    },
    {
      "type": "Feature",
      "properties": {
        "spill_id": "palsar_369",
        "confidence": 0.84
      },
      "geometry": {
        "type": "Polygon",
        "coordinates": [
          [
            [
              72.5,
              19.039258
            ],
            [
              72.5,
              19.022852
            ],
            [
              72.517773,
              19.010547
            ],
            [
              72.521875,
              19.010547
            ],
            [
              72.530078,
              19.014648
            ],
            [
              72.547852,
              19.00918
            ],
            [
              72.551953,
              19.005078
            ],
            [
              72.557422,
              18.992773
            ],
            [
              72.562891,
              18.988672
            ],
            [
              72.571094,
              18.988672
            ],
            [
              72.57793,
              18.995508
            ],
            [
              72.588867,
              18.996875
            ],
            [
              72.592969,
              18.999609
            ],
            [
              72.588867,
              19.005078
            ],
            [
              72.575195,
              19.016016
            ],
            [
              72.564258,
              19.021484
            ],
            [
              72.550586,
              19.024219
            ],
            [
              72.545117,
              19.022852
            ],
            [
              72.538281,
              19.024219
            ],
            [
              72.523242,
              19.035156
            ],
            [
              72.508203,
              19.039258
            ],
            [
              72.5,
              19.039258
            ]
          ]
        ]
      }
    },
    {
      "type": "Feature",
      "properties": {
        "spill_id": "palsar_369",
        "confidence": 0.84
      },
      "geometry": {
        "type": "Polygon",
        "coordinates": [
          [
            [
              72.535547,
              19.093945
            ],
            [
              72.535547,
              19.088477
            ],
            [
              72.539648,
              19.084375
            ],
            [
              72.542383,
              19.084375
            ],
            [
              72.549219,
              19.080273
            ],
            [
              72.551953,
              19.080273
            ],
            [
              72.55332,
              19.078906
            ],
            [
              72.556055,
              19.078906
            ],
            [
              72.557422,
              19.077539
            ],
            [
              72.560156,
              19.077539
            ],
            [
              72.561523,
              19.076172
            ],
            [
              72.568359,
              19.074805
            ],
            [
              72.569727,
              19.073438
            ],
            [
              72.571094,
              19.073438
            ],
            [
              72.572461,
              19.07207
            ],
            [
              72.575195,
              19.07207
            ],
            [
              72.576562,
              19.070703
            ],
            [
              72.57793,
              19.07207
            ],
            [
              72.57793,
              19.077539
            ],
            [
              72.576562,
              19.077539
            ],
            [
              72.568359,
              19.087109
            ],
            [
              72.562891,
              19.087109
            ],
            [
              72.561523,
              19.088477
            ],
            [
              72.558789,
              19.088477
            ],
            [
              72.557422,
              19.089844
            ],
            [
              72.551953,
              19.089844
            ],
            [
              72.550586,
              19.091211
            ],
            [
              72.547852,
              19.091211
            ],
            [
              72.546484,
              19.092578
            ],
            [
              72.542383,
              19.092578
            ],
            [
              72.541016,
              19.093945
            ],
            [
              72.538281,
              19.093945
            ],
            [
              72.536914,
              19.095312
            ],
            [
              72.535547,
              19.093945
            ]
          ]
        ]
      }
    },
    {
      "type": "Feature",
      "properties": {
        "spill_id": "palsar_369",
        "confidence": 0.84
      },
      "geometry": {
        "type": "Polygon",
        "coordinates": [
          [
            [
              72.625781,
              19.107617
            ],
            [
              72.628516,
              19.098047
            ],
            [
              72.642187,
              19.083008
            ],
            [
              72.646289,
              19.07207
            ],
            [
              72.653125,
              19.065234
            ],
            [
              72.668164,
              19.063867
            ],
            [
              72.691406,
              19.055664
            ],
            [
              72.731055,
              19.061133
            ],
            [
              72.72832,
              19.066602
            ],
            [
              72.717383,
              19.070703
            ],
            [
              72.700977,
              19.069336
            ],
            [
              72.698242,
              19.07207
            ],
            [
              72.683203,
              19.074805
            ],
            [
              72.668164,
              19.087109
            ],
            [
              72.653125,
              19.095312
            ],
            [
              72.649023,
              19.099414
            ],
            [
              72.644922,
              19.110352
            ],
            [
              72.633984,
              19.113086
            ],
            [
              72.628516,
              19.111719
            ],
            [
              72.625781,
              19.107617
            ]
          ]
        ]
      }
    },
    {
      "type": "Feature",
      "properties": {
        "spill_id": "palsar_369",
        "confidence": 0.84
      },
      "geometry": {
        "type": "Polygon",
        "coordinates": [
          [
            [
              72.695508,
              19.11582
            ],
            [
              72.705078,
              19.104883
            ],
            [
              72.740625,
              19.085742
            ],
            [
              72.770703,
              19.081641
            ],
            [
              72.792578,
              19.073438
            ],
            [
              72.814453,
              19.07207
            ],
            [
              72.826758,
              19.058398
            ],
            [
              72.833594,
              19.058398
            ],
            [
              72.834961,
              19.061133
            ],
            [
              72.825391,
              19.067969
            ],
            [
              72.826758,
              19.077539
            ],
            [
              72.824023,
              19.084375
            ],
            [
              72.829492,
              19.088477
            ],
            [
              72.829492,
              19.092578
            ],
            [
              72.822656,
              19.098047
            ],
            [
              72.821289,
              19.107617
            ],
            [
              72.804883,
              19.11582
            ],
            [
              72.79668,
              19.11582
            ],
            [
              72.783008,
              19.10625
            ],
            [
              72.759766,
              19.103516
            ],
            [
              72.741992,
              19.104883
            ],
            [
              72.703711,
              19.118555
            ],
            [
              72.695508,
              19.11582
            ]
          ]
        ]
      }
    }
  ]
}