{
  "type": "FeatureCollection",
  "features": [
    {
      "type": "Feature",
      "properties": {
        "spill_id": "palsar_201",
        "confidence": 0.87
      },
      "geometry": {
        "type": "Polygon",
        "coordinates": [
          [
            [
              72.706445,
              18.84375
            ],
            [
              72.696875,
              18.84375
            ],
            [
              72.695508,
              18.842383
            ],
            [
              72.688672,
              18.842383
            ],
            [
              72.687305,
              18.841016
            ],
            [
              72.688672,
              18.839648
            ],
            [
              72.687305,
              18.838281
            ],
            [
              72.687305,
              18.832812
            ],
            [
              72.685938,
              18.831445
            ],
            [
              72.687305,
              18.830078
            ],
            [
              72.687305,
              18.827344
            ],
            [
              72.68457,
              18.823242
            ],
            [
              72.68457,
              18.817773
            ],
            [
              72.687305,
              18.813672
            ],
            [
              72.687305,
              18.802734
            ],
            [
              72.688672,
              18.801367
            ],
            [
              72.705078,
              18.801367
            ],
            [
              72.705078,
              18.804102
            ],
            [
              72.706445,
              18.805469
            ],
            [
              72.707812,
              18.812305
            ],
            [
              72.713281,
              18.819141
            ],
            [
              72.713281,
              18.824609
            ],
            [
              72.707812,
              18.831445
            ],
            [
              72.707812,
              18.842383
            ],
            [
              72.706445,
              18.84375
            ]
          ]
        ]
      }
    },
    {
      "type": "Feature",
      "properties": {
        "spill_id": "palsar_201",
        "confidence": 0.87
      },
      "geometry": {
        "type": "Polygon",
        "coordinates": [
          [
            [
              72.5,
              19.15
            ],
            [
              72.5,
              19.036523
            ],
            [
              72.515039,
              19.017383
            ],
            [
              72.523242,
              18.972266
            ],
            [
              72.557422,
              18.942188
            ],
            [
              72.554688,
              18.886133
            ],
            [
              72.560156,
              18.876562
            ],
            [
              72.582031,
              18.87793
            ],
            [
              72.583398,
              18.851953
            ],
            [
              72.613477,
              18.849219
            ],
            [
              72.602539,
              18.819141
            ],
            [
              72.606641,
              18.808203
            ],
            [
              72.664062,
              18.801367
            ],
            [
              72.673633,
              18.808203
            ],
            [
              72.681836,
              18.851953
            ],
            [
              72.66543,
              18.875195
            ],
            [
              72.647656,
              18.873828
            ],
            [
              72.644922,
              18.882031
            ],
            [
              72.658594,
              18.909375
            ],
            [
              72.650391,
              18.924414
            ],
            [
              72.655859,
              18.943555
            ],
            [
              72.669531,
              18.953125
            ],
            [
              72.679102,
              18.991406
            ],
            [
              72.672266,
              19.010547
            ],
            [
              72.655859,
              19.014648
            ],
            [
              72.649023,
              19.02832
            ],
            [
              72.654492,
              19.09668
            ],
            [
              72.628516,
              19.132227
            ],
            [
              72.608008,
              19.128125
            ],
            [
              72.606641,
              19.117188
            ],
            [
              72.579297,
              19.11582
            ],
            [
              72.565625,
              19.128125
            ],
            [
              72.566992,
              19.15
            ],
            [
              72.5,
              19.15
            ]
          ]
        ]
      }
    }
  ]
}