{
  "type": "FeatureCollection",
  "features": [
    {
      "type": "Feature",
      "properties": {
        "spill_id": "palsar_489",
        "confidence": 0.82
      },
      "geometry": {
        "type": "Polygon",
        "coordinates": [
          [
            [
              72.848633,
              18.860156
            ],
            [
              72.84043,
              18.860156
            ],
            [
              72.839062,
              18.858789
            ],
            [
              72.839062,
              18.857422
            ],
            [
              72.836328,
              18.854688
            ],
            [
              72.836328,
              18.85332
            ],
            [
              72.829492,
              18.845117
            ],
            [
              72.829492,
              18.842383
            ],
            [
              72.828125,
              18.841016
            ],
            [
              72.828125,
              18.831445
            ],
            [
              72.829492,
              18.830078
            ],
            [
              72.829492,
              18.827344
            ],
            [
              72.830859,
              18.825977
            ],
            [
              72.830859,
              18.824609
            ],
            [
              72.832227,
              18.823242
            ],
            [
              72.833594,
              18.823242
            ],
            [
              72.836328,
              18.820508
            ],
            [
              72.844531,
              18.820508
            ],
            [
              72.848633,
              18.823242
            ],
            [
              72.848633,
              18.860156
            ]
          ]
        ]
      }
    },
    {
      "type": "Feature",
      "properties": {
        "spill_id": "palsar_489",
        "confidence": 0.82
      },
      "geometry": {
        "type": "Polygon",
        "coordinates": [
          [
            [
              72.590234,
              18.966797
            ],
            [
              72.5875,
              18.964062
            ],
            [
              72.5875,
              18.962695
            ],
            [
              72.582031,
              18.957227
            ],
            [
              72.582031,
              18.954492
            ],
            [
              72.583398,
              18.953125
            ],
            [
              72.583398,
              18.951758
            ],
            [
              72.586133,
              18.949023
            ],
            [
              72.586133,
              18.947656
            ],
            [
              72.5875,
              18.946289
            ],
            [
              72.592969,
              18.946289
            ],
            [
              72.594336,
              18.947656
            ],
            [
              72.595703,
              18.947656
            ],
            [
              72.595703,
              18.949023
            ],
            [
              72.59707,
              18.950391
            ],
            [
              72.59707,
              18.951758
            ],
            [
              72.598438,
              18.953125
            ],
            [
              72.598438,
              18.961328
            ],
            [
              72.59707,
              18.962695
            ],
            [
              72.595703,
              18.962695
            ],
            [
              72.592969,
              18.96543
            ],
            [
              72.591602,
              18.96543
            ],
            [
              72.590234,
              18.966797
            ]
          ]
        ]
      }
    },
    {
      "type": "Feature",
      "properties": {
        "spill_id": "palsar_489",
        "confidence": 0.82
      },
      "geometry": {
        "type": "Polygon",
        "coordinates": [
          [
            [
              72.64082,
              19.010547
            ],
            [
              72.636719,
              19.011914
            ],
            [
              72.629883,
              19.005078
            ],
            [
              72.628516,
              19.002344
            ],
            [
              72.623047,
              18.999609
            ],
            [
              72.617578,
              18.999609
            ],
            [
              72.612109,
              19.002344
            ],
            [
              72.608008,
              19.006445
            ],
            [
              72.605273,
              19.007812
            ],
            [
              72.601172,
              19.007812
            ],
            [
              72.599805,
              19.002344
            ],
            [
              72.598438,
              19.000977
            ],
            [
              72.598438,
              18.987305
            ],
            [
              72.59707,
              18.98457
            ],
            [
              72.599805,
              18.98457
            ],
            [
              72.601172,
              18.983203
            ],
            [
              72.606641,
              18.983203
            ],
            [
              72.613477,
              18.987305
            ],
            [
              72.620312,
              18.987305
            ],
            [
              72.623047,
              18.98457
            ],
            [
              72.628516,
              18.98457
            ],
            [
              72.633984,
              18.988672
            ],
            [
              72.638086,
              18.995508
            ],
            [
              72.638086,
              18.998242
            ],
            [
              72.64082,
              19.003711
            ],
            [
              72.64082,
              19.010547
            ]
          ]
        ]
      }
    },
    {
      "type": "Feature",
      "properties": {
        "spill_id": "palsar_489",
        "confidence": 0.82
      },
      "geometry": {
        "type": "Polygon",
        "coordinates": [
          [
            [
              72.539648,
              19.032422
            ],
            [
              72.523242,
              19.032422
            ],
            [
              72.5,
              19.014648
            ],
            [
              72.5,
              18.955859
            ],
            [
              72.508203,
              18.953125
            ],
            [
              72.508203,
              18.970898
            ],
            [
              72.513672,
              18.985938
            ],
            [
              72.527344,
              19.002344
            ],
            [
              72.54375,
              19.002344
            ],
            [
              72.54375,
              18.990039
            ],
            [
              72.530078,
              18.976367
            ],
            [
              72.520508,
              18.957227
            ],
            [
              72.521875,
              18.942188
            ],
            [
              72.516406,
              18.928516
            ],
            [
              72.519141,
              18.910742
            ],
            [
              72.512305,
              18.886133
            ],
            [
              72.516406,
              18.87793
            ],
            [
              72.527344,
              18.8875
            ],
            [
              72.541016,
              18.8875
            ],
            [
              72.54375,
              18.898438
            ],
            [
              72.536914,
              18.903906
            ],
            [
              72.538281,
              18.910742
            ],
            [
              72.561523,
              18.939453
            ],
            [
              72.562891,
              18.96543
            ],
            [
              72.547852,
              18.991406
            ],
            [
              72.55332,
              18.996875
            ],
            [
              72.550586,
              19.003711
            ],
            [
              72.554688,
              19.017383
            ],
            [
              72.539648,
              19.032422
            ]
          ]
        ]
      }
    },
    {
      "type": "Feature",
      "properties": {
        "spill_id": "palsar_489",
        "confidence": 0.82
      },
      "geometry": {
        "type": "Polygon",
        "coordinates": [
          [
            [
              72.573828,
              19.100781
            ],
            [
              72.572461,
              19.100781
            ],
            [
              72.571094,
              19.099414
            ],
            [
              72.565625,
              19.099414
            ],
            [
              72.564258,
              19.100781
            ],
            [
              72.562891,
              19.100781
            ],
            [
              72.561523,
              19.099414
            ],
            [
              72.556055,
              19.099414
            ],
            [
              72.554688,
              19.098047
            ],
            [
              72.55332,
              19.098047
            ],
            [
              72.55332,
              19.09668
            ],
            [
              72.551953,
              19.095312
            ],
            [
              72.551953,
              19.076172
            ],
            [
              72.55332,
              19.074805
            ],
            [
              72.55332,
              19.070703
            ],
            [
              72.557422,
              19.066602
            ],
            [
              72.560156,
              19.066602
            ],
            [
              72.564258,
              19.063867
            ],
            [
              72.566992,
              19.063867
            ],
            [
              72.568359,
              19.065234
            ],
            [
              72.569727,
              19.065234
            ],
            [
              72.575195,
              19.070703
            ],
            [
              72.575195,
              19.07207
            ],
            [
              72.57793,
              19.076172
            ],
            [
              72.57793,
              19.078906
            ],
            [
              72.579297,
              19.080273
            ],
            [
              72.579297,
              19.091211
            ],
            [
              72.575195,
              19.09668
            ],
            [
              72.573828,
              19.100781
            ]
          ]
        ]
      }
    },
    {
      "type": "Feature",
      "properties": {
        "spill_id": "palsar_489",
        "confidence": 0.82
      },
      "geometry": {
        "type": "Polygon",
        "coordinates": [
          [
            [
              72.644922,
              19.113086
            ],
            [
              72.64082,
              19.107617
            ],
            [
              72.63125,
              19.10625
            ],
            [
              72.627148,
              19.102148
            ],
            [
              72.627148,
              19.093945
            ],
            [
              72.646289,
              19.077539
            ],
            [
              72.662695,
              19.084375
            ],
            [
              72.66543,
              19.081641
            ],
            [
              72.668164,
              19.050195
            ],
            [
              72.657227,
              19.021484
            ],
            [
              72.657227,
              19.014648
            ],
            [
              72.661328,
              19.010547
            ],
            [
              72.672266,
              19.00918
            ],
            [
              72.679102,
              19.020117
            ],
            [
              72.677734,
              19.039258
            ],
            [
              72.681836,
              19.055664
            ],
            [
              72.683203,
              19.098047
            ],
            [
              72.677734,
              19.104883
            ],
            [
              72.662695,
              19.102148
            ],
            [
              72.649023,
              19.113086
            ],
            [
              72.644922,
              19.113086
            ]
          ]
        ]
      }
    },
    {
      "type": "Feature",
      "properties": {
        "spill_id": "palsar_489",
        "confidence": 0.82
      },
      "geometry": {
        "type": "Polygon",
        "coordinates": [
          [
            [
              72.795312,
              19.133594
            ],
            [
              72.792578,
              19.133594
            ],
            [
              72.791211,
              19.134961
            ],
            [
              72.789844,
              19.133594
            ],
            [
              72.784375,
              19.133594
            ],
            [
              72.783008,
              19.132227
            ],
            [
              72.781641,
              19.132227
            ],
            [
              72.781641,
              19.130859
            ],
            [
              72.780273,
              19.129492
            ],
            [
              72.780273,
              19.128125
            ],
            [
              72.778906,
              19.126758
            ],
            [
              72.778906,
              19.124023
            ],
            [
              72.784375,
              19.118555
            ],
            [
              72.789844,
              19.118555
            ],
            [
              72.791211,
              19.117188
            ],
            [
              72.795312,
              19.121289
            ],
            [
              72.795312,
              19.125391
            ],
            [
              72.79668,
              19.126758
            ],
            [
              72.79668,
              19.130859
            ],
            [
              72.795312,
              19.132227
            ],
            [
              72.795312,
              19.133594
            ]
          ]
        ]
      }
    },
    {
      "type": "Feature",
      "properties": {
        "spill_id": "palsar_489",
        "confidence": 0.82
      },
      "geometry": {
        "type": "Polygon",
        "coordinates": [
          [
            [
              72.639453,
              19.144531
            ],
            [
              72.633984,
              19.144531
            ],
            [
              72.632617,
              19.143164
            ],
            [
              72.63125,
              19.143164
            ],
            [
              72.627148,
              19.139062
            ],
            [
              72.627148,
              19.133594
            ],
            [
              72.628516,
              19.132227
            ],
            [
              72.629883,
              19.132227
            ],
            [
              72.63125,
              19.130859
            ],
            [
              72.632617,
              19.132227
            ],
            [
              72.635352,
              19.132227
            ],
            [
              72.639453,
              19.136328
            ],
            [
              72.639453,
              19.137695
            ],
            [
              72.64082,
              19.139062
            ],
            [
              72.64082,
              19.143164
            ],
            [
              72.639453,
              19.144531
            ]
          ]
        ]
      }
    },
    {
      "type": "Feature",
      "properties": {
        "spill_id": "palsar_489",
        "confidence": 0.82
      },
      "geometry": {
        "type": "Polygon",
        "coordinates": [
          [
            [
              72.743359,
              19.15
            ],
            [
              72.721484,
              19.144531
            ],
            [
              72.710547,
              19.039258
            ],
            [
              72.680469,
              18.992773
            ],
            [
              72.651758,
              18.975
            ],
            [
              72.646289,
              18.936719
            ],
            [
              72.673633,
              18.950391
            ],
            [
              72.664062,
              18.882031
            ],
            [
              72.651758,
              18.875195
            ],
            [
              72.623047,
              18.914844
            ],
            [
              72.569727,
              18.856055
            ],
            [
              72.612109,
              18.856055
            ],
            [
              72.610742,
              18.801367
            ],
            [
              72.632617,
              18.860156
            ],
            [
              72.650391,
              18.866992
            ],
            [
              72.66543,
              18.802734
            ],
            [
              72.707812,
              18.992773
            ],
            [
              72.725586,
              18.970898
            ],
            [
              72.694141,
              18.804102
            ],
            [
              72.724219,
              18.802734
            ],
            [
              72.714648,
              18.861523
            ],
            [
              72.736523,
              18.928516
            ],
            [
              72.774805,
              18.944922
            ],
            [
              72.780273,
              18.996875
            ],
            [
              72.774805,
              19.00918
            ],
            [
              72.750195,
              18.996875
            ],
            [
              72.736523,
              19.026953
            ],
            [
              72.743359,
              19.057031
            ],
            [
              72.722852,
              19.055664
            ],
            [
              72.743359,
              19.15
            ]
          ]
        ]
      }
    },
    {
      "type": "Feature",
      "properties": {
        "spill_id": "palsar_489",
        "confidence": 0.82
      },
      "geometry": {
        "type": "Polygon",
        "coordinates": [
          [
            [
              72.535547,
              19.15
            ],
            [
              72.527344,
              19.15
            ],
            [
              72.520508,
              19.143164
            ],
            [
              72.512305,
              19.139062
            ],
            [
              72.508203,
              19.139062
            ],
            [
              72.5,
              19.132227
            ],
            [
              72.5,
              19.080273
            ],
            [
              72.506836,
              19.080273
            ],
            [
              72.513672,
              19.087109
            ],
            [
              72.523242,
              19.111719
            ],
            [
              72.531445,
              19.119922
            ],
            [
              72.539648,
              19.136328
            ],
            [
              72.539648,
              19.143164
            ],
            [
              72.535547,
              19.15
            ]
          ]
        ]
      }
    }
  ]
}