{
  "type": "FeatureCollection",
  "features": [
    {
      "type": "Feature",
      "properties": {
        "spill_id": "palsar_677",
        "confidence": 0.79
      },
      "geometry": {
        "type": "Polygon",
        "coordinates": [
          [
            [
              72.672266,
              18.828711
            ],
            [
              72.668164,
              18.828711
            ],
            [
              72.666797,
              18.827344
            ],
            [
              72.662695,
              18.827344
            ],
            [
              72.658594,
              18.823242
            ],
            [
              72.658594,
              18.819141
            ],
            [
              72.657227,
              18.817773
            ],
            [
              72.657227,
              18.812305
            ],
            [
              72.655859,
              18.810938
            ],
            [
              72.655859,
              18.808203
            ],
            [
              72.657227,
              18.806836
            ],
            [
              72.657227,
              18.805469
            ],
            [
              72.661328,
              18.801367
            ],
            [
              72.672266,
              18.801367
            ],
            [
              72.673633,
              18.802734
            ],
            [
              72.675,
              18.802734
            ],
            [
              72.679102,
              18.806836
            ],
            [
              72.679102,
              18.808203
            ],
            [
              72.680469,
              18.80957
            ],
            [
              72.679102,
              18.813672
            ],
            [
              72.676367,
              18.816406
            ],
            [
              72.676367,
              18.819141
            ],
            [
              72.675,
              18.820508
            ],
            [
              72.675,
              18.824609
            ],
            [
              72.672266,
              18.828711
            ]
          ]
        ]
      }
    },
    {
      "type": "Feature",
      "properties": {
        "spill_id": "palsar_677",
        "confidence": 0.79
      },
      "geometry": {
        "type": "Polygon",
        "coordinates": [
          [
            [
              72.679102,
              18.861523
            ],
            [
              72.677734,
              18.861523
            ],
            [
              72.676367,
              18.860156
            ],
            [
              72.675,
              18.860156
            ],
            [
              72.673633,
              18.858789
            ],
            [
              72.673633,
              18.857422
            ],
            [
              72.672266,
              18.856055
            ],
            [
              72.672266,
              18.849219
            ],
            [
              72.673633,
              18.847852
            ],
            [
              72.673633,
              18.84375
            ],
            [
              72.675,
              18.842383
            ],
            [
              72.675,
              18.841016
            ],
            [
              72.677734,
              18.84375
            ],
            [
              72.679102,
              18.84375
            ],
            [
              72.680469,
              18.845117
            ],
            [
              72.680469,
              18.846484
            ],
            [
              72.681836,
              18.847852
            ],
            [
              72.681836,
              18.849219
            ],
            [
              72.683203,
              18.850586
            ],
            [
              72.683203,
              18.858789
            ],
            [
              72.681836,
              18.860156
            ],
            [
              72.680469,
              18.860156
            ],
            [
              72.679102,
              18.861523
            ]
          ]
        ]
      }
    },
    {
      "type": "Feature",
      "properties": {
        "spill_id": "palsar_677",
        "confidence": 0.79
      },
      "geometry": {
        "type": "Polygon",
        "coordinates": [
          [
            [
              72.556055,
              18.876562
            ],
            [
              72.549219,
              18.876562
            ],
            [
              72.547852,
              18.875195
            ],
            [
              72.546484,
              18.875195
            ],
            [
              72.545117,
              18.873828
            ],
            [
              72.54375,
              18.873828
            ],
            [
              72.542383,
              18.872461
            ],
            [
              72.542383,
              18.869727
            ],
            [
              72.541016,
              18.868359
            ],
            [
              72.541016,
              18.865625
            ],
            [
              72.539648,
              18.864258
            ],
            [
              72.539648,
              18.862891
            ],
            [
              72.538281,
              18.861523
            ],
            [
              72.538281,
              18.858789
            ],
            [
              72.539648,
              18.857422
            ],
            [
              72.539648,
              18.856055
            ],
            [
              72.549219,
              18.856055
            ],
            [
              72.550586,
              18.857422
            ],
            [
              72.55332,
              18.857422
            ],
            [
              72.554688,
              18.858789
            ],
            [
              72.556055,
              18.858789
            ],
            [
              72.561523,
              18.864258
            ],
            [
              72.561523,
              18.868359
            ],
            [
              72.557422,
              18.872461
            ],
            [
              72.557422,
              18.875195
            ],
            [
              72.556055,
              18.876562
            ]
          ]
        ]
      }
    },
    {
      "type": "Feature",
      "properties": {
        "spill_id": "palsar_677",
        "confidence": 0.79
      },
      "geometry": {
        "type": "Polygon",
        "coordinates": [
          [
            [
              72.618945,
              18.87793
            ],
            [
              72.614844,
              18.87793
            ],
            [
              72.613477,
              18.879297
            ],
            [
              72.612109,
              18.87793
            ],
            [
              72.609375,
              18.87793
            ],
            [
              72.608008,
              18.876562
            ],
            [
              72.605273,
              18.876562
            ],
            [
              72.601172,
              18.872461
            ],
            [
              72.599805,
              18.872461
            ],
            [
              72.598438,
              18.871094
            ],
            [
              72.599805,
              18.869727
            ],
            [
              72.601172,
              18.869727
            ],
            [
              72.605273,
              18.866992
            ],
            [
              72.605273,
              18.850586
            ],
            [
              72.606641,
              18.849219
            ],
            [
              72.606641,
              18.847852
            ],
            [
              72.610742,
              18.847852
            ],
            [
              72.612109,
              18.849219
            ],
            [
              72.612109,
              18.861523
            ],
            [
              72.613477,
              18.862891
            ],
            [
              72.613477,
              18.864258
            ],
            [
              72.616211,
              18.868359
            ],
            [
              72.616211,
              18.871094
            ],
            [
              72.618945,
              18.875195
            ],
            [
              72.618945,
              18.87793
            ]
          ]
        ]
      }
    },
    {
      "type": "Feature",
      "properties": {
        "spill_id": "palsar_677",
        "confidence": 0.79
      },
      "geometry": {
        "type": "Polygon",
        "coordinates": [
          [
            [
              72.55332,
              18.909375
            ],
            [
              72.550586,
              18.910742
            ],
            [
              72.547852,
              18.910742
            ],
            [
              72.546484,
              18.912109
            ],
            [
              72.54375,
              18.912109
            ],
            [
              72.535547,
              18.908008
            ],
            [
              72.53418,
              18.905273
            ],
            [
              72.532812,
              18.906641
            ],
            [
              72.532812,
              18.903906
            ],
            [
              72.530078,
              18.901172
            ],
            [
              72.530078,
              18.899805
            ],
            [
              72.523242,
              18.892969
            ],
            [
              72.523242,
              18.891602
            ],
            [
              72.520508,
              18.890234
            ],
            [
              72.515039,
              18.879297
            ],
            [
              72.516406,
              18.875195
            ],
            [
              72.519141,
              18.875195
            ],
            [
              72.520508,
              18.873828
            ],
            [
              72.525977,
              18.873828
            ],
            [
              72.528711,
              18.875195
            ],
            [
              72.536914,
              18.891602
            ],
            [
              72.536914,
              18.902539
            ],
            [
              72.538281,
              18.903906
            ],
            [
              72.550586,
              18.903906
            ],
            [
              72.55332,
              18.906641
            ],
            [
              72.55332,
              18.909375
            ]
          ]
        ]
      }
    },
    {
      "type": "Feature",
      "properties": {
        "spill_id": "palsar_677",
        "confidence": 0.79
      },
      "geometry": {
        "type": "Polygon",
        "coordinates": [
          [
            [
              72.505469,
              18.966797
            ],
            [
              72.505469,
              18.96543
            ],
            [
              72.506836,
              18.964062
            ],
            [
              72.506836,
              18.962695
            ],
            [
              72.510938,
              18.962695
            ],
            [
              72.512305,
              18.961328
            ],
            [
              72.513672,
              18.961328
            ],
            [
              72.515039,
              18.962695
            ],
            [
              72.517773,
              18.962695
            ],
            [
              72.519141,
              18.964062
            ],
            [
              72.519141,
              18.966797
            ],
            [
              72.520508,
              18.968164
            ],
            [
              72.519141,
              18.969531
            ],
            [
              72.519141,
              18.970898
            ],
            [
              72.517773,
              18.972266
            ],
            [
              72.510938,
              18.972266
            ],
            [
              72.50957,
              18.970898
            ],
            [
              72.508203,
              18.970898
            ],
            [
              72.506836,
              18.969531
            ],
            [
              72.506836,
              18.968164
            ],
            [
              72.505469,
              18.966797
            ]
          ]
        ]
      }
    },
    {
      "type": "Feature",
      "properties": {
        "spill_id": "palsar_677",
        "confidence": 0.79
      },
      "geometry": {
        "type": "Polygon",
        "coordinates": [
          [
            [
              72.629883,
              18.975
            ],
            [
              72.627148,
              18.975
            ],
            [
              72.625781,
              18.976367
            ],
            [
              72.624414,
              18.976367
            ],
            [
              72.623047,
              18.975
            ],
            [
              72.620312,
              18.975
            ],
            [
              72.617578,
              18.972266
            ],
            [
              72.617578,
              18.969531
            ],
            [
              72.618945,
              18.969531
            ],
            [
              72.620312,
              18.968164
            ],
            [
              72.627148,
              18.968164
            ],
            [
              72.629883,
              18.970898
            ],
            [
              72.629883,
              18.975
            ]
          ]
        ]
      }
    },
    {
      "type": "Feature",
      "properties": {
        "spill_id": "palsar_677",
        "confidence": 0.79
      },
      "geometry": {
        "type": "Polygon",
        "coordinates": [
          [
            [
              72.547852,
              18.979102
            ],
            [
              72.542383,
              18.979102
            ],
            [
              72.541016,
              18.977734
            ],
            [
              72.539648,
              18.977734
            ],
            [
              72.538281,
              18.976367
            ],
            [
              72.536914,
              18.976367
            ],
            [
              72.532812,
              18.972266
            ],
            [
              72.532812,
              18.96543
            ],
            [
              72.53418,
              18.964062
            ],
            [
              72.53418,
              18.961328
            ],
            [
              72.535547,
              18.959961
            ],
            [
              72.535547,
              18.958594
            ],
            [
              72.536914,
              18.958594
            ],
            [
              72.541016,
              18.962695
            ],
            [
              72.542383,
              18.962695
            ],
            [
              72.545117,
              18.96543
            ],
            [
              72.546484,
              18.96543
            ],
            [
              72.549219,
              18.968164
            ],
            [
              72.549219,
              18.969531
            ],
            [
              72.550586,
              18.970898
            ],
            [
              72.550586,
              18.976367
            ],
            [
              72.547852,
              18.979102
            ]
          ]
        ]
      }
    },
    {
      "type": "Feature",
      "properties": {
        "spill_id": "palsar_677",
        "confidence": 0.79
      },
      "geometry": {
        "type": "Polygon",
        "coordinates": [
          [
            [
              72.84043,
              18.985938
            ],
            [
              72.830859,
              18.991406
            ],
            [
              72.822656,
              19.000977
            ],
            [
              72.819922,
              19.002344
            ],
            [
              72.814453,
              19.000977
            ],
            [
              72.810352,
              18.996875
            ],
            [
              72.808984,
              18.988672
            ],
            [
              72.81582,
              18.987305
            ],
            [
              72.818555,
              18.98457
            ],
            [
              72.817187,
              18.977734
            ],
            [
              72.807617,
              18.969531
            ],
            [
              72.799414,
              18.966797
            ],
            [
              72.788477,
              18.968164
            ],
            [
              72.781641,
              18.973633
            ],
            [
              72.778906,
              18.968164
            ],
            [
              72.776172,
              18.947656
            ],
            [
              72.780273,
              18.943555
            ],
            [
              72.792578,
              18.942188
            ],
            [
              72.798047,
              18.938086
            ],
            [
              72.818555,
              18.939453
            ],
            [
              72.825391,
              18.943555
            ],
            [
              72.837695,
              18.943555
            ],
            [
              72.837695,
              18.947656
            ],
            [
              72.830859,
              18.953125
            ],
            [
              72.829492,
              18.961328
            ],
            [
              72.826758,
              18.964062
            ],
            [
              72.826758,
              18.970898
            ],
            [
              72.830859,
              18.975
            ],
            [
              72.837695,
              18.976367
            ],
            [
              72.84043,
              18.979102
            ],
            [
              72.84043,
              18.985938
            ]
          ]
        ]
      }
    },
    {
      "type": "Feature",
      "properties": {
        "spill_id": "palsar_677",
        "confidence": 0.79
      },
      "geometry": {
        "type": "Polygon",
        "coordinates": [
          [
            [
              72.792578,
              18.996875
            ],
            [
              72.780273,
              19.010547
            ],
            [
              72.757031,
              19.011914
            ],
            [
              72.714648,
              18.968164
            ],
            [
              72.690039,
              18.972266
            ],
            [
              72.681836,
              18.988672
            ],
            [
              72.666797,
              18.985938
            ],
            [
              72.654492,
              18.969531
            ],
            [
              72.658594,
              18.964062
            ],
            [
              72.679102,
              18.964062
            ],
            [
              72.685938,
              18.950391
            ],
            [
              72.680469,
              18.929883
            ],
            [
              72.692773,
              18.924414
            ],
            [
              72.662695,
              18.910742
            ],
            [
              72.63125,
              18.912109
            ],
            [
              72.628516,
              18.8875
            ],
            [
              72.658594,
              18.89707
            ],
            [
              72.673633,
              18.884766
            ],
            [
              72.702344,
              18.890234
            ],
            [
              72.720117,
              18.873828
            ],
            [
              72.754297,
              18.869727
            ],
            [
              72.75293,
              18.884766
            ],
            [
              72.773438,
              18.901172
            ],
            [
              72.777539,
              18.913477
            ],
            [
              72.757031,
              18.920312
            ],
            [
              72.751562,
              18.890234
            ],
            [
              72.746094,
              18.888867
            ],
            [
              72.733789,
              18.903906
            ],
            [
              72.747461,
              18.914844
            ],
            [
              72.748828,
              18.925781
            ],
            [
              72.729688,
              18.93125
            ],
            [
              72.724219,
              18.955859
            ],
            [
              72.757031,
              18.990039
            ],
            [
              72.769336,
              18.994141
            ],
            [
              72.784375,
              18.985938
            ],
            [
              72.792578,
              18.996875
            ]
          ]
        ]
      }
    },
    {
      "type": "Feature",
      "properties": {
        "spill_id": "palsar_677",
        "confidence": 0.79
      },
      "geometry": {
        "type": "Polygon",
        "coordinates": [
          [
            [
              72.63125,
              19.022852
            ],
            [
              72.63125,
              19.01875
            ],
            [
              72.632617,
              19.017383
            ],
            [
              72.632617,
              19.014648
            ],
            [
              72.635352,
              19.011914
            ],
            [
              72.644922,
              19.011914
            ],
            [
              72.646289,
              19.013281
            ],
            [
              72.647656,
              19.013281
            ],
            [
              72.653125,
              19.01875
            ],
            [
              72.653125,
              19.024219
            ],
            [
              72.651758,
              19.025586
            ],
            [
              72.650391,
              19.025586
            ],
            [
              72.649023,
              19.026953
            ],
            [
              72.644922,
              19.026953
            ],
            [
              72.643555,
              19.02832
            ],
            [
              72.636719,
              19.02832
            ],
            [
              72.635352,
              19.026953
            ],
            [
              72.633984,
              19.026953
            ],
            [
              72.632617,
              19.025586
            ],
            [
              72.632617,
              19.024219
            ],
            [
              72.63125,
              19.022852
            ]
          ]
        ]
      }
    },
    {
      "type": "Feature",
      "properties": {
        "spill_id": "palsar_677",
        "confidence": 0.79
      },
      "geometry": {
        "type": "Polygon",
        "coordinates": [
          [
            [
              72.679102,
              19.05293
            ],
            [
              72.672266,
              19.05293
            ],
            [
              72.670898,
              19.054297
            ],
            [
              72.669531,
              19.054297
            ],
            [
              72.668164,
              19.05293
            ],
            [
              72.666797,
              19.05293
            ],
            [
              72.664062,
              19.050195
            ],
            [
              72.664062,
              19.048828
            ],
            [
              72.662695,
              19.047461
            ],
            [
              72.662695,
              19.041992
            ],
            [
              72.664062,
              19.040625
            ],
            [
              72.664062,
              19.036523
            ],
            [
              72.66543,
              19.035156
            ],
            [
              72.66543,
              19.033789
            ],
            [
              72.666797,
              19.032422
            ],
            [
              72.666797,
              19.031055
            ],
            [
              72.669531,
              19.02832
            ],
            [
              72.670898,
              19.029687
            ],
            [
              72.673633,
              19.029687
            ],
            [
              72.679102,
              19.035156
            ],
            [
              72.679102,
              19.037891
            ],
            [
              72.680469,
              19.039258
            ],
            [
              72.680469,
              19.041992
            ],
            [
              72.681836,
              19.043359
            ],
            [
              72.681836,
              19.044727
            ],
            [
              72.68457,
              19.048828
            ],
            [
              72.681836,
              19.051562
            ],
            [
              72.680469,
              19.051562
            ],
            [
              72.679102,
              19.05293
            ]
          ]
        ]
      }
    },
    {
      "type": "Feature",
      "properties": {
        "spill_id": "palsar_677",
        "confidence": 0.79
      },
      "geometry": {
        "type": "Polygon",
        "coordinates": [
          [
            [
              72.516406,
              19.069336
            ],
            [
              72.508203,
              19.069336
            ],
            [
              72.506836,
              19.067969
            ],
            [
              72.505469,
              19.067969
            ],
            [
              72.505469,
              19.066602
            ],
            [
              72.5,
              19.061133
            ],
            [
              72.5,
              19.029687
            ],
            [
              72.501367,
              19.029687
            ],
            [
              72.502734,
              19.02832
            ],
            [
              72.508203,
              19.02832
            ],
            [
              72.50957,
              19.029687
            ],
            [
              72.515039,
              19.029687
            ],
            [
              72.516406,
              19.031055
            ],
            [
              72.517773,
              19.031055
            ],
            [
              72.520508,
              19.035156
            ],
            [
              72.520508,
              19.037891
            ],
            [
              72.521875,
              19.039258
            ],
            [
              72.523242,
              19.043359
            ],
            [
              72.528711,
              19.048828
            ],
            [
              72.528711,
              19.057031
            ],
            [
              72.527344,
              19.057031
            ],
            [
              72.524609,
              19.059766
            ],
            [
              72.523242,
              19.059766
            ],
            [
              72.520508,
              19.0625
            ],
            [
              72.520508,
              19.063867
            ],
            [
              72.516406,
              19.069336
            ]
          ]
        ]
      }
    },
    {
      "type": "Feature",
      "properties": {
        "spill_id": "palsar_677",
        "confidence": 0.79
      },
      "geometry": {
        "type": "Polygon",
        "coordinates": [
          [
            [
              72.822656,
              19.137695
            ],
            [
              72.811719,
              19.130859
            ],
            [
              72.810352,
              19.121289
            ],
            [
              72.80625,
              19.117188
            ],
            [
              72.800781,
              19.117188
            ],
            [
              72.79668,
              19.113086
            ],
            [
              72.789844,
              19.099414
            ],
            [
              72.789844,
              19.089844
            ],
            [
              72.795312,
              19.084375
            ],
            [
              72.792578,
              19.066602
            ],
            [
              72.789844,
              19.0625
            ],
            [
              72.777539,
              19.0625
            ],
            [
              72.777539,
              19.054297
            ],
            [
              72.785742,
              19.054297
            ],
            [
              72.793945,
              19.048828
            ],
            [
              72.798047,
              19.050195
            ],
            [
              72.810352,
              19.069336
            ],
            [
              72.817187,
              19.073438
            ],
            [
              72.825391,
              19.07207
            ],
            [
              72.828125,
              19.078906
            ],
            [
              72.848633,
              19.088477
            ],
            [
              72.848633,
              19.102148
            ],
            [
              72.843164,
              19.102148
            ],
            [
              72.821289,
              19.084375
            ],
            [
              72.80625,
              19.085742
            ],
            [
              72.802148,
              19.089844
            ],
            [
              72.80625,
              19.095312
            ],
            [
              72.813086,
              19.09668
            ],
            [
              72.819922,
              19.102148
            ],
            [
              72.825391,
              19.128125
            ],
            [
              72.822656,
              19.137695
            ]
          ]
        ]
      }
    }
  ]
}