{
  "type": "FeatureCollection",
  "features": [
    {
      "type": "Feature",
      "properties": {
        "spill_id": "palsar_4",
        "confidence": 0.86
      },
      "geometry": {
        "type": "Polygon",
        "coordinates": [
          [
            [
              72.672266,
              18.849219
            ],
            [
              72.672266,
              18.841016
            ],
            [
              72.673633,
              18.839648
            ],
            [
              72.673633,
              18.838281
            ],
            [
              72.677734,
              18.83418
            ],
            [
              72.677734,
              18.832812
            ],
            [
              72.679102,
              18.83418
            ],
            [
              72.679102,
              18.842383
            ],
            [
              72.677734,
              18.84375
            ],
            [
              72.676367,
              18.84375
            ],
            [
              72.675,
              18.845117
            ],
            [
              72.675,
              18.846484
            ],
            [
              72.673633,
              18.846484
            ],
            [
              72.672266,
              18.847852
            ],
            [
              72.672266,
              18.849219
            ]
          ]
        ]
      }
    },
    {
      "type": "Feature",
      "properties": {
        "spill_id": "palsar_4",
        "confidence": 0.86
      },
      "geometry": {
        "type": "Polygon",
        "coordinates": [
          [
            [
              72.814453,
              18.902539
            ],
            [
              72.814453,
              18.886133
            ],
            [
              72.81582,
              18.884766
            ],
            [
              72.817187,
              18.880664
            ],
            [
              72.822656,
              18.875195
            ],
            [
              72.824023,
              18.875195
            ],
            [
              72.825391,
              18.873828
            ],
            [
              72.830859,
              18.873828
            ],
            [
              72.837695,
              18.879297
            ],
            [
              72.844531,
              18.882031
            ],
            [
              72.848633,
              18.886133
            ],
            [
              72.848633,
              18.890234
            ],
            [
              72.844531,
              18.894336
            ],
            [
              72.843164,
              18.901172
            ],
            [
              72.84043,
              18.903906
            ],
            [
              72.834961,
              18.903906
            ],
            [
              72.833594,
              18.905273
            ],
            [
              72.829492,
              18.905273
            ],
            [
              72.828125,
              18.906641
            ],
            [
              72.818555,
              18.906641
            ],
            [
              72.814453,
              18.902539
            ]
          ]
        ]
      }
    },
    {
      "type": "Feature",
      "properties": {
        "spill_id": "palsar_4",
        "confidence": 0.86
      },
      "geometry": {
        "type": "Polygon",
        "coordinates": [
          [
            [
              72.765234,
              19.119922
            ],
            [
              72.757031,
              19.11582
            ],
            [
              72.754297,
              19.107617
            ],
            [
              72.761133,
              19.089844
            ],
            [
              72.7625,
              19.066602
            ],
            [
              72.75293,
              19.050195
            ],
            [
              72.75293,
              19.041992
            ],
            [
              72.77207,
              18.976367
            ],
            [
              72.773438,
              18.949023
            ],
            [
              72.795312,
              18.946289
            ],
            [
              72.798047,
              18.949023
            ],
            [
              72.795312,
              18.977734
            ],
            [
              72.800781,
              18.990039
            ],
            [
              72.800781,
              19.006445
            ],
            [
              72.817187,
              19.01875
            ],
            [
              72.834961,
              19.011914
            ],
            [
              72.84043,
              19.017383
            ],
            [
              72.841797,
              19.026953
            ],
            [
              72.814453,
              19.067969
            ],
            [
              72.798047,
              19.070703
            ],
            [
              72.785742,
              19.081641
            ],
            [
              72.765234,
              19.119922
            ]
          ]
        ]
      }
    },
    {
      "type": "Feature",
      "properties": {
        "spill_id": "palsar_4",
        "confidence": 0.86
      },
      "geometry": {
        "type": "Polygon",
        "coordinates": [
          [
            [
              72.705078,
              19.15
            ],
            [
              72.705078,
              19.143164
            ],
            [
              72.703711,
              19.141797
            ],
            [
              72.707812,
              19.130859
            ],
            [
              72.707812,
              19.119922
            ],
            [
              72.713281,
              19.108984
            ],
            [
              72.71875,
              19.087109
            ],
            [
              72.722852,
              19.083008
            ],
            [
              72.726953,
              19.083008
            ],
            [
              72.729688,
              19.085742
            ],
            [
              72.731055,
              19.093945
            ],
            [
              72.733789,
              19.098047
            ],
            [
              72.733789,
              19.111719
            ],
            [
              72.735156,
              19.113086
            ],
            [
              72.735156,
              19.119922
            ],
            [
              72.736523,
              19.121289
            ],
            [
              72.736523,
              19.132227
            ],
            [
              72.733789,
              19.139062
            ],
            [
              72.733789,
              19.147266
            ],
            [
              72.732422,
              19.15
            ],
            [
              72.705078,
              19.15
            ]
          ]
        ]
      }
    },
    {
      "type": "Feature",
      "properties": {
        "spill_id": "palsar_4",
        "confidence": 0.86
      },
      "geometry": {
        "type": "Polygon",
        "coordinates": [
          [
            [
              72.579297,
              19.144531
            ],
            [
              72.580664,
              19.067969
            ],
            [
              72.560156,
              19.055664
            ],
            [
              72.562891,
              19.033789
            ],
            [
              72.5875,
              19.013281
            ],
            [
              72.612109,
              18.860156
            ],
            [
              72.651758,
              18.824609
            ],
            [
              72.653125,
              18.866992
            ],
            [
              72.670898,
              18.856055
            ],
            [
              72.649023,
              19.007812
            ],
            [
              72.713281,
              18.813672
            ],
            [
              72.726953,
              18.804102
            ],
            [
              72.722852,
              18.869727
            ],
            [
              72.70918,
              18.8875
            ],
            [
              72.720117,
              18.962695
            ],
            [
              72.703711,
              18.977734
            ],
            [
              72.698242,
              19.013281
            ],
            [
              72.669531,
              19.037891
            ],
            [
              72.650391,
              19.148633
            ],
            [
              72.628516,
              19.144531
            ],
            [
              72.639453,
              19.054297
            ],
            [
              72.623047,
              19.137695
            ],
            [
              72.609375,
              19.143164
            ],
            [
              72.624414,
              19.017383
            ],
            [
              72.594336,
              19.037891
            ],
            [
              72.592969,
              19.125391
            ],
            [
              72.579297,
              19.144531
            ]
          ]
        ]
      }
    },
    {
      "type": "Feature",
      "properties": {
        "spill_id": "palsar_4",
        "confidence": 0.86
      },
      "geometry": {
        "type": "Polygon",
        "coordinates": [
          [
            [
              72.5,
              19.147266
            ],
            [
              72.5,
              19.134961
            ],
            [
              72.504102,
              19.132227
            ],
            [
              72.50957,
              19.118555
            ],
            [
              72.523242,
              19.103516
            ],
            [
              72.530078,
              19.103516
            ],
            [
              72.535547,
              19.108984
            ],
            [
              72.53418,
              19.130859
            ],
            [
              72.538281,
              19.136328
            ],
            [
              72.545117,
              19.136328
            ],
            [
              72.549219,
              19.132227
            ],
            [
              72.55332,
              19.124023
            ],
            [
              72.558789,
              19.124023
            ],
            [
              72.562891,
              19.129492
            ],
            [
              72.562891,
              19.139062
            ],
            [
              72.564258,
              19.14043
            ],
            [
              72.564258,
              19.147266
            ],
            [
              72.562891,
              19.148633
            ],
            [
              72.564258,
              19.15
            ],
            [
              72.502734,
              19.15
            ],
            [
              72.5,
              19.147266
            ]
          ]
        ]
      }
    }
  ]
}