{
  "type": "FeatureCollection",
  "features": [
    {
      "type": "Feature",
      "properties": {
        "spill_id": "palsar_76",
        "confidence": 0.77
      },
      "geometry": {
        "type": "Polygon",
        "coordinates": [
          [
            [
              72.594336,
              18.839648
            ],
            [
              72.592969,
              18.838281
            ],
            [
              72.592969,
              18.830078
            ],
            [
              72.59707,
              18.830078
            ],
            [
              72.599805,
              18.832812
            ],
            [
              72.599805,
              18.838281
            ],
            [
              72.598438,
              18.839648
            ],
            [
              72.594336,
              18.839648
            ]
          ]
        ]
      }
    },
    {
      "type": "Feature",
      "properties": {
        "spill_id": "palsar_76",
        "confidence": 0.77
      },
      "geometry": {
        "type": "Polygon",
        "coordinates": [
          [
            [
              72.627148,
              18.865625
            ],
            [
              72.624414,
              18.865625
            ],
            [
              72.623047,
              18.864258
            ],
            [
              72.623047,
              18.862891
            ],
            [
              72.62168,
              18.861523
            ],
            [
              72.62168,
              18.858789
            ],
            [
              72.620312,
              18.857422
            ],
            [
              72.62168,
              18.856055
            ],
            [
              72.62168,
              18.85332
            ],
            [
              72.627148,
              18.85332
            ],
            [
              72.628516,
              18.854688
            ],
            [
              72.628516,
              18.856055
            ],
            [
              72.629883,
              18.857422
            ],
            [
              72.629883,
              18.861523
            ],
            [
              72.628516,
              18.862891
            ],
            [
              72.628516,
              18.864258
            ],
            [
              72.627148,
              18.865625
            ]
          ]
        ]
      }
    },
    {
      "type": "Feature",
      "properties": {
        "spill_id": "palsar_76",
        "confidence": 0.77
      },
      "geometry": {
        "type": "Polygon",
        "coordinates": [
          [
            [
              72.53418,
              19.111719
            ],
            [
              72.532812,
              19.113086
            ],
            [
              72.527344,
              19.113086
            ],
            [
              72.525977,
              19.114453
            ],
            [
              72.516406,
              19.114453
            ],
            [
              72.515039,
              19.113086
            ],
            [
              72.512305,
              19.113086
            ],
            [
              72.510938,
              19.111719
            ],
            [
              72.50957,
              19.111719
            ],
            [
              72.505469,
              19.108984
            ],
            [
              72.502734,
              19.108984
            ],
            [
              72.5,
              19.10625
            ],
            [
              72.5,
              19.103516
            ],
            [
              72.504102,
              19.102148
            ],
            [
              72.506836,
              19.099414
            ],
            [
              72.506836,
              19.098047
            ],
            [
              72.517773,
              19.098047
            ],
            [
              72.519141,
              19.099414
            ],
            [
              72.520508,
              19.099414
            ],
            [
              72.521875,
              19.100781
            ],
            [
              72.523242,
              19.100781
            ],
            [
              72.524609,
              19.102148
            ],
            [
              72.525977,
              19.102148
            ],
            [
              72.527344,
              19.103516
            ],
            [
              72.531445,
              19.104883
            ],
            [
              72.53418,
              19.108984
            ],
            [
              72.53418,
              19.111719
            ]
          ]
        ]
      }
    },
    {
      "type": "Feature",
      "properties": {
        "spill_id": "palsar_76",
        "confidence": 0.77
      },
      "geometry": {
        "type": "Polygon",
        "coordinates": [
          [
            [
              72.564258,
              19.124023
            ],
            [
              72.564258,
              19.11582
            ],
            [
              72.579297,
              19.102148
            ],
            [
              72.594336,
              19.098047
            ],
            [
              72.609375,
              19.076172
            ],
            [
              72.658594,
              19.043359
            ],
            [
              72.66543,
              19.041992
            ],
            [
              72.685938,
              19.024219
            ],
            [
              72.685938,
              19.014648
            ],
            [
              72.705078,
              18.985938
            ],
            [
              72.713281,
              18.98457
            ],
            [
              72.717383,
              18.995508
            ],
            [
              72.705078,
              19.01875
            ],
            [
              72.702344,
              19.033789
            ],
            [
              72.699609,
              19.036523
            ],
            [
              72.68457,
              19.035156
            ],
            [
              72.681836,
              19.043359
            ],
            [
              72.662695,
              19.061133
            ],
            [
              72.651758,
              19.080273
            ],
            [
              72.642187,
              19.083008
            ],
            [
              72.579297,
              19.128125
            ],
            [
              72.569727,
              19.129492
            ],
            [
              72.564258,
              19.124023
            ]
          ]
        ]
      }
    }
  ]
}