{
  "type": "FeatureCollection",
  "features": [
    {
      "type": "Feature",
      "properties": {
        "spill_id": "palsar_635",
        "confidence": 0.88
      },
      "geometry": {
        "type": "Polygon",
        "coordinates": [
          [
            [
              72.5,
              18.876562
            ],
            [
              72.5,
              18.832812
            ],
            [
              72.517773,
              18.815039
            ],
            [
              72.512305,
              18.808203
            ],
            [
              72.501367,
              18.806836
            ],
            [
              72.5,
              18.801367
            ],
            [
              72.568359,
              18.801367
            ],
            [
              72.568359,
              18.806836
            ],
            [
              72.560156,
              18.813672
            ],
            [
              72.576562,
              18.819141
            ],
            [
              72.584766,
              18.819141
            ],
            [
              72.620312,
              18.802734
            ],
            [
              72.632617,
              18.805469
            ],
            [
              72.657227,
              18.801367
            ],
            [
              72.659961,
              18.805469
            ],
            [
              72.658594,
              18.812305
            ],
            [
              72.651758,
              18.817773
            ],
            [
              72.588867,
              18.84375
            ],
            [
              72.556055,
              18.85332
            ],
            [
              72.508203,
              18.876562
            ],
            [
              72.5,
              18.876562
            ]
          ]
        ]
      }
    },
    {
      "type": "Feature",
      "properties": {
        "spill_id": "palsar_635",
        "confidence": 0.88
      },
      "geometry": {
        "type": "Polygon",
        "coordinates": [
          [
            [
              72.729688,
              19.025586
            ],
            [
              72.724219,
              19.025586
            ],
            [
              72.720117,
              19.021484
            ],
            [
              72.71875,
              19.021484
            ],
            [
              72.71875,
              19.020117
            ],
            [
              72.716016,
              19.017383
            ],
            [
              72.716016,
              19.007812
            ],
            [
              72.71875,
              19.005078
            ],
            [
              72.722852,
              19.005078
            ],
            [
              72.724219,
              19.006445
            ],
            [
              72.725586,
              19.006445
            ],
            [
              72.732422,
              19.013281
            ],
            [
              72.732422,
              19.016016
            ],
            [
              72.733789,
              19.017383
            ],
            [
              72.733789,
              19.020117
            ],
            [
              72.732422,
              19.021484
            ],
            [
              72.732422,
              19.022852
            ],
            [
              72.729688,
              19.025586
            ]
          ]
        ]
      }
    },
    {
      "type": "Feature",
      "properties": {
        "spill_id": "palsar_635",
        "confidence": 0.88
      },
      "geometry": {
        "type": "Polygon",
        "coordinates": [
          [
            [
              72.696875,
              19.092578
            ],
            [
              72.694141,
              19.089844
            ],
            [
              72.694141,
              19.088477
            ],
            [
              72.698242,
              19.083008
            ],
            [
              72.700977,
              19.081641
            ],
            [
              72.707812,
              19.081641
            ],
            [
              72.711914,
              19.078906
            ],
            [
              72.714648,
              19.065234
            ],
            [
              72.71875,
              19.059766
            ],
            [
              72.722852,
              19.050195
            ],
            [
              72.72832,
              19.047461
            ],
            [
              72.732422,
              19.048828
            ],
            [
              72.735156,
              19.054297
            ],
            [
              72.735156,
              19.063867
            ],
            [
              72.732422,
              19.067969
            ],
            [
              72.731055,
              19.081641
            ],
            [
              72.72832,
              19.087109
            ],
            [
              72.725586,
              19.089844
            ],
            [
              72.720117,
              19.092578
            ],
            [
              72.716016,
              19.092578
            ],
            [
              72.710547,
              19.089844
            ],
            [
              72.705078,
              19.091211
            ],
            [
              72.703711,
              19.092578
            ],
            [
              72.696875,
              19.092578
            ]
          ]
        ]
      }
    },
    {
      "type": "Feature",
      "properties": {
        "spill_id": "palsar_635",
        "confidence": 0.88
      },
      "geometry": {
        "type": "Polygon",
        "coordinates": [
          [
            [
              72.769336,
              19.085742
            ],
            [
              72.769336,
              19.083008
            ],
            [
              72.770703,
              19.081641
            ],
            [
              72.776172,
              19.081641
            ],
            [
              72.777539,
              19.080273
            ],
            [
              72.778906,
              19.080273
            ],
            [
              72.783008,
              19.076172
            ],
            [
              72.785742,
              19.076172
            ],
            [
              72.787109,
              19.074805
            ],
            [
              72.793945,
              19.074805
            ],
            [
              72.795312,
              19.076172
            ],
            [
              72.798047,
              19.076172
            ],
            [
              72.799414,
              19.077539
            ],
            [
              72.800781,
              19.077539
            ],
            [
              72.800781,
              19.083008
            ],
            [
              72.799414,
              19.084375
            ],
            [
              72.799414,
              19.087109
            ],
            [
              72.798047,
              19.088477
            ],
            [
              72.798047,
              19.089844
            ],
            [
              72.79668,
              19.091211
            ],
            [
              72.795312,
              19.091211
            ],
            [
              72.793945,
              19.092578
            ],
            [
              72.791211,
              19.092578
            ],
            [
              72.789844,
              19.093945
            ],
            [
              72.776172,
              19.093945
            ],
            [
              72.774805,
              19.089844
            ],
            [
              72.770703,
              19.085742
            ],
            [
              72.769336,
              19.085742
            ]
          ]
        ]
      }
    },
    {
      "type": "Feature",
      "properties": {
        "spill_id": "palsar_635",
        "confidence": 0.88
      },
      "geometry": {
        "type": "Polygon",
        "coordinates": [
          [
            [
              72.694141,
              19.139062
            ],
            [
              72.691406,
              19.134961
            ],
            [
              72.692773,
              19.122656
            ],
            [
              72.703711,
              19.108984
            ],
            [
              72.705078,
              19.108984
            ],
            [
              72.714648,
              19.100781
            ],
            [
              72.720117,
              19.100781
            ],
            [
              72.729688,
              19.10625
            ],
            [
              72.732422,
              19.111719
            ],
            [
              72.733789,
              19.118555
            ],
            [
              72.735156,
              19.119922
            ],
            [
              72.735156,
              19.132227
            ],
            [
              72.732422,
              19.134961
            ],
            [
              72.725586,
              19.137695
            ],
            [
              72.720117,
              19.141797
            ],
            [
              72.716016,
              19.141797
            ],
            [
              72.714648,
              19.143164
            ],
            [
              72.705078,
              19.143164
            ],
            [
              72.703711,
              19.141797
            ],
            [
              72.700977,
              19.141797
            ],
            [
              72.699609,
              19.14043
            ],
            [
              72.694141,
              19.139062
            ]
          ]
        ]
      }
    }
  ]
}