{
  "type": "FeatureCollection",
  "features": [
    {
      "type": "Feature",
      "properties": {
        "spill_id": "palsar_467",
        "confidence": 0.88
      },
      "geometry": {
        "type": "Polygon",
        "coordinates": [
          [
            [
              72.748828,
              18.842383
            ],
            [
              72.743359,
              18.842383
            ],
            [
              72.740625,
              18.839648
            ],
            [
              72.740625,
              18.838281
            ],
            [
              72.733789,
              18.831445
            ],
            [
              72.732422,
              18.831445
            ],
            [
              72.72832,
              18.827344
            ],
            [
              72.72832,
              18.820508
            ],
            [
              72.729688,
              18.819141
            ],
            [
              72.729688,
              18.815039
            ],
            [
              72.731055,
              18.813672
            ],
            [
              72.72832,
              18.806836
            ],
            [
              72.731055,
              18.806836
            ],
            [
              72.732422,
              18.805469
            ],
            [
              72.735156,
              18.805469
            ],
            [
              72.736523,
              18.806836
            ],
            [
              72.741992,
              18.806836
            ],
            [
              72.746094,
              18.810938
            ],
            [
              72.746094,
              18.812305
            ],
            [
              72.748828,
              18.816406
            ],
            [
              72.748828,
              18.819141
            ],
            [
              72.750195,
              18.820508
            ],
            [
              72.750195,
              18.825977
            ],
            [
              72.751562,
              18.827344
            ],
            [
              72.751562,
              18.831445
            ],
            [
              72.75293,
              18.832812
            ],
            [
              72.75293,
              18.836914
            ],
            [
              72.751562,
              18.838281
            ],
            [
              72.751562,
              18.839648
            ],
            [
              72.748828,
              18.842383
            ]
          ]
        ]
      }
    },
    {
      "type": "Feature",
      "properties": {
        "spill_id": "palsar_467",
        "confidence": 0.88
      },
      "geometry": {
        "type": "Polygon",
        "coordinates": [
          [
            [
              72.583398,
              18.857422
            ],
            [
              72.576562,
              18.857422
            ],
            [
              72.566992,
              18.847852
            ],
            [
              72.566992,
              18.846484
            ],
            [
              72.564258,
              18.842383
            ],
            [
              72.564258,
              18.827344
            ],
            [
              72.565625,
              18.825977
            ],
            [
              72.565625,
              18.823242
            ],
            [
              72.566992,
              18.821875
            ],
            [
              72.572461,
              18.821875
            ],
            [
              72.573828,
              18.823242
            ],
            [
              72.575195,
              18.823242
            ],
            [
              72.576562,
              18.824609
            ],
            [
              72.57793,
              18.824609
            ],
            [
              72.579297,
              18.825977
            ],
            [
              72.583398,
              18.827344
            ],
            [
              72.583398,
              18.828711
            ],
            [
              72.5875,
              18.835547
            ],
            [
              72.5875,
              18.851953
            ],
            [
              72.586133,
              18.85332
            ],
            [
              72.586133,
              18.854688
            ],
            [
              72.583398,
              18.857422
            ]
          ]
        ]
      }
    },
    {
      "type": "Feature",
      "properties": {
        "spill_id": "palsar_467",
        "confidence": 0.88
      },
      "geometry": {
        "type": "Polygon",
        "coordinates": [
          [
            [
              72.761133,
              18.946289
            ],
            [
              72.759766,
              18.947656
            ],
            [
              72.747461,
              18.947656
            ],
            [
              72.746094,
              18.946289
            ],
            [
              72.741992,
              18.944922
            ],
            [
              72.735156,
              18.939453
            ],
            [
              72.733789,
              18.939453
            ],
            [
              72.731055,
              18.936719
            ],
            [
              72.731055,
              18.925781
            ],
            [
              72.733789,
              18.923047
            ],
            [
              72.735156,
              18.923047
            ],
            [
              72.736523,
              18.924414
            ],
            [
              72.736523,
              18.925781
            ],
            [
              72.740625,
              18.929883
            ],
            [
              72.741992,
              18.929883
            ],
            [
              72.743359,
              18.93125
            ],
            [
              72.744727,
              18.93125
            ],
            [
              72.746094,
              18.932617
            ],
            [
              72.747461,
              18.932617
            ],
            [
              72.748828,
              18.933984
            ],
            [
              72.75293,
              18.935352
            ],
            [
              72.759766,
              18.942188
            ],
            [
              72.761133,
              18.946289
            ]
          ]
        ]
      }
    },
    {
      "type": "Feature",
      "properties": {
        "spill_id": "palsar_467",
        "confidence": 0.88
      },
      "geometry": {
        "type": "Polygon",
        "coordinates": [
          [
            [
              72.737891,
              19.15
            ],
            [
              72.710547,
              19.15
            ],
            [
              72.706445,
              19.14043
            ],
            [
              72.702344,
              19.136328
            ],
            [
              72.696875,
              19.133594
            ],
            [
              72.681836,
              19.133594
            ],
            [
              72.677734,
              19.119922
            ],
            [
              72.672266,
              19.11582
            ],
            [
              72.669531,
              19.111719
            ],
            [
              72.670898,
              19.104883
            ],
            [
              72.672266,
              19.103516
            ],
            [
              72.679102,
              19.103516
            ],
            [
              72.685938,
              19.108984
            ],
            [
              72.688672,
              19.113086
            ],
            [
              72.695508,
              19.11582
            ],
            [
              72.705078,
              19.117188
            ],
            [
              72.71875,
              19.125391
            ],
            [
              72.735156,
              19.143164
            ],
            [
              72.737891,
              19.144531
            ],
            [
              72.737891,
              19.15
            ]
          ]
        ]
      }
    },
    {
      "type": "Feature",
      "properties": {
        "spill_id": "palsar_467",
        "confidence": 0.88
      },
      "geometry": {
        "type": "Polygon",
        "coordinates": [
          [
            [
              72.639453,
              19.15
            ],
            [
              72.614844,
              19.147266
            ],
            [
              72.618945,
              19.126758
            ],
            [
              72.613477,
              19.104883
            ],
            [
              72.624414,
              19.085742
            ],
            [
              72.601172,
              19.036523
            ],
            [
              72.580664,
              19.010547
            ],
            [
              72.568359,
              19.01875
            ],
            [
              72.572461,
              18.999609
            ],
            [
              72.535547,
              18.961328
            ],
            [
              72.542383,
              18.938086
            ],
            [
              72.536914,
              18.898438
            ],
            [
              72.524609,
              18.871094
            ],
            [
              72.515039,
              18.861523
            ],
            [
              72.5,
              18.861523
            ],
            [
              72.5,
              18.827344
            ],
            [
              72.510938,
              18.825977
            ],
            [
              72.519141,
              18.801367
            ],
            [
              72.541016,
              18.802734
            ],
            [
              72.53418,
              18.831445
            ],
            [
              72.561523,
              18.928516
            ],
            [
              72.586133,
              18.951758
            ],
            [
              72.599805,
              18.953125
            ],
            [
              72.616211,
              18.977734
            ],
            [
              72.646289,
              19.102148
            ],
            [
              72.632617,
              19.114453
            ],
            [
              72.639453,
              19.15
            ]
          ]
        ]
      }
    }
  ]
}