{
  "type": "FeatureCollection",
  "features": [
    {
      "type": "Feature",
      "properties": {
        "spill_id": "palsar_101",
        "confidence": 0.91
      },
      "geometry": {
        "type": "Polygon",
        "coordinates": [
          [
            [
              72.54375,
              18.84375
            ],
            [
              72.541016,
              18.842383
            ],
            [
              72.535547,
              18.842383
            ],
            [
              72.525977,
              18.832812
            ],
            [
              72.521875,
              18.824609
            ],
            [
              72.50957,
              18.813672
            ],
            [
              72.508203,
              18.810938
            ],
            [
              72.508203,
              18.804102
            ],
            [
              72.510938,
              18.801367
            ],
            [
              72.54375,
              18.801367
            ],
            [
              72.546484,
              18.805469
            ],
            [
              72.546484,
              18.812305
            ],
            [
              72.549219,
              18.816406
            ],
            [
              72.549219,
              18.83418
            ],
            [
              72.545117,
              18.839648
            ],
            [
              72.545117,
              18.842383
            ],
            [
              72.54375,
              18.84375
            ]
          ]
        ]
      }
    },
    {
      "type": "Feature",
      "properties": {
        "spill_id": "palsar_101",
        "confidence": 0.91
      },
      "geometry": {
        "type": "Polygon",
        "coordinates": [
          [
            [
              72.628516,
              18.857422
            ],
            [
              72.617578,
              18.857422
            ],
            [
              72.613477,
              18.85332
            ],
            [
              72.613477,
              18.850586
            ],
            [
              72.612109,
              18.849219
            ],
            [
              72.612109,
              18.838281
            ],
            [
              72.610742,
              18.835547
            ],
            [
              72.603906,
              18.830078
            ],
            [
              72.605273,
              18.820508
            ],
            [
              72.603906,
              18.819141
            ],
            [
              72.603906,
              18.815039
            ],
            [
              72.601172,
              18.810938
            ],
            [
              72.603906,
              18.808203
            ],
            [
              72.609375,
              18.808203
            ],
            [
              72.613477,
              18.812305
            ],
            [
              72.614844,
              18.817773
            ],
            [
              72.618945,
              18.821875
            ],
            [
              72.627148,
              18.823242
            ],
            [
              72.63125,
              18.827344
            ],
            [
              72.63125,
              18.832812
            ],
            [
              72.632617,
              18.83418
            ],
            [
              72.632617,
              18.842383
            ],
            [
              72.63125,
              18.84375
            ],
            [
              72.63125,
              18.847852
            ],
            [
              72.629883,
              18.849219
            ],
            [
              72.629883,
              18.854688
            ],
            [
              72.628516,
              18.857422
            ]
          ]
        ]
      }
    },
    {
      "type": "Feature",
      "properties": {
        "spill_id": "palsar_101",
        "confidence": 0.91
      },
      "geometry": {
        "type": "Polygon",
        "coordinates": [
          [
            [
              72.744727,
              18.908008
            ],
            [
              72.731055,
              18.909375
            ],
            [
              72.713281,
              18.899805
            ],
            [
              72.696875,
              18.898438
            ],
            [
              72.692773,
              18.894336
            ],
            [
              72.691406,
              18.886133
            ],
            [
              72.670898,
              18.872461
            ],
            [
              72.653125,
              18.846484
            ],
            [
              72.647656,
              18.830078
            ],
            [
              72.647656,
              18.80957
            ],
            [
              72.655859,
              18.801367
            ],
            [
              72.735156,
              18.802734
            ],
            [
              72.740625,
              18.815039
            ],
            [
              72.740625,
              18.824609
            ],
            [
              72.735156,
              18.847852
            ],
            [
              72.729688,
              18.857422
            ],
            [
              72.732422,
              18.869727
            ],
            [
              72.744727,
              18.890234
            ],
            [
              72.744727,
              18.908008
            ]
          ]
        ]
      }
    },
    {
      "type": "Feature",
      "properties": {
        "spill_id": "palsar_101",
        "confidence": 0.91
      },
      "geometry": {
        "type": "Polygon",
        "coordinates": [
          [
            [
              72.5,
              19.15
            ],
            [
              72.5,
              19.081641
            ],
            [
              72.513672,
              19.069336
            ],
            [
              72.506836,
              19.050195
            ],
            [
              72.519141,
              19.040625
            ],
            [
              72.53418,
              19.043359
            ],
            [
              72.541016,
              19.035156
            ],
            [
              72.54375,
              18.972266
            ],
            [
              72.55332,
              18.961328
            ],
            [
              72.575195,
              18.964062
            ],
            [
              72.583398,
              18.947656
            ],
            [
              72.599805,
              18.943555
            ],
            [
              72.614844,
              18.980469
            ],
            [
              72.594336,
              19.044727
            ],
            [
              72.591602,
              19.09668
            ],
            [
              72.595703,
              19.102148
            ],
            [
              72.610742,
              19.091211
            ],
            [
              72.62168,
              19.100781
            ],
            [
              72.638086,
              19.148633
            ],
            [
              72.579297,
              19.15
            ],
            [
              72.57793,
              19.137695
            ],
            [
              72.5875,
              19.122656
            ],
            [
              72.561523,
              19.107617
            ],
            [
              72.560156,
              19.130859
            ],
            [
              72.549219,
              19.15
            ],
            [
              72.5,
              19.15
            ]
          ]
        ]
      }
    }
  ]
}