{
  "type": "FeatureCollection",
  "features": [
    {
      "type": "Feature",
      "properties": {
        "spill_id": "palsar_692",
        "confidence": 0.77
      },
      "geometry": {
        "type": "Polygon",
        "coordinates": [
          [
            [
              72.759766,
              18.87793
            ],
            [
              72.759766,
              18.875195
            ],
            [
              72.761133,
              18.875195
            ],
            [
              72.7625,
              18.873828
            ],
            [
              72.769336,
              18.873828
            ],
            [
              72.770703,
              18.875195
            ],
            [
              72.770703,
              18.879297
            ],
            [
              72.769336,
              18.880664
            ],
            [
              72.763867,
              18.880664
            ],
            [
              72.7625,
              18.879297
            ],
            [
              72.761133,
              18.879297
            ],
            [
              72.759766,
              18.87793
            ]
          ]
        ]
      }
    },
    {
      "type": "Feature",
      "properties": {
        "spill_id": "palsar_692",
        "confidence": 0.77
      },
      "geometry": {
        "type": "Polygon",
        "coordinates": [
          [
            [
              72.740625,
              18.875195
            ],
            [
              72.720117,
              18.882031
            ],
            [
              72.650391,
              18.880664
            ],
            [
              72.629883,
              18.886133
            ],
            [
              72.576562,
              18.879297
            ],
            [
              72.538281,
              18.862891
            ],
            [
              72.521875,
              18.850586
            ],
            [
              72.521875,
              18.827344
            ],
            [
              72.516406,
              18.813672
            ],
            [
              72.519141,
              18.80957
            ],
            [
              72.527344,
              18.80957
            ],
            [
              72.541016,
              18.836914
            ],
            [
              72.558789,
              18.85332
            ],
            [
              72.586133,
              18.868359
            ],
            [
              72.625781,
              18.875195
            ],
            [
              72.683203,
              18.865625
            ],
            [
              72.720117,
              18.865625
            ],
            [
              72.736523,
              18.869727
            ],
            [
              72.740625,
              18.875195
            ]
          ]
        ]
      }
    },
    {
      "type": "Feature",
      "properties": {
        "spill_id": "palsar_692",
        "confidence": 0.77
      },
      "geometry": {
        "type": "Polygon",
        "coordinates": [
          [
            [
              72.539648,
              18.935352
            ],
            [
              72.538281,
              18.936719
            ],
            [
              72.53418,
              18.936719
            ],
            [
              72.532812,
              18.935352
            ],
            [
              72.530078,
              18.935352
            ],
            [
              72.525977,
              18.932617
            ],
            [
              72.520508,
              18.932617
            ],
            [
              72.519141,
              18.93125
            ],
            [
              72.513672,
              18.93125
            ],
            [
              72.512305,
              18.929883
            ],
            [
              72.510938,
              18.929883
            ],
            [
              72.508203,
              18.927148
            ],
            [
              72.505469,
              18.927148
            ],
            [
              72.502734,
              18.924414
            ],
            [
              72.502734,
              18.92168
            ],
            [
              72.504102,
              18.92168
            ],
            [
              72.505469,
              18.920312
            ],
            [
              72.510938,
              18.920312
            ],
            [
              72.512305,
              18.92168
            ],
            [
              72.516406,
              18.92168
            ],
            [
              72.517773,
              18.923047
            ],
            [
              72.520508,
              18.923047
            ],
            [
              72.523242,
              18.925781
            ],
            [
              72.524609,
              18.925781
            ],
            [
              72.528711,
              18.929883
            ],
            [
              72.530078,
              18.929883
            ],
            [
              72.532812,
              18.932617
            ],
            [
              72.536914,
              18.932617
            ],
            [
              72.539648,
              18.935352
            ]
          ]
        ]
      }
    },
    {
      "type": "Feature",
      "properties": {
        "spill_id": "palsar_692",
        "confidence": 0.77
      },
      "geometry": {
        "type": "Polygon",
        "coordinates": [
          [
            [
              72.592969,
              18.944922
            ],
            [
              72.590234,
              18.947656
            ],
            [
              72.582031,
              18.947656
            ],
            [
              72.580664,
              18.946289
            ],
            [
              72.576562,
              18.946289
            ],
            [
              72.575195,
              18.944922
            ],
            [
              72.571094,
              18.944922
            ],
            [
              72.566992,
              18.942188
            ],
            [
              72.562891,
              18.942188
            ],
            [
              72.561523,
              18.94082
            ],
            [
              72.560156,
              18.94082
            ],
            [
              72.558789,
              18.942188
            ],
            [
              72.551953,
              18.942188
            ],
            [
              72.550586,
              18.94082
            ],
            [
              72.549219,
              18.94082
            ],
            [
              72.547852,
              18.939453
            ],
            [
              72.547852,
              18.938086
            ],
            [
              72.550586,
              18.938086
            ],
            [
              72.551953,
              18.936719
            ],
            [
              72.564258,
              18.936719
            ],
            [
              72.565625,
              18.935352
            ],
            [
              72.568359,
              18.935352
            ],
            [
              72.569727,
              18.933984
            ],
            [
              72.576562,
              18.933984
            ],
            [
              72.57793,
              18.935352
            ],
            [
              72.584766,
              18.935352
            ],
            [
              72.586133,
              18.936719
            ],
            [
              72.590234,
              18.936719
            ],
            [
              72.592969,
              18.94082
            ],
            [
              72.592969,
              18.944922
            ]
          ]
        ]
      }
    },
    {
      "type": "Feature",
      "properties": {
        "spill_id": "palsar_692",
        "confidence": 0.77
      },
      "geometry": {
        "type": "Polygon",
        "coordinates": [
          [
            [
              72.5,
              18.98457
            ],
            [
              72.5,
              18.977734
            ],
            [
              72.501367,
              18.977734
            ],
            [
              72.502734,
              18.976367
            ],
            [
              72.504102,
              18.976367
            ],
            [
              72.506836,
              18.973633
            ],
            [
              72.50957,
              18.973633
            ],
            [
              72.510938,
              18.972266
            ],
            [
              72.512305,
              18.973633
            ],
            [
              72.513672,
              18.972266
            ],
            [
              72.53418,
              18.972266
            ],
            [
              72.535547,
              18.973633
            ],
            [
              72.539648,
              18.973633
            ],
            [
              72.54375,
              18.976367
            ],
            [
              72.54375,
              18.979102
            ],
            [
              72.541016,
              18.981836
            ],
            [
              72.536914,
              18.981836
            ],
            [
              72.535547,
              18.983203
            ],
            [
              72.530078,
              18.983203
            ],
            [
              72.527344,
              18.985938
            ],
            [
              72.525977,
              18.985938
            ],
            [
              72.521875,
              18.988672
            ],
            [
              72.508203,
              18.988672
            ],
            [
              72.506836,
              18.987305
            ],
            [
              72.505469,
              18.987305
            ],
            [
              72.504102,
              18.985938
            ],
            [
              72.501367,
              18.985938
            ],
            [
              72.5,
              18.98457
            ]
          ]
        ]
      }
    },
    {
      "type": "Feature",
      "properties": {
        "spill_id": "palsar_692",
        "confidence": 0.77
      },
      "geometry": {
        "type": "Polygon",
        "coordinates": [
          [
            [
              72.576562,
              18.995508
            ],
            [
              72.572461,
              18.998242
            ],
            [
              72.571094,
              18.998242
            ],
            [
              72.569727,
              18.996875
            ],
            [
              72.565625,
              18.996875
            ],
            [
              72.564258,
              18.995508
            ],
            [
              72.562891,
              18.995508
            ],
            [
              72.561523,
              18.994141
            ],
            [
              72.560156,
              18.994141
            ],
            [
              72.558789,
              18.992773
            ],
            [
              72.557422,
              18.992773
            ],
            [
              72.556055,
              18.991406
            ],
            [
              72.554688,
              18.991406
            ],
            [
              72.55332,
              18.990039
            ],
            [
              72.55332,
              18.987305
            ],
            [
              72.551953,
              18.985938
            ],
            [
              72.551953,
              18.983203
            ],
            [
              72.554688,
              18.980469
            ],
            [
              72.556055,
              18.980469
            ],
            [
              72.557422,
              18.979102
            ],
            [
              72.560156,
              18.979102
            ],
            [
              72.561523,
              18.977734
            ],
            [
              72.564258,
              18.977734
            ],
            [
              72.564258,
              18.980469
            ],
            [
              72.562891,
              18.981836
            ],
            [
              72.565625,
              18.98457
            ],
            [
              72.566992,
              18.98457
            ],
            [
              72.568359,
              18.985938
            ],
            [
              72.569727,
              18.985938
            ],
            [
              72.571094,
              18.987305
            ],
            [
              72.572461,
              18.987305
            ],
            [
              72.573828,
              18.988672
            ],
            [
              72.575195,
              18.988672
            ],
            [
              72.575195,
              18.990039
            ],
            [
              72.576562,
              18.991406
            ],
            [
              72.576562,
              18.995508
            ]
          ]
        ]
      }
    },
    {
      "type": "Feature",
      "properties": {
        "spill_id": "palsar_692",
        "confidence": 0.77
      },
      "geometry": {
        "type": "Polygon",
        "coordinates": [
          [
            [
              72.654492,
              19.02832
            ],
            [
              72.653125,
              19.02832
            ],
            [
              72.651758,
              19.029687
            ],
            [
              72.647656,
              19.029687
            ],
            [
              72.646289,
              19.02832
            ],
            [
              72.643555,
              19.02832
            ],
            [
              72.642187,
              19.026953
            ],
            [
              72.64082,
              19.026953
            ],
            [
              72.639453,
              19.025586
            ],
            [
              72.639453,
              19.021484
            ],
            [
              72.643555,
              19.021484
            ],
            [
              72.644922,
              19.022852
            ],
            [
              72.649023,
              19.022852
            ],
            [
              72.650391,
              19.024219
            ],
            [
              72.651758,
              19.024219
            ],
            [
              72.654492,
              19.026953
            ],
            [
              72.654492,
              19.02832
            ]
          ]
        ]
      }
    },
    {
      "type": "Feature",
      "properties": {
        "spill_id": "palsar_692",
        "confidence": 0.77
      },
      "geometry": {
        "type": "Polygon",
        "coordinates": [
          [
            [
              72.673633,
              19.031055
            ],
            [
              72.673633,
              19.02832
            ],
            [
              72.676367,
              19.025586
            ],
            [
              72.677734,
              19.025586
            ],
            [
              72.680469,
              19.022852
            ],
            [
              72.681836,
              19.022852
            ],
            [
              72.683203,
              19.021484
            ],
            [
              72.692773,
              19.021484
            ],
            [
              72.694141,
              19.022852
            ],
            [
              72.695508,
              19.022852
            ],
            [
              72.696875,
              19.024219
            ],
            [
              72.698242,
              19.024219
            ],
            [
              72.699609,
              19.025586
            ],
            [
              72.700977,
              19.025586
            ],
            [
              72.700977,
              19.026953
            ],
            [
              72.702344,
              19.02832
            ],
            [
              72.702344,
              19.029687
            ],
            [
              72.703711,
              19.031055
            ],
            [
              72.700977,
              19.033789
            ],
            [
              72.699609,
              19.033789
            ],
            [
              72.698242,
              19.035156
            ],
            [
              72.695508,
              19.035156
            ],
            [
              72.694141,
              19.036523
            ],
            [
              72.687305,
              19.036523
            ],
            [
              72.685938,
              19.035156
            ],
            [
              72.679102,
              19.035156
            ],
            [
              72.677734,
              19.033789
            ],
            [
              72.676367,
              19.033789
            ],
            [
              72.673633,
              19.031055
            ]
          ]
        ]
      }
    }
  ]
}