{
  "type": "FeatureCollection",
  "features": [
    {
      "type": "Feature",
      "properties": {
        "spill_id": "palsar_685",
        "confidence": 0.89
      },
      "geometry": {
        "type": "Polygon",
        "coordinates": [
          [
            [
              72.5,
              18.810938
            ],
            [
              72.5,
              18.801367
            ],
            [
              72.516406,
              18.801367
            ],
            [
              72.517773,
              18.802734
            ],
            [
              72.517773,
              18.805469
            ],
            [
              72.513672,
              18.80957
            ],
            [
              72.50957,
              18.80957
            ],
            [
              72.508203,
              18.810938
            ],
            [
              72.5,
              18.810938
            ]
          ]
        ]
      }
    },
    {
      "type": "Feature",
      "properties": {
        "spill_id": "palsar_685",
        "confidence": 0.89
      },
      "geometry": {
        "type": "Polygon",
        "coordinates": [
          [
            [
              72.632617,
              18.827344
            ],
            [
              72.629883,
              18.823242
            ],
            [
              72.629883,
              18.810938
            ],
            [
              72.632617,
              18.808203
            ],
            [
              72.632617,
              18.806836
            ],
            [
              72.633984,
              18.806836
            ],
            [
              72.639453,
              18.801367
            ],
            [
              72.650391,
              18.801367
            ],
            [
              72.653125,
              18.805469
            ],
            [
              72.653125,
              18.819141
            ],
            [
              72.644922,
              18.827344
            ],
            [
              72.632617,
              18.827344
            ]
          ]
        ]
      }
    },
    {
      "type": "Feature",
      "properties": {
        "spill_id": "palsar_685",
        "confidence": 0.89
      },
      "geometry": {
        "type": "Polygon",
        "coordinates": [
          [
            [
              72.677734,
              18.835547
            ],
            [
              72.679102,
              18.83418
            ],
            [
              72.679102,
              18.830078
            ],
            [
              72.680469,
              18.828711
            ],
            [
              72.680469,
              18.827344
            ],
            [
              72.683203,
              18.827344
            ],
            [
              72.68457,
              18.828711
            ],
            [
              72.685938,
              18.828711
            ],
            [
              72.687305,
              18.830078
            ],
            [
              72.687305,
              18.832812
            ],
            [
              72.68457,
              18.835547
            ],
            [
              72.677734,
              18.835547
            ]
          ]
        ]
      }
    },
    {
      "type": "Feature",
      "properties": {
        "spill_id": "palsar_685",
        "confidence": 0.89
      },
      "geometry": {
        "type": "Polygon",
        "coordinates": [
          [
            [
              72.633984,
              18.846484
            ],
            [
              72.64082,
              18.836914
            ],
            [
              72.668164,
              18.827344
            ],
            [
              72.675,
              18.827344
            ],
            [
              72.669531,
              18.831445
            ],
            [
              72.670898,
              18.835547
            ],
            [
              72.675,
              18.835547
            ],
            [
              72.672266,
              18.84375
            ],
            [
              72.673633,
              18.850586
            ],
            [
              72.690039,
              18.836914
            ],
            [
              72.70918,
              18.828711
            ],
            [
              72.714648,
              18.828711
            ],
            [
              72.722852,
              18.835547
            ],
            [
              72.737891,
              18.841016
            ],
            [
              72.740625,
              18.845117
            ],
            [
              72.732422,
              18.850586
            ],
            [
              72.70918,
              18.85332
            ],
            [
              72.669531,
              18.880664
            ],
            [
              72.655859,
              18.879297
            ],
            [
              72.650391,
              18.872461
            ],
            [
              72.669531,
              18.857422
            ],
            [
              72.668164,
              18.85332
            ],
            [
              72.649023,
              18.856055
            ],
            [
              72.638086,
              18.85332
            ],
            [
              72.633984,
              18.846484
            ]
          ]
        ]
      }
    },
    {
      "type": "Feature",
      "properties": {
        "spill_id": "palsar_685",
        "confidence": 0.89
      },
      "geometry": {
        "type": "Polygon",
        "coordinates": [
          [
            [
              72.729688,
              18.869727
            ],
            [
              72.733789,
              18.862891
            ],
            [
              72.743359,
              18.857422
            ],
            [
              72.783008,
              18.847852
            ],
            [
              72.795312,
              18.847852
            ],
            [
              72.810352,
              18.85332
            ],
            [
              72.833594,
              18.849219
            ],
            [
              72.848633,
              18.850586
            ],
            [
              72.848633,
              18.879297
            ],
            [
              72.798047,
              18.8875
            ],
            [
              72.776172,
              18.912109
            ],
            [
              72.761133,
              18.917578
            ],
            [
              72.754297,
              18.917578
            ],
            [
              72.754297,
              18.914844
            ],
            [
              72.763867,
              18.903906
            ],
            [
              72.763867,
              18.898438
            ],
            [
              72.777539,
              18.891602
            ],
            [
              72.780273,
              18.873828
            ],
            [
              72.759766,
              18.868359
            ],
            [
              72.744727,
              18.871094
            ],
            [
              72.729688,
              18.869727
            ]
          ]
        ]
      }
    },
    {
      "type": "Feature",
      "properties": {
        "spill_id": "palsar_685",
        "confidence": 0.89
      },
      "geometry": {
        "type": "Polygon",
        "coordinates": [
          [
            [
              72.5,
              18.856055
            ],
            [
              72.508203,
              18.854688
            ],
            [
              72.525977,
              18.871094
            ],
            [
              72.542383,
              18.871094
            ],
            [
              72.57793,
              18.842383
            ],
            [
              72.591602,
              18.842383
            ],
            [
              72.598438,
              18.85332
            ],
            [
              72.594336,
              18.866992
            ],
            [
              72.54375,
              18.908008
            ],
            [
              72.558789,
              18.927148
            ],
            [
              72.592969,
              18.920312
            ],
            [
              72.625781,
              18.902539
            ],
            [
              72.664062,
              18.902539
            ],
            [
              72.700977,
              18.882031
            ],
            [
              72.710547,
              18.883398
            ],
            [
              72.699609,
              18.899805
            ],
            [
              72.702344,
              18.913477
            ],
            [
              72.739258,
              18.912109
            ],
            [
              72.706445,
              18.942188
            ],
            [
              72.685938,
              18.936719
            ],
            [
              72.676367,
              18.923047
            ],
            [
              72.614844,
              18.933984
            ],
            [
              72.554688,
              18.962695
            ],
            [
              72.536914,
              18.957227
            ],
            [
              72.501367,
              18.962695
            ],
            [
              72.5,
              18.856055
            ]
          ]
        ]
      }
    },
    {
      "type": "Feature",
      "properties": {
        "spill_id": "palsar_685",
        "confidence": 0.89
      },
      "geometry": {
        "type": "Polygon",
        "coordinates": [
          [
            [
              72.517773,
              18.987305
            ],
            [
              72.517773,
              18.985938
            ],
            [
              72.516406,
              18.98457
            ],
            [
              72.516406,
              18.983203
            ],
            [
              72.513672,
              18.980469
            ],
            [
              72.513672,
              18.977734
            ],
            [
              72.515039,
              18.976367
            ],
            [
              72.515039,
              18.975
            ],
            [
              72.521875,
              18.975
            ],
            [
              72.521875,
              18.985938
            ],
            [
              72.520508,
              18.987305
            ],
            [
              72.517773,
              18.987305
            ]
          ]
        ]
      }
    },
    {
      "type": "Feature",
      "properties": {
        "spill_id": "palsar_685",
        "confidence": 0.89
      },
      "geometry": {
        "type": "Polygon",
        "coordinates": [
          [
            [
              72.5,
              19.031055
            ],
            [
              72.5,
              19.007812
            ],
            [
              72.505469,
              19.007812
            ],
            [
              72.506836,
              19.00918
            ],
            [
              72.508203,
              19.00918
            ],
            [
              72.510938,
              19.011914
            ],
            [
              72.510938,
              19.013281
            ],
            [
              72.513672,
              19.016016
            ],
            [
              72.513672,
              19.017383
            ],
            [
              72.515039,
              19.01875
            ],
            [
              72.515039,
              19.024219
            ],
            [
              72.513672,
              19.025586
            ],
            [
              72.513672,
              19.026953
            ],
            [
              72.512305,
              19.02832
            ],
            [
              72.510938,
              19.02832
            ],
            [
              72.50957,
              19.029687
            ],
            [
              72.506836,
              19.029687
            ],
            [
              72.505469,
              19.031055
            ],
            [
              72.5,
              19.031055
            ]
          ]
        ]
      }
    },
    {
      "type": "Feature",
      "properties": {
        "spill_id": "palsar_685",
        "confidence": 0.89
      },
      "geometry": {
        "type": "Polygon",
        "coordinates": [
          [
            [
              72.5,
              19.139062
            ],
            [
              72.505469,
              19.117188
            ],
            [
              72.535547,
              19.114453
            ],
            [
              72.556055,
              19.124023
            ],
            [
              72.658594,
              19.059766
            ],
            [
              72.691406,
              19.051562
            ],
            [
              72.726953,
              19.031055
            ],
            [
              72.769336,
              19.024219
            ],
            [
              72.777539,
              19.016016
            ],
            [
              72.777539,
              19.000977
            ],
            [
              72.810352,
              19.014648
            ],
            [
              72.826758,
              19.005078
            ],
            [
              72.848633,
              19.006445
            ],
            [
              72.845898,
              19.026953
            ],
            [
              72.79668,
              19.032422
            ],
            [
              72.761133,
              19.05293
            ],
            [
              72.720117,
              19.057031
            ],
            [
              72.692773,
              19.076172
            ],
            [
              72.643555,
              19.077539
            ],
            [
              72.592969,
              19.10625
            ],
            [
              72.536914,
              19.15
            ],
            [
              72.515039,
              19.15
            ],
            [
              72.5,
              19.139062
            ]
          ]
        ]
      }
    }
  ]
}