{
  "type": "FeatureCollection",
  "features": [
    {
      "type": "Feature",
      "properties": {
        "spill_id": "palsar_381",
        "confidence": 0.9
      },
      "geometry": {
        "type": "Polygon",
        "coordinates": [
          [
            [
              72.844531,
              18.908008
            ],
            [
              72.825391,
              18.886133
            ],
            [
              72.814453,
              18.864258
            ],
            [
              72.803516,
              18.854688
            ],
            [
              72.793945,
              18.839648
            ],
            [
              72.783008,
              18.828711
            ],
            [
              72.769336,
              18.823242
            ],
            [
              72.750195,
              18.806836
            ],
            [
              72.751562,
              18.801367
            ],
            [
              72.848633,
              18.801367
            ],
            [
              72.848633,
              18.858789
            ],
            [
              72.844531,
              18.862891
            ],
            [
              72.848633,
              18.872461
            ],
            [
              72.848633,
              18.894336
            ],
            [
              72.845898,
              18.89707
            ],
            [
              72.844531,
              18.908008
            ]
          ]
        ]
      }
    },
    {
      "type": "Feature",
      "properties": {
        "spill_id": "palsar_381",
        "confidence": 0.9
      },
      "geometry": {
        "type": "Polygon",
        "coordinates": [
          [
            [
              72.561523,
              18.933984
            ],
            [
              72.554688,
              18.929883
            ],
            [
              72.550586,
              18.920312
            ],
            [
              72.525977,
              18.894336
            ],
            [
              72.510938,
              18.890234
            ],
            [
              72.5,
              18.87793
            ],
            [
              72.5,
              18.838281
            ],
            [
              72.517773,
              18.830078
            ],
            [
              72.523242,
              18.830078
            ],
            [
              72.527344,
              18.825977
            ],
            [
              72.524609,
              18.815039
            ],
            [
              72.519141,
              18.806836
            ],
            [
              72.521875,
              18.801367
            ],
            [
              72.53418,
              18.801367
            ],
            [
              72.545117,
              18.813672
            ],
            [
              72.560156,
              18.846484
            ],
            [
              72.568359,
              18.879297
            ],
            [
              72.565625,
              18.898438
            ],
            [
              72.566992,
              18.927148
            ],
            [
              72.561523,
              18.933984
            ]
          ]
        ]
      }
    },
    {
      "type": "Feature",
      "properties": {
        "spill_id": "palsar_381",
        "confidence": 0.9
      },
      "geometry": {
        "type": "Polygon",
        "coordinates": [
          [
            [
              72.677734,
              19.122656
            ],
            [
              72.672266,
              19.122656
            ],
            [
              72.657227,
              19.114453
            ],
            [
              72.653125,
              19.114453
            ],
            [
              72.649023,
              19.117188
            ],
            [
              72.642187,
              19.11582
            ],
            [
              72.63125,
              19.091211
            ],
            [
              72.63125,
              19.085742
            ],
            [
              72.636719,
              19.078906
            ],
            [
              72.64082,
              19.067969
            ],
            [
              72.636719,
              19.046094
            ],
            [
              72.639453,
              19.040625
            ],
            [
              72.646289,
              19.036523
            ],
            [
              72.664062,
              19.036523
            ],
            [
              72.669531,
              19.041992
            ],
            [
              72.672266,
              19.05293
            ],
            [
              72.672266,
              19.063867
            ],
            [
              72.666797,
              19.077539
            ],
            [
              72.670898,
              19.084375
            ],
            [
              72.672266,
              19.092578
            ],
            [
              72.680469,
              19.102148
            ],
            [
              72.683203,
              19.111719
            ],
            [
              72.683203,
              19.118555
            ],
            [
              72.677734,
              19.122656
            ]
          ]
        ]
      }
    }
  ]
}