{
  "type": "FeatureCollection",
  "features": [
    {
      "type": "Feature",
      "properties": {
        "spill_id": "palsar_252",
        "confidence": 0.85
      },
      "geometry": {
        "type": "Polygon",
        "coordinates": [
          [
            [
              72.830859,
              18.94082
            ],
            [
              72.821289,
              18.93125
            ],
            [
              72.819922,
              18.920312
            ],
            [
              72.81582,
              18.913477
            ],
            [
              72.817187,
              18.895703
            ],
            [
              72.828125,
              18.865625
            ],
            [
              72.828125,
              18.856055
            ],
            [
              72.839062,
              18.832812
            ],
            [
              72.839062,
              18.824609
            ],
            [
              72.847266,
              18.817773
            ],
            [
              72.848633,
              18.927148
            ],
            [
              72.84043,
              18.94082
            ],
            [
              72.830859,
              18.94082
            ]
          ]
        ]
      }
    }
  ]
}