{
  "type": "FeatureCollection",
  "features": [
    {
      "type": "Feature",
      "properties": {
        "spill_id": "palsar_552",
        "confidence": 0.89
      },
      "geometry": {
        "type": "Polygon",
        "coordinates": [
          [
            [
              72.612109,
              19.033789
            ],
            [
              72.613477,
              19.032422
            ],
            [
              72.613477,
              19.031055
            ],
            [
              72.614844,
              19.029687
            ],
            [
              72.625781,
              19.029687
            ],
            [
              72.627148,
              19.031055
            ],
            [
              72.627148,
              19.035156
            ],
            [
              72.625781,
              19.036523
            ],
            [
              72.624414,
              19.036523
            ],
            [
              72.623047,
              19.037891
            ],
            [
              72.614844,
              19.037891
            ],
            [
              72.613477,
              19.036523
            ],
            [
              72.613477,
              19.035156
            ],
            [
              72.612109,
              19.033789
            ]
          ]
        ]
      }
    },
    {
      "type": "Feature",
      "properties": {
        "spill_id": "palsar_552",
        "confidence": 0.89
      },
      "geometry": {
        "type": "Polygon",
        "coordinates": [
          [
            [
              72.5,
              19.077539
            ],
            [
              72.5,
              19.040625
            ],
            [
              72.505469,
              19.037891
            ],
            [
              72.517773,
              19.037891
            ],
            [
              72.521875,
              19.039258
            ],
            [
              72.523242,
              19.037891
            ],
            [
              72.53418,
              19.037891
            ],
            [
              72.535547,
              19.036523
            ],
            [
              72.547852,
              19.036523
            ],
            [
              72.549219,
              19.037891
            ],
            [
              72.55332,
              19.037891
            ],
            [
              72.562891,
              19.046094
            ],
            [
              72.562891,
              19.048828
            ],
            [
              72.557422,
              19.054297
            ],
            [
              72.549219,
              19.055664
            ],
            [
              72.547852,
              19.057031
            ],
            [
              72.535547,
              19.058398
            ],
            [
              72.528711,
              19.063867
            ],
            [
              72.512305,
              19.070703
            ],
            [
              72.505469,
              19.076172
            ],
            [
              72.501367,
              19.076172
            ],
            [
              72.5,
              19.077539
            ]
          ]
        ]
      }
    },
    {
      "type": "Feature",
      "properties": {
        "spill_id": "palsar_552",
        "confidence": 0.89
      },
      "geometry": {
        "type": "Polygon",
        "coordinates": [
          [
            [
              72.763867,
              19.10625
            ],
            [
              72.7625,
              19.104883
            ],
            [
              72.7625,
              19.102148
            ],
            [
              72.763867,
              19.100781
            ],
            [
              72.763867,
              19.099414
            ],
            [
              72.769336,
              19.093945
            ],
            [
              72.769336,
              19.092578
            ],
            [
              72.777539,
              19.084375
            ],
            [
              72.777539,
              19.083008
            ],
            [
              72.778906,
              19.083008
            ],
            [
              72.783008,
              19.080273
            ],
            [
              72.788477,
              19.080273
            ],
            [
              72.791211,
              19.083008
            ],
            [
              72.791211,
              19.084375
            ],
            [
              72.792578,
              19.085742
            ],
            [
              72.792578,
              19.089844
            ],
            [
              72.791211,
              19.091211
            ],
            [
              72.791211,
              19.093945
            ],
            [
              72.788477,
              19.09668
            ],
            [
              72.787109,
              19.09668
            ],
            [
              72.785742,
              19.098047
            ],
            [
              72.784375,
              19.098047
            ],
            [
              72.783008,
              19.099414
            ],
            [
              72.778906,
              19.100781
            ],
            [
              72.776172,
              19.103516
            ],
            [
              72.77207,
              19.104883
            ],
            [
              72.769336,
              19.107617
            ],
            [
              72.766602,
              19.107617
            ],
            [
              72.765234,
              19.10625
            ],
            [
              72.763867,
              19.10625
            ]
          ]
        ]
      }
    },
    {
      "type": "Feature",
      "properties": {
        "spill_id": "palsar_552",
        "confidence": 0.89
      },
      "geometry": {
        "type": "Polygon",
        "coordinates": [
          [
            [
              72.530078,
              19.111719
            ],
            [
              72.527344,
              19.111719
            ],
            [
              72.525977,
              19.113086
            ],
            [
              72.515039,
              19.113086
            ],
            [
              72.513672,
              19.114453
            ],
            [
              72.510938,
              19.114453
            ],
            [
              72.50957,
              19.113086
            ],
            [
              72.506836,
              19.113086
            ],
            [
              72.505469,
              19.111719
            ],
            [
              72.504102,
              19.111719
            ],
            [
              72.501367,
              19.108984
            ],
            [
              72.5,
              19.108984
            ],
            [
              72.5,
              19.088477
            ],
            [
              72.501367,
              19.088477
            ],
            [
              72.504102,
              19.085742
            ],
            [
              72.50957,
              19.085742
            ],
            [
              72.510938,
              19.087109
            ],
            [
              72.512305,
              19.087109
            ],
            [
              72.512305,
              19.088477
            ],
            [
              72.515039,
              19.091211
            ],
            [
              72.515039,
              19.093945
            ],
            [
              72.516406,
              19.095312
            ],
            [
              72.516406,
              19.09668
            ],
            [
              72.520508,
              19.100781
            ],
            [
              72.521875,
              19.100781
            ],
            [
              72.523242,
              19.102148
            ],
            [
              72.525977,
              19.102148
            ],
            [
              72.527344,
              19.103516
            ],
            [
              72.528711,
              19.103516
            ],
            [
              72.531445,
              19.10625
            ],
            [
              72.531445,
              19.108984
            ],
            [
              72.530078,
              19.110352
            ],
            [
              72.530078,
              19.111719
            ]
          ]
        ]
      }
    },
    {
      "type": "Feature",
      "properties": {
        "spill_id": "palsar_552",
        "confidence": 0.89
      },
      "geometry": {
        "type": "Polygon",
        "coordinates": [
          [
            [
              72.558789,
              19.145898
            ],
            [
              72.557422,
              19.130859
            ],
            [
              72.603906,
              19.114453
            ],
            [
              72.59707,
              19.085742
            ],
            [
              72.625781,
              19.066602
            ],
            [
              72.726953,
              19.051562
            ],
            [
              72.837695,
              19.006445
            ],
            [
              72.725586,
              19.02832
            ],
            [
              72.690039,
              19.014648
            ],
            [
              72.702344,
              18.998242
            ],
            [
              72.5875,
              18.987305
            ],
            [
              72.658594,
              18.961328
            ],
            [
              72.599805,
              18.957227
            ],
            [
              72.575195,
              18.98457
            ],
            [
              72.55332,
              18.979102
            ],
            [
              72.556055,
              18.96543
            ],
            [
              72.5,
              18.957227
            ],
            [
              72.5,
              18.910742
            ],
            [
              72.573828,
              18.939453
            ],
            [
              72.608008,
              18.918945
            ],
            [
              72.539648,
              18.924414
            ],
            [
              72.521875,
              18.879297
            ],
            [
              72.582031,
              18.901172
            ],
            [
              72.672266,
              18.825977
            ],
            [
              72.668164,
              18.856055
            ],
            [
              72.694141,
              18.888867
            ],
            [
              72.716016,
              18.87793
            ],
            [
              72.750195,
              18.894336
            ],
            [
              72.787109,
              18.888867
            ],
            [
              72.803516,
              18.850586
            ],
            [
              72.826758,
              18.846484
            ],
            [
              72.848633,
              18.947656
            ],
            [
              72.785742,
              18.962695
            ],
            [
              72.848633,
              18.968164
            ],
            [
              72.848633,
              19.051562
            ],
            [
              72.698242,
              19.0625
            ],
            [
              72.672266,
              19.089844
            ],
            [
              72.628516,
              19.088477
            ],
            [
              72.632617,
              19.134961
            ],
            [
              72.558789,
              19.145898
            ]
          ]
        ]
      }
    }
  ]
}