{
  "type": "FeatureCollection",
  "features": [
    {
      "type": "Feature",
      "properties": {
        "spill_id": "palsar_181",
        "confidence": 0.87
      },
      "geometry": {
        "type": "Polygon",
        "coordinates": [
          [
            [
              72.824023,
              18.880664
            ],
            [
              72.821289,
              18.879297
            ],
            [
              72.808984,
              18.866992
            ],
            [
              72.807617,
              18.864258
            ],
            [
              72.807617,
              18.85332
            ],
            [
              72.811719,
              18.846484
            ],
            [
              72.817187,
              18.841016
            ],
            [
              72.822656,
              18.831445
            ],
            [
              72.825391,
              18.828711
            ],
            [
              72.829492,
              18.827344
            ],
            [
              72.830859,
              18.828711
            ],
            [
              72.830859,
              18.831445
            ],
            [
              72.834961,
              18.836914
            ],
            [
              72.834961,
              18.839648
            ],
            [
              72.839062,
              18.847852
            ],
            [
              72.848633,
              18.858789
            ],
            [
              72.848633,
              18.873828
            ],
            [
              72.844531,
              18.876562
            ],
            [
              72.84043,
              18.876562
            ],
            [
              72.839062,
              18.875195
            ],
            [
              72.832227,
              18.879297
            ],
            [
              72.824023,
              18.880664
            ]
          ]
        ]
      }
    },
    {
      "type": "Feature",
      "properties": {
        "spill_id": "palsar_181",
        "confidence": 0.87
      },
      "geometry": {
        "type": "Polygon",
        "coordinates": [
          [
            [
              72.644922,
              18.905273
            ],
            [
              72.643555,
              18.898438
            ],
            [
              72.650391,
              18.884766
            ],
            [
              72.647656,
              18.876562
            ],
            [
              72.650391,
              18.801367
            ],
            [
              72.699609,
              18.801367
            ],
            [
              72.70918,
              18.816406
            ],
            [
              72.713281,
              18.801367
            ],
            [
              72.766602,
              18.801367
            ],
            [
              72.7625,
              18.832812
            ],
            [
              72.773438,
              18.846484
            ],
            [
              72.770703,
              18.856055
            ],
            [
              72.751562,
              18.868359
            ],
            [
              72.737891,
              18.869727
            ],
            [
              72.714648,
              18.858789
            ],
            [
              72.703711,
              18.845117
            ],
            [
              72.691406,
              18.84375
            ],
            [
              72.681836,
              18.831445
            ],
            [
              72.677734,
              18.831445
            ],
            [
              72.670898,
              18.838281
            ],
            [
              72.673633,
              18.861523
            ],
            [
              72.666797,
              18.886133
            ],
            [
              72.655859,
              18.891602
            ],
            [
              72.653125,
              18.906641
            ],
            [
              72.644922,
              18.905273
            ]
          ]
        ]
      }
    },
    {
      "type": "Feature",
      "properties": {
        "spill_id": "palsar_181",
        "confidence": 0.87
      },
      "geometry": {
        "type": "Polygon",
        "coordinates": [
          [
            [
              72.614844,
              18.958594
            ],
            [
              72.614844,
              18.957227
            ],
            [
              72.613477,
              18.955859
            ],
            [
              72.613477,
              18.953125
            ],
            [
              72.614844,
              18.951758
            ],
            [
              72.614844,
              18.947656
            ],
            [
              72.617578,
              18.944922
            ],
            [
              72.618945,
              18.944922
            ],
            [
              72.620312,
              18.943555
            ],
            [
              72.623047,
              18.943555
            ],
            [
              72.624414,
              18.942188
            ],
            [
              72.624414,
              18.94082
            ],
            [
              72.627148,
              18.938086
            ],
            [
              72.627148,
              18.936719
            ],
            [
              72.629883,
              18.933984
            ],
            [
              72.632617,
              18.933984
            ],
            [
              72.633984,
              18.932617
            ],
            [
              72.635352,
              18.933984
            ],
            [
              72.636719,
              18.933984
            ],
            [
              72.636719,
              18.935352
            ],
            [
              72.638086,
              18.936719
            ],
            [
              72.638086,
              18.946289
            ],
            [
              72.632617,
              18.946289
            ],
            [
              72.63125,
              18.947656
            ],
            [
              72.627148,
              18.947656
            ],
            [
              72.625781,
              18.949023
            ],
            [
              72.625781,
              18.955859
            ],
            [
              72.624414,
              18.957227
            ],
            [
              72.624414,
              18.958594
            ],
            [
              72.614844,
              18.958594
            ]
          ]
        ]
      }
    },
    {
      "type": "Feature",
      "properties": {
        "spill_id": "palsar_181",
        "confidence": 0.87
      },
      "geometry": {
        "type": "Polygon",
        "coordinates": [
          [
            [
              72.848633,
              18.966797
            ],
            [
              72.847266,
              18.96543
            ],
            [
              72.845898,
              18.966797
            ],
            [
              72.843164,
              18.966797
            ],
            [
              72.841797,
              18.96543
            ],
            [
              72.84043,
              18.96543
            ],
            [
              72.833594,
              18.958594
            ],
            [
              72.833594,
              18.957227
            ],
            [
              72.832227,
              18.955859
            ],
            [
              72.832227,
              18.946289
            ],
            [
              72.833594,
              18.944922
            ],
            [
              72.833594,
              18.943555
            ],
            [
              72.836328,
              18.94082
            ],
            [
              72.841797,
              18.94082
            ],
            [
              72.843164,
              18.942188
            ],
            [
              72.844531,
              18.942188
            ],
            [
              72.848633,
              18.946289
            ],
            [
              72.848633,
              18.966797
            ]
          ]
        ]
      }
    },
    {
      "type": "Feature",
      "properties": {
        "spill_id": "palsar_181",
        "confidence": 0.87
      },
      "geometry": {
        "type": "Polygon",
        "coordinates": [
          [
            [
              72.590234,
              18.992773
            ],
            [
              72.584766,
              18.992773
            ],
            [
              72.583398,
              18.991406
            ],
            [
              72.579297,
              18.991406
            ],
            [
              72.575195,
              18.987305
            ],
            [
              72.575195,
              18.983203
            ],
            [
              72.57793,
              18.980469
            ],
            [
              72.582031,
              18.980469
            ],
            [
              72.588867,
              18.987305
            ],
            [
              72.588867,
              18.988672
            ],
            [
              72.590234,
              18.990039
            ],
            [
              72.590234,
              18.992773
            ]
          ]
        ]
      }
    },
    {
      "type": "Feature",
      "properties": {
        "spill_id": "palsar_181",
        "confidence": 0.87
      },
      "geometry": {
        "type": "Polygon",
        "coordinates": [
          [
            [
              72.698242,
              19.005078
            ],
            [
              72.696875,
              19.003711
            ],
            [
              72.696875,
              19.000977
            ],
            [
              72.695508,
              18.999609
            ],
            [
              72.695508,
              18.990039
            ],
            [
              72.699609,
              18.985938
            ],
            [
              72.700977,
              18.985938
            ],
            [
              72.702344,
              18.98457
            ],
            [
              72.703711,
              18.98457
            ],
            [
              72.705078,
              18.983203
            ],
            [
              72.710547,
              18.983203
            ],
            [
              72.711914,
              18.98457
            ],
            [
              72.713281,
              18.98457
            ],
            [
              72.716016,
              18.987305
            ],
            [
              72.716016,
              18.995508
            ],
            [
              72.714648,
              18.996875
            ],
            [
              72.714648,
              18.998242
            ],
            [
              72.713281,
              18.999609
            ],
            [
              72.713281,
              19.000977
            ],
            [
              72.710547,
              19.003711
            ],
            [
              72.70918,
              19.003711
            ],
            [
              72.707812,
              19.005078
            ],
            [
              72.698242,
              19.005078
            ]
          ]
        ]
      }
    },
    {
      "type": "Feature",
      "properties": {
        "spill_id": "palsar_181",
        "confidence": 0.87
      },
      "geometry": {
        "type": "Polygon",
        "coordinates": [
          [
            [
              72.836328,
              19.013281
            ],
            [
              72.830859,
              19.011914
            ],
            [
              72.824023,
              19.002344
            ],
            [
              72.811719,
              18.994141
            ],
            [
              72.804883,
              18.972266
            ],
            [
              72.780273,
              18.949023
            ],
            [
              72.776172,
              18.938086
            ],
            [
              72.777539,
              18.918945
            ],
            [
              72.780273,
              18.914844
            ],
            [
              72.785742,
              18.916211
            ],
            [
              72.79668,
              18.929883
            ],
            [
              72.800781,
              18.925781
            ],
            [
              72.807617,
              18.925781
            ],
            [
              72.808984,
              18.933984
            ],
            [
              72.799414,
              18.938086
            ],
            [
              72.803516,
              18.96543
            ],
            [
              72.807617,
              18.970898
            ],
            [
              72.824023,
              18.976367
            ],
            [
              72.830859,
              18.983203
            ],
            [
              72.836328,
              18.994141
            ],
            [
              72.839062,
              19.007812
            ],
            [
              72.836328,
              19.013281
            ]
          ]
        ]
      }
    },
    {
      "type": "Feature",
      "properties": {
        "spill_id": "palsar_181",
        "confidence": 0.87
      },
      "geometry": {
        "type": "Polygon",
        "coordinates": [
          [
            [
              72.550586,
              19.040625
            ],
            [
              72.531445,
              19.033789
            ],
            [
              72.524609,
              19.024219
            ],
            [
              72.517773,
              19.002344
            ],
            [
              72.5,
              18.992773
            ],
            [
              72.5,
              18.933984
            ],
            [
              72.504102,
              18.932617
            ],
            [
              72.516406,
              18.935352
            ],
            [
              72.53418,
              18.925781
            ],
            [
              72.541016,
              18.925781
            ],
            [
              72.546484,
              18.93125
            ],
            [
              72.546484,
              18.943555
            ],
            [
              72.531445,
              18.957227
            ],
            [
              72.531445,
              18.96543
            ],
            [
              72.547852,
              18.995508
            ],
            [
              72.551953,
              18.999609
            ],
            [
              72.557422,
              18.999609
            ],
            [
              72.558789,
              19.003711
            ],
            [
              72.556055,
              19.00918
            ],
            [
              72.549219,
              19.011914
            ],
            [
              72.55332,
              19.039258
            ],
            [
              72.550586,
              19.040625
            ]
          ]
        ]
      }
    },
    {
      "type": "Feature",
      "properties": {
        "spill_id": "palsar_181",
        "confidence": 0.87
      },
      "geometry": {
        "type": "Polygon",
        "coordinates": [
          [
            [
              72.848633,
              19.128125
            ],
            [
              72.839062,
              19.126758
            ],
            [
              72.832227,
              19.113086
            ],
            [
              72.834961,
              19.091211
            ],
            [
              72.837695,
              19.083008
            ],
            [
              72.836328,
              19.070703
            ],
            [
              72.826758,
              19.066602
            ],
            [
              72.810352,
              19.065234
            ],
            [
              72.804883,
              19.059766
            ],
            [
              72.80625,
              19.051562
            ],
            [
              72.811719,
              19.041992
            ],
            [
              72.814453,
              19.040625
            ],
            [
              72.821289,
              19.040625
            ],
            [
              72.825391,
              19.043359
            ],
            [
              72.830859,
              19.058398
            ],
            [
              72.843164,
              19.065234
            ],
            [
              72.848633,
              19.077539
            ],
            [
              72.848633,
              19.128125
            ]
          ]
        ]
      }
    },
    {
      "type": "Feature",
      "properties": {
        "spill_id": "palsar_181",
        "confidence": 0.87
      },
      "geometry": {
        "type": "Polygon",
        "coordinates": [
          [
            [
              72.735156,
              19.15
            ],
            [
              72.71875,
              19.15
            ],
            [
              72.711914,
              19.139062
            ],
            [
              72.694141,
              19.136328
            ],
            [
              72.688672,
              19.139062
            ],
            [
              72.687305,
              19.15
            ],
            [
              72.676367,
              19.15
            ],
            [
              72.658594,
              19.113086
            ],
            [
              72.655859,
              19.128125
            ],
            [
              72.651758,
              19.132227
            ],
            [
              72.642187,
              19.129492
            ],
            [
              72.643555,
              19.114453
            ],
            [
              72.636719,
              19.103516
            ],
            [
              72.633984,
              19.065234
            ],
            [
              72.605273,
              19.031055
            ],
            [
              72.610742,
              18.977734
            ],
            [
              72.616211,
              18.976367
            ],
            [
              72.62168,
              18.981836
            ],
            [
              72.632617,
              19.007812
            ],
            [
              72.639453,
              19.003711
            ],
            [
              72.639453,
              18.985938
            ],
            [
              72.653125,
              18.985938
            ],
            [
              72.655859,
              18.999609
            ],
            [
              72.651758,
              19.003711
            ],
            [
              72.657227,
              19.021484
            ],
            [
              72.688672,
              19.074805
            ],
            [
              72.705078,
              19.11582
            ],
            [
              72.731055,
              19.133594
            ],
            [
              72.735156,
              19.15
            ]
          ]
        ]
      }
    },
    {
      "type": "Feature",
      "properties": {
        "spill_id": "palsar_181",
        "confidence": 0.87
      },
      "geometry": {
        "type": "Polygon",
        "coordinates": [
          [
            [
              72.610742,
              19.15
            ],
            [
              72.569727,
              19.15
            ],
            [
              72.558789,
              19.14043
            ],
            [
              72.549219,
              19.128125
            ],
            [
              72.541016,
              19.107617
            ],
            [
              72.527344,
              19.088477
            ],
            [
              72.527344,
              19.073438
            ],
            [
              72.531445,
              19.066602
            ],
            [
              72.539648,
              19.0625
            ],
            [
              72.549219,
              19.0625
            ],
            [
              72.562891,
              19.084375
            ],
            [
              72.564258,
              19.100781
            ],
            [
              72.569727,
              19.121289
            ],
            [
              72.573828,
              19.125391
            ],
            [
              72.580664,
              19.126758
            ],
            [
              72.590234,
              19.133594
            ],
            [
              72.605273,
              19.139062
            ],
            [
              72.609375,
              19.143164
            ],
            [
              72.610742,
              19.15
            ]
          ]
        ]
      }
    },
    {
      "type": "Feature",
      "properties": {
        "spill_id": "palsar_181",
        "confidence": 0.87
      },
      "geometry": {
        "type": "Polygon",
        "coordinates": [
          [
            [
              72.539648,
              19.15
            ],
            [
              72.530078,
              19.15
            ],
            [
              72.512305,
              19.130859
            ],
            [
              72.506836,
              19.121289
            ],
            [
              72.502734,
              19.117188
            ],
            [
              72.5,
              19.117188
            ],
            [
              72.5,
              19.098047
            ],
            [
              72.505469,
              19.098047
            ],
            [
              72.50957,
              19.102148
            ],
            [
              72.516406,
              19.117188
            ],
            [
              72.523242,
              19.124023
            ],
            [
              72.523242,
              19.125391
            ],
            [
              72.531445,
              19.133594
            ],
            [
              72.532812,
              19.133594
            ],
            [
              72.532812,
              19.134961
            ],
            [
              72.535547,
              19.137695
            ],
            [
              72.539648,
              19.145898
            ],
            [
              72.539648,
              19.15
            ]
          ]
        ]
      }
    }
  ]
}