{
  "type": "FeatureCollection",
  "features": [
    {
      "type": "Feature",
      "properties": {
        "spill_id": "palsar_356",
        "confidence": 0.84
      },
      "geometry": {
        "type": "Polygon",
        "coordinates": [
          [
            [
              72.845898,
              18.808203
            ],
            [
              72.843164,
              18.808203
            ],
            [
              72.841797,
              18.80957
            ],
            [
              72.84043,
              18.808203
            ],
            [
              72.839062,
              18.808203
            ],
            [
              72.837695,
              18.806836
            ],
            [
              72.837695,
              18.802734
            ],
            [
              72.839062,
              18.801367
            ],
            [
              72.844531,
              18.801367
            ],
            [
              72.847266,
              18.804102
            ],
            [
              72.847266,
              18.805469
            ],
            [
              72.845898,
              18.806836
            ],
            [
              72.845898,
              18.808203
            ]
          ]
        ]
      }
    },
    {
      "type": "Feature",
      "properties": {
        "spill_id": "palsar_356",
        "confidence": 0.84
      },
      "geometry": {
        "type": "Polygon",
        "coordinates": [
          [
            [
              72.679102,
              18.80957
            ],
            [
              72.673633,
              18.815039
            ],
            [
              72.669531,
              18.815039
            ],
            [
              72.668164,
              18.813672
            ],
            [
              72.66543,
              18.813672
            ],
            [
              72.664062,
              18.812305
            ],
            [
              72.662695,
              18.812305
            ],
            [
              72.661328,
              18.810938
            ],
            [
              72.658594,
              18.810938
            ],
            [
              72.657227,
              18.80957
            ],
            [
              72.657227,
              18.806836
            ],
            [
              72.655859,
              18.805469
            ],
            [
              72.659961,
              18.801367
            ],
            [
              72.677734,
              18.801367
            ],
            [
              72.679102,
              18.802734
            ],
            [
              72.679102,
              18.80957
            ]
          ]
        ]
      }
    },
    {
      "type": "Feature",
      "properties": {
        "spill_id": "palsar_356",
        "confidence": 0.84
      },
      "geometry": {
        "type": "Polygon",
        "coordinates": [
          [
            [
              72.847266,
              18.84375
            ],
            [
              72.843164,
              18.846484
            ],
            [
              72.832227,
              18.84375
            ],
            [
              72.810352,
              18.821875
            ],
            [
              72.808984,
              18.821875
            ],
            [
              72.804883,
              18.817773
            ],
            [
              72.803516,
              18.817773
            ],
            [
              72.799414,
              18.813672
            ],
            [
              72.799414,
              18.810938
            ],
            [
              72.802148,
              18.80957
            ],
            [
              72.804883,
              18.80957
            ],
            [
              72.80625,
              18.810938
            ],
            [
              72.825391,
              18.810938
            ],
            [
              72.826758,
              18.812305
            ],
            [
              72.826758,
              18.821875
            ],
            [
              72.833594,
              18.827344
            ],
            [
              72.834961,
              18.827344
            ],
            [
              72.84043,
              18.832812
            ],
            [
              72.84043,
              18.83418
            ],
            [
              72.847266,
              18.841016
            ],
            [
              72.847266,
              18.84375
            ]
          ]
        ]
      }
    },
    {
      "type": "Feature",
      "properties": {
        "spill_id": "palsar_356",
        "confidence": 0.84
      },
      "geometry": {
        "type": "Polygon",
        "coordinates": [
          [
            [
              72.77207,
              18.85332
            ],
            [
              72.763867,
              18.85332
            ],
            [
              72.761133,
              18.850586
            ],
            [
              72.761133,
              18.846484
            ],
            [
              72.7625,
              18.845117
            ],
            [
              72.7625,
              18.824609
            ],
            [
              72.761133,
              18.823242
            ],
            [
              72.761133,
              18.820508
            ],
            [
              72.7625,
              18.820508
            ],
            [
              72.77207,
              18.830078
            ],
            [
              72.77207,
              18.831445
            ],
            [
              72.773438,
              18.832812
            ],
            [
              72.773438,
              18.838281
            ],
            [
              72.776172,
              18.842383
            ],
            [
              72.776172,
              18.849219
            ],
            [
              72.774805,
              18.850586
            ],
            [
              72.774805,
              18.851953
            ],
            [
              72.773438,
              18.851953
            ],
            [
              72.77207,
              18.85332
            ]
          ]
        ]
      }
    },
    {
      "type": "Feature",
      "properties": {
        "spill_id": "palsar_356",
        "confidence": 0.84
      },
      "geometry": {
        "type": "Polygon",
        "coordinates": [
          [
            [
              72.733789,
              18.873828
            ],
            [
              72.731055,
              18.876562
            ],
            [
              72.72832,
              18.876562
            ],
            [
              72.724219,
              18.879297
            ],
            [
              72.714648,
              18.879297
            ],
            [
              72.713281,
              18.87793
            ],
            [
              72.706445,
              18.87793
            ],
            [
              72.703711,
              18.875195
            ],
            [
              72.699609,
              18.875195
            ],
            [
              72.698242,
              18.873828
            ],
            [
              72.695508,
              18.873828
            ],
            [
              72.694141,
              18.872461
            ],
            [
              72.694141,
              18.869727
            ],
            [
              72.696875,
              18.866992
            ],
            [
              72.698242,
              18.866992
            ],
            [
              72.699609,
              18.865625
            ],
            [
              72.702344,
              18.865625
            ],
            [
              72.703711,
              18.864258
            ],
            [
              72.705078,
              18.864258
            ],
            [
              72.707812,
              18.861523
            ],
            [
              72.710547,
              18.861523
            ],
            [
              72.711914,
              18.860156
            ],
            [
              72.71875,
              18.860156
            ],
            [
              72.720117,
              18.861523
            ],
            [
              72.726953,
              18.861523
            ],
            [
              72.72832,
              18.862891
            ],
            [
              72.729688,
              18.862891
            ],
            [
              72.732422,
              18.865625
            ],
            [
              72.732422,
              18.868359
            ],
            [
              72.733789,
              18.869727
            ],
            [
              72.733789,
              18.873828
            ]
          ]
        ]
      }
    },
    {
      "type": "Feature",
      "properties": {
        "spill_id": "palsar_356",
        "confidence": 0.84
      },
      "geometry": {
        "type": "Polygon",
        "coordinates": [
          [
            [
              72.528711,
              18.882031
            ],
            [
              72.515039,
              18.868359
            ],
            [
              72.512305,
              18.861523
            ],
            [
              72.512305,
              18.85332
            ],
            [
              72.517773,
              18.846484
            ],
            [
              72.517773,
              18.836914
            ],
            [
              72.528711,
              18.831445
            ],
            [
              72.528711,
              18.820508
            ],
            [
              72.54375,
              18.801367
            ],
            [
              72.561523,
              18.801367
            ],
            [
              72.568359,
              18.817773
            ],
            [
              72.568359,
              18.828711
            ],
            [
              72.561523,
              18.835547
            ],
            [
              72.541016,
              18.835547
            ],
            [
              72.536914,
              18.838281
            ],
            [
              72.538281,
              18.854688
            ],
            [
              72.528711,
              18.864258
            ],
            [
              72.528711,
              18.866992
            ],
            [
              72.535547,
              18.873828
            ],
            [
              72.536914,
              18.880664
            ],
            [
              72.528711,
              18.882031
            ]
          ]
        ]
      }
    },
    {
      "type": "Feature",
      "properties": {
        "spill_id": "palsar_356",
        "confidence": 0.84
      },
      "geometry": {
        "type": "Polygon",
        "coordinates": [
          [
            [
              72.747461,
              18.924414
            ],
            [
              72.746094,
              18.924414
            ],
            [
              72.744727,
              18.925781
            ],
            [
              72.740625,
              18.925781
            ],
            [
              72.739258,
              18.924414
            ],
            [
              72.737891,
              18.924414
            ],
            [
              72.736523,
              18.923047
            ],
            [
              72.735156,
              18.923047
            ],
            [
              72.735156,
              18.920312
            ],
            [
              72.733789,
              18.918945
            ],
            [
              72.733789,
              18.917578
            ],
            [
              72.737891,
              18.913477
            ],
            [
              72.740625,
              18.913477
            ],
            [
              72.741992,
              18.914844
            ],
            [
              72.743359,
              18.914844
            ],
            [
              72.746094,
              18.917578
            ],
            [
              72.746094,
              18.918945
            ],
            [
              72.747461,
              18.920312
            ],
            [
              72.747461,
              18.924414
            ]
          ]
        ]
      }
    },
    {
      "type": "Feature",
      "properties": {
        "spill_id": "palsar_356",
        "confidence": 0.84
      },
      "geometry": {
        "type": "Polygon",
        "coordinates": [
          [
            [
              72.5,
              18.987305
            ],
            [
              72.5,
              18.94082
            ],
            [
              72.505469,
              18.935352
            ],
            [
              72.505469,
              18.933984
            ],
            [
              72.50957,
              18.93125
            ],
            [
              72.513672,
              18.93125
            ],
            [
              72.521875,
              18.942188
            ],
            [
              72.532812,
              18.947656
            ],
            [
              72.535547,
              18.950391
            ],
            [
              72.536914,
              18.955859
            ],
            [
              72.53418,
              18.958594
            ],
            [
              72.528711,
              18.958594
            ],
            [
              72.523242,
              18.962695
            ],
            [
              72.521875,
              18.96543
            ],
            [
              72.521875,
              18.977734
            ],
            [
              72.515039,
              18.985938
            ],
            [
              72.510938,
              18.985938
            ],
            [
              72.50957,
              18.987305
            ],
            [
              72.5,
              18.987305
            ]
          ]
        ]
      }
    },
    {
      "type": "Feature",
      "properties": {
        "spill_id": "palsar_356",
        "confidence": 0.84
      },
      "geometry": {
        "type": "Polygon",
        "coordinates": [
          [
            [
              72.71875,
              19.026953
            ],
            [
              72.724219,
              19.016016
            ],
            [
              72.724219,
              19.00918
            ],
            [
              72.729688,
              19.002344
            ],
            [
              72.740625,
              19.000977
            ],
            [
              72.757031,
              18.991406
            ],
            [
              72.763867,
              18.991406
            ],
            [
              72.776172,
              18.98457
            ],
            [
              72.808984,
              18.985938
            ],
            [
              72.822656,
              18.992773
            ],
            [
              72.821289,
              18.996875
            ],
            [
              72.818555,
              18.996875
            ],
            [
              72.811719,
              19.002344
            ],
            [
              72.792578,
              18.996875
            ],
            [
              72.787109,
              18.998242
            ],
            [
              72.776172,
              19.006445
            ],
            [
              72.761133,
              19.00918
            ],
            [
              72.75293,
              19.01875
            ],
            [
              72.725586,
              19.031055
            ],
            [
              72.722852,
              19.031055
            ],
            [
              72.71875,
              19.026953
            ]
          ]
        ]
      }
    },
    {
      "type": "Feature",
      "properties": {
        "spill_id": "palsar_356",
        "confidence": 0.84
      },
      "geometry": {
        "type": "Polygon",
        "coordinates": [
          [
            [
              72.777539,
              19.054297
            ],
            [
              72.777539,
              19.05293
            ],
            [
              72.776172,
              19.051562
            ],
            [
              72.776172,
              19.048828
            ],
            [
              72.774805,
              19.047461
            ],
            [
              72.774805,
              19.043359
            ],
            [
              72.773438,
              19.041992
            ],
            [
              72.773438,
              19.037891
            ],
            [
              72.77207,
              19.036523
            ],
            [
              72.77207,
              19.033789
            ],
            [
              72.774805,
              19.031055
            ],
            [
              72.781641,
              19.031055
            ],
            [
              72.783008,
              19.029687
            ],
            [
              72.785742,
              19.029687
            ],
            [
              72.787109,
              19.02832
            ],
            [
              72.789844,
              19.02832
            ],
            [
              72.789844,
              19.031055
            ],
            [
              72.788477,
              19.032422
            ],
            [
              72.788477,
              19.035156
            ],
            [
              72.787109,
              19.036523
            ],
            [
              72.787109,
              19.037891
            ],
            [
              72.785742,
              19.039258
            ],
            [
              72.785742,
              19.041992
            ],
            [
              72.784375,
              19.043359
            ],
            [
              72.784375,
              19.050195
            ],
            [
              72.781641,
              19.054297
            ],
            [
              72.777539,
              19.054297
            ]
          ]
        ]
      }
    },
    {
      "type": "Feature",
      "properties": {
        "spill_id": "palsar_356",
        "confidence": 0.84
      },
      "geometry": {
        "type": "Polygon",
        "coordinates": [
          [
            [
              72.84043,
              19.074805
            ],
            [
              72.829492,
              19.074805
            ],
            [
              72.828125,
              19.073438
            ],
            [
              72.825391,
              19.073438
            ],
            [
              72.822656,
              19.070703
            ],
            [
              72.821289,
              19.070703
            ],
            [
              72.819922,
              19.069336
            ],
            [
              72.818555,
              19.069336
            ],
            [
              72.81582,
              19.066602
            ],
            [
              72.81582,
              19.0625
            ],
            [
              72.817187,
              19.061133
            ],
            [
              72.817187,
              19.059766
            ],
            [
              72.818555,
              19.058398
            ],
            [
              72.818555,
              19.057031
            ],
            [
              72.826758,
              19.057031
            ],
            [
              72.828125,
              19.058398
            ],
            [
              72.832227,
              19.058398
            ],
            [
              72.833594,
              19.059766
            ],
            [
              72.834961,
              19.059766
            ],
            [
              72.839062,
              19.063867
            ],
            [
              72.839062,
              19.065234
            ],
            [
              72.84043,
              19.066602
            ],
            [
              72.84043,
              19.069336
            ],
            [
              72.841797,
              19.070703
            ],
            [
              72.841797,
              19.07207
            ],
            [
              72.84043,
              19.073438
            ],
            [
              72.84043,
              19.074805
            ]
          ]
        ]
      }
    },
    {
      "type": "Feature",
      "properties": {
        "spill_id": "palsar_356",
        "confidence": 0.84
      },
      "geometry": {
        "type": "Polygon",
        "coordinates": [
          [
            [
              72.582031,
              19.118555
            ],
            [
              72.582031,
              19.095312
            ],
            [
              72.591602,
              19.083008
            ],
            [
              72.583398,
              19.044727
            ],
            [
              72.539648,
              19.01875
            ],
            [
              72.516406,
              19.024219
            ],
            [
              72.508203,
              19.017383
            ],
            [
              72.508203,
              19.00918
            ],
            [
              72.542383,
              19.000977
            ],
            [
              72.554688,
              19.017383
            ],
            [
              72.580664,
              19.002344
            ],
            [
              72.603906,
              18.96543
            ],
            [
              72.62168,
              18.962695
            ],
            [
              72.638086,
              18.944922
            ],
            [
              72.639453,
              18.933984
            ],
            [
              72.650391,
              18.929883
            ],
            [
              72.657227,
              18.938086
            ],
            [
              72.643555,
              18.947656
            ],
            [
              72.658594,
              18.976367
            ],
            [
              72.655859,
              18.991406
            ],
            [
              72.635352,
              19.005078
            ],
            [
              72.624414,
              19.024219
            ],
            [
              72.605273,
              19.000977
            ],
            [
              72.598438,
              19.007812
            ],
            [
              72.602539,
              19.014648
            ],
            [
              72.612109,
              19.014648
            ],
            [
              72.618945,
              19.036523
            ],
            [
              72.613477,
              19.0625
            ],
            [
              72.624414,
              19.073438
            ],
            [
              72.632617,
              19.110352
            ],
            [
              72.624414,
              19.113086
            ],
            [
              72.603906,
              19.09668
            ],
            [
              72.591602,
              19.103516
            ],
            [
              72.582031,
              19.118555
            ]
          ]
        ]
      }
    },
    {
      "type": "Feature",
      "properties": {
        "spill_id": "palsar_356",
        "confidence": 0.84
      },
      "geometry": {
        "type": "Polygon",
        "coordinates": [
          [
            [
              72.64082,
              19.15
            ],
            [
              72.64082,
              19.147266
            ],
            [
              72.639453,
              19.145898
            ],
            [
              72.639453,
              19.122656
            ],
            [
              72.647656,
              19.11582
            ],
            [
              72.649023,
              19.111719
            ],
            [
              72.651758,
              19.108984
            ],
            [
              72.658594,
              19.108984
            ],
            [
              72.661328,
              19.110352
            ],
            [
              72.662695,
              19.113086
            ],
            [
              72.662695,
              19.11582
            ],
            [
              72.664062,
              19.117188
            ],
            [
              72.664062,
              19.121289
            ],
            [
              72.66543,
              19.122656
            ],
            [
              72.66543,
              19.129492
            ],
            [
              72.666797,
              19.130859
            ],
            [
              72.666797,
              19.136328
            ],
            [
              72.668164,
              19.137695
            ],
            [
              72.668164,
              19.145898
            ],
            [
              72.66543,
              19.15
            ],
            [
              72.64082,
              19.15
            ]
          ]
        ]
      }
    },
    {
      "type": "Feature",
      "properties": {
        "spill_id": "palsar_356",
        "confidence": 0.84
      },
      "geometry": {
        "type": "Polygon",
        "coordinates": [
          [
            [
              72.557422,
              19.148633
            ],
            [
              72.558789,
              19.147266
            ],
            [
              72.558789,
              19.144531
            ],
            [
              72.560156,
              19.143164
            ],
            [
              72.560156,
              19.141797
            ],
            [
              72.562891,
              19.139062
            ],
            [
              72.562891,
              19.137695
            ],
            [
              72.565625,
              19.134961
            ],
            [
              72.565625,
              19.133594
            ],
            [
              72.571094,
              19.128125
            ],
            [
              72.575195,
              19.128125
            ],
            [
              72.576562,
              19.126758
            ],
            [
              72.579297,
              19.126758
            ],
            [
              72.580664,
              19.128125
            ],
            [
              72.586133,
              19.128125
            ],
            [
              72.5875,
              19.129492
            ],
            [
              72.591602,
              19.130859
            ],
            [
              72.598438,
              19.137695
            ],
            [
              72.598438,
              19.145898
            ],
            [
              72.59707,
              19.147266
            ],
            [
              72.59707,
              19.15
            ],
            [
              72.558789,
              19.15
            ],
            [
              72.557422,
              19.148633
            ]
          ]
        ]
      }
    },
    {
      "type": "Feature",
      "properties": {
        "spill_id": "palsar_356",
        "confidence": 0.84
      },
      "geometry": {
        "type": "Polygon",
        "coordinates": [
          [
            [
              72.5,
              19.15
            ],
            [
              72.5,
              19.119922
            ],
            [
              72.504102,
              19.118555
            ],
            [
              72.506836,
              19.11582
            ],
            [
              72.508203,
              19.11582
            ],
            [
              72.513672,
              19.111719
            ],
            [
              72.523242,
              19.111719
            ],
            [
              72.525977,
              19.113086
            ],
            [
              72.531445,
              19.121289
            ],
            [
              72.531445,
              19.124023
            ],
            [
              72.532812,
              19.125391
            ],
            [
              72.532812,
              19.132227
            ],
            [
              72.517773,
              19.147266
            ],
            [
              72.517773,
              19.15
            ],
            [
              72.5,
              19.15
            ]
          ]
        ]
      }
    }
  ]
}