{
  "type": "FeatureCollection",
  "features": [
    {
      "type": "Feature",
      "properties": {
        "spill_id": "palsar_74",
        "confidence": 0.92
      },
      "geometry": {
        "type": "Polygon",
        "coordinates": [
          [
            [
              72.740625,
              19.15
            ],
            [
              72.743359,
              19.132227
            ],
            [
              72.776172,
              19.0625
            ],
            [
              72.804883,
              19.013281
            ],
            [
              72.813086,
              18.98457
            ],
            [
              72.825391,
              18.964062
            ],
            [
              72.822656,
              18.94082
            ],
            [
              72.825391,
              18.93125
            ],
            [
              72.830859,
              18.929883
            ],
            [
              72.834961,
              18.943555
            ],
            [
              72.832227,
              18.958594
            ],
            [
              72.837695,
              18.964062
            ],
            [
              72.833594,
              18.972266
            ],
            [
              72.839062,
              18.980469
            ],
            [
              72.832227,
              19.005078
            ],
            [
              72.834961,
              19.020117
            ],
            [
              72.830859,
              19.037891
            ],
            [
              72.818555,
              19.054297
            ],
            [
              72.819922,
              19.063867
            ],
            [
              72.80625,
              19.076172
            ],
            [
              72.783008,
              19.110352
            ],
            [
              72.788477,
              19.130859
            ],
            [
              72.784375,
              19.15
            ],
            [
              72.740625,
              19.15
            ]
          ]
        ]
      }
    },
    {
      "type": "Feature",
      "properties": {
        "spill_id": "palsar_74",
        "confidence": 0.92
      },
      "geometry": {
        "type": "Polygon",
        "coordinates": [
          [
            [
              72.504102,
              19.15
            ],
            [
              72.5,
              19.141797
            ],
            [
              72.513672,
              19.133594
            ],
            [
              72.524609,
              19.10625
            ],
            [
              72.510938,
              19.092578
            ],
            [
              72.510938,
              19.074805
            ],
            [
              72.523242,
              19.059766
            ],
            [
              72.55332,
              19.048828
            ],
            [
              72.554688,
              19.024219
            ],
            [
              72.5875,
              18.966797
            ],
            [
              72.590234,
              18.942188
            ],
            [
              72.576562,
              18.927148
            ],
            [
              72.576562,
              18.902539
            ],
            [
              72.595703,
              18.888867
            ],
            [
              72.59707,
              18.876562
            ],
            [
              72.583398,
              18.825977
            ],
            [
              72.595703,
              18.80957
            ],
            [
              72.651758,
              18.801367
            ],
            [
              72.654492,
              18.823242
            ],
            [
              72.642187,
              18.857422
            ],
            [
              72.657227,
              18.913477
            ],
            [
              72.636719,
              18.929883
            ],
            [
              72.610742,
              18.98457
            ],
            [
              72.616211,
              19.02832
            ],
            [
              72.591602,
              19.065234
            ],
            [
              72.592969,
              19.089844
            ],
            [
              72.576562,
              19.15
            ],
            [
              72.504102,
              19.15
            ]
          ]
        ]
      }
    }
  ]
}