{
  "type": "FeatureCollection",
  "features": [
    {
      "type": "Feature",
      "properties": {
        "spill_id": "palsar_236",
        "confidence": 0.81
      },
      "geometry": {
        "type": "Polygon",
        "coordinates": [
          [
            [
              72.848633,
              19.024219
            ],
            [
              72.825391,
              19.039258
            ],
            [
              72.803516,
              19.033789
            ],
            [
              72.79668,
              19.055664
            ],
            [
              72.741992,
              19.044727
            ],
            [
              72.75293,
              19.059766
            ],
            [
              72.733789,
              19.092578
            ],
            [
              72.683203,
              19.070703
            ],
            [
              72.669531,
              19.102148
            ],
            [
              72.662695,
              19.046094
            ],
            [
              72.676367,
              19.022852
            ],
            [
              72.643555,
              18.987305
            ],
            [
              72.594336,
              18.996875
            ],
            [
              72.612109,
              18.969531
            ],
            [
              72.603906,
              18.935352
            ],
            [
              72.535547,
              18.966797
            ],
            [
              72.530078,
              18.936719
            ],
            [
              72.504102,
              18.917578
            ],
            [
              72.53418,
              18.92168
            ],
            [
              72.536914,
              18.909375
            ],
            [
              72.5,
              18.876562
            ],
            [
              72.515039,
              18.868359
            ],
            [
              72.576562,
              18.895703
            ],
            [
              72.633984,
              18.849219
            ],
            [
              72.661328,
              18.850586
            ],
            [
              72.720117,
              18.892969
            ],
            [
              72.679102,
              18.929883
            ],
            [
              72.688672,
              18.96543
            ],
            [
              72.714648,
              18.981836
            ],
            [
              72.699609,
              19.01875
            ],
            [
              72.710547,
              19.040625
            ],
            [
              72.732422,
              19.048828
            ],
            [
              72.736523,
              19.024219
            ],
            [
              72.80625,
              18.995508
            ],
            [
              72.798047,
              18.968164
            ],
            [
              72.767969,
              18.96543
            ],
            [
              72.754297,
              18.942188
            ],
            [
              72.725586,
              18.943555
            ],
            [
              72.77207,
              18.923047
            ],
            [
              72.844531,
              18.935352
            ],
            [
              72.848633,
              19.024219
            ]
          ]
        ]
      }
    }
  ]
}