{
  "type": "FeatureCollection",
  "features": [
    {
      "type": "Feature",
      "properties": {
        "spill_id": "palsar_513",
        "confidence": 0.87
      },
      "geometry": {
        "type": "Polygon",
        "coordinates": [
          [
            [
              72.843164,
              18.813672
            ],
            [
              72.818555,
              18.816406
            ],
            [
              72.817187,
              18.820508
            ],
            [
              72.821289,
              18.830078
            ],
            [
              72.811719,
              18.831445
            ],
            [
              72.743359,
              18.819141
            ],
            [
              72.707812,
              18.816406
            ],
            [
              72.681836,
              18.808203
            ],
            [
              72.690039,
              18.801367
            ],
            [
              72.830859,
              18.801367
            ],
            [
              72.841797,
              18.808203
            ],
            [
              72.843164,
              18.813672
            ]
          ]
        ]
      }
    },
    {
      "type": "Feature",
      "properties": {
        "spill_id": "palsar_513",
        "confidence": 0.87
      },
      "geometry": {
        "type": "Polygon",
        "coordinates": [
          [
            [
              72.848633,
              18.8875
            ],
            [
              72.829492,
              18.891602
            ],
            [
              72.810352,
              18.87793
            ],
            [
              72.79668,
              18.876562
            ],
            [
              72.776172,
              18.888867
            ],
            [
              72.735156,
              18.888867
            ],
            [
              72.722852,
              18.873828
            ],
            [
              72.680469,
              18.869727
            ],
            [
              72.661328,
              18.838281
            ],
            [
              72.601172,
              18.830078
            ],
            [
              72.579297,
              18.820508
            ],
            [
              72.532812,
              18.817773
            ],
            [
              72.501367,
              18.823242
            ],
            [
              72.5,
              18.801367
            ],
            [
              72.584766,
              18.801367
            ],
            [
              72.617578,
              18.810938
            ],
            [
              72.677734,
              18.816406
            ],
            [
              72.845898,
              18.873828
            ],
            [
              72.848633,
              18.8875
            ]
          ]
        ]
      }
    },
    {
      "type": "Feature",
      "properties": {
        "spill_id": "palsar_513",
        "confidence": 0.87
      },
      "geometry": {
        "type": "Polygon",
        "coordinates": [
          [
            [
              72.5,
              18.920312
            ],
            [
              72.5,
              18.875195
            ],
            [
              72.515039,
              18.868359
            ],
            [
              72.525977,
              18.866992
            ],
            [
              72.53418,
              18.858789
            ],
            [
              72.562891,
              18.873828
            ],
            [
              72.580664,
              18.876562
            ],
            [
              72.601172,
              18.884766
            ],
            [
              72.609375,
              18.884766
            ],
            [
              72.624414,
              18.892969
            ],
            [
              72.623047,
              18.89707
            ],
            [
              72.602539,
              18.903906
            ],
            [
              72.527344,
              18.903906
            ],
            [
              72.521875,
              18.920312
            ],
            [
              72.515039,
              18.920312
            ],
            [
              72.508203,
              18.924414
            ],
            [
              72.5,
              18.920312
            ]
          ]
        ]
      }
    },
    {
      "type": "Feature",
      "properties": {
        "spill_id": "palsar_513",
        "confidence": 0.87
      },
      "geometry": {
        "type": "Polygon",
        "coordinates": [
          [
            [
              72.5,
              18.957227
            ],
            [
              72.5,
              18.942188
            ],
            [
              72.502734,
              18.939453
            ],
            [
              72.502734,
              18.938086
            ],
            [
              72.50957,
              18.93125
            ],
            [
              72.510938,
              18.93125
            ],
            [
              72.512305,
              18.929883
            ],
            [
              72.520508,
              18.929883
            ],
            [
              72.524609,
              18.927148
            ],
            [
              72.528711,
              18.927148
            ],
            [
              72.530078,
              18.928516
            ],
            [
              72.531445,
              18.928516
            ],
            [
              72.53418,
              18.93125
            ],
            [
              72.53418,
              18.935352
            ],
            [
              72.531445,
              18.938086
            ],
            [
              72.530078,
              18.938086
            ],
            [
              72.528711,
              18.939453
            ],
            [
              72.525977,
              18.939453
            ],
            [
              72.524609,
              18.94082
            ],
            [
              72.520508,
              18.942188
            ],
            [
              72.512305,
              18.950391
            ],
            [
              72.512305,
              18.951758
            ],
            [
              72.508203,
              18.955859
            ],
            [
              72.506836,
              18.955859
            ],
            [
              72.505469,
              18.957227
            ],
            [
              72.5,
              18.957227
            ]
          ]
        ]
      }
    },
    {
      "type": "Feature",
      "properties": {
        "spill_id": "palsar_513",
        "confidence": 0.87
      },
      "geometry": {
        "type": "Polygon",
        "coordinates": [
          [
            [
              72.583398,
              19.041992
            ],
            [
              72.576562,
              19.041992
            ],
            [
              72.575195,
              19.040625
            ],
            [
              72.571094,
              19.040625
            ],
            [
              72.564258,
              19.036523
            ],
            [
              72.558789,
              19.035156
            ],
            [
              72.55332,
              19.029687
            ],
            [
              72.551953,
              19.003711
            ],
            [
              72.554688,
              18.999609
            ],
            [
              72.554688,
              18.996875
            ],
            [
              72.557422,
              18.994141
            ],
            [
              72.562891,
              18.994141
            ],
            [
              72.565625,
              18.995508
            ],
            [
              72.566992,
              18.999609
            ],
            [
              72.57793,
              19.00918
            ],
            [
              72.580664,
              19.014648
            ],
            [
              72.580664,
              19.021484
            ],
            [
              72.579297,
              19.022852
            ],
            [
              72.580664,
              19.024219
            ],
            [
              72.580664,
              19.02832
            ],
            [
              72.583398,
              19.031055
            ],
            [
              72.586133,
              19.036523
            ],
            [
              72.586133,
              19.039258
            ],
            [
              72.583398,
              19.041992
            ]
          ]
        ]
      }
    },
    {
      "type": "Feature",
      "properties": {
        "spill_id": "palsar_513",
        "confidence": 0.87
      },
      "geometry": {
        "type": "Polygon",
        "coordinates": [
          [
            [
              72.848633,
              19.10625
            ],
            [
              72.84043,
              19.108984
            ],
            [
              72.828125,
              19.098047
            ],
            [
              72.832227,
              19.067969
            ],
            [
              72.814453,
              19.048828
            ],
            [
              72.818555,
              19.026953
            ],
            [
              72.795312,
              19.014648
            ],
            [
              72.773438,
              18.983203
            ],
            [
              72.741992,
              18.970898
            ],
            [
              72.729688,
              18.988672
            ],
            [
              72.729688,
              18.968164
            ],
            [
              72.700977,
              18.970898
            ],
            [
              72.687305,
              18.990039
            ],
            [
              72.702344,
              19.007812
            ],
            [
              72.670898,
              19.013281
            ],
            [
              72.625781,
              18.98457
            ],
            [
              72.625781,
              18.966797
            ],
            [
              72.613477,
              18.955859
            ],
            [
              72.558789,
              18.938086
            ],
            [
              72.556055,
              18.927148
            ],
            [
              72.582031,
              18.918945
            ],
            [
              72.638086,
              18.927148
            ],
            [
              72.646289,
              18.912109
            ],
            [
              72.679102,
              18.928516
            ],
            [
              72.754297,
              18.94082
            ],
            [
              72.755664,
              18.955859
            ],
            [
              72.766602,
              18.966797
            ],
            [
              72.819922,
              18.983203
            ],
            [
              72.830859,
              18.995508
            ],
            [
              72.829492,
              19.016016
            ],
            [
              72.848633,
              19.024219
            ],
            [
              72.848633,
              19.055664
            ],
            [
              72.839062,
              19.066602
            ],
            [
              72.848633,
              19.10625
            ]
          ]
        ]
      }
    },
    {
      "type": "Feature",
      "properties": {
        "spill_id": "palsar_513",
        "confidence": 0.87
      },
      "geometry": {
        "type": "Polygon",
        "coordinates": [
          [
            [
              72.502734,
              19.130859
            ],
            [
              72.501367,
              19.129492
            ],
            [
              72.5,
              19.129492
            ],
            [
              72.5,
              19.108984
            ],
            [
              72.506836,
              19.108984
            ],
            [
              72.510938,
              19.113086
            ],
            [
              72.510938,
              19.114453
            ],
            [
              72.512305,
              19.11582
            ],
            [
              72.512305,
              19.124023
            ],
            [
              72.510938,
              19.125391
            ],
            [
              72.510938,
              19.126758
            ],
            [
              72.50957,
              19.128125
            ],
            [
              72.508203,
              19.128125
            ],
            [
              72.505469,
              19.130859
            ],
            [
              72.502734,
              19.130859
            ]
          ]
        ]
      }
    }
  ]
}