{
  "type": "FeatureCollection",
  "features": [
    {
      "type": "Feature",
      "properties": {
        "spill_id": "palsar_737",
        "confidence": 0.97
      },
      "geometry": {
        "type": "Polygon",
        "coordinates": [
          [
            [
              72.848633,
              18.873828
            ],
            [
              72.817187,
              18.87793
            ],
            [
              72.767969,
              18.868359
            ],
            [
              72.75293,
              18.847852
            ],
            [
              72.729688,
              18.831445
            ],
            [
              72.706445,
              18.823242
            ],
            [
              72.675,
              18.802734
            ],
            [
              72.848633,
              18.801367
            ],
            [
              72.848633,
              18.873828
            ]
          ]
        ]
      }
    }
  ]
}