{
  "type": "FeatureCollection",
  "features": [
    {
      "type": "Feature",
      "properties": {
        "spill_id": "palsar_173",
        "confidence": 0.86
      },
      "geometry": {
        "type": "Polygon",
        "coordinates": [
          [
            [
              72.747461,
              18.875195
            ],
            [
              72.739258,
              18.875195
            ],
            [
              72.736523,
              18.873828
            ],
            [
              72.729688,
              18.866992
            ],
            [
              72.72832,
              18.864258
            ],
            [
              72.72832,
              18.857422
            ],
            [
              72.732422,
              18.850586
            ],
            [
              72.732422,
              18.849219
            ],
            [
              72.726953,
              18.84375
            ],
            [
              72.724219,
              18.838281
            ],
            [
              72.724219,
              18.83418
            ],
            [
              72.725586,
              18.831445
            ],
            [
              72.72832,
              18.830078
            ],
            [
              72.735156,
              18.830078
            ],
            [
              72.741992,
              18.838281
            ],
            [
              72.744727,
              18.838281
            ],
            [
              72.747461,
              18.839648
            ],
            [
              72.747461,
              18.84375
            ],
            [
              72.740625,
              18.849219
            ],
            [
              72.740625,
              18.85332
            ],
            [
              72.747461,
              18.865625
            ],
            [
              72.747461,
              18.875195
            ]
          ]
        ]
      }
    },
    {
      "type": "Feature",
      "properties": {
        "spill_id": "palsar_173",
        "confidence": 0.86
      },
      "geometry": {
        "type": "Polygon",
        "coordinates": [
          [
            [
              72.791211,
              18.883398
            ],
            [
              72.787109,
              18.880664
            ],
            [
              72.783008,
              18.872461
            ],
            [
              72.780273,
              18.858789
            ],
            [
              72.776172,
              18.849219
            ],
            [
              72.776172,
              18.831445
            ],
            [
              72.770703,
              18.812305
            ],
            [
              72.77207,
              18.801367
            ],
            [
              72.784375,
              18.801367
            ],
            [
              72.792578,
              18.817773
            ],
            [
              72.803516,
              18.830078
            ],
            [
              72.80625,
              18.835547
            ],
            [
              72.80625,
              18.845117
            ],
            [
              72.811719,
              18.858789
            ],
            [
              72.810352,
              18.866992
            ],
            [
              72.800781,
              18.879297
            ],
            [
              72.798047,
              18.879297
            ],
            [
              72.791211,
              18.883398
            ]
          ]
        ]
      }
    },
    {
      "type": "Feature",
      "properties": {
        "spill_id": "palsar_173",
        "confidence": 0.86
      },
      "geometry": {
        "type": "Polygon",
        "coordinates": [
          [
            [
              72.584766,
              18.899805
            ],
            [
              72.582031,
              18.902539
            ],
            [
              72.580664,
              18.901172
            ],
            [
              72.579297,
              18.901172
            ],
            [
              72.57793,
              18.899805
            ],
            [
              72.575195,
              18.899805
            ],
            [
              72.572461,
              18.89707
            ],
            [
              72.572461,
              18.892969
            ],
            [
              72.573828,
              18.891602
            ],
            [
              72.575195,
              18.891602
            ],
            [
              72.576562,
              18.890234
            ],
            [
              72.582031,
              18.890234
            ],
            [
              72.583398,
              18.891602
            ],
            [
              72.584766,
              18.891602
            ],
            [
              72.584766,
              18.894336
            ],
            [
              72.586133,
              18.895703
            ],
            [
              72.586133,
              18.89707
            ],
            [
              72.584766,
              18.898438
            ],
            [
              72.584766,
              18.899805
            ]
          ]
        ]
      }
    },
    {
      "type": "Feature",
      "properties": {
        "spill_id": "palsar_173",
        "confidence": 0.86
      },
      "geometry": {
        "type": "Polygon",
        "coordinates": [
          [
            [
              72.800781,
              18.910742
            ],
            [
              72.79668,
              18.910742
            ],
            [
              72.795312,
              18.909375
            ],
            [
              72.795312,
              18.908008
            ],
            [
              72.793945,
              18.906641
            ],
            [
              72.793945,
              18.902539
            ],
            [
              72.795312,
              18.901172
            ],
            [
              72.793945,
              18.899805
            ],
            [
              72.793945,
              18.895703
            ],
            [
              72.792578,
              18.894336
            ],
            [
              72.792578,
              18.891602
            ],
            [
              72.795312,
              18.891602
            ],
            [
              72.79668,
              18.892969
            ],
            [
              72.79668,
              18.894336
            ],
            [
              72.798047,
              18.895703
            ],
            [
              72.798047,
              18.89707
            ],
            [
              72.799414,
              18.898438
            ],
            [
              72.799414,
              18.899805
            ],
            [
              72.802148,
              18.902539
            ],
            [
              72.802148,
              18.903906
            ],
            [
              72.803516,
              18.905273
            ],
            [
              72.803516,
              18.908008
            ],
            [
              72.800781,
              18.910742
            ]
          ]
        ]
      }
    },
    {
      "type": "Feature",
      "properties": {
        "spill_id": "palsar_173",
        "confidence": 0.86
      },
      "geometry": {
        "type": "Polygon",
        "coordinates": [
          [
            [
              72.830859,
              18.939453
            ],
            [
              72.828125,
              18.939453
            ],
            [
              72.819922,
              18.935352
            ],
            [
              72.818555,
              18.932617
            ],
            [
              72.818555,
              18.929883
            ],
            [
              72.817187,
              18.928516
            ],
            [
              72.817187,
              18.914844
            ],
            [
              72.813086,
              18.906641
            ],
            [
              72.813086,
              18.898438
            ],
            [
              72.817187,
              18.890234
            ],
            [
              72.819922,
              18.888867
            ],
            [
              72.824023,
              18.888867
            ],
            [
              72.825391,
              18.890234
            ],
            [
              72.828125,
              18.895703
            ],
            [
              72.828125,
              18.898438
            ],
            [
              72.829492,
              18.899805
            ],
            [
              72.829492,
              18.905273
            ],
            [
              72.830859,
              18.906641
            ],
            [
              72.830859,
              18.913477
            ],
            [
              72.829492,
              18.914844
            ],
            [
              72.829492,
              18.918945
            ],
            [
              72.830859,
              18.920312
            ],
            [
              72.830859,
              18.925781
            ],
            [
              72.832227,
              18.927148
            ],
            [
              72.832227,
              18.938086
            ],
            [
              72.830859,
              18.939453
            ]
          ]
        ]
      }
    },
    {
      "type": "Feature",
      "properties": {
        "spill_id": "palsar_173",
        "confidence": 0.86
      },
      "geometry": {
        "type": "Polygon",
        "coordinates": [
          [
            [
              72.538281,
              18.977734
            ],
            [
              72.531445,
              18.972266
            ],
            [
              72.535547,
              18.958594
            ],
            [
              72.531445,
              18.953125
            ],
            [
              72.531445,
              18.947656
            ],
            [
              72.524609,
              18.943555
            ],
            [
              72.516406,
              18.933984
            ],
            [
              72.510938,
              18.906641
            ],
            [
              72.519141,
              18.89707
            ],
            [
              72.525977,
              18.895703
            ],
            [
              72.53418,
              18.890234
            ],
            [
              72.531445,
              18.871094
            ],
            [
              72.53418,
              18.866992
            ],
            [
              72.541016,
              18.865625
            ],
            [
              72.549219,
              18.871094
            ],
            [
              72.554688,
              18.879297
            ],
            [
              72.554688,
              18.899805
            ],
            [
              72.550586,
              18.917578
            ],
            [
              72.545117,
              18.927148
            ],
            [
              72.538281,
              18.929883
            ],
            [
              72.538281,
              18.936719
            ],
            [
              72.549219,
              18.944922
            ],
            [
              72.554688,
              18.958594
            ],
            [
              72.554688,
              18.96543
            ],
            [
              72.546484,
              18.976367
            ],
            [
              72.538281,
              18.977734
            ]
          ]
        ]
      }
    },
    {
      "type": "Feature",
      "properties": {
        "spill_id": "palsar_173",
        "confidence": 0.86
      },
      "geometry": {
        "type": "Polygon",
        "coordinates": [
          [
            [
              72.824023,
              19.011914
            ],
            [
              72.821289,
              19.00918
            ],
            [
              72.821289,
              18.995508
            ],
            [
              72.814453,
              18.976367
            ],
            [
              72.814453,
              18.96543
            ],
            [
              72.81582,
              18.964062
            ],
            [
              72.814453,
              18.954492
            ],
            [
              72.817187,
              18.951758
            ],
            [
              72.819922,
              18.953125
            ],
            [
              72.819922,
              18.959961
            ],
            [
              72.824023,
              18.968164
            ],
            [
              72.830859,
              18.975
            ],
            [
              72.834961,
              18.972266
            ],
            [
              72.839062,
              18.96543
            ],
            [
              72.845898,
              18.968164
            ],
            [
              72.848633,
              18.970898
            ],
            [
              72.848633,
              18.998242
            ],
            [
              72.847266,
              18.996875
            ],
            [
              72.843164,
              18.998242
            ],
            [
              72.836328,
              18.990039
            ],
            [
              72.833594,
              18.991406
            ],
            [
              72.829492,
              18.998242
            ],
            [
              72.826758,
              19.010547
            ],
            [
              72.824023,
              19.011914
            ]
          ]
        ]
      }
    },
    {
      "type": "Feature",
      "properties": {
        "spill_id": "palsar_173",
        "confidence": 0.86
      },
      "geometry": {
        "type": "Polygon",
        "coordinates": [
          [
            [
              72.66543,
              19.078906
            ],
            [
              72.658594,
              19.078906
            ],
            [
              72.657227,
              19.077539
            ],
            [
              72.655859,
              19.077539
            ],
            [
              72.655859,
              19.076172
            ],
            [
              72.654492,
              19.074805
            ],
            [
              72.654492,
              19.07207
            ],
            [
              72.655859,
              19.070703
            ],
            [
              72.655859,
              19.069336
            ],
            [
              72.657227,
              19.067969
            ],
            [
              72.657227,
              19.066602
            ],
            [
              72.658594,
              19.065234
            ],
            [
              72.661328,
              19.065234
            ],
            [
              72.664062,
              19.067969
            ],
            [
              72.664062,
              19.069336
            ],
            [
              72.66543,
              19.070703
            ],
            [
              72.66543,
              19.078906
            ]
          ]
        ]
      }
    },
    {
      "type": "Feature",
      "properties": {
        "spill_id": "palsar_173",
        "confidence": 0.86
      },
      "geometry": {
        "type": "Polygon",
        "coordinates": [
          [
            [
              72.5,
              19.098047
            ],
            [
              72.5,
              19.036523
            ],
            [
              72.505469,
              19.036523
            ],
            [
              72.50957,
              19.044727
            ],
            [
              72.50957,
              19.048828
            ],
            [
              72.510938,
              19.050195
            ],
            [
              72.510938,
              19.058398
            ],
            [
              72.512305,
              19.059766
            ],
            [
              72.513672,
              19.067969
            ],
            [
              72.516406,
              19.073438
            ],
            [
              72.516406,
              19.080273
            ],
            [
              72.513672,
              19.085742
            ],
            [
              72.50957,
              19.089844
            ],
            [
              72.508203,
              19.093945
            ],
            [
              72.5,
              19.098047
            ]
          ]
        ]
      }
    },
    {
      "type": "Feature",
      "properties": {
        "spill_id": "palsar_173",
        "confidence": 0.86
      },
      "geometry": {
        "type": "Polygon",
        "coordinates": [
          [
            [
              72.546484,
              19.136328
            ],
            [
              72.541016,
              19.133594
            ],
            [
              72.539648,
              19.125391
            ],
            [
              72.547852,
              19.104883
            ],
            [
              72.546484,
              19.088477
            ],
            [
              72.554688,
              19.073438
            ],
            [
              72.547852,
              19.043359
            ],
            [
              72.549219,
              19.021484
            ],
            [
              72.561523,
              19.007812
            ],
            [
              72.565625,
              18.988672
            ],
            [
              72.57793,
              18.981836
            ],
            [
              72.584766,
              18.968164
            ],
            [
              72.591602,
              18.962695
            ],
            [
              72.595703,
              18.970898
            ],
            [
              72.591602,
              18.980469
            ],
            [
              72.582031,
              18.98457
            ],
            [
              72.583398,
              18.998242
            ],
            [
              72.573828,
              19.013281
            ],
            [
              72.57793,
              19.033789
            ],
            [
              72.568359,
              19.059766
            ],
            [
              72.576562,
              19.080273
            ],
            [
              72.576562,
              19.093945
            ],
            [
              72.562891,
              19.132227
            ],
            [
              72.546484,
              19.136328
            ]
          ]
        ]
      }
    },
    {
      "type": "Feature",
      "properties": {
        "spill_id": "palsar_173",
        "confidence": 0.86
      },
      "geometry": {
        "type": "Polygon",
        "coordinates": [
          [
            [
              72.680469,
              19.15
            ],
            [
              72.680469,
              19.148633
            ],
            [
              72.679102,
              19.147266
            ],
            [
              72.679102,
              19.137695
            ],
            [
              72.680469,
              19.136328
            ],
            [
              72.680469,
              19.133594
            ],
            [
              72.681836,
              19.132227
            ],
            [
              72.687305,
              19.132227
            ],
            [
              72.687305,
              19.133594
            ],
            [
              72.688672,
              19.134961
            ],
            [
              72.688672,
              19.137695
            ],
            [
              72.690039,
              19.139062
            ],
            [
              72.690039,
              19.143164
            ],
            [
              72.691406,
              19.144531
            ],
            [
              72.691406,
              19.15
            ],
            [
              72.680469,
              19.15
            ]
          ]
        ]
      }
    },
    {
      "type": "Feature",
      "properties": {
        "spill_id": "palsar_173",
        "confidence": 0.86
      },
      "geometry": {
        "type": "Polygon",
        "coordinates": [
          [
            [
              72.584766,
              19.15
            ],
            [
              72.606641,
              18.981836
            ],
            [
              72.627148,
              18.966797
            ],
            [
              72.628516,
              18.943555
            ],
            [
              72.62168,
              18.936719
            ],
            [
              72.592969,
              18.957227
            ],
            [
              72.595703,
              18.862891
            ],
            [
              72.582031,
              18.825977
            ],
            [
              72.556055,
              18.830078
            ],
            [
              72.556055,
              18.806836
            ],
            [
              72.576562,
              18.801367
            ],
            [
              72.586133,
              18.823242
            ],
            [
              72.5875,
              18.801367
            ],
            [
              72.609375,
              18.801367
            ],
            [
              72.618945,
              18.836914
            ],
            [
              72.618945,
              18.802734
            ],
            [
              72.636719,
              18.801367
            ],
            [
              72.654492,
              18.910742
            ],
            [
              72.66543,
              18.905273
            ],
            [
              72.675,
              18.949023
            ],
            [
              72.691406,
              18.972266
            ],
            [
              72.690039,
              19.002344
            ],
            [
              72.672266,
              19.014648
            ],
            [
              72.66543,
              19.036523
            ],
            [
              72.658594,
              18.942188
            ],
            [
              72.649023,
              18.981836
            ],
            [
              72.624414,
              19.014648
            ],
            [
              72.635352,
              19.061133
            ],
            [
              72.63125,
              19.15
            ],
            [
              72.617578,
              19.15
            ],
            [
              72.610742,
              19.136328
            ],
            [
              72.602539,
              19.15
            ],
            [
              72.584766,
              19.15
            ]
          ]
        ]
      }
    }
  ]
}