{
  "type": "FeatureCollection",
  "features": [
    {
      "type": "Feature",
      "properties": {
        "spill_id": "palsar_510",
        "confidence": 0.88
      },
      "geometry": {
        "type": "Polygon",
        "coordinates": [
          [
            [
              72.744727,
              18.83418
            ],
            [
              72.744727,
              18.830078
            ],
            [
              72.747461,
              18.827344
            ],
            [
              72.748828,
              18.827344
            ],
            [
              72.751562,
              18.824609
            ],
            [
              72.754297,
              18.824609
            ],
            [
              72.757031,
              18.821875
            ],
            [
              72.759766,
              18.821875
            ],
            [
              72.761133,
              18.820508
            ],
            [
              72.766602,
              18.820508
            ],
            [
              72.766602,
              18.821875
            ],
            [
              72.767969,
              18.823242
            ],
            [
              72.767969,
              18.824609
            ],
            [
              72.766602,
              18.825977
            ],
            [
              72.766602,
              18.828711
            ],
            [
              72.765234,
              18.830078
            ],
            [
              72.765234,
              18.831445
            ],
            [
              72.7625,
              18.83418
            ],
            [
              72.761133,
              18.83418
            ],
            [
              72.759766,
              18.835547
            ],
            [
              72.758398,
              18.835547
            ],
            [
              72.757031,
              18.836914
            ],
            [
              72.747461,
              18.836914
            ],
            [
              72.744727,
              18.83418
            ]
          ]
        ]
      }
    },
    {
      "type": "Feature",
      "properties": {
        "spill_id": "palsar_510",
        "confidence": 0.88
      },
      "geometry": {
        "type": "Polygon",
        "coordinates": [
          [
            [
              72.785742,
              18.865625
            ],
            [
              72.784375,
              18.854688
            ],
            [
              72.788477,
              18.846484
            ],
            [
              72.800781,
              18.83418
            ],
            [
              72.800781,
              18.828711
            ],
            [
              72.798047,
              18.825977
            ],
            [
              72.791211,
              18.824609
            ],
            [
              72.789844,
              18.816406
            ],
            [
              72.784375,
              18.812305
            ],
            [
              72.787109,
              18.80957
            ],
            [
              72.803516,
              18.810938
            ],
            [
              72.808984,
              18.808203
            ],
            [
              72.814453,
              18.801367
            ],
            [
              72.848633,
              18.801367
            ],
            [
              72.848633,
              18.830078
            ],
            [
              72.845898,
              18.831445
            ],
            [
              72.843164,
              18.836914
            ],
            [
              72.834961,
              18.841016
            ],
            [
              72.829492,
              18.841016
            ],
            [
              72.817187,
              18.850586
            ],
            [
              72.800781,
              18.857422
            ],
            [
              72.791211,
              18.865625
            ],
            [
              72.785742,
              18.865625
            ]
          ]
        ]
      }
    },
    {
      "type": "Feature",
      "properties": {
        "spill_id": "palsar_510",
        "confidence": 0.88
      },
      "geometry": {
        "type": "Polygon",
        "coordinates": [
          [
            [
              72.687305,
              18.891602
            ],
            [
              72.687305,
              18.890234
            ],
            [
              72.688672,
              18.888867
            ],
            [
              72.690039,
              18.888867
            ],
            [
              72.691406,
              18.8875
            ],
            [
              72.692773,
              18.8875
            ],
            [
              72.694141,
              18.886133
            ],
            [
              72.705078,
              18.886133
            ],
            [
              72.706445,
              18.8875
            ],
            [
              72.703711,
              18.890234
            ],
            [
              72.692773,
              18.890234
            ],
            [
              72.691406,
              18.891602
            ],
            [
              72.687305,
              18.891602
            ]
          ]
        ]
      }
    },
    {
      "type": "Feature",
      "properties": {
        "spill_id": "palsar_510",
        "confidence": 0.88
      },
      "geometry": {
        "type": "Polygon",
        "coordinates": [
          [
            [
              72.792578,
              18.898438
            ],
            [
              72.793945,
              18.892969
            ],
            [
              72.802148,
              18.886133
            ],
            [
              72.803516,
              18.882031
            ],
            [
              72.810352,
              18.875195
            ],
            [
              72.81582,
              18.875195
            ],
            [
              72.826758,
              18.871094
            ],
            [
              72.839062,
              18.857422
            ],
            [
              72.847266,
              18.857422
            ],
            [
              72.848633,
              18.858789
            ],
            [
              72.848633,
              18.890234
            ],
            [
              72.839062,
              18.899805
            ],
            [
              72.822656,
              18.906641
            ],
            [
              72.818555,
              18.910742
            ],
            [
              72.810352,
              18.910742
            ],
            [
              72.807617,
              18.909375
            ],
            [
              72.804883,
              18.905273
            ],
            [
              72.795312,
              18.901172
            ],
            [
              72.792578,
              18.898438
            ]
          ]
        ]
      }
    },
    {
      "type": "Feature",
      "properties": {
        "spill_id": "palsar_510",
        "confidence": 0.88
      },
      "geometry": {
        "type": "Polygon",
        "coordinates": [
          [
            [
              72.743359,
              18.970898
            ],
            [
              72.740625,
              18.973633
            ],
            [
              72.729688,
              18.973633
            ],
            [
              72.72832,
              18.972266
            ],
            [
              72.724219,
              18.970898
            ],
            [
              72.724219,
              18.969531
            ],
            [
              72.71875,
              18.964062
            ],
            [
              72.71875,
              18.962695
            ],
            [
              72.717383,
              18.961328
            ],
            [
              72.716016,
              18.961328
            ],
            [
              72.713281,
              18.958594
            ],
            [
              72.711914,
              18.958594
            ],
            [
              72.70918,
              18.955859
            ],
            [
              72.707812,
              18.955859
            ],
            [
              72.707812,
              18.954492
            ],
            [
              72.705078,
              18.951758
            ],
            [
              72.705078,
              18.943555
            ],
            [
              72.70918,
              18.939453
            ],
            [
              72.716016,
              18.939453
            ],
            [
              72.717383,
              18.94082
            ],
            [
              72.71875,
              18.94082
            ],
            [
              72.721484,
              18.943555
            ],
            [
              72.721484,
              18.944922
            ],
            [
              72.726953,
              18.950391
            ],
            [
              72.726953,
              18.951758
            ],
            [
              72.729688,
              18.954492
            ],
            [
              72.731055,
              18.954492
            ],
            [
              72.737891,
              18.961328
            ],
            [
              72.737891,
              18.962695
            ],
            [
              72.740625,
              18.96543
            ],
            [
              72.741992,
              18.96543
            ],
            [
              72.741992,
              18.966797
            ],
            [
              72.743359,
              18.968164
            ],
            [
              72.743359,
              18.970898
            ]
          ]
        ]
      }
    },
    {
      "type": "Feature",
      "properties": {
        "spill_id": "palsar_510",
        "confidence": 0.88
      },
      "geometry": {
        "type": "Polygon",
        "coordinates": [
          [
            [
              72.834961,
              19.022852
            ],
            [
              72.833594,
              19.022852
            ],
            [
              72.832227,
              19.021484
            ],
            [
              72.828125,
              19.021484
            ],
            [
              72.826758,
              19.020117
            ],
            [
              72.825391,
              19.020117
            ],
            [
              72.824023,
              19.01875
            ],
            [
              72.822656,
              19.01875
            ],
            [
              72.819922,
              19.016016
            ],
            [
              72.818555,
              19.016016
            ],
            [
              72.81582,
              19.013281
            ],
            [
              72.81582,
              19.011914
            ],
            [
              72.814453,
              19.010547
            ],
            [
              72.814453,
              19.00918
            ],
            [
              72.813086,
              19.007812
            ],
            [
              72.814453,
              19.006445
            ],
            [
              72.814453,
              19.005078
            ],
            [
              72.81582,
              19.006445
            ],
            [
              72.824023,
              19.006445
            ],
            [
              72.825391,
              19.007812
            ],
            [
              72.828125,
              19.007812
            ],
            [
              72.829492,
              19.00918
            ],
            [
              72.830859,
              19.00918
            ],
            [
              72.830859,
              19.010547
            ],
            [
              72.832227,
              19.011914
            ],
            [
              72.832227,
              19.013281
            ],
            [
              72.833594,
              19.014648
            ],
            [
              72.833594,
              19.016016
            ],
            [
              72.834961,
              19.017383
            ],
            [
              72.834961,
              19.022852
            ]
          ]
        ]
      }
    },
    {
      "type": "Feature",
      "properties": {
        "spill_id": "palsar_510",
        "confidence": 0.88
      },
      "geometry": {
        "type": "Polygon",
        "coordinates": [
          [
            [
              72.5,
              19.031055
            ],
            [
              72.5,
              18.991406
            ],
            [
              72.512305,
              18.981836
            ],
            [
              72.528711,
              18.950391
            ],
            [
              72.524609,
              18.942188
            ],
            [
              72.5,
              18.944922
            ],
            [
              72.5,
              18.932617
            ],
            [
              72.521875,
              18.910742
            ],
            [
              72.547852,
              18.914844
            ],
            [
              72.603906,
              18.876562
            ],
            [
              72.635352,
              18.871094
            ],
            [
              72.650391,
              18.857422
            ],
            [
              72.662695,
              18.858789
            ],
            [
              72.651758,
              18.898438
            ],
            [
              72.670898,
              18.905273
            ],
            [
              72.670898,
              18.918945
            ],
            [
              72.68457,
              18.935352
            ],
            [
              72.669531,
              18.936719
            ],
            [
              72.668164,
              18.949023
            ],
            [
              72.683203,
              18.970898
            ],
            [
              72.698242,
              18.976367
            ],
            [
              72.706445,
              18.994141
            ],
            [
              72.691406,
              18.999609
            ],
            [
              72.677734,
              18.983203
            ],
            [
              72.639453,
              18.987305
            ],
            [
              72.62168,
              19.007812
            ],
            [
              72.625781,
              19.026953
            ],
            [
              72.618945,
              19.025586
            ],
            [
              72.618945,
              19.017383
            ],
            [
              72.59707,
              19.020117
            ],
            [
              72.583398,
              19.041992
            ],
            [
              72.575195,
              19.026953
            ],
            [
              72.556055,
              19.013281
            ],
            [
              72.536914,
              19.011914
            ],
            [
              72.520508,
              19.026953
            ],
            [
              72.5,
              19.031055
            ]
          ]
        ]
      }
    },
    {
      "type": "Feature",
      "properties": {
        "spill_id": "palsar_510",
        "confidence": 0.88
      },
      "geometry": {
        "type": "Polygon",
        "coordinates": [
          [
            [
              72.690039,
              19.048828
            ],
            [
              72.683203,
              19.05293
            ],
            [
              72.680469,
              19.05293
            ],
            [
              72.679102,
              19.054297
            ],
            [
              72.673633,
              19.054297
            ],
            [
              72.672266,
              19.05293
            ],
            [
              72.669531,
              19.05293
            ],
            [
              72.662695,
              19.048828
            ],
            [
              72.658594,
              19.048828
            ],
            [
              72.657227,
              19.047461
            ],
            [
              72.653125,
              19.047461
            ],
            [
              72.650391,
              19.044727
            ],
            [
              72.650391,
              19.041992
            ],
            [
              72.651758,
              19.040625
            ],
            [
              72.651758,
              19.039258
            ],
            [
              72.655859,
              19.035156
            ],
            [
              72.657227,
              19.035156
            ],
            [
              72.661328,
              19.032422
            ],
            [
              72.664062,
              19.032422
            ],
            [
              72.66543,
              19.031055
            ],
            [
              72.669531,
              19.031055
            ],
            [
              72.670898,
              19.032422
            ],
            [
              72.673633,
              19.032422
            ],
            [
              72.675,
              19.033789
            ],
            [
              72.676367,
              19.033789
            ],
            [
              72.677734,
              19.035156
            ],
            [
              72.679102,
              19.035156
            ],
            [
              72.680469,
              19.036523
            ],
            [
              72.687305,
              19.039258
            ],
            [
              72.690039,
              19.041992
            ],
            [
              72.690039,
              19.048828
            ]
          ]
        ]
      }
    },
    {
      "type": "Feature",
      "properties": {
        "spill_id": "palsar_510",
        "confidence": 0.88
      },
      "geometry": {
        "type": "Polygon",
        "coordinates": [
          [
            [
              72.763867,
              19.05293
            ],
            [
              72.7625,
              19.054297
            ],
            [
              72.7625,
              19.057031
            ],
            [
              72.759766,
              19.059766
            ],
            [
              72.757031,
              19.059766
            ],
            [
              72.755664,
              19.061133
            ],
            [
              72.75293,
              19.061133
            ],
            [
              72.751562,
              19.059766
            ],
            [
              72.748828,
              19.059766
            ],
            [
              72.744727,
              19.057031
            ],
            [
              72.740625,
              19.057031
            ],
            [
              72.739258,
              19.055664
            ],
            [
              72.733789,
              19.055664
            ],
            [
              72.732422,
              19.054297
            ],
            [
              72.72832,
              19.054297
            ],
            [
              72.726953,
              19.05293
            ],
            [
              72.725586,
              19.05293
            ],
            [
              72.724219,
              19.051562
            ],
            [
              72.724219,
              19.046094
            ],
            [
              72.726953,
              19.043359
            ],
            [
              72.729688,
              19.043359
            ],
            [
              72.731055,
              19.041992
            ],
            [
              72.733789,
              19.041992
            ],
            [
              72.735156,
              19.043359
            ],
            [
              72.736523,
              19.041992
            ],
            [
              72.747461,
              19.041992
            ],
            [
              72.748828,
              19.040625
            ],
            [
              72.757031,
              19.040625
            ],
            [
              72.758398,
              19.041992
            ],
            [
              72.759766,
              19.041992
            ],
            [
              72.763867,
              19.046094
            ],
            [
              72.763867,
              19.05293
            ]
          ]
        ]
      }
    },
    {
      "type": "Feature",
      "properties": {
        "spill_id": "palsar_510",
        "confidence": 0.88
      },
      "geometry": {
        "type": "Polygon",
        "coordinates": [
          [
            [
              72.7625,
              19.15
            ],
            [
              72.763867,
              19.145898
            ],
            [
              72.787109,
              19.122656
            ],
            [
              72.791211,
              19.111719
            ],
            [
              72.795312,
              19.107617
            ],
            [
              72.802148,
              19.107617
            ],
            [
              72.810352,
              19.113086
            ],
            [
              72.829492,
              19.113086
            ],
            [
              72.843164,
              19.11582
            ],
            [
              72.848633,
              19.118555
            ],
            [
              72.848633,
              19.129492
            ],
            [
              72.843164,
              19.132227
            ],
            [
              72.834961,
              19.14043
            ],
            [
              72.829492,
              19.15
            ],
            [
              72.7625,
              19.15
            ]
          ]
        ]
      }
    }
  ]
}