{
  "type": "FeatureCollection",
  "features": [
    {
      "type": "Feature",
      "properties": {
        "spill_id": "palsar_558",
        "confidence": 0.89
      },
      "geometry": {
        "type": "Polygon",
        "coordinates": [
          [
            [
              72.781641,
              18.804102
            ],
            [
              72.783008,
              18.802734
            ],
            [
              72.783008,
              18.801367
            ],
            [
              72.792578,
              18.801367
            ],
            [
              72.793945,
              18.802734
            ],
            [
              72.793945,
              18.804102
            ],
            [
              72.795312,
              18.805469
            ],
            [
              72.795312,
              18.806836
            ],
            [
              72.793945,
              18.808203
            ],
            [
              72.787109,
              18.808203
            ],
            [
              72.785742,
              18.806836
            ],
            [
              72.784375,
              18.806836
            ],
            [
              72.781641,
              18.804102
            ]
          ]
        ]
      }
    },
    {
      "type": "Feature",
      "properties": {
        "spill_id": "palsar_558",
        "confidence": 0.89
      },
      "geometry": {
        "type": "Polygon",
        "coordinates": [
          [
            [
              72.5,
              18.842383
            ],
            [
              72.5,
              18.801367
            ],
            [
              72.568359,
              18.801367
            ],
            [
              72.568359,
              18.810938
            ],
            [
              72.566992,
              18.812305
            ],
            [
              72.560156,
              18.813672
            ],
            [
              72.550586,
              18.824609
            ],
            [
              72.539648,
              18.830078
            ],
            [
              72.524609,
              18.841016
            ],
            [
              72.520508,
              18.842383
            ],
            [
              72.508203,
              18.842383
            ],
            [
              72.506836,
              18.84375
            ],
            [
              72.505469,
              18.842383
            ],
            [
              72.5,
              18.842383
            ]
          ]
        ]
      }
    },
    {
      "type": "Feature",
      "properties": {
        "spill_id": "palsar_558",
        "confidence": 0.89
      },
      "geometry": {
        "type": "Polygon",
        "coordinates": [
          [
            [
              72.769336,
              18.913477
            ],
            [
              72.7625,
              18.89707
            ],
            [
              72.773438,
              18.888867
            ],
            [
              72.777539,
              18.871094
            ],
            [
              72.788477,
              18.861523
            ],
            [
              72.778906,
              18.846484
            ],
            [
              72.789844,
              18.836914
            ],
            [
              72.802148,
              18.831445
            ],
            [
              72.818555,
              18.828711
            ],
            [
              72.833594,
              18.831445
            ],
            [
              72.837695,
              18.828711
            ],
            [
              72.848633,
              18.828711
            ],
            [
              72.848633,
              18.872461
            ],
            [
              72.822656,
              18.880664
            ],
            [
              72.811719,
              18.894336
            ],
            [
              72.787109,
              18.910742
            ],
            [
              72.774805,
              18.916211
            ],
            [
              72.769336,
              18.913477
            ]
          ]
        ]
      }
    },
    {
      "type": "Feature",
      "properties": {
        "spill_id": "palsar_558",
        "confidence": 0.89
      },
      "geometry": {
        "type": "Polygon",
        "coordinates": [
          [
            [
              72.5,
              18.950391
            ],
            [
              72.502734,
              18.913477
            ],
            [
              72.565625,
              18.902539
            ],
            [
              72.584766,
              18.894336
            ],
            [
              72.594336,
              18.850586
            ],
            [
              72.594336,
              18.820508
            ],
            [
              72.638086,
              18.801367
            ],
            [
              72.666797,
              18.801367
            ],
            [
              72.662695,
              18.820508
            ],
            [
              72.644922,
              18.832812
            ],
            [
              72.602539,
              18.890234
            ],
            [
              72.610742,
              18.902539
            ],
            [
              72.625781,
              18.908008
            ],
            [
              72.633984,
              18.918945
            ],
            [
              72.633984,
              18.925781
            ],
            [
              72.625781,
              18.933984
            ],
            [
              72.603906,
              18.942188
            ],
            [
              72.575195,
              18.94082
            ],
            [
              72.5,
              18.950391
            ]
          ]
        ]
      }
    },
    {
      "type": "Feature",
      "properties": {
        "spill_id": "palsar_558",
        "confidence": 0.89
      },
      "geometry": {
        "type": "Polygon",
        "coordinates": [
          [
            [
              72.848633,
              19.076172
            ],
            [
              72.847266,
              19.074805
            ],
            [
              72.844531,
              19.074805
            ],
            [
              72.841797,
              19.077539
            ],
            [
              72.84043,
              19.077539
            ],
            [
              72.834961,
              19.07207
            ],
            [
              72.830859,
              19.07207
            ],
            [
              72.829492,
              19.073438
            ],
            [
              72.824023,
              19.073438
            ],
            [
              72.822656,
              19.074805
            ],
            [
              72.811719,
              19.074805
            ],
            [
              72.810352,
              19.076172
            ],
            [
              72.802148,
              19.076172
            ],
            [
              72.799414,
              19.073438
            ],
            [
              72.799414,
              19.066602
            ],
            [
              72.802148,
              19.063867
            ],
            [
              72.802148,
              19.0625
            ],
            [
              72.807617,
              19.057031
            ],
            [
              72.810352,
              19.055664
            ],
            [
              72.833594,
              19.054297
            ],
            [
              72.834961,
              19.055664
            ],
            [
              72.84043,
              19.055664
            ],
            [
              72.843164,
              19.057031
            ],
            [
              72.845898,
              19.0625
            ],
            [
              72.845898,
              19.065234
            ],
            [
              72.848633,
              19.069336
            ],
            [
              72.848633,
              19.076172
            ]
          ]
        ]
      }
    },
    {
      "type": "Feature",
      "properties": {
        "spill_id": "palsar_558",
        "confidence": 0.89
      },
      "geometry": {
        "type": "Polygon",
        "coordinates": [
          [
            [
              72.714648,
              19.107617
            ],
            [
              72.716016,
              19.103516
            ],
            [
              72.720117,
              19.099414
            ],
            [
              72.722852,
              19.098047
            ],
            [
              72.72832,
              19.098047
            ],
            [
              72.729688,
              19.09668
            ],
            [
              72.733789,
              19.09668
            ],
            [
              72.737891,
              19.093945
            ],
            [
              72.747461,
              19.093945
            ],
            [
              72.75293,
              19.091211
            ],
            [
              72.759766,
              19.091211
            ],
            [
              72.7625,
              19.092578
            ],
            [
              72.765234,
              19.09668
            ],
            [
              72.7625,
              19.104883
            ],
            [
              72.751562,
              19.11582
            ],
            [
              72.748828,
              19.11582
            ],
            [
              72.740625,
              19.119922
            ],
            [
              72.732422,
              19.119922
            ],
            [
              72.731055,
              19.121289
            ],
            [
              72.724219,
              19.121289
            ],
            [
              72.71875,
              19.117188
            ],
            [
              72.71875,
              19.114453
            ],
            [
              72.714648,
              19.107617
            ]
          ]
        ]
      }
    }
  ]
}