{
  "type": "FeatureCollection",
  "features": [
    {
      "type": "Feature",
      "properties": {
        "spill_id": "palsar_148",
        "confidence": 0.92
      },
      "geometry": {
        "type": "Polygon",
        "coordinates": [
          [
            [
              72.848633,
              18.857422
            ],
            [
              72.837695,
              18.857422
            ],
            [
              72.828125,
              18.861523
            ],
            [
              72.814453,
              18.860156
            ],
            [
              72.813086,
              18.850586
            ],
            [
              72.817187,
              18.846484
            ],
            [
              72.798047,
              18.835547
            ],
            [
              72.792578,
              18.835547
            ],
            [
              72.788477,
              18.831445
            ],
            [
              72.787109,
              18.824609
            ],
            [
              72.770703,
              18.802734
            ],
            [
              72.77207,
              18.801367
            ],
            [
              72.843164,
              18.801367
            ],
            [
              72.848633,
              18.804102
            ],
            [
              72.848633,
              18.857422
            ]
          ]
        ]
      }
    },
    {
      "type": "Feature",
      "properties": {
        "spill_id": "palsar_148",
        "confidence": 0.92
      },
      "geometry": {
        "type": "Polygon",
        "coordinates": [
          [
            [
              72.758398,
              18.850586
            ],
            [
              72.758398,
              18.854688
            ],
            [
              72.751562,
              18.861523
            ],
            [
              72.754297,
              18.869727
            ],
            [
              72.75293,
              18.87793
            ],
            [
              72.736523,
              18.89707
            ],
            [
              72.720117,
              18.888867
            ],
            [
              72.705078,
              18.871094
            ],
            [
              72.646289,
              18.868359
            ],
            [
              72.624414,
              18.861523
            ],
            [
              72.625781,
              18.858789
            ],
            [
              72.635352,
              18.858789
            ],
            [
              72.642187,
              18.851953
            ],
            [
              72.658594,
              18.849219
            ],
            [
              72.705078,
              18.857422
            ],
            [
              72.721484,
              18.845117
            ],
            [
              72.720117,
              18.832812
            ],
            [
              72.724219,
              18.830078
            ],
            [
              72.733789,
              18.832812
            ],
            [
              72.740625,
              18.824609
            ],
            [
              72.747461,
              18.827344
            ],
            [
              72.751562,
              18.832812
            ],
            [
              72.751562,
              18.84375
            ],
            [
              72.758398,
              18.850586
            ]
          ]
        ]
      }
    },
    {
      "type": "Feature",
      "properties": {
        "spill_id": "palsar_148",
        "confidence": 0.92
      },
      "geometry": {
        "type": "Polygon",
        "coordinates": [
          [
            [
              72.828125,
              18.923047
            ],
            [
              72.822656,
              18.917578
            ],
            [
              72.822656,
              18.916211
            ],
            [
              72.814453,
              18.909375
            ],
            [
              72.813086,
              18.909375
            ],
            [
              72.811719,
              18.906641
            ],
            [
              72.813086,
              18.905273
            ],
            [
              72.813086,
              18.899805
            ],
            [
              72.814453,
              18.898438
            ],
            [
              72.817187,
              18.899805
            ],
            [
              72.819922,
              18.899805
            ],
            [
              72.825391,
              18.895703
            ],
            [
              72.825391,
              18.884766
            ],
            [
              72.829492,
              18.880664
            ],
            [
              72.837695,
              18.886133
            ],
            [
              72.839062,
              18.888867
            ],
            [
              72.837695,
              18.891602
            ],
            [
              72.837695,
              18.894336
            ],
            [
              72.839062,
              18.89707
            ],
            [
              72.844531,
              18.902539
            ],
            [
              72.845898,
              18.905273
            ],
            [
              72.845898,
              18.909375
            ],
            [
              72.837695,
              18.917578
            ],
            [
              72.837695,
              18.918945
            ],
            [
              72.834961,
              18.92168
            ],
            [
              72.830859,
              18.92168
            ],
            [
              72.828125,
              18.923047
            ]
          ]
        ]
      }
    },
    {
      "type": "Feature",
      "properties": {
        "spill_id": "palsar_148",
        "confidence": 0.92
      },
      "geometry": {
        "type": "Polygon",
        "coordinates": [
          [
            [
              72.673633,
              18.939453
            ],
            [
              72.672266,
              18.94082
            ],
            [
              72.669531,
              18.94082
            ],
            [
              72.668164,
              18.942188
            ],
            [
              72.664062,
              18.942188
            ],
            [
              72.662695,
              18.943555
            ],
            [
              72.654492,
              18.943555
            ],
            [
              72.653125,
              18.942188
            ],
            [
              72.651758,
              18.942188
            ],
            [
              72.64082,
              18.93125
            ],
            [
              72.639453,
              18.93125
            ],
            [
              72.639453,
              18.929883
            ],
            [
              72.636719,
              18.927148
            ],
            [
              72.636719,
              18.92168
            ],
            [
              72.638086,
              18.920312
            ],
            [
              72.638086,
              18.918945
            ],
            [
              72.64082,
              18.916211
            ],
            [
              72.642187,
              18.916211
            ],
            [
              72.643555,
              18.914844
            ],
            [
              72.650391,
              18.914844
            ],
            [
              72.651758,
              18.916211
            ],
            [
              72.658594,
              18.918945
            ],
            [
              72.661328,
              18.92168
            ],
            [
              72.662695,
              18.92168
            ],
            [
              72.672266,
              18.93125
            ],
            [
              72.672266,
              18.932617
            ],
            [
              72.673633,
              18.933984
            ],
            [
              72.673633,
              18.939453
            ]
          ]
        ]
      }
    },
    {
      "type": "Feature",
      "properties": {
        "spill_id": "palsar_148",
        "confidence": 0.92
      },
      "geometry": {
        "type": "Polygon",
        "coordinates": [
          [
            [
              72.528711,
              19.130859
            ],
            [
              72.525977,
              19.130859
            ],
            [
              72.524609,
              19.129492
            ],
            [
              72.523242,
              19.129492
            ],
            [
              72.521875,
              19.128125
            ],
            [
              72.521875,
              19.126758
            ],
            [
              72.520508,
              19.125391
            ],
            [
              72.520508,
              19.122656
            ],
            [
              72.519141,
              19.121289
            ],
            [
              72.519141,
              19.118555
            ],
            [
              72.520508,
              19.117188
            ],
            [
              72.520508,
              19.11582
            ],
            [
              72.521875,
              19.114453
            ],
            [
              72.527344,
              19.114453
            ],
            [
              72.530078,
              19.117188
            ],
            [
              72.530078,
              19.118555
            ],
            [
              72.531445,
              19.119922
            ],
            [
              72.531445,
              19.126758
            ],
            [
              72.530078,
              19.128125
            ],
            [
              72.530078,
              19.129492
            ],
            [
              72.528711,
              19.130859
            ]
          ]
        ]
      }
    },
    {
      "type": "Feature",
      "properties": {
        "spill_id": "palsar_148",
        "confidence": 0.92
      },
      "geometry": {
        "type": "Polygon",
        "coordinates": [
          [
            [
              72.769336,
              19.15
            ],
            [
              72.769336,
              19.148633
            ],
            [
              72.767969,
              19.147266
            ],
            [
              72.767969,
              19.141797
            ],
            [
              72.769336,
              19.14043
            ],
            [
              72.769336,
              19.137695
            ],
            [
              72.770703,
              19.136328
            ],
            [
              72.770703,
              19.134961
            ],
            [
              72.774805,
              19.130859
            ],
            [
              72.776172,
              19.130859
            ],
            [
              72.777539,
              19.129492
            ],
            [
              72.784375,
              19.129492
            ],
            [
              72.785742,
              19.130859
            ],
            [
              72.788477,
              19.130859
            ],
            [
              72.792578,
              19.134961
            ],
            [
              72.792578,
              19.136328
            ],
            [
              72.793945,
              19.137695
            ],
            [
              72.793945,
              19.141797
            ],
            [
              72.795312,
              19.143164
            ],
            [
              72.795312,
              19.148633
            ],
            [
              72.793945,
              19.15
            ],
            [
              72.769336,
              19.15
            ]
          ]
        ]
      }
    },
    {
      "type": "Feature",
      "properties": {
        "spill_id": "palsar_148",
        "confidence": 0.92
      },
      "geometry": {
        "type": "Polygon",
        "coordinates": [
          [
            [
              72.832227,
              19.095312
            ],
            [
              72.754297,
              19.085742
            ],
            [
              72.692773,
              19.117188
            ],
            [
              72.732422,
              19.117188
            ],
            [
              72.720117,
              19.15
            ],
            [
              72.668164,
              19.15
            ],
            [
              72.638086,
              19.126758
            ],
            [
              72.606641,
              19.15
            ],
            [
              72.624414,
              19.117188
            ],
            [
              72.591602,
              19.076172
            ],
            [
              72.545117,
              19.073438
            ],
            [
              72.527344,
              19.050195
            ],
            [
              72.5,
              19.069336
            ],
            [
              72.501367,
              19.017383
            ],
            [
              72.558789,
              19.037891
            ],
            [
              72.5875,
              19.005078
            ],
            [
              72.5,
              18.946289
            ],
            [
              72.5,
              18.801367
            ],
            [
              72.550586,
              18.801367
            ],
            [
              72.580664,
              18.841016
            ],
            [
              72.535547,
              18.847852
            ],
            [
              72.53418,
              18.890234
            ],
            [
              72.568359,
              18.925781
            ],
            [
              72.554688,
              18.943555
            ],
            [
              72.680469,
              18.966797
            ],
            [
              72.659961,
              19.01875
            ],
            [
              72.683203,
              19.032422
            ],
            [
              72.755664,
              19.024219
            ],
            [
              72.769336,
              18.994141
            ],
            [
              72.744727,
              18.976367
            ],
            [
              72.748828,
              18.929883
            ],
            [
              72.654492,
              18.894336
            ],
            [
              72.802148,
              18.901172
            ],
            [
              72.800781,
              18.923047
            ],
            [
              72.848633,
              18.949023
            ],
            [
              72.848633,
              19.046094
            ],
            [
              72.811719,
              19.035156
            ],
            [
              72.72832,
              19.0625
            ],
            [
              72.795312,
              19.067969
            ],
            [
              72.832227,
              19.095312
            ]
          ]
        ]
      }
    }
  ]
}