{
  "type": "FeatureCollection",
  "features": [
    {
      "type": "Feature",
      "properties": {
        "spill_id": "palsar_472",
        "confidence": 0.9
      },
      "geometry": {
        "type": "Polygon",
        "coordinates": [
          [
            [
              72.650391,
              18.871094
            ],
            [
              72.633984,
              18.879297
            ],
            [
              72.62168,
              18.879297
            ],
            [
              72.617578,
              18.876562
            ],
            [
              72.616211,
              18.873828
            ],
            [
              72.616211,
              18.866992
            ],
            [
              72.617578,
              18.865625
            ],
            [
              72.617578,
              18.857422
            ],
            [
              72.618945,
              18.856055
            ],
            [
              72.620312,
              18.849219
            ],
            [
              72.614844,
              18.839648
            ],
            [
              72.614844,
              18.835547
            ],
            [
              72.613477,
              18.83418
            ],
            [
              72.614844,
              18.830078
            ],
            [
              72.617578,
              18.827344
            ],
            [
              72.623047,
              18.827344
            ],
            [
              72.629883,
              18.832812
            ],
            [
              72.633984,
              18.83418
            ],
            [
              72.639453,
              18.838281
            ],
            [
              72.642187,
              18.838281
            ],
            [
              72.644922,
              18.841016
            ],
            [
              72.647656,
              18.851953
            ],
            [
              72.653125,
              18.862891
            ],
            [
              72.653125,
              18.868359
            ],
            [
              72.650391,
              18.871094
            ]
          ]
        ]
      }
    },
    {
      "type": "Feature",
      "properties": {
        "spill_id": "palsar_472",
        "confidence": 0.9
      },
      "geometry": {
        "type": "Polygon",
        "coordinates": [
          [
            [
              72.616211,
              18.903906
            ],
            [
              72.616211,
              18.898438
            ],
            [
              72.618945,
              18.895703
            ],
            [
              72.633984,
              18.891602
            ],
            [
              72.638086,
              18.8875
            ],
            [
              72.639453,
              18.883398
            ],
            [
              72.642187,
              18.880664
            ],
            [
              72.649023,
              18.880664
            ],
            [
              72.650391,
              18.882031
            ],
            [
              72.655859,
              18.882031
            ],
            [
              72.659961,
              18.884766
            ],
            [
              72.664062,
              18.884766
            ],
            [
              72.669531,
              18.8875
            ],
            [
              72.672266,
              18.891602
            ],
            [
              72.672266,
              18.89707
            ],
            [
              72.669531,
              18.899805
            ],
            [
              72.659961,
              18.902539
            ],
            [
              72.650391,
              18.913477
            ],
            [
              72.647656,
              18.914844
            ],
            [
              72.643555,
              18.914844
            ],
            [
              72.642187,
              18.916211
            ],
            [
              72.636719,
              18.916211
            ],
            [
              72.635352,
              18.914844
            ],
            [
              72.629883,
              18.914844
            ],
            [
              72.628516,
              18.913477
            ],
            [
              72.625781,
              18.913477
            ],
            [
              72.62168,
              18.910742
            ],
            [
              72.616211,
              18.903906
            ]
          ]
        ]
      }
    },
    {
      "type": "Feature",
      "properties": {
        "spill_id": "palsar_472",
        "confidence": 0.9
      },
      "geometry": {
        "type": "Polygon",
        "coordinates": [
          [
            [
              72.618945,
              18.954492
            ],
            [
              72.620312,
              18.953125
            ],
            [
              72.623047,
              18.953125
            ],
            [
              72.624414,
              18.951758
            ],
            [
              72.627148,
              18.951758
            ],
            [
              72.628516,
              18.953125
            ],
            [
              72.633984,
              18.953125
            ],
            [
              72.635352,
              18.954492
            ],
            [
              72.636719,
              18.954492
            ],
            [
              72.638086,
              18.955859
            ],
            [
              72.638086,
              18.958594
            ],
            [
              72.636719,
              18.959961
            ],
            [
              72.625781,
              18.959961
            ],
            [
              72.620312,
              18.954492
            ],
            [
              72.618945,
              18.954492
            ]
          ]
        ]
      }
    },
    {
      "type": "Feature",
      "properties": {
        "spill_id": "palsar_472",
        "confidence": 0.9
      },
      "geometry": {
        "type": "Polygon",
        "coordinates": [
          [
            [
              72.609375,
              18.972266
            ],
            [
              72.592969,
              18.981836
            ],
            [
              72.579297,
              18.983203
            ],
            [
              72.575195,
              18.979102
            ],
            [
              72.573828,
              18.966797
            ],
            [
              72.566992,
              18.958594
            ],
            [
              72.545117,
              18.962695
            ],
            [
              72.542383,
              18.959961
            ],
            [
              72.54375,
              18.949023
            ],
            [
              72.560156,
              18.92168
            ],
            [
              72.556055,
              18.912109
            ],
            [
              72.536914,
              18.913477
            ],
            [
              72.520508,
              18.905273
            ],
            [
              72.5,
              18.909375
            ],
            [
              72.5,
              18.883398
            ],
            [
              72.517773,
              18.876562
            ],
            [
              72.536914,
              18.890234
            ],
            [
              72.556055,
              18.8875
            ],
            [
              72.572461,
              18.892969
            ],
            [
              72.583398,
              18.913477
            ],
            [
              72.603906,
              18.920312
            ],
            [
              72.601172,
              18.927148
            ],
            [
              72.579297,
              18.939453
            ],
            [
              72.57793,
              18.947656
            ],
            [
              72.584766,
              18.953125
            ],
            [
              72.603906,
              18.957227
            ],
            [
              72.609375,
              18.972266
            ]
          ]
        ]
      }
    },
    {
      "type": "Feature",
      "properties": {
        "spill_id": "palsar_472",
        "confidence": 0.9
      },
      "geometry": {
        "type": "Polygon",
        "coordinates": [
          [
            [
              72.524609,
              19.006445
            ],
            [
              72.524609,
              19.000977
            ],
            [
              72.530078,
              18.995508
            ],
            [
              72.531445,
              18.995508
            ],
            [
              72.532812,
              18.994141
            ],
            [
              72.539648,
              18.992773
            ],
            [
              72.545117,
              18.988672
            ],
            [
              72.550586,
              18.988672
            ],
            [
              72.551953,
              18.987305
            ],
            [
              72.558789,
              18.987305
            ],
            [
              72.560156,
              18.985938
            ],
            [
              72.568359,
              18.985938
            ],
            [
              72.568359,
              18.994141
            ],
            [
              72.565625,
              18.996875
            ],
            [
              72.561523,
              18.998242
            ],
            [
              72.550586,
              19.006445
            ],
            [
              72.547852,
              19.006445
            ],
            [
              72.546484,
              19.007812
            ],
            [
              72.54375,
              19.007812
            ],
            [
              72.542383,
              19.00918
            ],
            [
              72.536914,
              19.00918
            ],
            [
              72.535547,
              19.010547
            ],
            [
              72.532812,
              19.010547
            ],
            [
              72.531445,
              19.00918
            ],
            [
              72.527344,
              19.00918
            ],
            [
              72.524609,
              19.006445
            ]
          ]
        ]
      }
    },
    {
      "type": "Feature",
      "properties": {
        "spill_id": "palsar_472",
        "confidence": 0.9
      },
      "geometry": {
        "type": "Polygon",
        "coordinates": [
          [
            [
              72.549219,
              19.15
            ],
            [
              72.649023,
              19.081641
            ],
            [
              72.655859,
              19.048828
            ],
            [
              72.679102,
              19.050195
            ],
            [
              72.754297,
              18.946289
            ],
            [
              72.848633,
              18.860156
            ],
            [
              72.845898,
              18.902539
            ],
            [
              72.81582,
              18.932617
            ],
            [
              72.828125,
              18.961328
            ],
            [
              72.783008,
              18.973633
            ],
            [
              72.754297,
              19.010547
            ],
            [
              72.800781,
              18.996875
            ],
            [
              72.813086,
              19.017383
            ],
            [
              72.848633,
              19.000977
            ],
            [
              72.845898,
              19.02832
            ],
            [
              72.830859,
              19.029687
            ],
            [
              72.848633,
              19.040625
            ],
            [
              72.848633,
              19.125391
            ],
            [
              72.830859,
              19.15
            ],
            [
              72.777539,
              19.133594
            ],
            [
              72.777539,
              19.118555
            ],
            [
              72.795312,
              19.118555
            ],
            [
              72.817187,
              19.095312
            ],
            [
              72.800781,
              19.085742
            ],
            [
              72.784375,
              19.043359
            ],
            [
              72.736523,
              19.025586
            ],
            [
              72.724219,
              19.037891
            ],
            [
              72.740625,
              19.039258
            ],
            [
              72.774805,
              19.083008
            ],
            [
              72.758398,
              19.091211
            ],
            [
              72.737891,
              19.074805
            ],
            [
              72.71875,
              19.088477
            ],
            [
              72.713281,
              19.137695
            ],
            [
              72.694141,
              19.128125
            ],
            [
              72.670898,
              19.15
            ],
            [
              72.549219,
              19.15
            ]
          ]
        ]
      }
    }
  ]
}