{
  "type": "FeatureCollection",
  "features": [
    {
      "type": "Feature",
      "properties": {
        "spill_id": "palsar_763",
        "confidence": 0.95
      },
      "geometry": {
        "type": "Polygon",
        "coordinates": [
          [
            [
              72.524609,
              19.020117
            ],
            [
              72.531445,
              19.003711
            ],
            [
              72.572461,
              19.020117
            ],
            [
              72.57793,
              19.011914
            ],
            [
              72.557422,
              18.995508
            ],
            [
              72.550586,
              18.955859
            ],
            [
              72.5,
              18.932617
            ],
            [
              72.5,
              18.905273
            ],
            [
              72.554688,
              18.891602
            ],
            [
              72.572461,
              18.901172
            ],
            [
              72.57793,
              18.87793
            ],
            [
              72.616211,
              18.862891
            ],
            [
              72.653125,
              18.873828
            ],
            [
              72.680469,
              18.861523
            ],
            [
              72.748828,
              18.884766
            ],
            [
              72.763867,
              18.905273
            ],
            [
              72.813086,
              18.857422
            ],
            [
              72.848633,
              18.854688
            ],
            [
              72.848633,
              19.047461
            ],
            [
              72.795312,
              19.033789
            ],
            [
              72.780273,
              19.05293
            ],
            [
              72.808984,
              19.078906
            ],
            [
              72.80625,
              19.089844
            ],
            [
              72.687305,
              19.085742
            ],
            [
              72.651758,
              19.095312
            ],
            [
              72.612109,
              19.074805
            ],
            [
              72.586133,
              19.080273
            ],
            [
              72.569727,
              19.055664
            ],
            [
              72.54375,
              19.048828
            ],
            [
              72.524609,
              19.020117
            ]
          ]
        ]
      }
    }
  ]
}