{
  "type": "FeatureCollection",
  "features": [
    {
      "type": "Feature",
      "properties": {
        "spill_id": "palsar_592",
        "confidence": 0.84
      },
      "geometry": {
        "type": "Polygon",
        "coordinates": [
          [
            [
              72.836328,
              18.828711
            ],
            [
              72.834961,
              18.828711
            ],
            [
              72.833594,
              18.830078
            ],
            [
              72.833594,
              18.828711
            ],
            [
              72.829492,
              18.824609
            ],
            [
              72.828125,
              18.824609
            ],
            [
              72.828125,
              18.817773
            ],
            [
              72.826758,
              18.816406
            ],
            [
              72.826758,
              18.815039
            ],
            [
              72.822656,
              18.810938
            ],
            [
              72.822656,
              18.806836
            ],
            [
              72.830859,
              18.806836
            ],
            [
              72.833594,
              18.80957
            ],
            [
              72.833594,
              18.816406
            ],
            [
              72.834961,
              18.817773
            ],
            [
              72.834961,
              18.820508
            ],
            [
              72.836328,
              18.821875
            ],
            [
              72.836328,
              18.823242
            ],
            [
              72.837695,
              18.824609
            ],
            [
              72.837695,
              18.827344
            ],
            [
              72.836328,
              18.828711
            ]
          ]
        ]
      }
    },
    {
      "type": "Feature",
      "properties": {
        "spill_id": "palsar_592",
        "confidence": 0.84
      },
      "geometry": {
        "type": "Polygon",
        "coordinates": [
          [
            [
              72.808984,
              18.891602
            ],
            [
              72.804883,
              18.8875
            ],
            [
              72.804883,
              18.886133
            ],
            [
              72.803516,
              18.884766
            ],
            [
              72.803516,
              18.880664
            ],
            [
              72.802148,
              18.879297
            ],
            [
              72.802148,
              18.876562
            ],
            [
              72.80625,
              18.872461
            ],
            [
              72.81582,
              18.872461
            ],
            [
              72.817187,
              18.873828
            ],
            [
              72.818555,
              18.873828
            ],
            [
              72.824023,
              18.879297
            ],
            [
              72.824023,
              18.888867
            ],
            [
              72.822656,
              18.888867
            ],
            [
              72.821289,
              18.890234
            ],
            [
              72.819922,
              18.890234
            ],
            [
              72.818555,
              18.891602
            ],
            [
              72.808984,
              18.891602
            ]
          ]
        ]
      }
    },
    {
      "type": "Feature",
      "properties": {
        "spill_id": "palsar_592",
        "confidence": 0.84
      },
      "geometry": {
        "type": "Polygon",
        "coordinates": [
          [
            [
              72.613477,
              19.011914
            ],
            [
              72.614844,
              19.010547
            ],
            [
              72.614844,
              19.00918
            ],
            [
              72.617578,
              19.00918
            ],
            [
              72.618945,
              19.007812
            ],
            [
              72.624414,
              19.007812
            ],
            [
              72.625781,
              19.00918
            ],
            [
              72.627148,
              19.00918
            ],
            [
              72.632617,
              19.014648
            ],
            [
              72.632617,
              19.016016
            ],
            [
              72.633984,
              19.017383
            ],
            [
              72.628516,
              19.017383
            ],
            [
              72.627148,
              19.01875
            ],
            [
              72.618945,
              19.01875
            ],
            [
              72.613477,
              19.013281
            ],
            [
              72.613477,
              19.011914
            ]
          ]
        ]
      }
    },
    {
      "type": "Feature",
      "properties": {
        "spill_id": "palsar_592",
        "confidence": 0.84
      },
      "geometry": {
        "type": "Polygon",
        "coordinates": [
          [
            [
              72.819922,
              19.020117
            ],
            [
              72.817187,
              19.017383
            ],
            [
              72.817187,
              19.013281
            ],
            [
              72.81582,
              19.011914
            ],
            [
              72.81582,
              19.010547
            ],
            [
              72.824023,
              19.002344
            ],
            [
              72.825391,
              18.998242
            ],
            [
              72.832227,
              18.991406
            ],
            [
              72.833594,
              18.991406
            ],
            [
              72.837695,
              18.987305
            ],
            [
              72.839062,
              18.987305
            ],
            [
              72.84043,
              18.985938
            ],
            [
              72.843164,
              18.985938
            ],
            [
              72.844531,
              18.987305
            ],
            [
              72.844531,
              18.999609
            ],
            [
              72.843164,
              19.000977
            ],
            [
              72.841797,
              19.005078
            ],
            [
              72.834961,
              19.011914
            ],
            [
              72.834961,
              19.013281
            ],
            [
              72.832227,
              19.016016
            ],
            [
              72.832227,
              19.01875
            ],
            [
              72.830859,
              19.020117
            ],
            [
              72.829492,
              19.020117
            ],
            [
              72.828125,
              19.021484
            ],
            [
              72.822656,
              19.021484
            ],
            [
              72.821289,
              19.020117
            ],
            [
              72.819922,
              19.020117
            ]
          ]
        ]
      }
    },
    {
      "type": "Feature",
      "properties": {
        "spill_id": "palsar_592",
        "confidence": 0.84
      },
      "geometry": {
        "type": "Polygon",
        "coordinates": [
          [
            [
              72.785742,
              19.026953
            ],
            [
              72.785742,
              19.021484
            ],
            [
              72.787109,
              19.020117
            ],
            [
              72.787109,
              19.01875
            ],
            [
              72.789844,
              19.016016
            ],
            [
              72.791211,
              19.016016
            ],
            [
              72.792578,
              19.014648
            ],
            [
              72.795312,
              19.014648
            ],
            [
              72.799414,
              19.01875
            ],
            [
              72.799414,
              19.020117
            ],
            [
              72.800781,
              19.021484
            ],
            [
              72.800781,
              19.025586
            ],
            [
              72.798047,
              19.02832
            ],
            [
              72.788477,
              19.02832
            ],
            [
              72.787109,
              19.026953
            ],
            [
              72.785742,
              19.026953
            ]
          ]
        ]
      }
    },
    {
      "type": "Feature",
      "properties": {
        "spill_id": "palsar_592",
        "confidence": 0.84
      },
      "geometry": {
        "type": "Polygon",
        "coordinates": [
          [
            [
              72.668164,
              19.029687
            ],
            [
              72.664062,
              19.033789
            ],
            [
              72.659961,
              19.033789
            ],
            [
              72.658594,
              19.035156
            ],
            [
              72.657227,
              19.033789
            ],
            [
              72.655859,
              19.033789
            ],
            [
              72.654492,
              19.032422
            ],
            [
              72.653125,
              19.032422
            ],
            [
              72.651758,
              19.031055
            ],
            [
              72.650391,
              19.031055
            ],
            [
              72.650391,
              19.029687
            ],
            [
              72.649023,
              19.02832
            ],
            [
              72.649023,
              19.025586
            ],
            [
              72.651758,
              19.025586
            ],
            [
              72.653125,
              19.024219
            ],
            [
              72.659961,
              19.024219
            ],
            [
              72.661328,
              19.025586
            ],
            [
              72.664062,
              19.025586
            ],
            [
              72.66543,
              19.026953
            ],
            [
              72.666797,
              19.026953
            ],
            [
              72.668164,
              19.02832
            ],
            [
              72.668164,
              19.029687
            ]
          ]
        ]
      }
    },
    {
      "type": "Feature",
      "properties": {
        "spill_id": "palsar_592",
        "confidence": 0.84
      },
      "geometry": {
        "type": "Polygon",
        "coordinates": [
          [
            [
              72.766602,
              19.033789
            ],
            [
              72.758398,
              19.040625
            ],
            [
              72.743359,
              19.041992
            ],
            [
              72.739258,
              19.039258
            ],
            [
              72.717383,
              19.036523
            ],
            [
              72.694141,
              19.037891
            ],
            [
              72.683203,
              19.035156
            ],
            [
              72.677734,
              19.032422
            ],
            [
              72.675,
              19.02832
            ],
            [
              72.683203,
              19.021484
            ],
            [
              72.694141,
              19.020117
            ],
            [
              72.700977,
              19.016016
            ],
            [
              72.711914,
              19.005078
            ],
            [
              72.714648,
              18.998242
            ],
            [
              72.717383,
              18.995508
            ],
            [
              72.722852,
              18.994141
            ],
            [
              72.726953,
              18.995508
            ],
            [
              72.731055,
              19.000977
            ],
            [
              72.731055,
              19.00918
            ],
            [
              72.72832,
              19.016016
            ],
            [
              72.733789,
              19.021484
            ],
            [
              72.754297,
              19.022852
            ],
            [
              72.766602,
              19.033789
            ]
          ]
        ]
      }
    },
    {
      "type": "Feature",
      "properties": {
        "spill_id": "palsar_592",
        "confidence": 0.84
      },
      "geometry": {
        "type": "Polygon",
        "coordinates": [
          [
            [
              72.512305,
              19.0625
            ],
            [
              72.5,
              18.998242
            ],
            [
              72.521875,
              18.995508
            ],
            [
              72.536914,
              18.968164
            ],
            [
              72.528711,
              18.895703
            ],
            [
              72.569727,
              18.899805
            ],
            [
              72.55332,
              18.933984
            ],
            [
              72.562891,
              18.947656
            ],
            [
              72.620312,
              18.953125
            ],
            [
              72.636719,
              18.93125
            ],
            [
              72.653125,
              18.932617
            ],
            [
              72.688672,
              18.905273
            ],
            [
              72.698242,
              18.884766
            ],
            [
              72.731055,
              18.871094
            ],
            [
              72.747461,
              18.84375
            ],
            [
              72.748828,
              18.806836
            ],
            [
              72.763867,
              18.802734
            ],
            [
              72.763867,
              18.85332
            ],
            [
              72.783008,
              18.894336
            ],
            [
              72.834961,
              18.935352
            ],
            [
              72.845898,
              18.964062
            ],
            [
              72.824023,
              18.958594
            ],
            [
              72.808984,
              18.972266
            ],
            [
              72.798047,
              18.96543
            ],
            [
              72.747461,
              18.977734
            ],
            [
              72.748828,
              18.957227
            ],
            [
              72.77207,
              18.961328
            ],
            [
              72.787109,
              18.938086
            ],
            [
              72.754297,
              18.882031
            ],
            [
              72.72832,
              18.917578
            ],
            [
              72.729688,
              18.936719
            ],
            [
              72.705078,
              18.917578
            ],
            [
              72.646289,
              18.964062
            ],
            [
              72.573828,
              18.990039
            ],
            [
              72.569727,
              19.02832
            ],
            [
              72.512305,
              19.0625
            ]
          ]
        ]
      }
    }
  ]
}