{
  "type": "FeatureCollection",
  "features": [
    {
      "type": "Feature",
      "properties": {
        "spill_id": "palsar_603",
        "confidence": 0.85
      },
      "geometry": {
        "type": "Polygon",
        "coordinates": [
          [
            [
              72.818555,
              18.808203
            ],
            [
              72.817187,
              18.80957
            ],
            [
              72.817187,
              18.810938
            ],
            [
              72.81582,
              18.810938
            ],
            [
              72.814453,
              18.80957
            ],
            [
              72.810352,
              18.80957
            ],
            [
              72.808984,
              18.808203
            ],
            [
              72.80625,
              18.808203
            ],
            [
              72.80625,
              18.804102
            ],
            [
              72.807617,
              18.802734
            ],
            [
              72.810352,
              18.802734
            ],
            [
              72.811719,
              18.801367
            ],
            [
              72.813086,
              18.801367
            ],
            [
              72.814453,
              18.802734
            ],
            [
              72.817187,
              18.802734
            ],
            [
              72.817187,
              18.804102
            ],
            [
              72.818555,
              18.805469
            ],
            [
              72.818555,
              18.808203
            ]
          ]
        ]
      }
    },
    {
      "type": "Feature",
      "properties": {
        "spill_id": "palsar_603",
        "confidence": 0.85
      },
      "geometry": {
        "type": "Polygon",
        "coordinates": [
          [
            [
              72.5,
              18.860156
            ],
            [
              72.5,
              18.816406
            ],
            [
              72.510938,
              18.801367
            ],
            [
              72.554688,
              18.801367
            ],
            [
              72.561523,
              18.805469
            ],
            [
              72.576562,
              18.801367
            ],
            [
              72.628516,
              18.802734
            ],
            [
              72.624414,
              18.815039
            ],
            [
              72.608008,
              18.828711
            ],
            [
              72.603906,
              18.828711
            ],
            [
              72.598438,
              18.819141
            ],
            [
              72.5875,
              18.819141
            ],
            [
              72.562891,
              18.83418
            ],
            [
              72.55332,
              18.846484
            ],
            [
              72.541016,
              18.854688
            ],
            [
              72.531445,
              18.857422
            ],
            [
              72.525977,
              18.864258
            ],
            [
              72.521875,
              18.862891
            ],
            [
              72.520508,
              18.856055
            ],
            [
              72.50957,
              18.860156
            ],
            [
              72.5,
              18.860156
            ]
          ]
        ]
      }
    },
    {
      "type": "Feature",
      "properties": {
        "spill_id": "palsar_603",
        "confidence": 0.85
      },
      "geometry": {
        "type": "Polygon",
        "coordinates": [
          [
            [
              72.692773,
              18.869727
            ],
            [
              72.692773,
              18.860156
            ],
            [
              72.695508,
              18.854688
            ],
            [
              72.696875,
              18.84375
            ],
            [
              72.717383,
              18.819141
            ],
            [
              72.72832,
              18.820508
            ],
            [
              72.733789,
              18.819141
            ],
            [
              72.736523,
              18.816406
            ],
            [
              72.737891,
              18.810938
            ],
            [
              72.746094,
              18.801367
            ],
            [
              72.767969,
              18.801367
            ],
            [
              72.770703,
              18.804102
            ],
            [
              72.766602,
              18.812305
            ],
            [
              72.758398,
              18.817773
            ],
            [
              72.720117,
              18.857422
            ],
            [
              72.698242,
              18.871094
            ],
            [
              72.692773,
              18.869727
            ]
          ]
        ]
      }
    },
    {
      "type": "Feature",
      "properties": {
        "spill_id": "palsar_603",
        "confidence": 0.85
      },
      "geometry": {
        "type": "Polygon",
        "coordinates": [
          [
            [
              72.825391,
              18.939453
            ],
            [
              72.824023,
              18.938086
            ],
            [
              72.824023,
              18.936719
            ],
            [
              72.822656,
              18.935352
            ],
            [
              72.825391,
              18.932617
            ],
            [
              72.825391,
              18.93125
            ],
            [
              72.826758,
              18.93125
            ],
            [
              72.830859,
              18.927148
            ],
            [
              72.830859,
              18.92168
            ],
            [
              72.832227,
              18.920312
            ],
            [
              72.834961,
              18.920312
            ],
            [
              72.836328,
              18.92168
            ],
            [
              72.836328,
              18.924414
            ],
            [
              72.834961,
              18.925781
            ],
            [
              72.834961,
              18.927148
            ],
            [
              72.832227,
              18.929883
            ],
            [
              72.832227,
              18.935352
            ],
            [
              72.828125,
              18.939453
            ],
            [
              72.825391,
              18.939453
            ]
          ]
        ]
      }
    },
    {
      "type": "Feature",
      "properties": {
        "spill_id": "palsar_603",
        "confidence": 0.85
      },
      "geometry": {
        "type": "Polygon",
        "coordinates": [
          [
            [
              72.591602,
              19.073438
            ],
            [
              72.591602,
              19.067969
            ],
            [
              72.59707,
              19.0625
            ],
            [
              72.59707,
              19.061133
            ],
            [
              72.603906,
              19.061133
            ],
            [
              72.605273,
              19.0625
            ],
            [
              72.606641,
              19.0625
            ],
            [
              72.605273,
              19.063867
            ],
            [
              72.605273,
              19.066602
            ],
            [
              72.603906,
              19.067969
            ],
            [
              72.603906,
              19.069336
            ],
            [
              72.599805,
              19.073438
            ],
            [
              72.598438,
              19.073438
            ],
            [
              72.59707,
              19.074805
            ],
            [
              72.592969,
              19.074805
            ],
            [
              72.591602,
              19.073438
            ]
          ]
        ]
      }
    },
    {
      "type": "Feature",
      "properties": {
        "spill_id": "palsar_603",
        "confidence": 0.85
      },
      "geometry": {
        "type": "Polygon",
        "coordinates": [
          [
            [
              72.836328,
              19.15
            ],
            [
              72.833594,
              19.147266
            ],
            [
              72.833594,
              19.141797
            ],
            [
              72.834961,
              19.14043
            ],
            [
              72.834961,
              19.134961
            ],
            [
              72.836328,
              19.133594
            ],
            [
              72.836328,
              19.132227
            ],
            [
              72.837695,
              19.130859
            ],
            [
              72.837695,
              19.129492
            ],
            [
              72.84043,
              19.126758
            ],
            [
              72.848633,
              19.126758
            ],
            [
              72.848633,
              19.15
            ],
            [
              72.836328,
              19.15
            ]
          ]
        ]
      }
    },
    {
      "type": "Feature",
      "properties": {
        "spill_id": "palsar_603",
        "confidence": 0.85
      },
      "geometry": {
        "type": "Polygon",
        "coordinates": [
          [
            [
              72.765234,
              19.15
            ],
            [
              72.770703,
              19.118555
            ],
            [
              72.780273,
              19.104883
            ],
            [
              72.781641,
              19.09668
            ],
            [
              72.757031,
              19.069336
            ],
            [
              72.741992,
              19.0625
            ],
            [
              72.743359,
              19.048828
            ],
            [
              72.747461,
              19.046094
            ],
            [
              72.766602,
              19.054297
            ],
            [
              72.789844,
              19.073438
            ],
            [
              72.79668,
              19.073438
            ],
            [
              72.81582,
              19.063867
            ],
            [
              72.833594,
              19.065234
            ],
            [
              72.841797,
              19.0625
            ],
            [
              72.84043,
              19.067969
            ],
            [
              72.817187,
              19.078906
            ],
            [
              72.80625,
              19.089844
            ],
            [
              72.819922,
              19.09668
            ],
            [
              72.843164,
              19.098047
            ],
            [
              72.844531,
              19.102148
            ],
            [
              72.799414,
              19.118555
            ],
            [
              72.781641,
              19.132227
            ],
            [
              72.778906,
              19.15
            ],
            [
              72.765234,
              19.15
            ]
          ]
        ]
      }
    },
    {
      "type": "Feature",
      "properties": {
        "spill_id": "palsar_603",
        "confidence": 0.85
      },
      "geometry": {
        "type": "Polygon",
        "coordinates": [
          [
            [
              72.579297,
              19.15
            ],
            [
              72.588867,
              19.111719
            ],
            [
              72.632617,
              19.069336
            ],
            [
              72.635352,
              19.039258
            ],
            [
              72.629883,
              19.031055
            ],
            [
              72.616211,
              19.039258
            ],
            [
              72.601172,
              19.032422
            ],
            [
              72.591602,
              18.985938
            ],
            [
              72.579297,
              18.975
            ],
            [
              72.54375,
              18.995508
            ],
            [
              72.531445,
              18.992773
            ],
            [
              72.531445,
              18.985938
            ],
            [
              72.558789,
              18.964062
            ],
            [
              72.612109,
              18.957227
            ],
            [
              72.666797,
              18.905273
            ],
            [
              72.66543,
              18.93125
            ],
            [
              72.636719,
              18.961328
            ],
            [
              72.659961,
              18.976367
            ],
            [
              72.691406,
              18.979102
            ],
            [
              72.70918,
              18.994141
            ],
            [
              72.706445,
              19.007812
            ],
            [
              72.683203,
              19.021484
            ],
            [
              72.706445,
              19.024219
            ],
            [
              72.722852,
              19.058398
            ],
            [
              72.722852,
              19.076172
            ],
            [
              72.679102,
              19.076172
            ],
            [
              72.654492,
              19.091211
            ],
            [
              72.644922,
              19.103516
            ],
            [
              72.653125,
              19.126758
            ],
            [
              72.643555,
              19.15
            ],
            [
              72.618945,
              19.15
            ],
            [
              72.612109,
              19.141797
            ],
            [
              72.579297,
              19.15
            ]
          ]
        ]
      }
    }
  ]
}