{
  "type": "FeatureCollection",
  "features": [
    {
      "type": "Feature",
      "properties": {
        "spill_id": "palsar_171",
        "confidence": 0.97
      },
      "geometry": {
        "type": "Polygon",
        "coordinates": [
          [
            [
              72.551953,
              19.15
            ],
            [
              72.54375,
              19.119922
            ],
            [
              72.557422,
              19.013281
            ],
            [
              72.527344,
              19.077539
            ],
            [
              72.5,
              19.089844
            ],
            [
              72.5,
              18.801367
            ],
            [
              72.798047,
              18.801367
            ],
            [
              72.802148,
              18.817773
            ],
            [
              72.769336,
              18.856055
            ],
            [
              72.781641,
              18.890234
            ],
            [
              72.75293,
              18.913477
            ],
            [
              72.743359,
              18.949023
            ],
            [
              72.722852,
              18.958594
            ],
            [
              72.699609,
              19.017383
            ],
            [
              72.733789,
              19.021484
            ],
            [
              72.732422,
              19.063867
            ],
            [
              72.739258,
              19.076172
            ],
            [
              72.757031,
              19.074805
            ],
            [
              72.747461,
              19.148633
            ],
            [
              72.551953,
              19.15
            ]
          ]
        ]
      }
    }
  ]
}