{
  "type": "FeatureCollection",
  "features": [
    {
      "type": "Feature",
      "properties": {
        "spill_id": "palsar_720",
        "confidence": 0.93
      },
      "geometry": {
        "type": "Polygon",
        "coordinates": [
          [
            [
              72.513672,
              19.15
            ],
            [
              72.5,
              19.14043
            ],
            [
              72.5,
              18.947656
            ],
            [
              72.513672,
              18.929883
            ],
            [
              72.502734,
              18.910742
            ],
            [
              72.506836,
              18.899805
            ],
            [
              72.519141,
              18.89707
            ],
            [
              72.560156,
              18.949023
            ],
            [
              72.57793,
              18.933984
            ],
            [
              72.592969,
              18.892969
            ],
            [
              72.612109,
              18.895703
            ],
            [
              72.624414,
              18.882031
            ],
            [
              72.636719,
              18.8875
            ],
            [
              72.655859,
              18.865625
            ],
            [
              72.673633,
              18.824609
            ],
            [
              72.668164,
              18.805469
            ],
            [
              72.694141,
              18.801367
            ],
            [
              72.683203,
              18.868359
            ],
            [
              72.705078,
              18.890234
            ],
            [
              72.675,
              18.917578
            ],
            [
              72.666797,
              18.962695
            ],
            [
              72.638086,
              18.985938
            ],
            [
              72.620312,
              19.031055
            ],
            [
              72.636719,
              19.036523
            ],
            [
              72.629883,
              19.073438
            ],
            [
              72.609375,
              19.087109
            ],
            [
              72.579297,
              19.065234
            ],
            [
              72.547852,
              19.148633
            ],
            [
              72.513672,
              19.15
            ]
          ]
        ]
      }
    }
  ]
}