{
  "type": "FeatureCollection",
  "features": [
    {
      "type": "Feature",
      "properties": {
        "spill_id": "palsar_380",
        "confidence": 0.81
      },
      "geometry": {
        "type": "Polygon",
        "coordinates": [
          [
            [
              72.5,
              18.954492
            ],
            [
              72.5,
              18.938086
            ],
            [
              72.516406,
              18.923047
            ],
            [
              72.531445,
              18.914844
            ],
            [
              72.547852,
              18.914844
            ],
            [
              72.573828,
              18.901172
            ],
            [
              72.599805,
              18.87793
            ],
            [
              72.620312,
              18.868359
            ],
            [
              72.618945,
              18.857422
            ],
            [
              72.624414,
              18.85332
            ],
            [
              72.64082,
              18.856055
            ],
            [
              72.676367,
              18.825977
            ],
            [
              72.703711,
              18.815039
            ],
            [
              72.706445,
              18.801367
            ],
            [
              72.732422,
              18.801367
            ],
            [
              72.729688,
              18.808203
            ],
            [
              72.70918,
              18.813672
            ],
            [
              72.707812,
              18.823242
            ],
            [
              72.650391,
              18.879297
            ],
            [
              72.63125,
              18.884766
            ],
            [
              72.516406,
              18.951758
            ],
            [
              72.5,
              18.954492
            ]
          ]
        ]
      }
    }
  ]
}