{
  "type": "FeatureCollection",
  "features": [
    {
      "type": "Feature",
      "properties": {
        "spill_id": "palsar_722",
        "confidence": 0.9
      },
      "geometry": {
        "type": "Polygon",
        "coordinates": [
          [
            [
              72.848633,
              18.928516
            ],
            [
              72.84043,
              18.928516
            ],
            [
              72.800781,
              18.8875
            ],
            [
              72.769336,
              18.865625
            ],
            [
              72.766602,
              18.846484
            ],
            [
              72.750195,
              18.828711
            ],
            [
              72.744727,
              18.830078
            ],
            [
              72.747461,
              18.846484
            ],
            [
              72.770703,
              18.898438
            ],
            [
              72.759766,
              18.898438
            ],
            [
              72.744727,
              18.8875
            ],
            [
              72.70918,
              18.846484
            ],
            [
              72.707812,
              18.832812
            ],
            [
              72.692773,
              18.815039
            ],
            [
              72.691406,
              18.802734
            ],
            [
              72.714648,
              18.801367
            ],
            [
              72.725586,
              18.808203
            ],
            [
              72.733789,
              18.801367
            ],
            [
              72.778906,
              18.801367
            ],
            [
              72.778906,
              18.831445
            ],
            [
              72.792578,
              18.845117
            ],
            [
              72.814453,
              18.854688
            ],
            [
              72.839062,
              18.882031
            ],
            [
              72.84043,
              18.899805
            ],
            [
              72.848633,
              18.908008
            ],
            [
              72.848633,
              18.928516
            ]
          ]
        ]
      }
    },
    {
      "type": "Feature",
      "properties": {
        "spill_id": "palsar_722",
        "confidence": 0.9
      },
      "geometry": {
        "type": "Polygon",
        "coordinates": [
          [
            [
              72.632617,
              19.078906
            ],
            [
              72.5875,
              19.083008
            ],
            [
              72.558789,
              19.073438
            ],
            [
              72.55332,
              19.063867
            ],
            [
              72.554688,
              19.048828
            ],
            [
              72.550586,
              19.039258
            ],
            [
              72.550586,
              19.024219
            ],
            [
              72.545117,
              19.01875
            ],
            [
              72.535547,
              19.020117
            ],
            [
              72.504102,
              19.006445
            ],
            [
              72.5,
              18.996875
            ],
            [
              72.5,
              18.955859
            ],
            [
              72.506836,
              18.954492
            ],
            [
              72.517773,
              18.958594
            ],
            [
              72.538281,
              18.972266
            ],
            [
              72.557422,
              18.992773
            ],
            [
              72.572461,
              18.999609
            ],
            [
              72.590234,
              19.020117
            ],
            [
              72.608008,
              19.025586
            ],
            [
              72.616211,
              19.035156
            ],
            [
              72.616211,
              19.041992
            ],
            [
              72.603906,
              19.048828
            ],
            [
              72.599805,
              19.058398
            ],
            [
              72.623047,
              19.065234
            ],
            [
              72.632617,
              19.073438
            ],
            [
              72.632617,
              19.078906
            ]
          ]
        ]
      }
    }
  ]
}