{
  "type": "FeatureCollection",
  "features": [
    {
      "type": "Feature",
      "properties": {
        "spill_id": "palsar_444",
        "confidence": 0.89
      },
      "geometry": {
        "type": "Polygon",
        "coordinates": [
          [
            [
              72.765234,
              18.841016
            ],
            [
              72.7625,
              18.836914
            ],
            [
              72.7625,
              18.824609
            ],
            [
              72.765234,
              18.821875
            ],
            [
              72.765234,
              18.820508
            ],
            [
              72.773438,
              18.812305
            ],
            [
              72.773438,
              18.810938
            ],
            [
              72.777539,
              18.810938
            ],
            [
              72.781641,
              18.815039
            ],
            [
              72.781641,
              18.816406
            ],
            [
              72.783008,
              18.817773
            ],
            [
              72.783008,
              18.83418
            ],
            [
              72.780273,
              18.836914
            ],
            [
              72.778906,
              18.836914
            ],
            [
              72.777539,
              18.838281
            ],
            [
              72.773438,
              18.838281
            ],
            [
              72.77207,
              18.839648
            ],
            [
              72.767969,
              18.839648
            ],
            [
              72.766602,
              18.841016
            ],
            [
              72.765234,
              18.841016
            ]
          ]
        ]
      }
    },
    {
      "type": "Feature",
      "properties": {
        "spill_id": "palsar_444",
        "confidence": 0.89
      },
      "geometry": {
        "type": "Polygon",
        "coordinates": [
          [
            [
              72.740625,
              18.869727
            ],
            [
              72.736523,
              18.869727
            ],
            [
              72.735156,
              18.871094
            ],
            [
              72.733789,
              18.869727
            ],
            [
              72.731055,
              18.869727
            ],
            [
              72.726953,
              18.865625
            ],
            [
              72.726953,
              18.864258
            ],
            [
              72.725586,
              18.862891
            ],
            [
              72.725586,
              18.856055
            ],
            [
              72.724219,
              18.854688
            ],
            [
              72.725586,
              18.85332
            ],
            [
              72.725586,
              18.847852
            ],
            [
              72.726953,
              18.846484
            ],
            [
              72.726953,
              18.838281
            ],
            [
              72.733789,
              18.838281
            ],
            [
              72.735156,
              18.839648
            ],
            [
              72.737891,
              18.839648
            ],
            [
              72.740625,
              18.842383
            ],
            [
              72.741992,
              18.842383
            ],
            [
              72.743359,
              18.84375
            ],
            [
              72.744727,
              18.84375
            ],
            [
              72.747461,
              18.846484
            ],
            [
              72.751562,
              18.847852
            ],
            [
              72.751562,
              18.854688
            ],
            [
              72.750195,
              18.856055
            ],
            [
              72.750195,
              18.858789
            ],
            [
              72.748828,
              18.860156
            ],
            [
              72.748828,
              18.861523
            ],
            [
              72.746094,
              18.864258
            ],
            [
              72.746094,
              18.865625
            ],
            [
              72.744727,
              18.866992
            ],
            [
              72.743359,
              18.866992
            ],
            [
              72.740625,
              18.869727
            ]
          ]
        ]
      }
    },
    {
      "type": "Feature",
      "properties": {
        "spill_id": "palsar_444",
        "confidence": 0.89
      },
      "geometry": {
        "type": "Polygon",
        "coordinates": [
          [
            [
              72.848633,
              18.913477
            ],
            [
              72.847266,
              18.913477
            ],
            [
              72.844531,
              18.916211
            ],
            [
              72.837695,
              18.916211
            ],
            [
              72.833594,
              18.912109
            ],
            [
              72.833594,
              18.910742
            ],
            [
              72.832227,
              18.909375
            ],
            [
              72.832227,
              18.908008
            ],
            [
              72.830859,
              18.906641
            ],
            [
              72.830859,
              18.903906
            ],
            [
              72.829492,
              18.902539
            ],
            [
              72.829492,
              18.895703
            ],
            [
              72.830859,
              18.894336
            ],
            [
              72.841797,
              18.894336
            ],
            [
              72.843164,
              18.895703
            ],
            [
              72.845898,
              18.895703
            ],
            [
              72.848633,
              18.898438
            ],
            [
              72.848633,
              18.913477
            ]
          ]
        ]
      }
    },
    {
      "type": "Feature",
      "properties": {
        "spill_id": "palsar_444",
        "confidence": 0.89
      },
      "geometry": {
        "type": "Polygon",
        "coordinates": [
          [
            [
              72.5,
              19.092578
            ],
            [
              72.501367,
              19.073438
            ],
            [
              72.53418,
              19.07207
            ],
            [
              72.5,
              19.041992
            ],
            [
              72.501367,
              18.98457
            ],
            [
              72.614844,
              18.98457
            ],
            [
              72.651758,
              19.013281
            ],
            [
              72.657227,
              18.995508
            ],
            [
              72.717383,
              18.996875
            ],
            [
              72.737891,
              18.969531
            ],
            [
              72.761133,
              18.975
            ],
            [
              72.773438,
              18.923047
            ],
            [
              72.802148,
              18.943555
            ],
            [
              72.799414,
              18.968164
            ],
            [
              72.848633,
              18.962695
            ],
            [
              72.848633,
              19.059766
            ],
            [
              72.814453,
              19.076172
            ],
            [
              72.818555,
              19.111719
            ],
            [
              72.841797,
              19.125391
            ],
            [
              72.776172,
              19.136328
            ],
            [
              72.77207,
              19.15
            ],
            [
              72.711914,
              19.15
            ],
            [
              72.694141,
              19.125391
            ],
            [
              72.699609,
              19.093945
            ],
            [
              72.681836,
              19.074805
            ],
            [
              72.542383,
              19.013281
            ],
            [
              72.521875,
              19.022852
            ],
            [
              72.554688,
              19.032422
            ],
            [
              72.556055,
              19.066602
            ],
            [
              72.629883,
              19.102148
            ],
            [
              72.629883,
              19.122656
            ],
            [
              72.654492,
              19.15
            ],
            [
              72.5,
              19.092578
            ]
          ]
        ]
      }
    }
  ]
}