{
  "type": "FeatureCollection",
  "features": [
    {
      "type": "Feature",
      "properties": {
        "spill_id": "palsar_142",
        "confidence": 0.92
      },
      "geometry": {
        "type": "Polygon",
        "coordinates": [
          [
            [
              72.5,
              19.15
            ],
            [
              72.5,
              18.972266
            ],
            [
              72.505469,
              18.972266
            ],
            [
              72.510938,
              18.994141
            ],
            [
              72.519141,
              19.000977
            ],
            [
              72.525977,
              19.020117
            ],
            [
              72.532812,
              19.01875
            ],
            [
              72.547852,
              19.002344
            ],
            [
              72.550586,
              18.990039
            ],
            [
              72.562891,
              18.975
            ],
            [
              72.572461,
              19.043359
            ],
            [
              72.564258,
              19.054297
            ],
            [
              72.564258,
              19.065234
            ],
            [
              72.556055,
              19.074805
            ],
            [
              72.556055,
              19.083008
            ],
            [
              72.571094,
              19.085742
            ],
            [
              72.576562,
              19.093945
            ],
            [
              72.569727,
              19.118555
            ],
            [
              72.573828,
              19.15
            ],
            [
              72.5,
              19.15
            ]
          ]
        ]
      }
    }
  ]
}