{
  "type": "FeatureCollection",
  "features": [
    {
      "type": "Feature",
      "properties": {
        "spill_id": "palsar_338",
        "confidence": 0.84
      },
      "geometry": {
        "type": "Polygon",
        "coordinates": [
          [
            [
              72.633984,
              18.872461
            ],
            [
              72.627148,
              18.872461
            ],
            [
              72.620312,
              18.868359
            ],
            [
              72.605273,
              18.864258
            ],
            [
              72.590234,
              18.865625
            ],
            [
              72.586133,
              18.860156
            ],
            [
              72.584766,
              18.850586
            ],
            [
              72.591602,
              18.845117
            ],
            [
              72.612109,
              18.836914
            ],
            [
              72.616211,
              18.831445
            ],
            [
              72.616211,
              18.823242
            ],
            [
              72.603906,
              18.813672
            ],
            [
              72.606641,
              18.801367
            ],
            [
              72.639453,
              18.801367
            ],
            [
              72.64082,
              18.802734
            ],
            [
              72.64082,
              18.806836
            ],
            [
              72.635352,
              18.816406
            ],
            [
              72.638086,
              18.825977
            ],
            [
              72.638086,
              18.835547
            ],
            [
              72.635352,
              18.841016
            ],
            [
              72.627148,
              18.847852
            ],
            [
              72.635352,
              18.864258
            ],
            [
              72.633984,
              18.872461
            ]
          ]
        ]
      }
    },
    {
      "type": "Feature",
      "properties": {
        "spill_id": "palsar_338",
        "confidence": 0.84
      },
      "geometry": {
        "type": "Polygon",
        "coordinates": [
          [
            [
              72.55332,
              18.873828
            ],
            [
              72.545117,
              18.873828
            ],
            [
              72.538281,
              18.856055
            ],
            [
              72.516406,
              18.850586
            ],
            [
              72.513672,
              18.854688
            ],
            [
              72.512305,
              18.865625
            ],
            [
              72.5,
              18.866992
            ],
            [
              72.5,
              18.808203
            ],
            [
              72.512305,
              18.801367
            ],
            [
              72.519141,
              18.801367
            ],
            [
              72.524609,
              18.808203
            ],
            [
              72.524609,
              18.820508
            ],
            [
              72.539648,
              18.842383
            ],
            [
              72.558789,
              18.83418
            ],
            [
              72.564258,
              18.824609
            ],
            [
              72.575195,
              18.827344
            ],
            [
              72.575195,
              18.835547
            ],
            [
              72.564258,
              18.845117
            ],
            [
              72.558789,
              18.856055
            ],
            [
              72.55332,
              18.860156
            ],
            [
              72.55332,
              18.873828
            ]
          ]
        ]
      }
    },
    {
      "type": "Feature",
      "properties": {
        "spill_id": "palsar_338",
        "confidence": 0.84
      },
      "geometry": {
        "type": "Polygon",
        "coordinates": [
          [
            [
              72.571094,
              18.89707
            ],
            [
              72.566992,
              18.892969
            ],
            [
              72.566992,
              18.891602
            ],
            [
              72.564258,
              18.888867
            ],
            [
              72.564258,
              18.8875
            ],
            [
              72.562891,
              18.886133
            ],
            [
              72.562891,
              18.87793
            ],
            [
              72.564258,
              18.876562
            ],
            [
              72.564258,
              18.873828
            ],
            [
              72.565625,
              18.872461
            ],
            [
              72.566992,
              18.872461
            ],
            [
              72.569727,
              18.869727
            ],
            [
              72.576562,
              18.869727
            ],
            [
              72.57793,
              18.871094
            ],
            [
              72.582031,
              18.871094
            ],
            [
              72.583398,
              18.872461
            ],
            [
              72.584766,
              18.872461
            ],
            [
              72.5875,
              18.875195
            ],
            [
              72.5875,
              18.879297
            ],
            [
              72.590234,
              18.883398
            ],
            [
              72.590234,
              18.8875
            ],
            [
              72.588867,
              18.888867
            ],
            [
              72.588867,
              18.892969
            ],
            [
              72.586133,
              18.895703
            ],
            [
              72.583398,
              18.895703
            ],
            [
              72.582031,
              18.89707
            ],
            [
              72.571094,
              18.89707
            ]
          ]
        ]
      }
    },
    {
      "type": "Feature",
      "properties": {
        "spill_id": "palsar_338",
        "confidence": 0.84
      },
      "geometry": {
        "type": "Polygon",
        "coordinates": [
          [
            [
              72.681836,
              18.933984
            ],
            [
              72.681836,
              18.929883
            ],
            [
              72.683203,
              18.928516
            ],
            [
              72.690039,
              18.928516
            ],
            [
              72.691406,
              18.929883
            ],
            [
              72.692773,
              18.929883
            ],
            [
              72.692773,
              18.93125
            ],
            [
              72.694141,
              18.932617
            ],
            [
              72.694141,
              18.935352
            ],
            [
              72.692773,
              18.936719
            ],
            [
              72.685938,
              18.936719
            ],
            [
              72.68457,
              18.935352
            ],
            [
              72.683203,
              18.935352
            ],
            [
              72.681836,
              18.933984
            ]
          ]
        ]
      }
    },
    {
      "type": "Feature",
      "properties": {
        "spill_id": "palsar_338",
        "confidence": 0.84
      },
      "geometry": {
        "type": "Polygon",
        "coordinates": [
          [
            [
              72.824023,
              19.125391
            ],
            [
              72.821289,
              19.128125
            ],
            [
              72.817187,
              19.128125
            ],
            [
              72.81582,
              19.126758
            ],
            [
              72.814453,
              19.126758
            ],
            [
              72.813086,
              19.125391
            ],
            [
              72.811719,
              19.125391
            ],
            [
              72.807617,
              19.122656
            ],
            [
              72.804883,
              19.122656
            ],
            [
              72.803516,
              19.121289
            ],
            [
              72.802148,
              19.121289
            ],
            [
              72.800781,
              19.119922
            ],
            [
              72.799414,
              19.119922
            ],
            [
              72.79668,
              19.117188
            ],
            [
              72.795312,
              19.117188
            ],
            [
              72.793945,
              19.11582
            ],
            [
              72.793945,
              19.110352
            ],
            [
              72.795312,
              19.110352
            ],
            [
              72.799414,
              19.107617
            ],
            [
              72.804883,
              19.107617
            ],
            [
              72.80625,
              19.108984
            ],
            [
              72.814453,
              19.108984
            ],
            [
              72.81582,
              19.110352
            ],
            [
              72.817187,
              19.110352
            ],
            [
              72.817187,
              19.111719
            ],
            [
              72.818555,
              19.113086
            ],
            [
              72.818555,
              19.114453
            ],
            [
              72.822656,
              19.118555
            ],
            [
              72.822656,
              19.121289
            ],
            [
              72.824023,
              19.122656
            ],
            [
              72.824023,
              19.125391
            ]
          ]
        ]
      }
    },
    {
      "type": "Feature",
      "properties": {
        "spill_id": "palsar_338",
        "confidence": 0.84
      },
      "geometry": {
        "type": "Polygon",
        "coordinates": [
          [
            [
              72.711914,
              19.144531
            ],
            [
              72.700977,
              19.144531
            ],
            [
              72.699609,
              19.143164
            ],
            [
              72.696875,
              19.143164
            ],
            [
              72.695508,
              19.141797
            ],
            [
              72.694141,
              19.141797
            ],
            [
              72.691406,
              19.139062
            ],
            [
              72.691406,
              19.133594
            ],
            [
              72.695508,
              19.129492
            ],
            [
              72.700977,
              19.129492
            ],
            [
              72.702344,
              19.130859
            ],
            [
              72.705078,
              19.130859
            ],
            [
              72.70918,
              19.134961
            ],
            [
              72.70918,
              19.136328
            ],
            [
              72.710547,
              19.137695
            ],
            [
              72.710547,
              19.139062
            ],
            [
              72.711914,
              19.14043
            ],
            [
              72.711914,
              19.144531
            ]
          ]
        ]
      }
    },
    {
      "type": "Feature",
      "properties": {
        "spill_id": "palsar_338",
        "confidence": 0.84
      },
      "geometry": {
        "type": "Polygon",
        "coordinates": [
          [
            [
              72.66543,
              19.139062
            ],
            [
              72.649023,
              19.143164
            ],
            [
              72.64082,
              19.15
            ],
            [
              72.633984,
              19.15
            ],
            [
              72.627148,
              19.143164
            ],
            [
              72.598438,
              19.143164
            ],
            [
              72.592969,
              19.15
            ],
            [
              72.582031,
              19.15
            ],
            [
              72.57793,
              19.143164
            ],
            [
              72.582031,
              19.136328
            ],
            [
              72.594336,
              19.141797
            ],
            [
              72.599805,
              19.136328
            ],
            [
              72.610742,
              19.133594
            ],
            [
              72.628516,
              19.134961
            ],
            [
              72.63125,
              19.130859
            ],
            [
              72.63125,
              19.121289
            ],
            [
              72.624414,
              19.11582
            ],
            [
              72.618945,
              19.100781
            ],
            [
              72.601172,
              19.092578
            ],
            [
              72.59707,
              19.0625
            ],
            [
              72.590234,
              19.054297
            ],
            [
              72.591602,
              19.047461
            ],
            [
              72.605273,
              19.048828
            ],
            [
              72.610742,
              19.054297
            ],
            [
              72.617578,
              19.073438
            ],
            [
              72.629883,
              19.083008
            ],
            [
              72.635352,
              19.09668
            ],
            [
              72.658594,
              19.114453
            ],
            [
              72.659961,
              19.122656
            ],
            [
              72.668164,
              19.130859
            ],
            [
              72.66543,
              19.139062
            ]
          ]
        ]
      }
    }
  ]
}