{
  "type": "FeatureCollection",
  "features": [
    {
      "type": "Feature",
      "properties": {
        "spill_id": "palsar_517",
        "confidence": 0.86
      },
      "geometry": {
        "type": "Polygon",
        "coordinates": [
          [
            [
              72.813086,
              18.917578
            ],
            [
              72.811719,
              18.916211
            ],
            [
              72.811719,
              18.905273
            ],
            [
              72.813086,
              18.903906
            ],
            [
              72.813086,
              18.901172
            ],
            [
              72.821289,
              18.888867
            ],
            [
              72.822656,
              18.880664
            ],
            [
              72.830859,
              18.864258
            ],
            [
              72.836328,
              18.857422
            ],
            [
              72.84043,
              18.857422
            ],
            [
              72.843164,
              18.858789
            ],
            [
              72.848633,
              18.865625
            ],
            [
              72.848633,
              18.879297
            ],
            [
              72.847266,
              18.880664
            ],
            [
              72.847266,
              18.883398
            ],
            [
              72.848633,
              18.884766
            ],
            [
              72.848633,
              18.89707
            ],
            [
              72.845898,
              18.89707
            ],
            [
              72.843164,
              18.899805
            ],
            [
              72.836328,
              18.901172
            ],
            [
              72.832227,
              18.905273
            ],
            [
              72.828125,
              18.906641
            ],
            [
              72.818555,
              18.914844
            ],
            [
              72.813086,
              18.917578
            ]
          ]
        ]
      }
    },
    {
      "type": "Feature",
      "properties": {
        "spill_id": "palsar_517",
        "confidence": 0.86
      },
      "geometry": {
        "type": "Polygon",
        "coordinates": [
          [
            [
              72.50957,
              19.006445
            ],
            [
              72.505469,
              19.003711
            ],
            [
              72.5,
              18.973633
            ],
            [
              72.539648,
              18.94082
            ],
            [
              72.54375,
              18.927148
            ],
            [
              72.550586,
              18.92168
            ],
            [
              72.550586,
              18.882031
            ],
            [
              72.54375,
              18.87793
            ],
            [
              72.521875,
              18.886133
            ],
            [
              72.5,
              18.875195
            ],
            [
              72.5,
              18.825977
            ],
            [
              72.510938,
              18.827344
            ],
            [
              72.524609,
              18.84375
            ],
            [
              72.556055,
              18.845117
            ],
            [
              72.571094,
              18.864258
            ],
            [
              72.591602,
              18.871094
            ],
            [
              72.594336,
              18.891602
            ],
            [
              72.586133,
              18.903906
            ],
            [
              72.586133,
              18.913477
            ],
            [
              72.59707,
              18.925781
            ],
            [
              72.591602,
              18.939453
            ],
            [
              72.576562,
              18.954492
            ],
            [
              72.579297,
              18.972266
            ],
            [
              72.565625,
              18.985938
            ],
            [
              72.542383,
              18.987305
            ],
            [
              72.50957,
              19.006445
            ]
          ]
        ]
      }
    }
  ]
}