{
  "type": "FeatureCollection",
  "features": [
    {
      "type": "Feature",
      "properties": {
        "spill_id": "palsar_506",
        "confidence": 0.9
      },
      "geometry": {
        "type": "Polygon",
        "coordinates": [
          [
            [
              72.680469,
              18.819141
            ],
            [
              72.672266,
              18.819141
            ],
            [
              72.662695,
              18.80957
            ],
            [
              72.662695,
              18.808203
            ],
            [
              72.661328,
              18.806836
            ],
            [
              72.661328,
              18.804102
            ],
            [
              72.662695,
              18.802734
            ],
            [
              72.662695,
              18.801367
            ],
            [
              72.668164,
              18.801367
            ],
            [
              72.679102,
              18.812305
            ],
            [
              72.679102,
              18.813672
            ],
            [
              72.680469,
              18.815039
            ],
            [
              72.680469,
              18.819141
            ]
          ]
        ]
      }
    },
    {
      "type": "Feature",
      "properties": {
        "spill_id": "palsar_506",
        "confidence": 0.9
      },
      "geometry": {
        "type": "Polygon",
        "coordinates": [
          [
            [
              72.618945,
              18.849219
            ],
            [
              72.617578,
              18.849219
            ],
            [
              72.616211,
              18.850586
            ],
            [
              72.610742,
              18.850586
            ],
            [
              72.609375,
              18.849219
            ],
            [
              72.606641,
              18.849219
            ],
            [
              72.603906,
              18.846484
            ],
            [
              72.603906,
              18.841016
            ],
            [
              72.605273,
              18.839648
            ],
            [
              72.605273,
              18.838281
            ],
            [
              72.606641,
              18.838281
            ],
            [
              72.608008,
              18.836914
            ],
            [
              72.610742,
              18.836914
            ],
            [
              72.612109,
              18.838281
            ],
            [
              72.614844,
              18.838281
            ],
            [
              72.618945,
              18.842383
            ],
            [
              72.618945,
              18.849219
            ]
          ]
        ]
      }
    },
    {
      "type": "Feature",
      "properties": {
        "spill_id": "palsar_506",
        "confidence": 0.9
      },
      "geometry": {
        "type": "Polygon",
        "coordinates": [
          [
            [
              72.50957,
              18.861523
            ],
            [
              72.504102,
              18.861523
            ],
            [
              72.501367,
              18.858789
            ],
            [
              72.5,
              18.858789
            ],
            [
              72.5,
              18.810938
            ],
            [
              72.502734,
              18.80957
            ],
            [
              72.505469,
              18.80957
            ],
            [
              72.508203,
              18.810938
            ],
            [
              72.508203,
              18.812305
            ],
            [
              72.510938,
              18.815039
            ],
            [
              72.510938,
              18.819141
            ],
            [
              72.512305,
              18.820508
            ],
            [
              72.512305,
              18.830078
            ],
            [
              72.510938,
              18.831445
            ],
            [
              72.510938,
              18.83418
            ],
            [
              72.512305,
              18.835547
            ],
            [
              72.512305,
              18.846484
            ],
            [
              72.513672,
              18.847852
            ],
            [
              72.513672,
              18.857422
            ],
            [
              72.512305,
              18.860156
            ],
            [
              72.50957,
              18.861523
            ]
          ]
        ]
      }
    },
    {
      "type": "Feature",
      "properties": {
        "spill_id": "palsar_506",
        "confidence": 0.9
      },
      "geometry": {
        "type": "Polygon",
        "coordinates": [
          [
            [
              72.664062,
              18.866992
            ],
            [
              72.662695,
              18.865625
            ],
            [
              72.661328,
              18.865625
            ],
            [
              72.659961,
              18.864258
            ],
            [
              72.658594,
              18.864258
            ],
            [
              72.649023,
              18.854688
            ],
            [
              72.649023,
              18.849219
            ],
            [
              72.650391,
              18.847852
            ],
            [
              72.650391,
              18.846484
            ],
            [
              72.651758,
              18.845117
            ],
            [
              72.657227,
              18.845117
            ],
            [
              72.662695,
              18.850586
            ],
            [
              72.662695,
              18.851953
            ],
            [
              72.664062,
              18.85332
            ],
            [
              72.664062,
              18.854688
            ],
            [
              72.666797,
              18.857422
            ],
            [
              72.666797,
              18.862891
            ],
            [
              72.66543,
              18.864258
            ],
            [
              72.66543,
              18.865625
            ],
            [
              72.664062,
              18.866992
            ]
          ]
        ]
      }
    },
    {
      "type": "Feature",
      "properties": {
        "spill_id": "palsar_506",
        "confidence": 0.9
      },
      "geometry": {
        "type": "Polygon",
        "coordinates": [
          [
            [
              72.848633,
              18.880664
            ],
            [
              72.825391,
              18.886133
            ],
            [
              72.80625,
              18.883398
            ],
            [
              72.798047,
              18.8875
            ],
            [
              72.785742,
              18.873828
            ],
            [
              72.784375,
              18.860156
            ],
            [
              72.778906,
              18.851953
            ],
            [
              72.77207,
              18.851953
            ],
            [
              72.766602,
              18.858789
            ],
            [
              72.754297,
              18.858789
            ],
            [
              72.746094,
              18.856055
            ],
            [
              72.737891,
              18.847852
            ],
            [
              72.721484,
              18.846484
            ],
            [
              72.724219,
              18.835547
            ],
            [
              72.722852,
              18.823242
            ],
            [
              72.72832,
              18.817773
            ],
            [
              72.751562,
              18.817773
            ],
            [
              72.751562,
              18.801367
            ],
            [
              72.7625,
              18.801367
            ],
            [
              72.776172,
              18.827344
            ],
            [
              72.777539,
              18.839648
            ],
            [
              72.788477,
              18.850586
            ],
            [
              72.814453,
              18.862891
            ],
            [
              72.836328,
              18.861523
            ],
            [
              72.845898,
              18.856055
            ],
            [
              72.848633,
              18.857422
            ],
            [
              72.848633,
              18.880664
            ]
          ]
        ]
      }
    },
    {
      "type": "Feature",
      "properties": {
        "spill_id": "palsar_506",
        "confidence": 0.9
      },
      "geometry": {
        "type": "Polygon",
        "coordinates": [
          [
            [
              72.848633,
              19.005078
            ],
            [
              72.841797,
              19.005078
            ],
            [
              72.833594,
              19.000977
            ],
            [
              72.817187,
              18.98457
            ],
            [
              72.811719,
              18.966797
            ],
            [
              72.800781,
              18.951758
            ],
            [
              72.798047,
              18.94082
            ],
            [
              72.789844,
              18.925781
            ],
            [
              72.789844,
              18.920312
            ],
            [
              72.792578,
              18.917578
            ],
            [
              72.807617,
              18.923047
            ],
            [
              72.81582,
              18.933984
            ],
            [
              72.819922,
              18.944922
            ],
            [
              72.833594,
              18.957227
            ],
            [
              72.84043,
              18.966797
            ],
            [
              72.848633,
              18.969531
            ],
            [
              72.848633,
              19.005078
            ]
          ]
        ]
      }
    },
    {
      "type": "Feature",
      "properties": {
        "spill_id": "palsar_506",
        "confidence": 0.9
      },
      "geometry": {
        "type": "Polygon",
        "coordinates": [
          [
            [
              72.826758,
              19.15
            ],
            [
              72.792578,
              19.15
            ],
            [
              72.795312,
              19.099414
            ],
            [
              72.784375,
              19.103516
            ],
            [
              72.763867,
              19.083008
            ],
            [
              72.737891,
              19.085742
            ],
            [
              72.757031,
              19.065234
            ],
            [
              72.776172,
              19.070703
            ],
            [
              72.765234,
              19.039258
            ],
            [
              72.721484,
              19.029687
            ],
            [
              72.691406,
              19.041992
            ],
            [
              72.690039,
              19.066602
            ],
            [
              72.673633,
              19.080273
            ],
            [
              72.666797,
              19.15
            ],
            [
              72.635352,
              19.15
            ],
            [
              72.636719,
              19.129492
            ],
            [
              72.655859,
              19.119922
            ],
            [
              72.653125,
              19.084375
            ],
            [
              72.66543,
              19.054297
            ],
            [
              72.658594,
              18.977734
            ],
            [
              72.687305,
              19.024219
            ],
            [
              72.696875,
              19.014648
            ],
            [
              72.664062,
              18.946289
            ],
            [
              72.690039,
              18.953125
            ],
            [
              72.703711,
              18.936719
            ],
            [
              72.677734,
              18.903906
            ],
            [
              72.657227,
              18.928516
            ],
            [
              72.654492,
              18.872461
            ],
            [
              72.725586,
              18.903906
            ],
            [
              72.758398,
              18.991406
            ],
            [
              72.814453,
              19.014648
            ],
            [
              72.800781,
              19.048828
            ],
            [
              72.833594,
              19.104883
            ],
            [
              72.826758,
              19.15
            ]
          ]
        ]
      }
    }
  ]
}