{
  "type": "FeatureCollection",
  "features": [
    {
      "type": "Feature",
      "properties": {
        "spill_id": "palsar_270",
        "confidence": 0.88
      },
      "geometry": {
        "type": "Polygon",
        "coordinates": [
          [
            [
              72.569727,
              18.806836
            ],
            [
              72.569727,
              18.801367
            ],
            [
              72.584766,
              18.801367
            ],
            [
              72.586133,
              18.802734
            ],
            [
              72.586133,
              18.805469
            ],
            [
              72.584766,
              18.806836
            ],
            [
              72.584766,
              18.808203
            ],
            [
              72.580664,
              18.812305
            ],
            [
              72.575195,
              18.812305
            ],
            [
              72.569727,
              18.806836
            ]
          ]
        ]
      }
    },
    {
      "type": "Feature",
      "properties": {
        "spill_id": "palsar_270",
        "confidence": 0.88
      },
      "geometry": {
        "type": "Polygon",
        "coordinates": [
          [
            [
              72.523242,
              18.869727
            ],
            [
              72.516406,
              18.869727
            ],
            [
              72.508203,
              18.860156
            ],
            [
              72.505469,
              18.854688
            ],
            [
              72.505469,
              18.842383
            ],
            [
              72.504102,
              18.838281
            ],
            [
              72.5,
              18.835547
            ],
            [
              72.5,
              18.801367
            ],
            [
              72.528711,
              18.801367
            ],
            [
              72.532812,
              18.806836
            ],
            [
              72.532812,
              18.810938
            ],
            [
              72.535547,
              18.817773
            ],
            [
              72.535547,
              18.841016
            ],
            [
              72.53418,
              18.842383
            ],
            [
              72.535547,
              18.857422
            ],
            [
              72.53418,
              18.860156
            ],
            [
              72.523242,
              18.869727
            ]
          ]
        ]
      }
    }
  ]
}