{
  "type": "FeatureCollection",
  "features": [
    {
      "type": "Feature",
      "properties": {
        "spill_id": "palsar_565",
        "confidence": 0.91
      },
      "geometry": {
        "type": "Polygon",
        "coordinates": [
          [
            [
              72.757031,
              18.864258
            ],
            [
              72.758398,
              18.85332
            ],
            [
              72.778906,
              18.832812
            ],
            [
              72.776172,
              18.824609
            ],
            [
              72.785742,
              18.80957
            ],
            [
              72.787109,
              18.801367
            ],
            [
              72.848633,
              18.801367
            ],
            [
              72.848633,
              18.869727
            ],
            [
              72.829492,
              18.871094
            ],
            [
              72.825391,
              18.873828
            ],
            [
              72.819922,
              18.873828
            ],
            [
              72.817187,
              18.869727
            ],
            [
              72.800781,
              18.869727
            ],
            [
              72.789844,
              18.873828
            ],
            [
              72.780273,
              18.873828
            ],
            [
              72.757031,
              18.864258
            ]
          ]
        ]
      }
    },
    {
      "type": "Feature",
      "properties": {
        "spill_id": "palsar_565",
        "confidence": 0.91
      },
      "geometry": {
        "type": "Polygon",
        "coordinates": [
          [
            [
              72.542383,
              19.132227
            ],
            [
              72.542383,
              19.118555
            ],
            [
              72.617578,
              19.078906
            ],
            [
              72.628516,
              19.063867
            ],
            [
              72.650391,
              19.058398
            ],
            [
              72.669531,
              19.026953
            ],
            [
              72.696875,
              19.024219
            ],
            [
              72.688672,
              19.006445
            ],
            [
              72.799414,
              18.929883
            ],
            [
              72.810352,
              18.902539
            ],
            [
              72.821289,
              18.908008
            ],
            [
              72.839062,
              18.89707
            ],
            [
              72.848633,
              18.899805
            ],
            [
              72.848633,
              19.144531
            ],
            [
              72.594336,
              19.15
            ],
            [
              72.542383,
              19.132227
            ]
          ]
        ]
      }
    }
  ]
}