{
  "type": "FeatureCollection",
  "features": [
    {
      "type": "Feature",
      "properties": {
        "spill_id": "palsar_471",
        "confidence": 0.97
      },
      "geometry": {
        "type": "Polygon",
        "coordinates": [
          [
            [
              72.609375,
              18.929883
            ],
            [
              72.605273,
              18.929883
            ],
            [
              72.603906,
              18.928516
            ],
            [
              72.602539,
              18.928516
            ],
            [
              72.599805,
              18.925781
            ],
            [
              72.599805,
              18.920312
            ],
            [
              72.601172,
              18.918945
            ],
            [
              72.602539,
              18.918945
            ],
            [
              72.605273,
              18.92168
            ],
            [
              72.606641,
              18.92168
            ],
            [
              72.609375,
              18.924414
            ],
            [
              72.609375,
              18.925781
            ],
            [
              72.610742,
              18.927148
            ],
            [
              72.609375,
              18.928516
            ],
            [
              72.609375,
              18.929883
            ]
          ]
        ]
      }
    },
    {
      "type": "Feature",
      "properties": {
        "spill_id": "palsar_471",
        "confidence": 0.97
      },
      "geometry": {
        "type": "Polygon",
        "coordinates": [
          [
            [
              72.848633,
              19.15
            ],
            [
              72.817187,
              19.15
            ],
            [
              72.807617,
              19.139062
            ],
            [
              72.793945,
              19.15
            ],
            [
              72.707812,
              19.15
            ],
            [
              72.722852,
              19.124023
            ],
            [
              72.702344,
              19.084375
            ],
            [
              72.692773,
              19.005078
            ],
            [
              72.614844,
              18.917578
            ],
            [
              72.580664,
              18.860156
            ],
            [
              72.531445,
              18.825977
            ],
            [
              72.5,
              18.819141
            ],
            [
              72.5,
              18.801367
            ],
            [
              72.55332,
              18.80957
            ],
            [
              72.557422,
              18.801367
            ],
            [
              72.826758,
              18.801367
            ],
            [
              72.848633,
              18.836914
            ],
            [
              72.848633,
              19.15
            ]
          ]
        ]
      }
    }
  ]
}