{
  "type": "FeatureCollection",
  "features": [
    {
      "type": "Feature",
      "properties": {
        "spill_id": "palsar_498",
        "confidence": 0.96
      },
      "geometry": {
        "type": "Polygon",
        "coordinates": [
          [
            [
              72.5,
              19.15
            ],
            [
              72.5,
              18.801367
            ],
            [
              72.539648,
              18.801367
            ],
            [
              72.554688,
              18.819141
            ],
            [
              72.562891,
              18.875195
            ],
            [
              72.614844,
              18.906641
            ],
            [
              72.628516,
              18.943555
            ],
            [
              72.618945,
              18.988672
            ],
            [
              72.591602,
              19.006445
            ],
            [
              72.594336,
              19.024219
            ],
            [
              72.568359,
              19.046094
            ],
            [
              72.546484,
              19.107617
            ],
            [
              72.565625,
              19.132227
            ],
            [
              72.569727,
              19.15
            ],
            [
              72.5,
              19.15
            ]
          ]
        ]
      }
    }
  ]
}