{
  "type": "FeatureCollection",
  "features": [
    {
      "type": "Feature",
      "properties": {
        "spill_id": "palsar_714",
        "confidence": 0.92
      },
      "geometry": {
        "type": "Polygon",
        "coordinates": [
          [
            [
              72.614844,
              18.84375
            ],
            [
              72.613477,
              18.836914
            ],
            [
              72.618945,
              18.830078
            ],
            [
              72.62168,
              18.824609
            ],
            [
              72.62168,
              18.820508
            ],
            [
              72.627148,
              18.813672
            ],
            [
              72.629883,
              18.804102
            ],
            [
              72.632617,
              18.801367
            ],
            [
              72.66543,
              18.801367
            ],
            [
              72.666797,
              18.802734
            ],
            [
              72.66543,
              18.804102
            ],
            [
              72.666797,
              18.806836
            ],
            [
              72.658594,
              18.816406
            ],
            [
              72.655859,
              18.821875
            ],
            [
              72.655859,
              18.828711
            ],
            [
              72.653125,
              18.831445
            ],
            [
              72.642187,
              18.835547
            ],
            [
              72.636719,
              18.84375
            ],
            [
              72.632617,
              18.84375
            ],
            [
              72.627148,
              18.846484
            ],
            [
              72.624414,
              18.845117
            ],
            [
              72.62168,
              18.846484
            ],
            [
              72.614844,
              18.84375
            ]
          ]
        ]
      }
    },
    {
      "type": "Feature",
      "properties": {
        "spill_id": "palsar_714",
        "confidence": 0.92
      },
      "geometry": {
        "type": "Polygon",
        "coordinates": [
          [
            [
              72.5,
              19.043359
            ],
            [
              72.502734,
              18.955859
            ],
            [
              72.541016,
              18.936719
            ],
            [
              72.583398,
              18.901172
            ],
            [
              72.627148,
              18.891602
            ],
            [
              72.698242,
              18.801367
            ],
            [
              72.821289,
              18.801367
            ],
            [
              72.821289,
              18.816406
            ],
            [
              72.847266,
              18.827344
            ],
            [
              72.839062,
              18.835547
            ],
            [
              72.848633,
              18.845117
            ],
            [
              72.848633,
              18.865625
            ],
            [
              72.807617,
              18.901172
            ],
            [
              72.802148,
              18.917578
            ],
            [
              72.763867,
              18.944922
            ],
            [
              72.661328,
              18.958594
            ],
            [
              72.582031,
              18.995508
            ],
            [
              72.556055,
              18.996875
            ],
            [
              72.524609,
              19.035156
            ],
            [
              72.5,
              19.043359
            ]
          ]
        ]
      }
    },
    {
      "type": "Feature",
      "properties": {
        "spill_id": "palsar_714",
        "confidence": 0.92
      },
      "geometry": {
        "type": "Polygon",
        "coordinates": [
          [
            [
              72.769336,
              19.089844
            ],
            [
              72.765234,
              19.083008
            ],
            [
              72.766602,
              19.070703
            ],
            [
              72.774805,
              19.061133
            ],
            [
              72.780273,
              19.058398
            ],
            [
              72.781641,
              19.048828
            ],
            [
              72.785742,
              19.044727
            ],
            [
              72.802148,
              19.036523
            ],
            [
              72.808984,
              19.020117
            ],
            [
              72.828125,
              19.01875
            ],
            [
              72.848633,
              19.026953
            ],
            [
              72.848633,
              19.092578
            ],
            [
              72.836328,
              19.102148
            ],
            [
              72.833594,
              19.108984
            ],
            [
              72.80625,
              19.110352
            ],
            [
              72.795312,
              19.10625
            ],
            [
              72.769336,
              19.089844
            ]
          ]
        ]
      }
    },
    {
      "type": "Feature",
      "properties": {
        "spill_id": "palsar_714",
        "confidence": 0.92
      },
      "geometry": {
        "type": "Polygon",
        "coordinates": [
          [
            [
              72.5,
              19.147266
            ],
            [
              72.5,
              19.128125
            ],
            [
              72.501367,
              19.128125
            ],
            [
              72.505469,
              19.125391
            ],
            [
              72.515039,
              19.125391
            ],
            [
              72.516406,
              19.126758
            ],
            [
              72.523242,
              19.126758
            ],
            [
              72.524609,
              19.125391
            ],
            [
              72.528711,
              19.125391
            ],
            [
              72.528711,
              19.126758
            ],
            [
              72.530078,
              19.128125
            ],
            [
              72.528711,
              19.129492
            ],
            [
              72.528711,
              19.130859
            ],
            [
              72.527344,
              19.130859
            ],
            [
              72.525977,
              19.132227
            ],
            [
              72.523242,
              19.132227
            ],
            [
              72.521875,
              19.133594
            ],
            [
              72.521875,
              19.136328
            ],
            [
              72.520508,
              19.137695
            ],
            [
              72.519141,
              19.141797
            ],
            [
              72.510938,
              19.15
            ],
            [
              72.504102,
              19.15
            ],
            [
              72.501367,
              19.147266
            ],
            [
              72.5,
              19.147266
            ]
          ]
        ]
      }
    }
  ]
}