{
  "type": "FeatureCollection",
  "features": [
    {
      "type": "Feature",
      "properties": {
        "spill_id": "palsar_743",
        "confidence": 0.91
      },
      "geometry": {
        "type": "Polygon",
        "coordinates": [
          [
            [
              72.633984,
              18.847852
            ],
            [
              72.633984,
              18.846484
            ],
            [
              72.632617,
              18.845117
            ],
            [
              72.632617,
              18.842383
            ],
            [
              72.633984,
              18.841016
            ],
            [
              72.633984,
              18.839648
            ],
            [
              72.635352,
              18.838281
            ],
            [
              72.635352,
              18.836914
            ],
            [
              72.638086,
              18.83418
            ],
            [
              72.639453,
              18.83418
            ],
            [
              72.64082,
              18.832812
            ],
            [
              72.647656,
              18.832812
            ],
            [
              72.647656,
              18.83418
            ],
            [
              72.649023,
              18.835547
            ],
            [
              72.649023,
              18.839648
            ],
            [
              72.647656,
              18.841016
            ],
            [
              72.647656,
              18.842383
            ],
            [
              72.646289,
              18.84375
            ],
            [
              72.646289,
              18.845117
            ],
            [
              72.643555,
              18.847852
            ],
            [
              72.64082,
              18.847852
            ],
            [
              72.639453,
              18.849219
            ],
            [
              72.636719,
              18.849219
            ],
            [
              72.635352,
              18.847852
            ],
            [
              72.633984,
              18.847852
            ]
          ]
        ]
      }
    },
    {
      "type": "Feature",
      "properties": {
        "spill_id": "palsar_743",
        "confidence": 0.91
      },
      "geometry": {
        "type": "Polygon",
        "coordinates": [
          [
            [
              72.5,
              18.854688
            ],
            [
              72.5,
              18.847852
            ],
            [
              72.515039,
              18.846484
            ],
            [
              72.521875,
              18.84375
            ],
            [
              72.541016,
              18.830078
            ],
            [
              72.562891,
              18.819141
            ],
            [
              72.573828,
              18.808203
            ],
            [
              72.579297,
              18.805469
            ],
            [
              72.584766,
              18.805469
            ],
            [
              72.586133,
              18.808203
            ],
            [
              72.572461,
              18.824609
            ],
            [
              72.573828,
              18.832812
            ],
            [
              72.572461,
              18.846484
            ],
            [
              72.579297,
              18.850586
            ],
            [
              72.579297,
              18.854688
            ],
            [
              72.568359,
              18.854688
            ],
            [
              72.564258,
              18.850586
            ],
            [
              72.523242,
              18.851953
            ],
            [
              72.512305,
              18.856055
            ],
            [
              72.5,
              18.854688
            ]
          ]
        ]
      }
    },
    {
      "type": "Feature",
      "properties": {
        "spill_id": "palsar_743",
        "confidence": 0.91
      },
      "geometry": {
        "type": "Polygon",
        "coordinates": [
          [
            [
              72.562891,
              18.888867
            ],
            [
              72.561523,
              18.8875
            ],
            [
              72.561523,
              18.880664
            ],
            [
              72.564258,
              18.87793
            ],
            [
              72.564258,
              18.876562
            ],
            [
              72.565625,
              18.875195
            ],
            [
              72.565625,
              18.873828
            ],
            [
              72.571094,
              18.868359
            ],
            [
              72.571094,
              18.866992
            ],
            [
              72.572461,
              18.866992
            ],
            [
              72.573828,
              18.865625
            ],
            [
              72.575195,
              18.865625
            ],
            [
              72.576562,
              18.866992
            ],
            [
              72.579297,
              18.866992
            ],
            [
              72.580664,
              18.868359
            ],
            [
              72.582031,
              18.868359
            ],
            [
              72.584766,
              18.872461
            ],
            [
              72.584766,
              18.876562
            ],
            [
              72.583398,
              18.87793
            ],
            [
              72.583398,
              18.879297
            ],
            [
              72.582031,
              18.879297
            ],
            [
              72.579297,
              18.882031
            ],
            [
              72.57793,
              18.882031
            ],
            [
              72.576562,
              18.883398
            ],
            [
              72.575195,
              18.883398
            ],
            [
              72.571094,
              18.8875
            ],
            [
              72.569727,
              18.8875
            ],
            [
              72.568359,
              18.888867
            ],
            [
              72.562891,
              18.888867
            ]
          ]
        ]
      }
    },
    {
      "type": "Feature",
      "properties": {
        "spill_id": "palsar_743",
        "confidence": 0.91
      },
      "geometry": {
        "type": "Polygon",
        "coordinates": [
          [
            [
              72.81582,
              18.947656
            ],
            [
              72.811719,
              18.939453
            ],
            [
              72.811719,
              18.927148
            ],
            [
              72.81582,
              18.924414
            ],
            [
              72.824023,
              18.924414
            ],
            [
              72.825391,
              18.92168
            ],
            [
              72.829492,
              18.917578
            ],
            [
              72.84043,
              18.917578
            ],
            [
              72.843164,
              18.920312
            ],
            [
              72.844531,
              18.920312
            ],
            [
              72.845898,
              18.923047
            ],
            [
              72.848633,
              18.924414
            ],
            [
              72.848633,
              18.946289
            ],
            [
              72.845898,
              18.946289
            ],
            [
              72.844531,
              18.947656
            ],
            [
              72.830859,
              18.947656
            ],
            [
              72.829492,
              18.949023
            ],
            [
              72.819922,
              18.949023
            ],
            [
              72.818555,
              18.947656
            ],
            [
              72.81582,
              18.947656
            ]
          ]
        ]
      }
    },
    {
      "type": "Feature",
      "properties": {
        "spill_id": "palsar_743",
        "confidence": 0.91
      },
      "geometry": {
        "type": "Polygon",
        "coordinates": [
          [
            [
              72.5875,
              19.000977
            ],
            [
              72.57793,
              18.976367
            ],
            [
              72.580664,
              18.913477
            ],
            [
              72.613477,
              18.912109
            ],
            [
              72.658594,
              18.892969
            ],
            [
              72.668164,
              18.876562
            ],
            [
              72.687305,
              18.868359
            ],
            [
              72.680469,
              18.850586
            ],
            [
              72.685938,
              18.845117
            ],
            [
              72.750195,
              18.850586
            ],
            [
              72.778906,
              18.832812
            ],
            [
              72.792578,
              18.812305
            ],
            [
              72.843164,
              18.801367
            ],
            [
              72.774805,
              18.846484
            ],
            [
              72.770703,
              18.876562
            ],
            [
              72.757031,
              18.882031
            ],
            [
              72.748828,
              18.868359
            ],
            [
              72.72832,
              18.865625
            ],
            [
              72.720117,
              18.87793
            ],
            [
              72.754297,
              18.884766
            ],
            [
              72.770703,
              18.913477
            ],
            [
              72.792578,
              18.918945
            ],
            [
              72.79668,
              18.947656
            ],
            [
              72.778906,
              18.933984
            ],
            [
              72.744727,
              18.936719
            ],
            [
              72.732422,
              18.914844
            ],
            [
              72.700977,
              18.918945
            ],
            [
              72.696875,
              18.909375
            ],
            [
              72.711914,
              18.89707
            ],
            [
              72.700977,
              18.888867
            ],
            [
              72.669531,
              18.913477
            ],
            [
              72.661328,
              18.94082
            ],
            [
              72.646289,
              18.953125
            ],
            [
              72.653125,
              18.96543
            ],
            [
              72.636719,
              18.96543
            ],
            [
              72.610742,
              19.002344
            ],
            [
              72.5875,
              19.000977
            ]
          ]
        ]
      }
    },
    {
      "type": "Feature",
      "properties": {
        "spill_id": "palsar_743",
        "confidence": 0.91
      },
      "geometry": {
        "type": "Polygon",
        "coordinates": [
          [
            [
              72.739258,
              19.024219
            ],
            [
              72.72832,
              19.024219
            ],
            [
              72.722852,
              19.021484
            ],
            [
              72.71875,
              19.017383
            ],
            [
              72.717383,
              19.013281
            ],
            [
              72.717383,
              19.007812
            ],
            [
              72.720117,
              18.999609
            ],
            [
              72.713281,
              18.991406
            ],
            [
              72.711914,
              18.987305
            ],
            [
              72.717383,
              18.979102
            ],
            [
              72.717383,
              18.958594
            ],
            [
              72.71875,
              18.955859
            ],
            [
              72.721484,
              18.954492
            ],
            [
              72.726953,
              18.955859
            ],
            [
              72.733789,
              18.964062
            ],
            [
              72.737891,
              18.972266
            ],
            [
              72.737891,
              18.975
            ],
            [
              72.746094,
              18.987305
            ],
            [
              72.746094,
              18.996875
            ],
            [
              72.751562,
              19.003711
            ],
            [
              72.75293,
              19.007812
            ],
            [
              72.751562,
              19.014648
            ],
            [
              72.744727,
              19.021484
            ],
            [
              72.739258,
              19.024219
            ]
          ]
        ]
      }
    },
    {
      "type": "Feature",
      "properties": {
        "spill_id": "palsar_743",
        "confidence": 0.91
      },
      "geometry": {
        "type": "Polygon",
        "coordinates": [
          [
            [
              72.690039,
              19.147266
            ],
            [
              72.694141,
              19.11582
            ],
            [
              72.696875,
              19.113086
            ],
            [
              72.713281,
              19.114453
            ],
            [
              72.726953,
              19.104883
            ],
            [
              72.743359,
              19.077539
            ],
            [
              72.748828,
              19.073438
            ],
            [
              72.754297,
              19.084375
            ],
            [
              72.754297,
              19.09668
            ],
            [
              72.747461,
              19.113086
            ],
            [
              72.750195,
              19.130859
            ],
            [
              72.754297,
              19.133594
            ],
            [
              72.761133,
              19.121289
            ],
            [
              72.773438,
              19.108984
            ],
            [
              72.781641,
              19.108984
            ],
            [
              72.785742,
              19.113086
            ],
            [
              72.777539,
              19.136328
            ],
            [
              72.767969,
              19.144531
            ],
            [
              72.7625,
              19.145898
            ],
            [
              72.754297,
              19.141797
            ],
            [
              72.748828,
              19.15
            ],
            [
              72.72832,
              19.15
            ],
            [
              72.725586,
              19.136328
            ],
            [
              72.71875,
              19.133594
            ],
            [
              72.707812,
              19.15
            ],
            [
              72.691406,
              19.15
            ],
            [
              72.690039,
              19.147266
            ]
          ]
        ]
      }
    },
    {
      "type": "Feature",
      "properties": {
        "spill_id": "palsar_743",
        "confidence": 0.91
      },
      "geometry": {
        "type": "Polygon",
        "coordinates": [
          [
            [
              72.515039,
              19.15
            ],
            [
              72.519141,
              19.130859
            ],
            [
              72.515039,
              19.118555
            ],
            [
              72.523242,
              19.108984
            ],
            [
              72.50957,
              19.098047
            ],
            [
              72.506836,
              19.088477
            ],
            [
              72.536914,
              19.076172
            ],
            [
              72.57793,
              19.070703
            ],
            [
              72.582031,
              19.066602
            ],
            [
              72.579297,
              19.047461
            ],
            [
              72.590234,
              19.024219
            ],
            [
              72.599805,
              19.020117
            ],
            [
              72.613477,
              19.041992
            ],
            [
              72.633984,
              19.058398
            ],
            [
              72.629883,
              19.083008
            ],
            [
              72.638086,
              19.099414
            ],
            [
              72.638086,
              19.108984
            ],
            [
              72.628516,
              19.136328
            ],
            [
              72.635352,
              19.15
            ],
            [
              72.515039,
              19.15
            ]
          ]
        ]
      }
    }
  ]
}