{
  "type": "FeatureCollection",
  "features": [
    {
      "type": "Feature",
      "properties": {
        "spill_id": "palsar_462",
        "confidence": 0.82
      },
      "geometry": {
        "type": "Polygon",
        "coordinates": [
          [
            [
              72.592969,
              18.817773
            ],
            [
              72.5875,
              18.812305
            ],
            [
              72.5875,
              18.806836
            ],
            [
              72.588867,
              18.806836
            ],
            [
              72.590234,
              18.805469
            ],
            [
              72.592969,
              18.805469
            ],
            [
              72.592969,
              18.806836
            ],
            [
              72.594336,
              18.808203
            ],
            [
              72.594336,
              18.816406
            ],
            [
              72.592969,
              18.817773
            ]
          ]
        ]
      }
    },
    {
      "type": "Feature",
      "properties": {
        "spill_id": "palsar_462",
        "confidence": 0.82
      },
      "geometry": {
        "type": "Polygon",
        "coordinates": [
          [
            [
              72.763867,
              18.830078
            ],
            [
              72.761133,
              18.827344
            ],
            [
              72.761133,
              18.825977
            ],
            [
              72.759766,
              18.824609
            ],
            [
              72.759766,
              18.821875
            ],
            [
              72.758398,
              18.820508
            ],
            [
              72.758398,
              18.816406
            ],
            [
              72.757031,
              18.815039
            ],
            [
              72.757031,
              18.810938
            ],
            [
              72.758398,
              18.80957
            ],
            [
              72.758398,
              18.805469
            ],
            [
              72.761133,
              18.802734
            ],
            [
              72.761133,
              18.801367
            ],
            [
              72.769336,
              18.801367
            ],
            [
              72.774805,
              18.806836
            ],
            [
              72.774805,
              18.808203
            ],
            [
              72.776172,
              18.80957
            ],
            [
              72.776172,
              18.812305
            ],
            [
              72.777539,
              18.813672
            ],
            [
              72.777539,
              18.816406
            ],
            [
              72.778906,
              18.817773
            ],
            [
              72.778906,
              18.820508
            ],
            [
              72.780273,
              18.821875
            ],
            [
              72.780273,
              18.824609
            ],
            [
              72.778906,
              18.825977
            ],
            [
              72.778906,
              18.827344
            ],
            [
              72.777539,
              18.827344
            ],
            [
              72.776172,
              18.828711
            ],
            [
              72.770703,
              18.828711
            ],
            [
              72.769336,
              18.830078
            ],
            [
              72.763867,
              18.830078
            ]
          ]
        ]
      }
    },
    {
      "type": "Feature",
      "properties": {
        "spill_id": "palsar_462",
        "confidence": 0.82
      },
      "geometry": {
        "type": "Polygon",
        "coordinates": [
          [
            [
              72.531445,
              18.831445
            ],
            [
              72.530078,
              18.831445
            ],
            [
              72.528711,
              18.832812
            ],
            [
              72.525977,
              18.832812
            ],
            [
              72.524609,
              18.83418
            ],
            [
              72.519141,
              18.83418
            ],
            [
              72.517773,
              18.832812
            ],
            [
              72.510938,
              18.832812
            ],
            [
              72.506836,
              18.830078
            ],
            [
              72.506836,
              18.827344
            ],
            [
              72.505469,
              18.825977
            ],
            [
              72.505469,
              18.821875
            ],
            [
              72.504102,
              18.820508
            ],
            [
              72.504102,
              18.817773
            ],
            [
              72.502734,
              18.816406
            ],
            [
              72.502734,
              18.810938
            ],
            [
              72.508203,
              18.801367
            ],
            [
              72.525977,
              18.801367
            ],
            [
              72.528711,
              18.804102
            ],
            [
              72.528711,
              18.805469
            ],
            [
              72.531445,
              18.80957
            ],
            [
              72.531445,
              18.812305
            ],
            [
              72.532812,
              18.813672
            ],
            [
              72.532812,
              18.830078
            ],
            [
              72.531445,
              18.831445
            ]
          ]
        ]
      }
    },
    {
      "type": "Feature",
      "properties": {
        "spill_id": "palsar_462",
        "confidence": 0.82
      },
      "geometry": {
        "type": "Polygon",
        "coordinates": [
          [
            [
              72.627148,
              18.84375
            ],
            [
              72.624414,
              18.842383
            ],
            [
              72.623047,
              18.839648
            ],
            [
              72.623047,
              18.836914
            ],
            [
              72.62168,
              18.835547
            ],
            [
              72.62168,
              18.827344
            ],
            [
              72.620312,
              18.825977
            ],
            [
              72.620312,
              18.801367
            ],
            [
              72.639453,
              18.801367
            ],
            [
              72.642187,
              18.802734
            ],
            [
              72.642187,
              18.804102
            ],
            [
              72.644922,
              18.806836
            ],
            [
              72.644922,
              18.817773
            ],
            [
              72.643555,
              18.819141
            ],
            [
              72.643555,
              18.823242
            ],
            [
              72.642187,
              18.825977
            ],
            [
              72.636719,
              18.830078
            ],
            [
              72.636719,
              18.832812
            ],
            [
              72.635352,
              18.83418
            ],
            [
              72.635352,
              18.842383
            ],
            [
              72.633984,
              18.84375
            ],
            [
              72.627148,
              18.84375
            ]
          ]
        ]
      }
    },
    {
      "type": "Feature",
      "properties": {
        "spill_id": "palsar_462",
        "confidence": 0.82
      },
      "geometry": {
        "type": "Polygon",
        "coordinates": [
          [
            [
              72.538281,
              18.876562
            ],
            [
              72.532812,
              18.876562
            ],
            [
              72.531445,
              18.87793
            ],
            [
              72.530078,
              18.87793
            ],
            [
              72.528711,
              18.876562
            ],
            [
              72.528711,
              18.875195
            ],
            [
              72.527344,
              18.873828
            ],
            [
              72.527344,
              18.871094
            ],
            [
              72.525977,
              18.869727
            ],
            [
              72.525977,
              18.868359
            ],
            [
              72.524609,
              18.866992
            ],
            [
              72.524609,
              18.861523
            ],
            [
              72.525977,
              18.860156
            ],
            [
              72.525977,
              18.858789
            ],
            [
              72.527344,
              18.858789
            ],
            [
              72.528711,
              18.857422
            ],
            [
              72.530078,
              18.857422
            ],
            [
              72.531445,
              18.858789
            ],
            [
              72.532812,
              18.858789
            ],
            [
              72.536914,
              18.862891
            ],
            [
              72.536914,
              18.864258
            ],
            [
              72.538281,
              18.865625
            ],
            [
              72.538281,
              18.868359
            ],
            [
              72.539648,
              18.869727
            ],
            [
              72.539648,
              18.875195
            ],
            [
              72.538281,
              18.876562
            ]
          ]
        ]
      }
    },
    {
      "type": "Feature",
      "properties": {
        "spill_id": "palsar_462",
        "confidence": 0.82
      },
      "geometry": {
        "type": "Polygon",
        "coordinates": [
          [
            [
              72.737891,
              18.898438
            ],
            [
              72.736523,
              18.89707
            ],
            [
              72.733789,
              18.898438
            ],
            [
              72.731055,
              18.894336
            ],
            [
              72.729688,
              18.880664
            ],
            [
              72.717383,
              18.846484
            ],
            [
              72.717383,
              18.835547
            ],
            [
              72.706445,
              18.821875
            ],
            [
              72.706445,
              18.813672
            ],
            [
              72.711914,
              18.801367
            ],
            [
              72.737891,
              18.802734
            ],
            [
              72.746094,
              18.80957
            ],
            [
              72.747461,
              18.813672
            ],
            [
              72.744727,
              18.828711
            ],
            [
              72.746094,
              18.845117
            ],
            [
              72.743359,
              18.85332
            ],
            [
              72.744727,
              18.8875
            ],
            [
              72.741992,
              18.894336
            ],
            [
              72.737891,
              18.898438
            ]
          ]
        ]
      }
    },
    {
      "type": "Feature",
      "properties": {
        "spill_id": "palsar_462",
        "confidence": 0.82
      },
      "geometry": {
        "type": "Polygon",
        "coordinates": [
          [
            [
              72.538281,
              18.938086
            ],
            [
              72.532812,
              18.938086
            ],
            [
              72.530078,
              18.936719
            ],
            [
              72.530078,
              18.935352
            ],
            [
              72.527344,
              18.932617
            ],
            [
              72.524609,
              18.927148
            ],
            [
              72.524609,
              18.923047
            ],
            [
              72.523242,
              18.92168
            ],
            [
              72.523242,
              18.899805
            ],
            [
              72.521875,
              18.898438
            ],
            [
              72.521875,
              18.895703
            ],
            [
              72.527344,
              18.890234
            ],
            [
              72.530078,
              18.888867
            ],
            [
              72.532812,
              18.888867
            ],
            [
              72.53418,
              18.8875
            ],
            [
              72.539648,
              18.890234
            ],
            [
              72.539648,
              18.895703
            ],
            [
              72.538281,
              18.89707
            ],
            [
              72.538281,
              18.899805
            ],
            [
              72.546484,
              18.913477
            ],
            [
              72.546484,
              18.925781
            ],
            [
              72.545117,
              18.928516
            ],
            [
              72.538281,
              18.935352
            ],
            [
              72.538281,
              18.938086
            ]
          ]
        ]
      }
    },
    {
      "type": "Feature",
      "properties": {
        "spill_id": "palsar_462",
        "confidence": 0.82
      },
      "geometry": {
        "type": "Polygon",
        "coordinates": [
          [
            [
              72.71875,
              19.032422
            ],
            [
              72.711914,
              19.032422
            ],
            [
              72.70918,
              19.029687
            ],
            [
              72.70918,
              19.02832
            ],
            [
              72.707812,
              19.026953
            ],
            [
              72.707812,
              19.024219
            ],
            [
              72.705078,
              19.021484
            ],
            [
              72.705078,
              19.020117
            ],
            [
              72.703711,
              19.01875
            ],
            [
              72.703711,
              19.006445
            ],
            [
              72.705078,
              19.005078
            ],
            [
              72.706445,
              19.000977
            ],
            [
              72.710547,
              18.998242
            ],
            [
              72.714648,
              18.998242
            ],
            [
              72.716016,
              18.999609
            ],
            [
              72.717383,
              18.999609
            ],
            [
              72.717383,
              19.000977
            ],
            [
              72.71875,
              19.002344
            ],
            [
              72.71875,
              19.005078
            ],
            [
              72.720117,
              19.006445
            ],
            [
              72.720117,
              19.00918
            ],
            [
              72.721484,
              19.010547
            ],
            [
              72.721484,
              19.02832
            ],
            [
              72.71875,
              19.032422
            ]
          ]
        ]
      }
    },
    {
      "type": "Feature",
      "properties": {
        "spill_id": "palsar_462",
        "confidence": 0.82
      },
      "geometry": {
        "type": "Polygon",
        "coordinates": [
          [
            [
              72.736523,
              19.108984
            ],
            [
              72.733789,
              19.108984
            ],
            [
              72.732422,
              19.107617
            ],
            [
              72.731055,
              19.107617
            ],
            [
              72.729688,
              19.10625
            ],
            [
              72.72832,
              19.10625
            ],
            [
              72.725586,
              19.103516
            ],
            [
              72.725586,
              19.102148
            ],
            [
              72.733789,
              19.093945
            ],
            [
              72.733789,
              19.089844
            ],
            [
              72.735156,
              19.088477
            ],
            [
              72.736523,
              19.089844
            ],
            [
              72.736523,
              19.098047
            ],
            [
              72.737891,
              19.099414
            ],
            [
              72.737891,
              19.100781
            ],
            [
              72.739258,
              19.102148
            ],
            [
              72.739258,
              19.10625
            ],
            [
              72.736523,
              19.108984
            ]
          ]
        ]
      }
    },
    {
      "type": "Feature",
      "properties": {
        "spill_id": "palsar_462",
        "confidence": 0.82
      },
      "geometry": {
        "type": "Polygon",
        "coordinates": [
          [
            [
              72.642187,
              19.121289
            ],
            [
              72.643555,
              19.118555
            ],
            [
              72.643555,
              19.110352
            ],
            [
              72.646289,
              19.102148
            ],
            [
              72.649023,
              19.099414
            ],
            [
              72.655859,
              19.099414
            ],
            [
              72.658594,
              19.102148
            ],
            [
              72.66543,
              19.102148
            ],
            [
              72.676367,
              19.09668
            ],
            [
              72.690039,
              19.095312
            ],
            [
              72.702344,
              19.103516
            ],
            [
              72.706445,
              19.108984
            ],
            [
              72.699609,
              19.121289
            ],
            [
              72.694141,
              19.124023
            ],
            [
              72.683203,
              19.125391
            ],
            [
              72.672266,
              19.130859
            ],
            [
              72.668164,
              19.129492
            ],
            [
              72.653125,
              19.130859
            ],
            [
              72.647656,
              19.128125
            ],
            [
              72.642187,
              19.121289
            ]
          ]
        ]
      }
    },
    {
      "type": "Feature",
      "properties": {
        "spill_id": "palsar_462",
        "confidence": 0.82
      },
      "geometry": {
        "type": "Polygon",
        "coordinates": [
          [
            [
              72.602539,
              19.15
            ],
            [
              72.609375,
              19.067969
            ],
            [
              72.610742,
              18.998242
            ],
            [
              72.620312,
              18.979102
            ],
            [
              72.632617,
              19.002344
            ],
            [
              72.629883,
              19.020117
            ],
            [
              72.633984,
              19.036523
            ],
            [
              72.633984,
              19.065234
            ],
            [
              72.639453,
              19.084375
            ],
            [
              72.627148,
              19.104883
            ],
            [
              72.629883,
              19.126758
            ],
            [
              72.625781,
              19.141797
            ],
            [
              72.617578,
              19.15
            ],
            [
              72.602539,
              19.15
            ]
          ]
        ]
      }
    }
  ]
}