{
  "type": "FeatureCollection",
  "features": [
    {
      "type": "Feature",
      "properties": {
        "spill_id": "palsar_215",
        "confidence": 0.82
      },
      "geometry": {
        "type": "Polygon",
        "coordinates": [
          [
            [
              72.787109,
              19.074805
            ],
            [
              72.784375,
              19.066602
            ],
            [
              72.780273,
              19.0625
            ],
            [
              72.778906,
              19.050195
            ],
            [
              72.780273,
              19.047461
            ],
            [
              72.791211,
              19.041992
            ],
            [
              72.795312,
              19.041992
            ],
            [
              72.800781,
              19.037891
            ],
            [
              72.808984,
              19.020117
            ],
            [
              72.822656,
              19.016016
            ],
            [
              72.825391,
              19.022852
            ],
            [
              72.830859,
              19.026953
            ],
            [
              72.834961,
              19.026953
            ],
            [
              72.844531,
              19.01875
            ],
            [
              72.848633,
              19.024219
            ],
            [
              72.847266,
              19.032422
            ],
            [
              72.848633,
              19.040625
            ],
            [
              72.847266,
              19.041992
            ],
            [
              72.834961,
              19.040625
            ],
            [
              72.832227,
              19.043359
            ],
            [
              72.830859,
              19.054297
            ],
            [
              72.818555,
              19.059766
            ],
            [
              72.81582,
              19.063867
            ],
            [
              72.813086,
              19.063867
            ],
            [
              72.810352,
              19.066602
            ],
            [
              72.802148,
              19.065234
            ],
            [
              72.795312,
              19.073438
            ],
            [
              72.793945,
              19.069336
            ],
            [
              72.792578,
              19.07207
            ],
            [
              72.787109,
              19.074805
            ]
          ]
        ]
      }
    },
    {
      "type": "Feature",
      "properties": {
        "spill_id": "palsar_215",
        "confidence": 0.82
      },
      "geometry": {
        "type": "Polygon",
        "coordinates": [
          [
            [
              72.5,
              19.15
            ],
            [
              72.5,
              18.801367
            ],
            [
              72.848633,
              18.801367
            ],
            [
              72.848633,
              18.995508
            ],
            [
              72.834961,
              18.961328
            ],
            [
              72.810352,
              18.973633
            ],
            [
              72.814453,
              18.990039
            ],
            [
              72.783008,
              18.970898
            ],
            [
              72.741992,
              18.977734
            ],
            [
              72.713281,
              19.000977
            ],
            [
              72.733789,
              19.01875
            ],
            [
              72.759766,
              19.011914
            ],
            [
              72.739258,
              19.099414
            ],
            [
              72.713281,
              19.114453
            ],
            [
              72.683203,
              19.10625
            ],
            [
              72.705078,
              19.129492
            ],
            [
              72.748828,
              19.111719
            ],
            [
              72.799414,
              19.15
            ],
            [
              72.643555,
              19.15
            ],
            [
              72.643555,
              19.118555
            ],
            [
              72.617578,
              19.083008
            ],
            [
              72.623047,
              19.128125
            ],
            [
              72.606641,
              19.15
            ],
            [
              72.5,
              19.15
            ]
          ]
        ]
      }
    }
  ]
}