{
  "type": "FeatureCollection",
  "features": [
    {
      "type": "Feature",
      "properties": {
        "spill_id": "palsar_153",
        "confidence": 0.83
      },
      "geometry": {
        "type": "Polygon",
        "coordinates": [
          [
            [
              72.787109,
              18.813672
            ],
            [
              72.778906,
              18.813672
            ],
            [
              72.776172,
              18.810938
            ],
            [
              72.776172,
              18.80957
            ],
            [
              72.773438,
              18.806836
            ],
            [
              72.773438,
              18.805469
            ],
            [
              72.774805,
              18.804102
            ],
            [
              72.774805,
              18.802734
            ],
            [
              72.776172,
              18.801367
            ],
            [
              72.781641,
              18.801367
            ],
            [
              72.783008,
              18.802734
            ],
            [
              72.784375,
              18.802734
            ],
            [
              72.784375,
              18.804102
            ],
            [
              72.785742,
              18.805469
            ],
            [
              72.785742,
              18.806836
            ],
            [
              72.787109,
              18.808203
            ],
            [
              72.787109,
              18.813672
            ]
          ]
        ]
      }
    },
    {
      "type": "Feature",
      "properties": {
        "spill_id": "palsar_153",
        "confidence": 0.83
      },
      "geometry": {
        "type": "Polygon",
        "coordinates": [
          [
            [
              72.569727,
              18.891602
            ],
            [
              72.564258,
              18.894336
            ],
            [
              72.550586,
              18.8875
            ],
            [
              72.545117,
              18.882031
            ],
            [
              72.538281,
              18.864258
            ],
            [
              72.532812,
              18.857422
            ],
            [
              72.519141,
              18.85332
            ],
            [
              72.506836,
              18.85332
            ],
            [
              72.5,
              18.849219
            ],
            [
              72.5,
              18.836914
            ],
            [
              72.504102,
              18.83418
            ],
            [
              72.515039,
              18.83418
            ],
            [
              72.525977,
              18.838281
            ],
            [
              72.545117,
              18.841016
            ],
            [
              72.569727,
              18.854688
            ],
            [
              72.580664,
              18.865625
            ],
            [
              72.580664,
              18.868359
            ],
            [
              72.57793,
              18.871094
            ],
            [
              72.572461,
              18.872461
            ],
            [
              72.569727,
              18.876562
            ],
            [
              72.569727,
              18.8875
            ],
            [
              72.571094,
              18.888867
            ],
            [
              72.569727,
              18.891602
            ]
          ]
        ]
      }
    },
    {
      "type": "Feature",
      "properties": {
        "spill_id": "palsar_153",
        "confidence": 0.83
      },
      "geometry": {
        "type": "Polygon",
        "coordinates": [
          [
            [
              72.739258,
              18.912109
            ],
            [
              72.733789,
              18.914844
            ],
            [
              72.722852,
              18.916211
            ],
            [
              72.714648,
              18.914844
            ],
            [
              72.707812,
              18.910742
            ],
            [
              72.690039,
              18.912109
            ],
            [
              72.685938,
              18.909375
            ],
            [
              72.677734,
              18.908008
            ],
            [
              72.669531,
              18.902539
            ],
            [
              72.659961,
              18.903906
            ],
            [
              72.653125,
              18.901172
            ],
            [
              72.651758,
              18.902539
            ],
            [
              72.639453,
              18.901172
            ],
            [
              72.638086,
              18.89707
            ],
            [
              72.644922,
              18.894336
            ],
            [
              72.650391,
              18.89707
            ],
            [
              72.664062,
              18.895703
            ],
            [
              72.675,
              18.902539
            ],
            [
              72.685938,
              18.898438
            ],
            [
              72.696875,
              18.901172
            ],
            [
              72.700977,
              18.898438
            ],
            [
              72.702344,
              18.886133
            ],
            [
              72.710547,
              18.882031
            ],
            [
              72.720117,
              18.884766
            ],
            [
              72.733789,
              18.895703
            ],
            [
              72.739258,
              18.905273
            ],
            [
              72.739258,
              18.912109
            ]
          ]
        ]
      }
    },
    {
      "type": "Feature",
      "properties": {
        "spill_id": "palsar_153",
        "confidence": 0.83
      },
      "geometry": {
        "type": "Polygon",
        "coordinates": [
          [
            [
              72.751562,
              18.94082
            ],
            [
              72.751562,
              18.938086
            ],
            [
              72.75293,
              18.936719
            ],
            [
              72.759766,
              18.936719
            ],
            [
              72.7625,
              18.939453
            ],
            [
              72.7625,
              18.942188
            ],
            [
              72.761133,
              18.943555
            ],
            [
              72.755664,
              18.943555
            ],
            [
              72.754297,
              18.942188
            ],
            [
              72.75293,
              18.942188
            ],
            [
              72.751562,
              18.94082
            ]
          ]
        ]
      }
    },
    {
      "type": "Feature",
      "properties": {
        "spill_id": "palsar_153",
        "confidence": 0.83
      },
      "geometry": {
        "type": "Polygon",
        "coordinates": [
          [
            [
              72.829492,
              18.955859
            ],
            [
              72.818555,
              18.958594
            ],
            [
              72.791211,
              18.932617
            ],
            [
              72.792578,
              18.912109
            ],
            [
              72.736523,
              18.873828
            ],
            [
              72.721484,
              18.84375
            ],
            [
              72.716016,
              18.845117
            ],
            [
              72.702344,
              18.832812
            ],
            [
              72.690039,
              18.836914
            ],
            [
              72.680469,
              18.83418
            ],
            [
              72.688672,
              18.819141
            ],
            [
              72.685938,
              18.815039
            ],
            [
              72.647656,
              18.819141
            ],
            [
              72.64082,
              18.810938
            ],
            [
              72.643555,
              18.801367
            ],
            [
              72.748828,
              18.801367
            ],
            [
              72.75293,
              18.815039
            ],
            [
              72.741992,
              18.823242
            ],
            [
              72.747461,
              18.847852
            ],
            [
              72.778906,
              18.883398
            ],
            [
              72.821289,
              18.912109
            ],
            [
              72.833594,
              18.942188
            ],
            [
              72.829492,
              18.955859
            ]
          ]
        ]
      }
    },
    {
      "type": "Feature",
      "properties": {
        "spill_id": "palsar_153",
        "confidence": 0.83
      },
      "geometry": {
        "type": "Polygon",
        "coordinates": [
          [
            [
              72.5,
              18.959961
            ],
            [
              72.5,
              18.950391
            ],
            [
              72.502734,
              18.950391
            ],
            [
              72.504102,
              18.949023
            ],
            [
              72.505469,
              18.949023
            ],
            [
              72.508203,
              18.951758
            ],
            [
              72.508203,
              18.953125
            ],
            [
              72.50957,
              18.954492
            ],
            [
              72.50957,
              18.957227
            ],
            [
              72.506836,
              18.959961
            ],
            [
              72.5,
              18.959961
            ]
          ]
        ]
      }
    },
    {
      "type": "Feature",
      "properties": {
        "spill_id": "palsar_153",
        "confidence": 0.83
      },
      "geometry": {
        "type": "Polygon",
        "coordinates": [
          [
            [
              72.586133,
              19.084375
            ],
            [
              72.586133,
              19.078906
            ],
            [
              72.5875,
              19.078906
            ],
            [
              72.588867,
              19.077539
            ],
            [
              72.591602,
              19.077539
            ],
            [
              72.592969,
              19.078906
            ],
            [
              72.595703,
              19.078906
            ],
            [
              72.59707,
              19.080273
            ],
            [
              72.598438,
              19.080273
            ],
            [
              72.598438,
              19.081641
            ],
            [
              72.599805,
              19.083008
            ],
            [
              72.599805,
              19.084375
            ],
            [
              72.598438,
              19.085742
            ],
            [
              72.598438,
              19.087109
            ],
            [
              72.590234,
              19.087109
            ],
            [
              72.588867,
              19.085742
            ],
            [
              72.5875,
              19.085742
            ],
            [
              72.586133,
              19.084375
            ]
          ]
        ]
      }
    },
    {
      "type": "Feature",
      "properties": {
        "spill_id": "palsar_153",
        "confidence": 0.83
      },
      "geometry": {
        "type": "Polygon",
        "coordinates": [
          [
            [
              72.586133,
              19.15
            ],
            [
              72.57793,
              19.15
            ],
            [
              72.57793,
              19.148633
            ],
            [
              72.576562,
              19.147266
            ],
            [
              72.576562,
              19.145898
            ],
            [
              72.573828,
              19.141797
            ],
            [
              72.573828,
              19.136328
            ],
            [
              72.572461,
              19.134961
            ],
            [
              72.572461,
              19.128125
            ],
            [
              72.573828,
              19.126758
            ],
            [
              72.573828,
              19.124023
            ],
            [
              72.575195,
              19.122656
            ],
            [
              72.575195,
              19.121289
            ],
            [
              72.579297,
              19.118555
            ],
            [
              72.582031,
              19.118555
            ],
            [
              72.586133,
              19.121289
            ],
            [
              72.586133,
              19.122656
            ],
            [
              72.5875,
              19.124023
            ],
            [
              72.5875,
              19.126758
            ],
            [
              72.588867,
              19.128125
            ],
            [
              72.588867,
              19.130859
            ],
            [
              72.590234,
              19.132227
            ],
            [
              72.590234,
              19.134961
            ],
            [
              72.591602,
              19.136328
            ],
            [
              72.591602,
              19.14043
            ],
            [
              72.590234,
              19.141797
            ],
            [
              72.590234,
              19.144531
            ],
            [
              72.5875,
              19.147266
            ],
            [
              72.5875,
              19.148633
            ],
            [
              72.586133,
              19.15
            ]
          ]
        ]
      }
    }
  ]
}