{
  "type": "FeatureCollection",
  "features": [
    {
      "type": "Feature",
      "properties": {
        "spill_id": "palsar_145",
        "confidence": 0.78
      },
      "geometry": {
        "type": "Polygon",
        "coordinates": [
          [
            [
              72.617578,
              18.821875
            ],
            [
              72.616211,
              18.820508
            ],
            [
              72.616211,
              18.819141
            ],
            [
              72.614844,
              18.817773
            ],
            [
              72.614844,
              18.815039
            ],
            [
              72.613477,
              18.813672
            ],
            [
              72.613477,
              18.812305
            ],
            [
              72.612109,
              18.810938
            ],
            [
              72.612109,
              18.80957
            ],
            [
              72.610742,
              18.808203
            ],
            [
              72.610742,
              18.805469
            ],
            [
              72.614844,
              18.801367
            ],
            [
              72.620312,
              18.801367
            ],
            [
              72.62168,
              18.802734
            ],
            [
              72.62168,
              18.804102
            ],
            [
              72.623047,
              18.805469
            ],
            [
              72.623047,
              18.80957
            ],
            [
              72.62168,
              18.810938
            ],
            [
              72.62168,
              18.812305
            ],
            [
              72.620312,
              18.813672
            ],
            [
              72.620312,
              18.815039
            ],
            [
              72.618945,
              18.816406
            ],
            [
              72.618945,
              18.817773
            ],
            [
              72.617578,
              18.819141
            ],
            [
              72.617578,
              18.821875
            ]
          ]
        ]
      }
    },
    {
      "type": "Feature",
      "properties": {
        "spill_id": "palsar_145",
        "confidence": 0.78
      },
      "geometry": {
        "type": "Polygon",
        "coordinates": [
          [
            [
              72.77207,
              18.879297
            ],
            [
              72.77207,
              18.876562
            ],
            [
              72.770703,
              18.875195
            ],
            [
              72.770703,
              18.871094
            ],
            [
              72.773438,
              18.868359
            ],
            [
              72.774805,
              18.868359
            ],
            [
              72.778906,
              18.864258
            ],
            [
              72.780273,
              18.864258
            ],
            [
              72.781641,
              18.862891
            ],
            [
              72.783008,
              18.862891
            ],
            [
              72.784375,
              18.861523
            ],
            [
              72.792578,
              18.861523
            ],
            [
              72.793945,
              18.862891
            ],
            [
              72.793945,
              18.864258
            ],
            [
              72.795312,
              18.865625
            ],
            [
              72.795312,
              18.868359
            ],
            [
              72.793945,
              18.869727
            ],
            [
              72.793945,
              18.872461
            ],
            [
              72.788477,
              18.87793
            ],
            [
              72.787109,
              18.87793
            ],
            [
              72.784375,
              18.880664
            ],
            [
              72.773438,
              18.880664
            ],
            [
              72.77207,
              18.879297
            ]
          ]
        ]
      }
    },
    {
      "type": "Feature",
      "properties": {
        "spill_id": "palsar_145",
        "confidence": 0.78
      },
      "geometry": {
        "type": "Polygon",
        "coordinates": [
          [
            [
              72.698242,
              18.883398
            ],
            [
              72.696875,
              18.883398
            ],
            [
              72.695508,
              18.884766
            ],
            [
              72.688672,
              18.884766
            ],
            [
              72.687305,
              18.883398
            ],
            [
              72.687305,
              18.882031
            ],
            [
              72.685938,
              18.880664
            ],
            [
              72.685938,
              18.871094
            ],
            [
              72.68457,
              18.869727
            ],
            [
              72.68457,
              18.866992
            ],
            [
              72.683203,
              18.865625
            ],
            [
              72.683203,
              18.861523
            ],
            [
              72.68457,
              18.860156
            ],
            [
              72.691406,
              18.860156
            ],
            [
              72.692773,
              18.861523
            ],
            [
              72.694141,
              18.861523
            ],
            [
              72.696875,
              18.864258
            ],
            [
              72.696875,
              18.865625
            ],
            [
              72.699609,
              18.868359
            ],
            [
              72.699609,
              18.869727
            ],
            [
              72.700977,
              18.871094
            ],
            [
              72.700977,
              18.880664
            ],
            [
              72.698242,
              18.883398
            ]
          ]
        ]
      }
    },
    {
      "type": "Feature",
      "properties": {
        "spill_id": "palsar_145",
        "confidence": 0.78
      },
      "geometry": {
        "type": "Polygon",
        "coordinates": [
          [
            [
              72.757031,
              18.903906
            ],
            [
              72.757031,
              18.89707
            ],
            [
              72.759766,
              18.894336
            ],
            [
              72.759766,
              18.892969
            ],
            [
              72.761133,
              18.891602
            ],
            [
              72.757031,
              18.8875
            ],
            [
              72.757031,
              18.886133
            ],
            [
              72.755664,
              18.884766
            ],
            [
              72.755664,
              18.883398
            ],
            [
              72.758398,
              18.880664
            ],
            [
              72.759766,
              18.880664
            ],
            [
              72.7625,
              18.883398
            ],
            [
              72.763867,
              18.883398
            ],
            [
              72.763867,
              18.8875
            ],
            [
              72.765234,
              18.888867
            ],
            [
              72.766602,
              18.888867
            ],
            [
              72.767969,
              18.890234
            ],
            [
              72.767969,
              18.895703
            ],
            [
              72.766602,
              18.89707
            ],
            [
              72.766602,
              18.898438
            ],
            [
              72.765234,
              18.898438
            ],
            [
              72.7625,
              18.901172
            ],
            [
              72.761133,
              18.901172
            ],
            [
              72.759766,
              18.902539
            ],
            [
              72.758398,
              18.902539
            ],
            [
              72.757031,
              18.903906
            ]
          ]
        ]
      }
    },
    {
      "type": "Feature",
      "properties": {
        "spill_id": "palsar_145",
        "confidence": 0.78
      },
      "geometry": {
        "type": "Polygon",
        "coordinates": [
          [
            [
              72.688672,
              18.914844
            ],
            [
              72.688672,
              18.910742
            ],
            [
              72.692773,
              18.906641
            ],
            [
              72.694141,
              18.906641
            ],
            [
              72.695508,
              18.905273
            ],
            [
              72.700977,
              18.905273
            ],
            [
              72.702344,
              18.906641
            ],
            [
              72.705078,
              18.906641
            ],
            [
              72.706445,
              18.908008
            ],
            [
              72.707812,
              18.908008
            ],
            [
              72.710547,
              18.910742
            ],
            [
              72.710547,
              18.913477
            ],
            [
              72.70918,
              18.914844
            ],
            [
              72.70918,
              18.916211
            ],
            [
              72.706445,
              18.918945
            ],
            [
              72.705078,
              18.918945
            ],
            [
              72.703711,
              18.920312
            ],
            [
              72.695508,
              18.920312
            ],
            [
              72.694141,
              18.918945
            ],
            [
              72.692773,
              18.918945
            ],
            [
              72.688672,
              18.914844
            ]
          ]
        ]
      }
    },
    {
      "type": "Feature",
      "properties": {
        "spill_id": "palsar_145",
        "confidence": 0.78
      },
      "geometry": {
        "type": "Polygon",
        "coordinates": [
          [
            [
              72.644922,
              19.003711
            ],
            [
              72.632617,
              18.994141
            ],
            [
              72.618945,
              18.968164
            ],
            [
              72.590234,
              18.925781
            ],
            [
              72.590234,
              18.913477
            ],
            [
              72.592969,
              18.910742
            ],
            [
              72.601172,
              18.912109
            ],
            [
              72.613477,
              18.89707
            ],
            [
              72.606641,
              18.880664
            ],
            [
              72.602539,
              18.856055
            ],
            [
              72.603906,
              18.850586
            ],
            [
              72.613477,
              18.84375
            ],
            [
              72.618945,
              18.847852
            ],
            [
              72.628516,
              18.8875
            ],
            [
              72.618945,
              18.916211
            ],
            [
              72.623047,
              18.949023
            ],
            [
              72.638086,
              18.962695
            ],
            [
              72.646289,
              18.999609
            ],
            [
              72.644922,
              19.003711
            ]
          ]
        ]
      }
    },
    {
      "type": "Feature",
      "properties": {
        "spill_id": "palsar_145",
        "confidence": 0.78
      },
      "geometry": {
        "type": "Polygon",
        "coordinates": [
          [
            [
              72.70918,
              19.057031
            ],
            [
              72.703711,
              19.061133
            ],
            [
              72.699609,
              19.059766
            ],
            [
              72.695508,
              19.054297
            ],
            [
              72.694141,
              19.054297
            ],
            [
              72.681836,
              19.043359
            ],
            [
              72.680469,
              19.043359
            ],
            [
              72.676367,
              19.039258
            ],
            [
              72.669531,
              19.036523
            ],
            [
              72.664062,
              19.031055
            ],
            [
              72.664062,
              19.02832
            ],
            [
              72.661328,
              19.025586
            ],
            [
              72.661328,
              19.022852
            ],
            [
              72.664062,
              19.024219
            ],
            [
              72.669531,
              19.024219
            ],
            [
              72.670898,
              19.025586
            ],
            [
              72.676367,
              19.025586
            ],
            [
              72.677734,
              19.026953
            ],
            [
              72.680469,
              19.026953
            ],
            [
              72.694141,
              19.036523
            ],
            [
              72.703711,
              19.040625
            ],
            [
              72.706445,
              19.043359
            ],
            [
              72.70918,
              19.048828
            ],
            [
              72.70918,
              19.057031
            ]
          ]
        ]
      }
    },
    {
      "type": "Feature",
      "properties": {
        "spill_id": "palsar_145",
        "confidence": 0.78
      },
      "geometry": {
        "type": "Polygon",
        "coordinates": [
          [
            [
              72.724219,
              19.107617
            ],
            [
              72.71875,
              19.107617
            ],
            [
              72.71875,
              19.10625
            ],
            [
              72.716016,
              19.103516
            ],
            [
              72.716016,
              19.100781
            ],
            [
              72.710547,
              19.091211
            ],
            [
              72.710547,
              19.088477
            ],
            [
              72.70918,
              19.087109
            ],
            [
              72.70918,
              19.085742
            ],
            [
              72.706445,
              19.083008
            ],
            [
              72.706445,
              19.081641
            ],
            [
              72.702344,
              19.076172
            ],
            [
              72.702344,
              19.074805
            ],
            [
              72.700977,
              19.073438
            ],
            [
              72.699609,
              19.073438
            ],
            [
              72.699609,
              19.07207
            ],
            [
              72.698242,
              19.070703
            ],
            [
              72.699609,
              19.069336
            ],
            [
              72.703711,
              19.069336
            ],
            [
              72.707812,
              19.07207
            ],
            [
              72.710547,
              19.07207
            ],
            [
              72.711914,
              19.073438
            ],
            [
              72.71875,
              19.076172
            ],
            [
              72.724219,
              19.081641
            ],
            [
              72.724219,
              19.083008
            ],
            [
              72.725586,
              19.084375
            ],
            [
              72.725586,
              19.087109
            ],
            [
              72.726953,
              19.088477
            ],
            [
              72.726953,
              19.093945
            ],
            [
              72.72832,
              19.095312
            ],
            [
              72.72832,
              19.099414
            ],
            [
              72.726953,
              19.100781
            ],
            [
              72.726953,
              19.103516
            ],
            [
              72.724219,
              19.107617
            ]
          ]
        ]
      }
    }
  ]
}