{
  "type": "FeatureCollection",
  "features": [
    {
      "type": "Feature",
      "properties": {
        "spill_id": "palsar_621",
        "confidence": 0.79
      },
      "geometry": {
        "type": "Polygon",
        "coordinates": [
          [
            [
              72.57793,
              18.806836
            ],
            [
              72.57793,
              18.802734
            ],
            [
              72.579297,
              18.802734
            ],
            [
              72.580664,
              18.801367
            ],
            [
              72.59707,
              18.801367
            ],
            [
              72.598438,
              18.802734
            ],
            [
              72.598438,
              18.808203
            ],
            [
              72.59707,
              18.80957
            ],
            [
              72.595703,
              18.80957
            ],
            [
              72.594336,
              18.810938
            ],
            [
              72.592969,
              18.810938
            ],
            [
              72.591602,
              18.812305
            ],
            [
              72.5875,
              18.812305
            ],
            [
              72.586133,
              18.810938
            ],
            [
              72.584766,
              18.810938
            ],
            [
              72.583398,
              18.80957
            ],
            [
              72.582031,
              18.80957
            ],
            [
              72.579297,
              18.806836
            ],
            [
              72.57793,
              18.806836
            ]
          ]
        ]
      }
    },
    {
      "type": "Feature",
      "properties": {
        "spill_id": "palsar_621",
        "confidence": 0.79
      },
      "geometry": {
        "type": "Polygon",
        "coordinates": [
          [
            [
              72.722852,
              18.83418
            ],
            [
              72.721484,
              18.83418
            ],
            [
              72.720117,
              18.835547
            ],
            [
              72.717383,
              18.835547
            ],
            [
              72.710547,
              18.839648
            ],
            [
              72.703711,
              18.839648
            ],
            [
              72.694141,
              18.830078
            ],
            [
              72.694141,
              18.816406
            ],
            [
              72.695508,
              18.815039
            ],
            [
              72.695508,
              18.812305
            ],
            [
              72.699609,
              18.812305
            ],
            [
              72.702344,
              18.815039
            ],
            [
              72.703711,
              18.815039
            ],
            [
              72.705078,
              18.816406
            ],
            [
              72.707812,
              18.816406
            ],
            [
              72.70918,
              18.817773
            ],
            [
              72.711914,
              18.817773
            ],
            [
              72.713281,
              18.819141
            ],
            [
              72.714648,
              18.819141
            ],
            [
              72.71875,
              18.823242
            ],
            [
              72.720117,
              18.823242
            ],
            [
              72.722852,
              18.827344
            ],
            [
              72.722852,
              18.83418
            ]
          ]
        ]
      }
    },
    {
      "type": "Feature",
      "properties": {
        "spill_id": "palsar_621",
        "confidence": 0.79
      },
      "geometry": {
        "type": "Polygon",
        "coordinates": [
          [
            [
              72.639453,
              18.847852
            ],
            [
              72.636719,
              18.845117
            ],
            [
              72.636719,
              18.839648
            ],
            [
              72.639453,
              18.836914
            ],
            [
              72.64082,
              18.836914
            ],
            [
              72.642187,
              18.835547
            ],
            [
              72.649023,
              18.835547
            ],
            [
              72.651758,
              18.838281
            ],
            [
              72.651758,
              18.839648
            ],
            [
              72.653125,
              18.841016
            ],
            [
              72.653125,
              18.845117
            ],
            [
              72.651758,
              18.846484
            ],
            [
              72.649023,
              18.846484
            ],
            [
              72.647656,
              18.847852
            ],
            [
              72.639453,
              18.847852
            ]
          ]
        ]
      }
    },
    {
      "type": "Feature",
      "properties": {
        "spill_id": "palsar_621",
        "confidence": 0.79
      },
      "geometry": {
        "type": "Polygon",
        "coordinates": [
          [
            [
              72.650391,
              18.908008
            ],
            [
              72.647656,
              18.905273
            ],
            [
              72.647656,
              18.898438
            ],
            [
              72.650391,
              18.895703
            ],
            [
              72.654492,
              18.895703
            ],
            [
              72.654492,
              18.902539
            ],
            [
              72.653125,
              18.903906
            ],
            [
              72.653125,
              18.906641
            ],
            [
              72.651758,
              18.908008
            ],
            [
              72.650391,
              18.908008
            ]
          ]
        ]
      }
    },
    {
      "type": "Feature",
      "properties": {
        "spill_id": "palsar_621",
        "confidence": 0.79
      },
      "geometry": {
        "type": "Polygon",
        "coordinates": [
          [
            [
              72.530078,
              18.932617
            ],
            [
              72.528711,
              18.93125
            ],
            [
              72.527344,
              18.93125
            ],
            [
              72.527344,
              18.929883
            ],
            [
              72.524609,
              18.927148
            ],
            [
              72.524609,
              18.920312
            ],
            [
              72.525977,
              18.918945
            ],
            [
              72.525977,
              18.917578
            ],
            [
              72.528711,
              18.914844
            ],
            [
              72.532812,
              18.914844
            ],
            [
              72.535547,
              18.917578
            ],
            [
              72.535547,
              18.929883
            ],
            [
              72.53418,
              18.93125
            ],
            [
              72.53418,
              18.932617
            ],
            [
              72.530078,
              18.932617
            ]
          ]
        ]
      }
    },
    {
      "type": "Feature",
      "properties": {
        "spill_id": "palsar_621",
        "confidence": 0.79
      },
      "geometry": {
        "type": "Polygon",
        "coordinates": [
          [
            [
              72.572461,
              19.05293
            ],
            [
              72.568359,
              19.05293
            ],
            [
              72.568359,
              19.051562
            ],
            [
              72.562891,
              19.046094
            ],
            [
              72.562891,
              19.044727
            ],
            [
              72.561523,
              19.043359
            ],
            [
              72.561523,
              19.041992
            ],
            [
              72.560156,
              19.040625
            ],
            [
              72.560156,
              19.032422
            ],
            [
              72.561523,
              19.031055
            ],
            [
              72.562891,
              19.031055
            ],
            [
              72.564258,
              19.029687
            ],
            [
              72.566992,
              19.029687
            ],
            [
              72.568359,
              19.031055
            ],
            [
              72.568359,
              19.032422
            ],
            [
              72.569727,
              19.033789
            ],
            [
              72.569727,
              19.035156
            ],
            [
              72.571094,
              19.036523
            ],
            [
              72.571094,
              19.037891
            ],
            [
              72.573828,
              19.040625
            ],
            [
              72.573828,
              19.043359
            ],
            [
              72.575195,
              19.044727
            ],
            [
              72.575195,
              19.046094
            ],
            [
              72.573828,
              19.047461
            ],
            [
              72.573828,
              19.051562
            ],
            [
              72.572461,
              19.05293
            ]
          ]
        ]
      }
    },
    {
      "type": "Feature",
      "properties": {
        "spill_id": "palsar_621",
        "confidence": 0.79
      },
      "geometry": {
        "type": "Polygon",
        "coordinates": [
          [
            [
              72.633984,
              19.076172
            ],
            [
              72.628516,
              19.076172
            ],
            [
              72.610742,
              19.066602
            ],
            [
              72.608008,
              19.061133
            ],
            [
              72.606641,
              19.048828
            ],
            [
              72.598438,
              19.037891
            ],
            [
              72.595703,
              19.029687
            ],
            [
              72.5875,
              19.017383
            ],
            [
              72.575195,
              19.007812
            ],
            [
              72.575195,
              18.999609
            ],
            [
              72.576562,
              18.998242
            ],
            [
              72.586133,
              18.999609
            ],
            [
              72.594336,
              19.007812
            ],
            [
              72.598438,
              19.00918
            ],
            [
              72.608008,
              19.020117
            ],
            [
              72.613477,
              19.033789
            ],
            [
              72.625781,
              19.044727
            ],
            [
              72.633984,
              19.059766
            ],
            [
              72.636719,
              19.067969
            ],
            [
              72.636719,
              19.073438
            ],
            [
              72.633984,
              19.076172
            ]
          ]
        ]
      }
    },
    {
      "type": "Feature",
      "properties": {
        "spill_id": "palsar_621",
        "confidence": 0.79
      },
      "geometry": {
        "type": "Polygon",
        "coordinates": [
          [
            [
              72.706445,
              19.078906
            ],
            [
              72.705078,
              19.077539
            ],
            [
              72.705078,
              19.07207
            ],
            [
              72.706445,
              19.070703
            ],
            [
              72.710547,
              19.070703
            ],
            [
              72.713281,
              19.073438
            ],
            [
              72.713281,
              19.077539
            ],
            [
              72.711914,
              19.078906
            ],
            [
              72.706445,
              19.078906
            ]
          ]
        ]
      }
    },
    {
      "type": "Feature",
      "properties": {
        "spill_id": "palsar_621",
        "confidence": 0.79
      },
      "geometry": {
        "type": "Polygon",
        "coordinates": [
          [
            [
              72.741992,
              19.15
            ],
            [
              72.72832,
              19.15
            ],
            [
              72.71875,
              19.14043
            ],
            [
              72.71875,
              19.139062
            ],
            [
              72.716016,
              19.136328
            ],
            [
              72.716016,
              19.134961
            ],
            [
              72.714648,
              19.133594
            ],
            [
              72.714648,
              19.126758
            ],
            [
              72.71875,
              19.122656
            ],
            [
              72.721484,
              19.122656
            ],
            [
              72.722852,
              19.124023
            ],
            [
              72.725586,
              19.124023
            ],
            [
              72.726953,
              19.125391
            ],
            [
              72.72832,
              19.125391
            ],
            [
              72.729688,
              19.126758
            ],
            [
              72.729688,
              19.128125
            ],
            [
              72.733789,
              19.132227
            ],
            [
              72.733789,
              19.133594
            ],
            [
              72.736523,
              19.136328
            ],
            [
              72.736523,
              19.137695
            ],
            [
              72.739258,
              19.14043
            ],
            [
              72.739258,
              19.141797
            ],
            [
              72.741992,
              19.144531
            ],
            [
              72.741992,
              19.15
            ]
          ]
        ]
      }
    }
  ]
}