{
  "type": "FeatureCollection",
  "features": [
    {
      "type": "Feature",
      "properties": {
        "spill_id": "palsar_527",
        "confidence": 0.85
      },
      "geometry": {
        "type": "Polygon",
        "coordinates": [
          [
            [
              72.633984,
              18.817773
            ],
            [
              72.63125,
              18.821875
            ],
            [
              72.625781,
              18.821875
            ],
            [
              72.609375,
              18.828711
            ],
            [
              72.591602,
              18.825977
            ],
            [
              72.590234,
              18.824609
            ],
            [
              72.57793,
              18.824609
            ],
            [
              72.569727,
              18.820508
            ],
            [
              72.554688,
              18.816406
            ],
            [
              72.551953,
              18.813672
            ],
            [
              72.549219,
              18.805469
            ],
            [
              72.551953,
              18.801367
            ],
            [
              72.564258,
              18.801367
            ],
            [
              72.573828,
              18.805469
            ],
            [
              72.580664,
              18.805469
            ],
            [
              72.5875,
              18.801367
            ],
            [
              72.623047,
              18.801367
            ],
            [
              72.633984,
              18.810938
            ],
            [
              72.633984,
              18.817773
            ]
          ]
        ]
      }
    },
    {
      "type": "Feature",
      "properties": {
        "spill_id": "palsar_527",
        "confidence": 0.85
      },
      "geometry": {
        "type": "Polygon",
        "coordinates": [
          [
            [
              72.740625,
              18.925781
            ],
            [
              72.736523,
              18.928516
            ],
            [
              72.721484,
              18.928516
            ],
            [
              72.707812,
              18.925781
            ],
            [
              72.699609,
              18.920312
            ],
            [
              72.692773,
              18.910742
            ],
            [
              72.691406,
              18.905273
            ],
            [
              72.676367,
              18.886133
            ],
            [
              72.673633,
              18.873828
            ],
            [
              72.661328,
              18.849219
            ],
            [
              72.668164,
              18.850586
            ],
            [
              72.672266,
              18.856055
            ],
            [
              72.680469,
              18.861523
            ],
            [
              72.695508,
              18.886133
            ],
            [
              72.71875,
              18.912109
            ],
            [
              72.736523,
              18.920312
            ],
            [
              72.740625,
              18.925781
            ]
          ]
        ]
      }
    },
    {
      "type": "Feature",
      "properties": {
        "spill_id": "palsar_527",
        "confidence": 0.85
      },
      "geometry": {
        "type": "Polygon",
        "coordinates": [
          [
            [
              72.691406,
              18.953125
            ],
            [
              72.666797,
              18.954492
            ],
            [
              72.658594,
              18.950391
            ],
            [
              72.642187,
              18.933984
            ],
            [
              72.635352,
              18.912109
            ],
            [
              72.610742,
              18.882031
            ],
            [
              72.586133,
              18.873828
            ],
            [
              72.579297,
              18.857422
            ],
            [
              72.530078,
              18.849219
            ],
            [
              72.516406,
              18.841016
            ],
            [
              72.515039,
              18.83418
            ],
            [
              72.558789,
              18.838281
            ],
            [
              72.565625,
              18.832812
            ],
            [
              72.5875,
              18.84375
            ],
            [
              72.610742,
              18.847852
            ],
            [
              72.635352,
              18.869727
            ],
            [
              72.654492,
              18.908008
            ],
            [
              72.669531,
              18.928516
            ],
            [
              72.691406,
              18.947656
            ],
            [
              72.691406,
              18.953125
            ]
          ]
        ]
      }
    },
    {
      "type": "Feature",
      "properties": {
        "spill_id": "palsar_527",
        "confidence": 0.85
      },
      "geometry": {
        "type": "Polygon",
        "coordinates": [
          [
            [
              72.776172,
              18.962695
            ],
            [
              72.777539,
              18.951758
            ],
            [
              72.780273,
              18.950391
            ],
            [
              72.787109,
              18.950391
            ],
            [
              72.788477,
              18.951758
            ],
            [
              72.793945,
              18.951758
            ],
            [
              72.802148,
              18.954492
            ],
            [
              72.839062,
              18.954492
            ],
            [
              72.84043,
              18.955859
            ],
            [
              72.845898,
              18.955859
            ],
            [
              72.848633,
              18.957227
            ],
            [
              72.848633,
              18.969531
            ],
            [
              72.814453,
              18.968164
            ],
            [
              72.813086,
              18.969531
            ],
            [
              72.795312,
              18.969531
            ],
            [
              72.793945,
              18.970898
            ],
            [
              72.792578,
              18.969531
            ],
            [
              72.781641,
              18.968164
            ],
            [
              72.778906,
              18.966797
            ],
            [
              72.776172,
              18.962695
            ]
          ]
        ]
      }
    },
    {
      "type": "Feature",
      "properties": {
        "spill_id": "palsar_527",
        "confidence": 0.85
      },
      "geometry": {
        "type": "Polygon",
        "coordinates": [
          [
            [
              72.554688,
              19.01875
            ],
            [
              72.541016,
              19.010547
            ],
            [
              72.538281,
              19.006445
            ],
            [
              72.538281,
              18.988672
            ],
            [
              72.541016,
              18.98457
            ],
            [
              72.539648,
              18.979102
            ],
            [
              72.5,
              18.969531
            ],
            [
              72.5,
              18.933984
            ],
            [
              72.527344,
              18.933984
            ],
            [
              72.541016,
              18.939453
            ],
            [
              72.554688,
              18.94082
            ],
            [
              72.560156,
              18.944922
            ],
            [
              72.560156,
              18.954492
            ],
            [
              72.568359,
              18.962695
            ],
            [
              72.580664,
              18.983203
            ],
            [
              72.561523,
              18.985938
            ],
            [
              72.550586,
              18.995508
            ],
            [
              72.561523,
              19.006445
            ],
            [
              72.560156,
              19.013281
            ],
            [
              72.554688,
              19.01875
            ]
          ]
        ]
      }
    },
    {
      "type": "Feature",
      "properties": {
        "spill_id": "palsar_527",
        "confidence": 0.85
      },
      "geometry": {
        "type": "Polygon",
        "coordinates": [
          [
            [
              72.580664,
              19.026953
            ],
            [
              72.580664,
              19.022852
            ],
            [
              72.582031,
              19.021484
            ],
            [
              72.582031,
              19.020117
            ],
            [
              72.583398,
              19.01875
            ],
            [
              72.584766,
              19.01875
            ],
            [
              72.586133,
              19.017383
            ],
            [
              72.5875,
              19.017383
            ],
            [
              72.588867,
              19.01875
            ],
            [
              72.590234,
              19.01875
            ],
            [
              72.592969,
              19.021484
            ],
            [
              72.592969,
              19.025586
            ],
            [
              72.591602,
              19.026953
            ],
            [
              72.580664,
              19.026953
            ]
          ]
        ]
      }
    },
    {
      "type": "Feature",
      "properties": {
        "spill_id": "palsar_527",
        "confidence": 0.85
      },
      "geometry": {
        "type": "Polygon",
        "coordinates": [
          [
            [
              72.793945,
              19.035156
            ],
            [
              72.791211,
              19.036523
            ],
            [
              72.781641,
              19.036523
            ],
            [
              72.773438,
              19.033789
            ],
            [
              72.755664,
              19.021484
            ],
            [
              72.746094,
              19.01875
            ],
            [
              72.743359,
              19.016016
            ],
            [
              72.726953,
              19.00918
            ],
            [
              72.722852,
              19.005078
            ],
            [
              72.722852,
              18.998242
            ],
            [
              72.72832,
              18.995508
            ],
            [
              72.741992,
              19.000977
            ],
            [
              72.746094,
              19.000977
            ],
            [
              72.750195,
              19.003711
            ],
            [
              72.755664,
              19.003711
            ],
            [
              72.761133,
              18.996875
            ],
            [
              72.766602,
              18.995508
            ],
            [
              72.767969,
              18.996875
            ],
            [
              72.777539,
              18.996875
            ],
            [
              72.783008,
              18.999609
            ],
            [
              72.789844,
              19.00918
            ],
            [
              72.788477,
              19.014648
            ],
            [
              72.789844,
              19.017383
            ],
            [
              72.789844,
              19.026953
            ],
            [
              72.793945,
              19.032422
            ],
            [
              72.793945,
              19.035156
            ]
          ]
        ]
      }
    },
    {
      "type": "Feature",
      "properties": {
        "spill_id": "palsar_527",
        "confidence": 0.85
      },
      "geometry": {
        "type": "Polygon",
        "coordinates": [
          [
            [
              72.586133,
              19.084375
            ],
            [
              72.586133,
              19.080273
            ],
            [
              72.595703,
              19.070703
            ],
            [
              72.59707,
              19.070703
            ],
            [
              72.598438,
              19.069336
            ],
            [
              72.601172,
              19.069336
            ],
            [
              72.602539,
              19.067969
            ],
            [
              72.608008,
              19.067969
            ],
            [
              72.609375,
              19.066602
            ],
            [
              72.617578,
              19.066602
            ],
            [
              72.623047,
              19.070703
            ],
            [
              72.624414,
              19.070703
            ],
            [
              72.629883,
              19.076172
            ],
            [
              72.629883,
              19.078906
            ],
            [
              72.625781,
              19.083008
            ],
            [
              72.62168,
              19.084375
            ],
            [
              72.616211,
              19.088477
            ],
            [
              72.613477,
              19.088477
            ],
            [
              72.612109,
              19.089844
            ],
            [
              72.609375,
              19.089844
            ],
            [
              72.608008,
              19.091211
            ],
            [
              72.603906,
              19.091211
            ],
            [
              72.602539,
              19.092578
            ],
            [
              72.594336,
              19.092578
            ],
            [
              72.592969,
              19.091211
            ],
            [
              72.591602,
              19.091211
            ],
            [
              72.5875,
              19.087109
            ],
            [
              72.5875,
              19.085742
            ],
            [
              72.586133,
              19.084375
            ]
          ]
        ]
      }
    },
    {
      "type": "Feature",
      "properties": {
        "spill_id": "palsar_527",
        "confidence": 0.85
      },
      "geometry": {
        "type": "Polygon",
        "coordinates": [
          [
            [
              72.643555,
              19.122656
            ],
            [
              72.646289,
              19.113086
            ],
            [
              72.644922,
              19.100781
            ],
            [
              72.650391,
              19.089844
            ],
            [
              72.666797,
              19.084375
            ],
            [
              72.681836,
              19.093945
            ],
            [
              72.688672,
              19.093945
            ],
            [
              72.695508,
              19.085742
            ],
            [
              72.705078,
              19.084375
            ],
            [
              72.711914,
              19.074805
            ],
            [
              72.733789,
              19.083008
            ],
            [
              72.761133,
              19.102148
            ],
            [
              72.761133,
              19.108984
            ],
            [
              72.747461,
              19.110352
            ],
            [
              72.735156,
              19.108984
            ],
            [
              72.713281,
              19.09668
            ],
            [
              72.699609,
              19.099414
            ],
            [
              72.694141,
              19.108984
            ],
            [
              72.683203,
              19.110352
            ],
            [
              72.679102,
              19.114453
            ],
            [
              72.690039,
              19.133594
            ],
            [
              72.687305,
              19.14043
            ],
            [
              72.66543,
              19.137695
            ],
            [
              72.646289,
              19.128125
            ],
            [
              72.643555,
              19.122656
            ]
          ]
        ]
      }
    },
    {
      "type": "Feature",
      "properties": {
        "spill_id": "palsar_527",
        "confidence": 0.85
      },
      "geometry": {
        "type": "Polygon",
        "coordinates": [
          [
            [
              72.773438,
              19.130859
            ],
            [
              72.774805,
              19.129492
            ],
            [
              72.780273,
              19.129492
            ],
            [
              72.781641,
              19.130859
            ],
            [
              72.789844,
              19.130859
            ],
            [
              72.791211,
              19.132227
            ],
            [
              72.808984,
              19.132227
            ],
            [
              72.814453,
              19.129492
            ],
            [
              72.822656,
              19.129492
            ],
            [
              72.824023,
              19.128125
            ],
            [
              72.826758,
              19.129492
            ],
            [
              72.837695,
              19.129492
            ],
            [
              72.848633,
              19.136328
            ],
            [
              72.848633,
              19.15
            ],
            [
              72.783008,
              19.15
            ],
            [
              72.773438,
              19.134961
            ],
            [
              72.773438,
              19.130859
            ]
          ]
        ]
      }
    }
  ]
}