{
  "type": "FeatureCollection",
  "features": [
    {
      "type": "Feature",
      "properties": {
        "spill_id": "palsar_559",
        "confidence": 0.9
      },
      "geometry": {
        "type": "Polygon",
        "coordinates": [
          [
            [
              72.636719,
              18.828711
            ],
            [
              72.636719,
              18.825977
            ],
            [
              72.638086,
              18.824609
            ],
            [
              72.64082,
              18.824609
            ],
            [
              72.649023,
              18.816406
            ],
            [
              72.649023,
              18.808203
            ],
            [
              72.650391,
              18.808203
            ],
            [
              72.651758,
              18.806836
            ],
            [
              72.657227,
              18.806836
            ],
            [
              72.658594,
              18.808203
            ],
            [
              72.659961,
              18.808203
            ],
            [
              72.659961,
              18.80957
            ],
            [
              72.661328,
              18.810938
            ],
            [
              72.661328,
              18.813672
            ],
            [
              72.659961,
              18.815039
            ],
            [
              72.657227,
              18.815039
            ],
            [
              72.655859,
              18.816406
            ],
            [
              72.651758,
              18.816406
            ],
            [
              72.650391,
              18.817773
            ],
            [
              72.650391,
              18.825977
            ],
            [
              72.649023,
              18.827344
            ],
            [
              72.647656,
              18.827344
            ],
            [
              72.646289,
              18.828711
            ],
            [
              72.642187,
              18.828711
            ],
            [
              72.64082,
              18.830078
            ],
            [
              72.638086,
              18.830078
            ],
            [
              72.636719,
              18.828711
            ]
          ]
        ]
      }
    },
    {
      "type": "Feature",
      "properties": {
        "spill_id": "palsar_559",
        "confidence": 0.9
      },
      "geometry": {
        "type": "Polygon",
        "coordinates": [
          [
            [
              72.636719,
              18.838281
            ],
            [
              72.62168,
              18.85332
            ],
            [
              72.601172,
              18.858789
            ],
            [
              72.590234,
              18.872461
            ],
            [
              72.571094,
              18.884766
            ],
            [
              72.560156,
              18.884766
            ],
            [
              72.54375,
              18.876562
            ],
            [
              72.506836,
              18.883398
            ],
            [
              72.5,
              18.880664
            ],
            [
              72.5,
              18.813672
            ],
            [
              72.513672,
              18.801367
            ],
            [
              72.595703,
              18.801367
            ],
            [
              72.606641,
              18.80957
            ],
            [
              72.610742,
              18.830078
            ],
            [
              72.616211,
              18.835547
            ],
            [
              72.633984,
              18.83418
            ],
            [
              72.636719,
              18.838281
            ]
          ]
        ]
      }
    }
  ]
}