{
  "type": "FeatureCollection",
  "features": [
    {
      "type": "Feature",
      "properties": {
        "spill_id": "palsar_562",
        "confidence": 0.83
      },
      "geometry": {
        "type": "Polygon",
        "coordinates": [
          [
            [
              72.736523,
              18.815039
            ],
            [
              72.736523,
              18.80957
            ],
            [
              72.737891,
              18.808203
            ],
            [
              72.737891,
              18.805469
            ],
            [
              72.740625,
              18.802734
            ],
            [
              72.740625,
              18.801367
            ],
            [
              72.746094,
              18.801367
            ],
            [
              72.747461,
              18.802734
            ],
            [
              72.747461,
              18.806836
            ],
            [
              72.746094,
              18.808203
            ],
            [
              72.746094,
              18.80957
            ],
            [
              72.744727,
              18.810938
            ],
            [
              72.743359,
              18.810938
            ],
            [
              72.740625,
              18.813672
            ],
            [
              72.739258,
              18.813672
            ],
            [
              72.737891,
              18.815039
            ],
            [
              72.736523,
              18.815039
            ]
          ]
        ]
      }
    },
    {
      "type": "Feature",
      "properties": {
        "spill_id": "palsar_562",
        "confidence": 0.83
      },
      "geometry": {
        "type": "Polygon",
        "coordinates": [
          [
            [
              72.795312,
              18.87793
            ],
            [
              72.795312,
              18.875195
            ],
            [
              72.79668,
              18.875195
            ],
            [
              72.798047,
              18.873828
            ],
            [
              72.798047,
              18.869727
            ],
            [
              72.799414,
              18.868359
            ],
            [
              72.799414,
              18.865625
            ],
            [
              72.802148,
              18.862891
            ],
            [
              72.80625,
              18.862891
            ],
            [
              72.807617,
              18.864258
            ],
            [
              72.807617,
              18.872461
            ],
            [
              72.80625,
              18.873828
            ],
            [
              72.80625,
              18.875195
            ],
            [
              72.804883,
              18.875195
            ],
            [
              72.803516,
              18.876562
            ],
            [
              72.799414,
              18.876562
            ],
            [
              72.798047,
              18.87793
            ],
            [
              72.795312,
              18.87793
            ]
          ]
        ]
      }
    },
    {
      "type": "Feature",
      "properties": {
        "spill_id": "palsar_562",
        "confidence": 0.83
      },
      "geometry": {
        "type": "Polygon",
        "coordinates": [
          [
            [
              72.5,
              18.886133
            ],
            [
              72.5,
              18.869727
            ],
            [
              72.530078,
              18.854688
            ],
            [
              72.579297,
              18.801367
            ],
            [
              72.592969,
              18.801367
            ],
            [
              72.59707,
              18.806836
            ],
            [
              72.588867,
              18.816406
            ],
            [
              72.586133,
              18.83418
            ],
            [
              72.573828,
              18.842383
            ],
            [
              72.579297,
              18.849219
            ],
            [
              72.59707,
              18.830078
            ],
            [
              72.599805,
              18.810938
            ],
            [
              72.613477,
              18.801367
            ],
            [
              72.62168,
              18.804102
            ],
            [
              72.605273,
              18.849219
            ],
            [
              72.590234,
              18.865625
            ],
            [
              72.572461,
              18.875195
            ],
            [
              72.564258,
              18.898438
            ],
            [
              72.55332,
              18.898438
            ],
            [
              72.556055,
              18.858789
            ],
            [
              72.550586,
              18.856055
            ],
            [
              72.539648,
              18.857422
            ],
            [
              72.524609,
              18.875195
            ],
            [
              72.5,
              18.886133
            ]
          ]
        ]
      }
    },
    {
      "type": "Feature",
      "properties": {
        "spill_id": "palsar_562",
        "confidence": 0.83
      },
      "geometry": {
        "type": "Polygon",
        "coordinates": [
          [
            [
              72.737891,
              18.98457
            ],
            [
              72.725586,
              18.975
            ],
            [
              72.725586,
              18.96543
            ],
            [
              72.731055,
              18.959961
            ],
            [
              72.731055,
              18.943555
            ],
            [
              72.739258,
              18.933984
            ],
            [
              72.750195,
              18.932617
            ],
            [
              72.759766,
              18.906641
            ],
            [
              72.758398,
              18.8875
            ],
            [
              72.743359,
              18.886133
            ],
            [
              72.750195,
              18.856055
            ],
            [
              72.748828,
              18.835547
            ],
            [
              72.754297,
              18.825977
            ],
            [
              72.770703,
              18.813672
            ],
            [
              72.774805,
              18.801367
            ],
            [
              72.793945,
              18.801367
            ],
            [
              72.79668,
              18.808203
            ],
            [
              72.791211,
              18.821875
            ],
            [
              72.784375,
              18.828711
            ],
            [
              72.776172,
              18.830078
            ],
            [
              72.770703,
              18.839648
            ],
            [
              72.77207,
              18.869727
            ],
            [
              72.780273,
              18.880664
            ],
            [
              72.774805,
              18.8875
            ],
            [
              72.777539,
              18.916211
            ],
            [
              72.737891,
              18.98457
            ]
          ]
        ]
      }
    },
    {
      "type": "Feature",
      "properties": {
        "spill_id": "palsar_562",
        "confidence": 0.83
      },
      "geometry": {
        "type": "Polygon",
        "coordinates": [
          [
            [
              72.802148,
              19.081641
            ],
            [
              72.800781,
              19.080273
            ],
            [
              72.800781,
              19.076172
            ],
            [
              72.802148,
              19.074805
            ],
            [
              72.802148,
              19.073438
            ],
            [
              72.813086,
              19.0625
            ],
            [
              72.814453,
              19.0625
            ],
            [
              72.81582,
              19.061133
            ],
            [
              72.819922,
              19.061133
            ],
            [
              72.821289,
              19.0625
            ],
            [
              72.821289,
              19.067969
            ],
            [
              72.819922,
              19.069336
            ],
            [
              72.819922,
              19.070703
            ],
            [
              72.808984,
              19.081641
            ],
            [
              72.802148,
              19.081641
            ]
          ]
        ]
      }
    },
    {
      "type": "Feature",
      "properties": {
        "spill_id": "palsar_562",
        "confidence": 0.83
      },
      "geometry": {
        "type": "Polygon",
        "coordinates": [
          [
            [
              72.825391,
              19.119922
            ],
            [
              72.824023,
              19.118555
            ],
            [
              72.824023,
              19.108984
            ],
            [
              72.825391,
              19.107617
            ],
            [
              72.825391,
              19.104883
            ],
            [
              72.828125,
              19.102148
            ],
            [
              72.829492,
              19.103516
            ],
            [
              72.832227,
              19.103516
            ],
            [
              72.832227,
              19.107617
            ],
            [
              72.830859,
              19.108984
            ],
            [
              72.830859,
              19.113086
            ],
            [
              72.829492,
              19.114453
            ],
            [
              72.829492,
              19.117188
            ],
            [
              72.828125,
              19.118555
            ],
            [
              72.826758,
              19.118555
            ],
            [
              72.825391,
              19.119922
            ]
          ]
        ]
      }
    },
    {
      "type": "Feature",
      "properties": {
        "spill_id": "palsar_562",
        "confidence": 0.83
      },
      "geometry": {
        "type": "Polygon",
        "coordinates": [
          [
            [
              72.677734,
              19.130859
            ],
            [
              72.673633,
              19.124023
            ],
            [
              72.675,
              19.119922
            ],
            [
              72.683203,
              19.111719
            ],
            [
              72.696875,
              19.076172
            ],
            [
              72.706445,
              19.066602
            ],
            [
              72.70918,
              19.051562
            ],
            [
              72.716016,
              19.040625
            ],
            [
              72.717383,
              19.032422
            ],
            [
              72.729688,
              19.016016
            ],
            [
              72.729688,
              19.007812
            ],
            [
              72.743359,
              18.985938
            ],
            [
              72.75293,
              18.985938
            ],
            [
              72.755664,
              18.994141
            ],
            [
              72.750195,
              19.003711
            ],
            [
              72.743359,
              19.006445
            ],
            [
              72.739258,
              19.011914
            ],
            [
              72.732422,
              19.046094
            ],
            [
              72.706445,
              19.088477
            ],
            [
              72.699609,
              19.117188
            ],
            [
              72.677734,
              19.130859
            ]
          ]
        ]
      }
    },
    {
      "type": "Feature",
      "properties": {
        "spill_id": "palsar_562",
        "confidence": 0.83
      },
      "geometry": {
        "type": "Polygon",
        "coordinates": [
          [
            [
              72.584766,
              19.136328
            ],
            [
              72.5875,
              19.119922
            ],
            [
              72.610742,
              19.084375
            ],
            [
              72.606641,
              19.074805
            ],
            [
              72.63125,
              19.059766
            ],
            [
              72.654492,
              19.024219
            ],
            [
              72.655859,
              19.003711
            ],
            [
              72.669531,
              18.988672
            ],
            [
              72.675,
              18.966797
            ],
            [
              72.692773,
              18.944922
            ],
            [
              72.710547,
              18.895703
            ],
            [
              72.72832,
              18.890234
            ],
            [
              72.729688,
              18.899805
            ],
            [
              72.71875,
              18.910742
            ],
            [
              72.722852,
              18.93125
            ],
            [
              72.700977,
              18.970898
            ],
            [
              72.694141,
              19.002344
            ],
            [
              72.673633,
              19.020117
            ],
            [
              72.653125,
              19.048828
            ],
            [
              72.653125,
              19.066602
            ],
            [
              72.63125,
              19.081641
            ],
            [
              72.605273,
              19.122656
            ],
            [
              72.584766,
              19.136328
            ]
          ]
        ]
      }
    },
    {
      "type": "Feature",
      "properties": {
        "spill_id": "palsar_562",
        "confidence": 0.83
      },
      "geometry": {
        "type": "Polygon",
        "coordinates": [
          [
            [
              72.5,
              19.15
            ],
            [
              72.505469,
              19.089844
            ],
            [
              72.5,
              19.081641
            ],
            [
              72.5,
              19.005078
            ],
            [
              72.528711,
              18.959961
            ],
            [
              72.528711,
              18.94082
            ],
            [
              72.546484,
              18.928516
            ],
            [
              72.547852,
              18.958594
            ],
            [
              72.573828,
              18.936719
            ],
            [
              72.650391,
              18.819141
            ],
            [
              72.676367,
              18.801367
            ],
            [
              72.679102,
              18.80957
            ],
            [
              72.657227,
              18.839648
            ],
            [
              72.664062,
              18.856055
            ],
            [
              72.635352,
              18.891602
            ],
            [
              72.620312,
              18.923047
            ],
            [
              72.5875,
              18.947656
            ],
            [
              72.564258,
              19.000977
            ],
            [
              72.541016,
              19.011914
            ],
            [
              72.510938,
              19.073438
            ],
            [
              72.527344,
              19.093945
            ],
            [
              72.513672,
              19.113086
            ],
            [
              72.513672,
              19.147266
            ],
            [
              72.5,
              19.15
            ]
          ]
        ]
      }
    }
  ]
}