{
  "type": "FeatureCollection",
  "features": [
    {
      "type": "Feature",
      "properties": {
        "spill_id": "palsar_26",
        "confidence": 0.79
      },
      "geometry": {
        "type": "Polygon",
        "coordinates": [
          [
            [
              72.595703,
              19.15
            ],
            [
              72.601172,
              19.141797
            ],
            [
              72.690039,
              19.085742
            ],
            [
              72.767969,
              19.016016
            ],
            [
              72.808984,
              18.995508
            ],
            [
              72.822656,
              18.977734
            ],
            [
              72.843164,
              18.966797
            ],
            [
              72.839062,
              18.98457
            ],
            [
              72.716016,
              19.087109
            ],
            [
              72.700977,
              19.092578
            ],
            [
              72.649023,
              19.132227
            ],
            [
              72.612109,
              19.15
            ],
            [
              72.595703,
              19.15
            ]
          ]
        ]
      }
    }
  ]
}