{
  "type": "FeatureCollection",
  "features": [
    {
      "type": "Feature",
      "properties": {
        "spill_id": "palsar_493",
        "confidence": 0.89
      },
      "geometry": {
        "type": "Polygon",
        "coordinates": [
          [
            [
              72.561523,
              18.953125
            ],
            [
              72.549219,
              18.943555
            ],
            [
              72.54375,
              18.925781
            ],
            [
              72.539648,
              18.920312
            ],
            [
              72.539648,
              18.902539
            ],
            [
              72.535547,
              18.879297
            ],
            [
              72.535547,
              18.865625
            ],
            [
              72.539648,
              18.857422
            ],
            [
              72.536914,
              18.84375
            ],
            [
              72.54375,
              18.835547
            ],
            [
              72.550586,
              18.832812
            ],
            [
              72.568359,
              18.850586
            ],
            [
              72.571094,
              18.866992
            ],
            [
              72.583398,
              18.894336
            ],
            [
              72.583398,
              18.901172
            ],
            [
              72.575195,
              18.912109
            ],
            [
              72.569727,
              18.935352
            ],
            [
              72.569727,
              18.947656
            ],
            [
              72.568359,
              18.950391
            ],
            [
              72.561523,
              18.953125
            ]
          ]
        ]
      }
    }
  ]
}