{
  "type": "FeatureCollection",
  "features": [
    {
      "type": "Feature",
      "properties": {
        "spill_id": "palsar_656",
        "confidence": 0.88
      },
      "geometry": {
        "type": "Polygon",
        "coordinates": [
          [
            [
              72.808984,
              18.845117
            ],
            [
              72.80625,
              18.842383
            ],
            [
              72.804883,
              18.835547
            ],
            [
              72.810352,
              18.824609
            ],
            [
              72.810352,
              18.821875
            ],
            [
              72.807617,
              18.819141
            ],
            [
              72.804883,
              18.819141
            ],
            [
              72.800781,
              18.815039
            ],
            [
              72.800781,
              18.810938
            ],
            [
              72.811719,
              18.805469
            ],
            [
              72.814453,
              18.801367
            ],
            [
              72.843164,
              18.801367
            ],
            [
              72.844531,
              18.805469
            ],
            [
              72.837695,
              18.823242
            ],
            [
              72.837695,
              18.830078
            ],
            [
              72.839062,
              18.832812
            ],
            [
              72.847266,
              18.836914
            ],
            [
              72.847266,
              18.839648
            ],
            [
              72.843164,
              18.846484
            ],
            [
              72.839062,
              18.850586
            ],
            [
              72.825391,
              18.850586
            ],
            [
              72.821289,
              18.847852
            ],
            [
              72.808984,
              18.845117
            ]
          ]
        ]
      }
    },
    {
      "type": "Feature",
      "properties": {
        "spill_id": "palsar_656",
        "confidence": 0.88
      },
      "geometry": {
        "type": "Polygon",
        "coordinates": [
          [
            [
              72.535547,
              18.933984
            ],
            [
              72.531445,
              18.936719
            ],
            [
              72.523242,
              18.936719
            ],
            [
              72.521875,
              18.935352
            ],
            [
              72.516406,
              18.935352
            ],
            [
              72.515039,
              18.933984
            ],
            [
              72.512305,
              18.933984
            ],
            [
              72.510938,
              18.932617
            ],
            [
              72.50957,
              18.932617
            ],
            [
              72.506836,
              18.929883
            ],
            [
              72.505469,
              18.929883
            ],
            [
              72.504102,
              18.928516
            ],
            [
              72.501367,
              18.928516
            ],
            [
              72.5,
              18.927148
            ],
            [
              72.5,
              18.917578
            ],
            [
              72.501367,
              18.917578
            ],
            [
              72.505469,
              18.914844
            ],
            [
              72.50957,
              18.914844
            ],
            [
              72.510938,
              18.913477
            ],
            [
              72.516406,
              18.913477
            ],
            [
              72.517773,
              18.914844
            ],
            [
              72.521875,
              18.914844
            ],
            [
              72.523242,
              18.916211
            ],
            [
              72.524609,
              18.916211
            ],
            [
              72.530078,
              18.92168
            ],
            [
              72.530078,
              18.923047
            ],
            [
              72.532812,
              18.925781
            ],
            [
              72.532812,
              18.928516
            ],
            [
              72.53418,
              18.929883
            ],
            [
              72.535547,
              18.933984
            ]
          ]
        ]
      }
    },
    {
      "type": "Feature",
      "properties": {
        "spill_id": "palsar_656",
        "confidence": 0.88
      },
      "geometry": {
        "type": "Polygon",
        "coordinates": [
          [
            [
              72.848633,
              18.946289
            ],
            [
              72.826758,
              18.939453
            ],
            [
              72.784375,
              18.894336
            ],
            [
              72.7625,
              18.902539
            ],
            [
              72.746094,
              18.892969
            ],
            [
              72.713281,
              18.894336
            ],
            [
              72.68457,
              18.87793
            ],
            [
              72.64082,
              18.869727
            ],
            [
              72.618945,
              18.846484
            ],
            [
              72.584766,
              18.849219
            ],
            [
              72.569727,
              18.836914
            ],
            [
              72.538281,
              18.846484
            ],
            [
              72.504102,
              18.823242
            ],
            [
              72.5,
              18.801367
            ],
            [
              72.535547,
              18.801367
            ],
            [
              72.550586,
              18.80957
            ],
            [
              72.554688,
              18.801367
            ],
            [
              72.620312,
              18.801367
            ],
            [
              72.649023,
              18.817773
            ],
            [
              72.672266,
              18.821875
            ],
            [
              72.685938,
              18.839648
            ],
            [
              72.703711,
              18.845117
            ],
            [
              72.721484,
              18.861523
            ],
            [
              72.80625,
              18.884766
            ],
            [
              72.826758,
              18.908008
            ],
            [
              72.847266,
              18.909375
            ],
            [
              72.848633,
              18.946289
            ]
          ]
        ]
      }
    },
    {
      "type": "Feature",
      "properties": {
        "spill_id": "palsar_656",
        "confidence": 0.88
      },
      "geometry": {
        "type": "Polygon",
        "coordinates": [
          [
            [
              72.643555,
              18.973633
            ],
            [
              72.635352,
              18.980469
            ],
            [
              72.5875,
              18.988672
            ],
            [
              72.582031,
              18.994141
            ],
            [
              72.583398,
              18.998242
            ],
            [
              72.57793,
              19.000977
            ],
            [
              72.561523,
              18.994141
            ],
            [
              72.531445,
              18.992773
            ],
            [
              72.519141,
              18.996875
            ],
            [
              72.512305,
              18.988672
            ],
            [
              72.525977,
              18.990039
            ],
            [
              72.528711,
              18.987305
            ],
            [
              72.513672,
              18.966797
            ],
            [
              72.5,
              18.962695
            ],
            [
              72.5,
              18.951758
            ],
            [
              72.508203,
              18.950391
            ],
            [
              72.535547,
              18.970898
            ],
            [
              72.550586,
              18.973633
            ],
            [
              72.569727,
              18.962695
            ],
            [
              72.595703,
              18.96543
            ],
            [
              72.609375,
              18.950391
            ],
            [
              72.620312,
              18.949023
            ],
            [
              72.643555,
              18.969531
            ],
            [
              72.643555,
              18.973633
            ]
          ]
        ]
      }
    },
    {
      "type": "Feature",
      "properties": {
        "spill_id": "palsar_656",
        "confidence": 0.88
      },
      "geometry": {
        "type": "Polygon",
        "coordinates": [
          [
            [
              72.591602,
              19.104883
            ],
            [
              72.584766,
              19.103516
            ],
            [
              72.580664,
              19.09668
            ],
            [
              72.576562,
              19.078906
            ],
            [
              72.576562,
              19.067969
            ],
            [
              72.579297,
              19.058398
            ],
            [
              72.575195,
              19.039258
            ],
            [
              72.565625,
              19.026953
            ],
            [
              72.565625,
              19.022852
            ],
            [
              72.569727,
              19.01875
            ],
            [
              72.576562,
              19.016016
            ],
            [
              72.582031,
              19.016016
            ],
            [
              72.591602,
              19.020117
            ],
            [
              72.598438,
              19.039258
            ],
            [
              72.606641,
              19.047461
            ],
            [
              72.606641,
              19.051562
            ],
            [
              72.603906,
              19.055664
            ],
            [
              72.605273,
              19.077539
            ],
            [
              72.59707,
              19.087109
            ],
            [
              72.591602,
              19.104883
            ]
          ]
        ]
      }
    },
    {
      "type": "Feature",
      "properties": {
        "spill_id": "palsar_656",
        "confidence": 0.88
      },
      "geometry": {
        "type": "Polygon",
        "coordinates": [
          [
            [
              72.833594,
              19.15
            ],
            [
              72.80625,
              19.15
            ],
            [
              72.803516,
              19.133594
            ],
            [
              72.784375,
              19.119922
            ],
            [
              72.761133,
              19.11582
            ],
            [
              72.755664,
              19.102148
            ],
            [
              72.736523,
              19.088477
            ],
            [
              72.740625,
              19.066602
            ],
            [
              72.746094,
              19.061133
            ],
            [
              72.780273,
              19.058398
            ],
            [
              72.777539,
              19.041992
            ],
            [
              72.7625,
              19.025586
            ],
            [
              72.757031,
              19.00918
            ],
            [
              72.746094,
              19.000977
            ],
            [
              72.75293,
              18.990039
            ],
            [
              72.777539,
              19.010547
            ],
            [
              72.813086,
              19.007812
            ],
            [
              72.844531,
              19.032422
            ],
            [
              72.844531,
              19.037891
            ],
            [
              72.834961,
              19.044727
            ],
            [
              72.848633,
              19.067969
            ],
            [
              72.848633,
              19.103516
            ],
            [
              72.84043,
              19.103516
            ],
            [
              72.81582,
              19.088477
            ],
            [
              72.803516,
              19.092578
            ],
            [
              72.811719,
              19.103516
            ],
            [
              72.819922,
              19.10625
            ],
            [
              72.819922,
              19.122656
            ],
            [
              72.833594,
              19.136328
            ],
            [
              72.833594,
              19.15
            ]
          ]
        ]
      }
    },
    {
      "type": "Feature",
      "properties": {
        "spill_id": "palsar_656",
        "confidence": 0.88
      },
      "geometry": {
        "type": "Polygon",
        "coordinates": [
          [
            [
              72.680469,
              19.15
            ],
            [
              72.668164,
              19.14043
            ],
            [
              72.658594,
              19.113086
            ],
            [
              72.666797,
              19.09668
            ],
            [
              72.662695,
              19.084375
            ],
            [
              72.644922,
              19.065234
            ],
            [
              72.624414,
              19.061133
            ],
            [
              72.612109,
              19.054297
            ],
            [
              72.609375,
              19.046094
            ],
            [
              72.624414,
              19.021484
            ],
            [
              72.653125,
              19.024219
            ],
            [
              72.657227,
              19.013281
            ],
            [
              72.669531,
              19.007812
            ],
            [
              72.670898,
              18.983203
            ],
            [
              72.690039,
              18.975
            ],
            [
              72.702344,
              18.975
            ],
            [
              72.716016,
              18.983203
            ],
            [
              72.720117,
              18.992773
            ],
            [
              72.705078,
              19.013281
            ],
            [
              72.690039,
              19.013281
            ],
            [
              72.685938,
              19.017383
            ],
            [
              72.683203,
              19.041992
            ],
            [
              72.676367,
              19.048828
            ],
            [
              72.673633,
              19.078906
            ],
            [
              72.683203,
              19.099414
            ],
            [
              72.683203,
              19.108984
            ],
            [
              72.672266,
              19.117188
            ],
            [
              72.672266,
              19.122656
            ],
            [
              72.695508,
              19.144531
            ],
            [
              72.695508,
              19.15
            ],
            [
              72.680469,
              19.15
            ]
          ]
        ]
      }
    }
  ]
}