{
  "type": "FeatureCollection",
  "features": [
    {
      "type": "Feature",
      "properties": {
        "spill_id": "palsar_456",
        "confidence": 0.93
      },
      "geometry": {
        "type": "Polygon",
        "coordinates": [
          [
            [
              72.783008,
              19.15
            ],
            [
              72.7625,
              19.15
            ],
            [
              72.741992,
              19.137695
            ],
            [
              72.733789,
              19.15
            ],
            [
              72.691406,
              19.15
            ],
            [
              72.623047,
              19.046094
            ],
            [
              72.603906,
              18.990039
            ],
            [
              72.609375,
              18.928516
            ],
            [
              72.5875,
              18.839648
            ],
            [
              72.588867,
              18.801367
            ],
            [
              72.71875,
              18.801367
            ],
            [
              72.729688,
              18.835547
            ],
            [
              72.784375,
              18.898438
            ],
            [
              72.811719,
              18.955859
            ],
            [
              72.819922,
              19.01875
            ],
            [
              72.802148,
              19.026953
            ],
            [
              72.799414,
              19.059766
            ],
            [
              72.784375,
              19.084375
            ],
            [
              72.763867,
              19.092578
            ],
            [
              72.770703,
              19.121289
            ],
            [
              72.759766,
              19.125391
            ],
            [
              72.783008,
              19.15
            ]
          ]
        ]
      }
    }
  ]
}