{
  "type": "FeatureCollection",
  "features": [
    {
      "type": "Feature",
      "properties": {
        "spill_id": "palsar_289",
        "confidence": 0.88
      },
      "geometry": {
        "type": "Polygon",
        "coordinates": [
          [
            [
              72.699609,
              18.871094
            ],
            [
              72.695508,
              18.868359
            ],
            [
              72.695508,
              18.864258
            ],
            [
              72.696875,
              18.862891
            ],
            [
              72.696875,
              18.856055
            ],
            [
              72.695508,
              18.854688
            ],
            [
              72.695508,
              18.84375
            ],
            [
              72.696875,
              18.842383
            ],
            [
              72.695508,
              18.832812
            ],
            [
              72.696875,
              18.831445
            ],
            [
              72.696875,
              18.825977
            ],
            [
              72.706445,
              18.815039
            ],
            [
              72.711914,
              18.802734
            ],
            [
              72.714648,
              18.801367
            ],
            [
              72.721484,
              18.801367
            ],
            [
              72.726953,
              18.808203
            ],
            [
              72.72832,
              18.816406
            ],
            [
              72.731055,
              18.821875
            ],
            [
              72.731055,
              18.825977
            ],
            [
              72.724219,
              18.835547
            ],
            [
              72.721484,
              18.84375
            ],
            [
              72.710547,
              18.858789
            ],
            [
              72.706445,
              18.869727
            ],
            [
              72.705078,
              18.871094
            ],
            [
              72.699609,
              18.871094
            ]
          ]
        ]
      }
    },
    {
      "type": "Feature",
      "properties": {
        "spill_id": "palsar_289",
        "confidence": 0.88
      },
      "geometry": {
        "type": "Polygon",
        "coordinates": [
          [
            [
              72.744727,
              18.914844
            ],
            [
              72.740625,
              18.913477
            ],
            [
              72.736523,
              18.908008
            ],
            [
              72.741992,
              18.886133
            ],
            [
              72.740625,
              18.884766
            ],
            [
              72.740625,
              18.873828
            ],
            [
              72.741992,
              18.872461
            ],
            [
              72.740625,
              18.841016
            ],
            [
              72.741992,
              18.83418
            ],
            [
              72.747461,
              18.828711
            ],
            [
              72.759766,
              18.828711
            ],
            [
              72.765234,
              18.830078
            ],
            [
              72.773438,
              18.835547
            ],
            [
              72.778906,
              18.846484
            ],
            [
              72.778906,
              18.857422
            ],
            [
              72.783008,
              18.871094
            ],
            [
              72.758398,
              18.901172
            ],
            [
              72.755664,
              18.912109
            ],
            [
              72.75293,
              18.914844
            ],
            [
              72.748828,
              18.913477
            ],
            [
              72.744727,
              18.914844
            ]
          ]
        ]
      }
    },
    {
      "type": "Feature",
      "properties": {
        "spill_id": "palsar_289",
        "confidence": 0.88
      },
      "geometry": {
        "type": "Polygon",
        "coordinates": [
          [
            [
              72.72832,
              18.959961
            ],
            [
              72.726953,
              18.958594
            ],
            [
              72.724219,
              18.958594
            ],
            [
              72.722852,
              18.957227
            ],
            [
              72.722852,
              18.955859
            ],
            [
              72.71875,
              18.951758
            ],
            [
              72.717383,
              18.951758
            ],
            [
              72.717383,
              18.949023
            ],
            [
              72.720117,
              18.946289
            ],
            [
              72.720117,
              18.944922
            ],
            [
              72.721484,
              18.943555
            ],
            [
              72.722852,
              18.944922
            ],
            [
              72.724219,
              18.944922
            ],
            [
              72.724219,
              18.946289
            ],
            [
              72.726953,
              18.949023
            ],
            [
              72.726953,
              18.950391
            ],
            [
              72.72832,
              18.951758
            ],
            [
              72.72832,
              18.954492
            ],
            [
              72.729688,
              18.955859
            ],
            [
              72.729688,
              18.958594
            ],
            [
              72.72832,
              18.959961
            ]
          ]
        ]
      }
    },
    {
      "type": "Feature",
      "properties": {
        "spill_id": "palsar_289",
        "confidence": 0.88
      },
      "geometry": {
        "type": "Polygon",
        "coordinates": [
          [
            [
              72.784375,
              19.037891
            ],
            [
              72.773438,
              19.037891
            ],
            [
              72.77207,
              19.035156
            ],
            [
              72.77207,
              19.031055
            ],
            [
              72.778906,
              19.010547
            ],
            [
              72.773438,
              19.005078
            ],
            [
              72.769336,
              19.005078
            ],
            [
              72.766602,
              19.002344
            ],
            [
              72.761133,
              18.990039
            ],
            [
              72.759766,
              18.977734
            ],
            [
              72.761133,
              18.975
            ],
            [
              72.766602,
              18.970898
            ],
            [
              72.773438,
              18.972266
            ],
            [
              72.785742,
              18.995508
            ],
            [
              72.785742,
              19.003711
            ],
            [
              72.789844,
              19.011914
            ],
            [
              72.789844,
              19.021484
            ],
            [
              72.785742,
              19.02832
            ],
            [
              72.785742,
              19.035156
            ],
            [
              72.784375,
              19.037891
            ]
          ]
        ]
      }
    },
    {
      "type": "Feature",
      "properties": {
        "spill_id": "palsar_289",
        "confidence": 0.88
      },
      "geometry": {
        "type": "Polygon",
        "coordinates": [
          [
            [
              72.71875,
              19.066602
            ],
            [
              72.71875,
              19.065234
            ],
            [
              72.717383,
              19.063867
            ],
            [
              72.717383,
              19.047461
            ],
            [
              72.716016,
              19.046094
            ],
            [
              72.716016,
              19.040625
            ],
            [
              72.714648,
              19.039258
            ],
            [
              72.714648,
              19.029687
            ],
            [
              72.716016,
              19.02832
            ],
            [
              72.716016,
              19.025586
            ],
            [
              72.71875,
              19.022852
            ],
            [
              72.720117,
              19.022852
            ],
            [
              72.721484,
              19.021484
            ],
            [
              72.72832,
              19.021484
            ],
            [
              72.732422,
              19.024219
            ],
            [
              72.732422,
              19.025586
            ],
            [
              72.735156,
              19.02832
            ],
            [
              72.735156,
              19.031055
            ],
            [
              72.736523,
              19.032422
            ],
            [
              72.736523,
              19.054297
            ],
            [
              72.735156,
              19.055664
            ],
            [
              72.735156,
              19.061133
            ],
            [
              72.732422,
              19.065234
            ],
            [
              72.72832,
              19.065234
            ],
            [
              72.726953,
              19.066602
            ],
            [
              72.71875,
              19.066602
            ]
          ]
        ]
      }
    },
    {
      "type": "Feature",
      "properties": {
        "spill_id": "palsar_289",
        "confidence": 0.88
      },
      "geometry": {
        "type": "Polygon",
        "coordinates": [
          [
            [
              72.642187,
              19.15
            ],
            [
              72.642187,
              19.14043
            ],
            [
              72.654492,
              19.093945
            ],
            [
              72.651758,
              19.084375
            ],
            [
              72.664062,
              19.041992
            ],
            [
              72.670898,
              19.031055
            ],
            [
              72.681836,
              19.022852
            ],
            [
              72.687305,
              19.024219
            ],
            [
              72.694141,
              19.029687
            ],
            [
              72.694141,
              19.032422
            ],
            [
              72.688672,
              19.035156
            ],
            [
              72.688672,
              19.046094
            ],
            [
              72.683203,
              19.057031
            ],
            [
              72.683203,
              19.066602
            ],
            [
              72.680469,
              19.070703
            ],
            [
              72.680469,
              19.107617
            ],
            [
              72.673633,
              19.119922
            ],
            [
              72.669531,
              19.144531
            ],
            [
              72.666797,
              19.15
            ],
            [
              72.642187,
              19.15
            ]
          ]
        ]
      }
    },
    {
      "type": "Feature",
      "properties": {
        "spill_id": "palsar_289",
        "confidence": 0.88
      },
      "geometry": {
        "type": "Polygon",
        "coordinates": [
          [
            [
              72.601172,
              19.15
            ],
            [
              72.599805,
              19.134961
            ],
            [
              72.602539,
              19.121289
            ],
            [
              72.599805,
              19.113086
            ],
            [
              72.599805,
              19.102148
            ],
            [
              72.602539,
              19.098047
            ],
            [
              72.603906,
              19.088477
            ],
            [
              72.613477,
              19.077539
            ],
            [
              72.612109,
              19.066602
            ],
            [
              72.614844,
              19.061133
            ],
            [
              72.620312,
              19.057031
            ],
            [
              72.623047,
              19.057031
            ],
            [
              72.629883,
              19.09668
            ],
            [
              72.629883,
              19.114453
            ],
            [
              72.625781,
              19.124023
            ],
            [
              72.627148,
              19.15
            ],
            [
              72.601172,
              19.15
            ]
          ]
        ]
      }
    },
    {
      "type": "Feature",
      "properties": {
        "spill_id": "palsar_289",
        "confidence": 0.88
      },
      "geometry": {
        "type": "Polygon",
        "coordinates": [
          [
            [
              72.5,
              19.15
            ],
            [
              72.5,
              19.10625
            ],
            [
              72.512305,
              19.085742
            ],
            [
              72.510938,
              19.073438
            ],
            [
              72.5,
              19.07207
            ],
            [
              72.5,
              18.975
            ],
            [
              72.516406,
              18.980469
            ],
            [
              72.523242,
              19.013281
            ],
            [
              72.530078,
              19.01875
            ],
            [
              72.549219,
              18.966797
            ],
            [
              72.525977,
              18.880664
            ],
            [
              72.545117,
              18.860156
            ],
            [
              72.554688,
              18.860156
            ],
            [
              72.564258,
              18.876562
            ],
            [
              72.582031,
              18.880664
            ],
            [
              72.584766,
              18.890234
            ],
            [
              72.566992,
              18.909375
            ],
            [
              72.569727,
              18.951758
            ],
            [
              72.583398,
              18.975
            ],
            [
              72.579297,
              18.999609
            ],
            [
              72.588867,
              19.031055
            ],
            [
              72.590234,
              19.100781
            ],
            [
              72.571094,
              19.104883
            ],
            [
              72.561523,
              19.098047
            ],
            [
              72.549219,
              19.104883
            ],
            [
              72.54375,
              19.118555
            ],
            [
              72.55332,
              19.134961
            ],
            [
              72.549219,
              19.15
            ],
            [
              72.5,
              19.15
            ]
          ]
        ]
      }
    }
  ]
}