{
  "type": "FeatureCollection",
  "features": [
    {
      "type": "Feature",
      "properties": {
        "spill_id": "palsar_464",
        "confidence": 0.9
      },
      "geometry": {
        "type": "Polygon",
        "coordinates": [
          [
            [
              72.643555,
              18.898438
            ],
            [
              72.638086,
              18.903906
            ],
            [
              72.620312,
              18.906641
            ],
            [
              72.609375,
              18.914844
            ],
            [
              72.598438,
              18.914844
            ],
            [
              72.588867,
              18.888867
            ],
            [
              72.580664,
              18.879297
            ],
            [
              72.538281,
              18.857422
            ],
            [
              72.521875,
              18.84375
            ],
            [
              72.5,
              18.835547
            ],
            [
              72.5,
              18.821875
            ],
            [
              72.505469,
              18.817773
            ],
            [
              72.512305,
              18.817773
            ],
            [
              72.523242,
              18.825977
            ],
            [
              72.525977,
              18.83418
            ],
            [
              72.53418,
              18.841016
            ],
            [
              72.566992,
              18.842383
            ],
            [
              72.579297,
              18.849219
            ],
            [
              72.599805,
              18.851953
            ],
            [
              72.613477,
              18.862891
            ],
            [
              72.635352,
              18.866992
            ],
            [
              72.642187,
              18.876562
            ],
            [
              72.643555,
              18.898438
            ]
          ]
        ]
      }
    },
    {
      "type": "Feature",
      "properties": {
        "spill_id": "palsar_464",
        "confidence": 0.9
      },
      "geometry": {
        "type": "Polygon",
        "coordinates": [
          [
            [
              72.714648,
              19.132227
            ],
            [
              72.707812,
              19.133594
            ],
            [
              72.691406,
              19.118555
            ],
            [
              72.683203,
              19.100781
            ],
            [
              72.662695,
              19.083008
            ],
            [
              72.653125,
              19.085742
            ],
            [
              72.650391,
              19.095312
            ],
            [
              72.673633,
              19.124023
            ],
            [
              72.670898,
              19.15
            ],
            [
              72.628516,
              19.148633
            ],
            [
              72.608008,
              19.128125
            ],
            [
              72.576562,
              19.118555
            ],
            [
              72.580664,
              19.078906
            ],
            [
              72.592969,
              19.055664
            ],
            [
              72.586133,
              19.024219
            ],
            [
              72.590234,
              18.991406
            ],
            [
              72.598438,
              18.972266
            ],
            [
              72.610742,
              18.961328
            ],
            [
              72.624414,
              18.964062
            ],
            [
              72.632617,
              18.995508
            ],
            [
              72.685938,
              19.047461
            ],
            [
              72.694141,
              19.048828
            ],
            [
              72.707812,
              19.029687
            ],
            [
              72.716016,
              19.035156
            ],
            [
              72.707812,
              19.067969
            ],
            [
              72.724219,
              19.083008
            ],
            [
              72.726953,
              19.098047
            ],
            [
              72.714648,
              19.132227
            ]
          ]
        ]
      }
    }
  ]
}