{
  "type": "FeatureCollection",
  "features": [
    {
      "type": "Feature",
      "properties": {
        "spill_id": "palsar_528",
        "confidence": 0.86
      },
      "geometry": {
        "type": "Polygon",
        "coordinates": [
          [
            [
              72.568359,
              18.83418
            ],
            [
              72.568359,
              18.831445
            ],
            [
              72.566992,
              18.830078
            ],
            [
              72.566992,
              18.827344
            ],
            [
              72.568359,
              18.825977
            ],
            [
              72.569727,
              18.821875
            ],
            [
              72.576562,
              18.816406
            ],
            [
              72.57793,
              18.816406
            ],
            [
              72.582031,
              18.813672
            ],
            [
              72.5875,
              18.813672
            ],
            [
              72.588867,
              18.815039
            ],
            [
              72.594336,
              18.815039
            ],
            [
              72.598438,
              18.819141
            ],
            [
              72.598438,
              18.823242
            ],
            [
              72.592969,
              18.828711
            ],
            [
              72.591602,
              18.828711
            ],
            [
              72.583398,
              18.836914
            ],
            [
              72.582031,
              18.836914
            ],
            [
              72.580664,
              18.838281
            ],
            [
              72.573828,
              18.838281
            ],
            [
              72.571094,
              18.835547
            ],
            [
              72.569727,
              18.835547
            ],
            [
              72.568359,
              18.83418
            ]
          ]
        ]
      }
    },
    {
      "type": "Feature",
      "properties": {
        "spill_id": "palsar_528",
        "confidence": 0.86
      },
      "geometry": {
        "type": "Polygon",
        "coordinates": [
          [
            [
              72.68457,
              18.832812
            ],
            [
              72.677734,
              18.839648
            ],
            [
              72.677734,
              18.854688
            ],
            [
              72.676367,
              18.860156
            ],
            [
              72.673633,
              18.861523
            ],
            [
              72.610742,
              18.857422
            ],
            [
              72.599805,
              18.849219
            ],
            [
              72.599805,
              18.845117
            ],
            [
              72.610742,
              18.831445
            ],
            [
              72.636719,
              18.828711
            ],
            [
              72.64082,
              18.825977
            ],
            [
              72.644922,
              18.801367
            ],
            [
              72.658594,
              18.801367
            ],
            [
              72.659961,
              18.804102
            ],
            [
              72.657227,
              18.80957
            ],
            [
              72.657227,
              18.817773
            ],
            [
              72.659961,
              18.820508
            ],
            [
              72.672266,
              18.817773
            ],
            [
              72.679102,
              18.819141
            ],
            [
              72.681836,
              18.821875
            ],
            [
              72.68457,
              18.832812
            ]
          ]
        ]
      }
    },
    {
      "type": "Feature",
      "properties": {
        "spill_id": "palsar_528",
        "confidence": 0.86
      },
      "geometry": {
        "type": "Polygon",
        "coordinates": [
          [
            [
              72.554688,
              18.884766
            ],
            [
              72.55332,
              18.883398
            ],
            [
              72.55332,
              18.880664
            ],
            [
              72.551953,
              18.879297
            ],
            [
              72.551953,
              18.876562
            ],
            [
              72.55332,
              18.875195
            ],
            [
              72.55332,
              18.873828
            ],
            [
              72.554688,
              18.872461
            ],
            [
              72.554688,
              18.871094
            ],
            [
              72.557422,
              18.868359
            ],
            [
              72.558789,
              18.868359
            ],
            [
              72.560156,
              18.866992
            ],
            [
              72.562891,
              18.866992
            ],
            [
              72.564258,
              18.868359
            ],
            [
              72.565625,
              18.868359
            ],
            [
              72.569727,
              18.872461
            ],
            [
              72.569727,
              18.876562
            ],
            [
              72.565625,
              18.880664
            ],
            [
              72.564258,
              18.880664
            ],
            [
              72.562891,
              18.882031
            ],
            [
              72.561523,
              18.882031
            ],
            [
              72.560156,
              18.883398
            ],
            [
              72.557422,
              18.883398
            ],
            [
              72.556055,
              18.884766
            ],
            [
              72.554688,
              18.884766
            ]
          ]
        ]
      }
    },
    {
      "type": "Feature",
      "properties": {
        "spill_id": "palsar_528",
        "confidence": 0.86
      },
      "geometry": {
        "type": "Polygon",
        "coordinates": [
          [
            [
              72.833594,
              18.957227
            ],
            [
              72.830859,
              18.955859
            ],
            [
              72.830859,
              18.949023
            ],
            [
              72.832227,
              18.947656
            ],
            [
              72.828125,
              18.944922
            ],
            [
              72.822656,
              18.944922
            ],
            [
              72.819922,
              18.943555
            ],
            [
              72.817187,
              18.94082
            ],
            [
              72.817187,
              18.936719
            ],
            [
              72.819922,
              18.93125
            ],
            [
              72.826758,
              18.925781
            ],
            [
              72.832227,
              18.923047
            ],
            [
              72.834961,
              18.923047
            ],
            [
              72.839062,
              18.920312
            ],
            [
              72.844531,
              18.920312
            ],
            [
              72.845898,
              18.92168
            ],
            [
              72.845898,
              18.925781
            ],
            [
              72.843164,
              18.93125
            ],
            [
              72.834961,
              18.938086
            ],
            [
              72.832227,
              18.943555
            ],
            [
              72.833594,
              18.946289
            ],
            [
              72.84043,
              18.949023
            ],
            [
              72.843164,
              18.951758
            ],
            [
              72.843164,
              18.954492
            ],
            [
              72.839062,
              18.957227
            ],
            [
              72.833594,
              18.957227
            ]
          ]
        ]
      }
    },
    {
      "type": "Feature",
      "properties": {
        "spill_id": "palsar_528",
        "confidence": 0.86
      },
      "geometry": {
        "type": "Polygon",
        "coordinates": [
          [
            [
              72.628516,
              18.962695
            ],
            [
              72.616211,
              18.964062
            ],
            [
              72.602539,
              18.958594
            ],
            [
              72.606641,
              18.944922
            ],
            [
              72.601172,
              18.939453
            ],
            [
              72.599805,
              18.932617
            ],
            [
              72.601172,
              18.925781
            ],
            [
              72.610742,
              18.917578
            ],
            [
              72.603906,
              18.908008
            ],
            [
              72.583398,
              18.902539
            ],
            [
              72.551953,
              18.906641
            ],
            [
              72.549219,
              18.905273
            ],
            [
              72.549219,
              18.898438
            ],
            [
              72.580664,
              18.898438
            ],
            [
              72.588867,
              18.894336
            ],
            [
              72.599805,
              18.892969
            ],
            [
              72.616211,
              18.898438
            ],
            [
              72.63125,
              18.899805
            ],
            [
              72.635352,
              18.906641
            ],
            [
              72.638086,
              18.923047
            ],
            [
              72.635352,
              18.925781
            ],
            [
              72.620312,
              18.925781
            ],
            [
              72.624414,
              18.933984
            ],
            [
              72.620312,
              18.946289
            ],
            [
              72.624414,
              18.950391
            ],
            [
              72.628516,
              18.962695
            ]
          ]
        ]
      }
    },
    {
      "type": "Feature",
      "properties": {
        "spill_id": "palsar_528",
        "confidence": 0.86
      },
      "geometry": {
        "type": "Polygon",
        "coordinates": [
          [
            [
              72.814453,
              18.990039
            ],
            [
              72.807617,
              18.990039
            ],
            [
              72.80625,
              18.988672
            ],
            [
              72.80625,
              18.98457
            ],
            [
              72.804883,
              18.983203
            ],
            [
              72.804883,
              18.980469
            ],
            [
              72.800781,
              18.976367
            ],
            [
              72.800781,
              18.973633
            ],
            [
              72.799414,
              18.972266
            ],
            [
              72.799414,
              18.96543
            ],
            [
              72.803516,
              18.961328
            ],
            [
              72.808984,
              18.961328
            ],
            [
              72.810352,
              18.962695
            ],
            [
              72.811719,
              18.962695
            ],
            [
              72.813086,
              18.964062
            ],
            [
              72.813086,
              18.96543
            ],
            [
              72.817187,
              18.969531
            ],
            [
              72.817187,
              18.970898
            ],
            [
              72.819922,
              18.973633
            ],
            [
              72.819922,
              18.976367
            ],
            [
              72.821289,
              18.977734
            ],
            [
              72.821289,
              18.981836
            ],
            [
              72.819922,
              18.983203
            ],
            [
              72.819922,
              18.98457
            ],
            [
              72.818555,
              18.985938
            ],
            [
              72.818555,
              18.987305
            ],
            [
              72.814453,
              18.990039
            ]
          ]
        ]
      }
    },
    {
      "type": "Feature",
      "properties": {
        "spill_id": "palsar_528",
        "confidence": 0.86
      },
      "geometry": {
        "type": "Polygon",
        "coordinates": [
          [
            [
              72.508203,
              18.990039
            ],
            [
              72.505469,
              18.987305
            ],
            [
              72.505469,
              18.983203
            ],
            [
              72.506836,
              18.981836
            ],
            [
              72.508203,
              18.977734
            ],
            [
              72.512305,
              18.973633
            ],
            [
              72.512305,
              18.972266
            ],
            [
              72.532812,
              18.953125
            ],
            [
              72.53418,
              18.953125
            ],
            [
              72.535547,
              18.951758
            ],
            [
              72.538281,
              18.951758
            ],
            [
              72.541016,
              18.954492
            ],
            [
              72.541016,
              18.959961
            ],
            [
              72.539648,
              18.961328
            ],
            [
              72.539648,
              18.968164
            ],
            [
              72.538281,
              18.969531
            ],
            [
              72.538281,
              18.972266
            ],
            [
              72.536914,
              18.973633
            ],
            [
              72.536914,
              18.975
            ],
            [
              72.527344,
              18.983203
            ],
            [
              72.527344,
              18.98457
            ],
            [
              72.524609,
              18.988672
            ],
            [
              72.519141,
              18.988672
            ],
            [
              72.517773,
              18.990039
            ],
            [
              72.508203,
              18.990039
            ]
          ]
        ]
      }
    },
    {
      "type": "Feature",
      "properties": {
        "spill_id": "palsar_528",
        "confidence": 0.86
      },
      "geometry": {
        "type": "Polygon",
        "coordinates": [
          [
            [
              72.763867,
              19.065234
            ],
            [
              72.7625,
              19.063867
            ],
            [
              72.7625,
              19.058398
            ],
            [
              72.763867,
              19.057031
            ],
            [
              72.763867,
              19.05293
            ],
            [
              72.765234,
              19.051562
            ],
            [
              72.765234,
              19.050195
            ],
            [
              72.769336,
              19.046094
            ],
            [
              72.770703,
              19.046094
            ],
            [
              72.773438,
              19.043359
            ],
            [
              72.778906,
              19.043359
            ],
            [
              72.780273,
              19.044727
            ],
            [
              72.781641,
              19.044727
            ],
            [
              72.781641,
              19.058398
            ],
            [
              72.774805,
              19.065234
            ],
            [
              72.773438,
              19.065234
            ],
            [
              72.77207,
              19.066602
            ],
            [
              72.766602,
              19.066602
            ],
            [
              72.765234,
              19.065234
            ],
            [
              72.763867,
              19.065234
            ]
          ]
        ]
      }
    },
    {
      "type": "Feature",
      "properties": {
        "spill_id": "palsar_528",
        "confidence": 0.86
      },
      "geometry": {
        "type": "Polygon",
        "coordinates": [
          [
            [
              72.714648,
              19.110352
            ],
            [
              72.713281,
              19.108984
            ],
            [
              72.711914,
              19.108984
            ],
            [
              72.70918,
              19.10625
            ],
            [
              72.70918,
              19.103516
            ],
            [
              72.707812,
              19.102148
            ],
            [
              72.707812,
              19.098047
            ],
            [
              72.710547,
              19.095312
            ],
            [
              72.710547,
              19.093945
            ],
            [
              72.711914,
              19.092578
            ],
            [
              72.713281,
              19.092578
            ],
            [
              72.714648,
              19.091211
            ],
            [
              72.721484,
              19.091211
            ],
            [
              72.722852,
              19.092578
            ],
            [
              72.724219,
              19.092578
            ],
            [
              72.724219,
              19.093945
            ],
            [
              72.725586,
              19.095312
            ],
            [
              72.725586,
              19.100781
            ],
            [
              72.726953,
              19.102148
            ],
            [
              72.726953,
              19.10625
            ],
            [
              72.725586,
              19.107617
            ],
            [
              72.725586,
              19.108984
            ],
            [
              72.724219,
              19.108984
            ],
            [
              72.722852,
              19.110352
            ],
            [
              72.714648,
              19.110352
            ]
          ]
        ]
      }
    },
    {
      "type": "Feature",
      "properties": {
        "spill_id": "palsar_528",
        "confidence": 0.86
      },
      "geometry": {
        "type": "Polygon",
        "coordinates": [
          [
            [
              72.528711,
              19.143164
            ],
            [
              72.551953,
              19.119922
            ],
            [
              72.549219,
              19.095312
            ],
            [
              72.573828,
              19.065234
            ],
            [
              72.549219,
              19.057031
            ],
            [
              72.5,
              19.089844
            ],
            [
              72.5,
              19.057031
            ],
            [
              72.532812,
              18.994141
            ],
            [
              72.572461,
              19.040625
            ],
            [
              72.579297,
              19.000977
            ],
            [
              72.592969,
              18.994141
            ],
            [
              72.605273,
              19.003711
            ],
            [
              72.651758,
              18.957227
            ],
            [
              72.651758,
              18.932617
            ],
            [
              72.676367,
              18.936719
            ],
            [
              72.698242,
              18.910742
            ],
            [
              72.748828,
              18.8875
            ],
            [
              72.818555,
              18.906641
            ],
            [
              72.767969,
              18.908008
            ],
            [
              72.66543,
              18.957227
            ],
            [
              72.687305,
              18.979102
            ],
            [
              72.740625,
              18.939453
            ],
            [
              72.761133,
              18.949023
            ],
            [
              72.746094,
              18.972266
            ],
            [
              72.716016,
              18.975
            ],
            [
              72.694141,
              19.000977
            ],
            [
              72.613477,
              19.036523
            ],
            [
              72.695508,
              19.059766
            ],
            [
              72.601172,
              19.051562
            ],
            [
              72.564258,
              19.128125
            ],
            [
              72.528711,
              19.143164
            ]
          ]
        ]
      }
    },
    {
      "type": "Feature",
      "properties": {
        "spill_id": "palsar_528",
        "confidence": 0.86
      },
      "geometry": {
        "type": "Polygon",
        "coordinates": [
          [
            [
              72.802148,
              19.15
            ],
            [
              72.802148,
              19.148633
            ],
            [
              72.800781,
              19.147266
            ],
            [
              72.800781,
              19.14043
            ],
            [
              72.807617,
              19.133594
            ],
            [
              72.808984,
              19.133594
            ],
            [
              72.819922,
              19.122656
            ],
            [
              72.821289,
              19.122656
            ],
            [
              72.822656,
              19.121289
            ],
            [
              72.825391,
              19.121289
            ],
            [
              72.829492,
              19.125391
            ],
            [
              72.829492,
              19.130859
            ],
            [
              72.830859,
              19.132227
            ],
            [
              72.830859,
              19.134961
            ],
            [
              72.829492,
              19.136328
            ],
            [
              72.829492,
              19.137695
            ],
            [
              72.826758,
              19.14043
            ],
            [
              72.824023,
              19.14043
            ],
            [
              72.822656,
              19.141797
            ],
            [
              72.818555,
              19.143164
            ],
            [
              72.814453,
              19.15
            ],
            [
              72.802148,
              19.15
            ]
          ]
        ]
      }
    }
  ]
}