{
  "type": "FeatureCollection",
  "features": [
    {
      "type": "Feature",
      "properties": {
        "spill_id": "palsar_573",
        "confidence": 0.84
      },
      "geometry": {
        "type": "Polygon",
        "coordinates": [
          [
            [
              72.535547,
              18.823242
            ],
            [
              72.535547,
              18.820508
            ],
            [
              72.53418,
              18.819141
            ],
            [
              72.53418,
              18.810938
            ],
            [
              72.536914,
              18.808203
            ],
            [
              72.536914,
              18.806836
            ],
            [
              72.538281,
              18.806836
            ],
            [
              72.54375,
              18.801367
            ],
            [
              72.565625,
              18.801367
            ],
            [
              72.565625,
              18.804102
            ],
            [
              72.566992,
              18.805469
            ],
            [
              72.566992,
              18.806836
            ],
            [
              72.568359,
              18.808203
            ],
            [
              72.568359,
              18.810938
            ],
            [
              72.569727,
              18.812305
            ],
            [
              72.569727,
              18.821875
            ],
            [
              72.566992,
              18.824609
            ],
            [
              72.565625,
              18.824609
            ],
            [
              72.562891,
              18.827344
            ],
            [
              72.560156,
              18.827344
            ],
            [
              72.558789,
              18.828711
            ],
            [
              72.556055,
              18.828711
            ],
            [
              72.554688,
              18.830078
            ],
            [
              72.549219,
              18.830078
            ],
            [
              72.547852,
              18.828711
            ],
            [
              72.54375,
              18.828711
            ],
            [
              72.542383,
              18.827344
            ],
            [
              72.539648,
              18.827344
            ],
            [
              72.535547,
              18.823242
            ]
          ]
        ]
      }
    },
    {
      "type": "Feature",
      "properties": {
        "spill_id": "palsar_573",
        "confidence": 0.84
      },
      "geometry": {
        "type": "Polygon",
        "coordinates": [
          [
            [
              72.763867,
              18.838281
            ],
            [
              72.7625,
              18.830078
            ],
            [
              72.770703,
              18.821875
            ],
            [
              72.777539,
              18.821875
            ],
            [
              72.787109,
              18.819141
            ],
            [
              72.803516,
              18.820508
            ],
            [
              72.814453,
              18.812305
            ],
            [
              72.81582,
              18.806836
            ],
            [
              72.819922,
              18.801367
            ],
            [
              72.84043,
              18.801367
            ],
            [
              72.841797,
              18.802734
            ],
            [
              72.84043,
              18.808203
            ],
            [
              72.832227,
              18.810938
            ],
            [
              72.826758,
              18.816406
            ],
            [
              72.826758,
              18.827344
            ],
            [
              72.808984,
              18.835547
            ],
            [
              72.800781,
              18.835547
            ],
            [
              72.777539,
              18.841016
            ],
            [
              72.767969,
              18.841016
            ],
            [
              72.763867,
              18.838281
            ]
          ]
        ]
      }
    },
    {
      "type": "Feature",
      "properties": {
        "spill_id": "palsar_573",
        "confidence": 0.84
      },
      "geometry": {
        "type": "Polygon",
        "coordinates": [
          [
            [
              72.793945,
              18.879297
            ],
            [
              72.793945,
              18.873828
            ],
            [
              72.792578,
              18.872461
            ],
            [
              72.792578,
              18.871094
            ],
            [
              72.793945,
              18.869727
            ],
            [
              72.793945,
              18.866992
            ],
            [
              72.799414,
              18.866992
            ],
            [
              72.800781,
              18.865625
            ],
            [
              72.80625,
              18.865625
            ],
            [
              72.807617,
              18.866992
            ],
            [
              72.808984,
              18.866992
            ],
            [
              72.811719,
              18.869727
            ],
            [
              72.811719,
              18.875195
            ],
            [
              72.810352,
              18.876562
            ],
            [
              72.807617,
              18.876562
            ],
            [
              72.80625,
              18.87793
            ],
            [
              72.802148,
              18.87793
            ],
            [
              72.800781,
              18.879297
            ],
            [
              72.799414,
              18.879297
            ],
            [
              72.798047,
              18.880664
            ],
            [
              72.795312,
              18.880664
            ],
            [
              72.793945,
              18.879297
            ]
          ]
        ]
      }
    },
    {
      "type": "Feature",
      "properties": {
        "spill_id": "palsar_573",
        "confidence": 0.84
      },
      "geometry": {
        "type": "Polygon",
        "coordinates": [
          [
            [
              72.848633,
              18.884766
            ],
            [
              72.843164,
              18.884766
            ],
            [
              72.841797,
              18.883398
            ],
            [
              72.836328,
              18.883398
            ],
            [
              72.830859,
              18.87793
            ],
            [
              72.830859,
              18.876562
            ],
            [
              72.829492,
              18.875195
            ],
            [
              72.829492,
              18.873828
            ],
            [
              72.828125,
              18.872461
            ],
            [
              72.828125,
              18.868359
            ],
            [
              72.829492,
              18.866992
            ],
            [
              72.829492,
              18.865625
            ],
            [
              72.832227,
              18.862891
            ],
            [
              72.833594,
              18.862891
            ],
            [
              72.834961,
              18.861523
            ],
            [
              72.839062,
              18.861523
            ],
            [
              72.843164,
              18.865625
            ],
            [
              72.844531,
              18.865625
            ],
            [
              72.847266,
              18.868359
            ],
            [
              72.848633,
              18.868359
            ],
            [
              72.848633,
              18.884766
            ]
          ]
        ]
      }
    },
    {
      "type": "Feature",
      "properties": {
        "spill_id": "palsar_573",
        "confidence": 0.84
      },
      "geometry": {
        "type": "Polygon",
        "coordinates": [
          [
            [
              72.566992,
              18.888867
            ],
            [
              72.561523,
              18.890234
            ],
            [
              72.560156,
              18.891602
            ],
            [
              72.557422,
              18.891602
            ],
            [
              72.556055,
              18.892969
            ],
            [
              72.550586,
              18.892969
            ],
            [
              72.547852,
              18.891602
            ],
            [
              72.545117,
              18.8875
            ],
            [
              72.545117,
              18.884766
            ],
            [
              72.54375,
              18.883398
            ],
            [
              72.542383,
              18.87793
            ],
            [
              72.538281,
              18.873828
            ],
            [
              72.53418,
              18.872461
            ],
            [
              72.530078,
              18.868359
            ],
            [
              72.528711,
              18.868359
            ],
            [
              72.527344,
              18.865625
            ],
            [
              72.527344,
              18.854688
            ],
            [
              72.528711,
              18.851953
            ],
            [
              72.532812,
              18.849219
            ],
            [
              72.538281,
              18.849219
            ],
            [
              72.541016,
              18.850586
            ],
            [
              72.55332,
              18.864258
            ],
            [
              72.558789,
              18.865625
            ],
            [
              72.560156,
              18.866992
            ],
            [
              72.560156,
              18.879297
            ],
            [
              72.562891,
              18.882031
            ],
            [
              72.568359,
              18.884766
            ],
            [
              72.568359,
              18.8875
            ],
            [
              72.566992,
              18.888867
            ]
          ]
        ]
      }
    },
    {
      "type": "Feature",
      "properties": {
        "spill_id": "palsar_573",
        "confidence": 0.84
      },
      "geometry": {
        "type": "Polygon",
        "coordinates": [
          [
            [
              72.761133,
              18.977734
            ],
            [
              72.754297,
              18.979102
            ],
            [
              72.744727,
              18.972266
            ],
            [
              72.732422,
              18.970898
            ],
            [
              72.731055,
              18.969531
            ],
            [
              72.722852,
              18.969531
            ],
            [
              72.714648,
              18.96543
            ],
            [
              72.702344,
              18.951758
            ],
            [
              72.700977,
              18.949023
            ],
            [
              72.700977,
              18.942188
            ],
            [
              72.703711,
              18.939453
            ],
            [
              72.716016,
              18.939453
            ],
            [
              72.729688,
              18.944922
            ],
            [
              72.740625,
              18.953125
            ],
            [
              72.744727,
              18.953125
            ],
            [
              72.755664,
              18.959961
            ],
            [
              72.761133,
              18.966797
            ],
            [
              72.761133,
              18.977734
            ]
          ]
        ]
      }
    },
    {
      "type": "Feature",
      "properties": {
        "spill_id": "palsar_573",
        "confidence": 0.84
      },
      "geometry": {
        "type": "Polygon",
        "coordinates": [
          [
            [
              72.70918,
              19.003711
            ],
            [
              72.707812,
              19.003711
            ],
            [
              72.705078,
              19.006445
            ],
            [
              72.699609,
              19.006445
            ],
            [
              72.694141,
              19.003711
            ],
            [
              72.692773,
              19.000977
            ],
            [
              72.688672,
              18.996875
            ],
            [
              72.685938,
              18.991406
            ],
            [
              72.685938,
              18.988672
            ],
            [
              72.683203,
              18.985938
            ],
            [
              72.683203,
              18.98457
            ],
            [
              72.675,
              18.980469
            ],
            [
              72.675,
              18.977734
            ],
            [
              72.681836,
              18.972266
            ],
            [
              72.68457,
              18.972266
            ],
            [
              72.685938,
              18.970898
            ],
            [
              72.688672,
              18.970898
            ],
            [
              72.690039,
              18.972266
            ],
            [
              72.692773,
              18.972266
            ],
            [
              72.698242,
              18.975
            ],
            [
              72.705078,
              18.975
            ],
            [
              72.707812,
              18.976367
            ],
            [
              72.711914,
              18.980469
            ],
            [
              72.714648,
              18.985938
            ],
            [
              72.714648,
              18.995508
            ],
            [
              72.711914,
              19.000977
            ],
            [
              72.70918,
              19.003711
            ]
          ]
        ]
      }
    },
    {
      "type": "Feature",
      "properties": {
        "spill_id": "palsar_573",
        "confidence": 0.84
      },
      "geometry": {
        "type": "Polygon",
        "coordinates": [
          [
            [
              72.722852,
              19.0625
            ],
            [
              72.720117,
              19.0625
            ],
            [
              72.71875,
              19.063867
            ],
            [
              72.707812,
              19.063867
            ],
            [
              72.702344,
              19.061133
            ],
            [
              72.696875,
              19.055664
            ],
            [
              72.696875,
              19.048828
            ],
            [
              72.706445,
              19.041992
            ],
            [
              72.706445,
              19.039258
            ],
            [
              72.695508,
              19.029687
            ],
            [
              72.692773,
              19.022852
            ],
            [
              72.692773,
              19.020117
            ],
            [
              72.698242,
              19.014648
            ],
            [
              72.702344,
              19.014648
            ],
            [
              72.705078,
              19.017383
            ],
            [
              72.711914,
              19.020117
            ],
            [
              72.720117,
              19.026953
            ],
            [
              72.722852,
              19.032422
            ],
            [
              72.720117,
              19.041992
            ],
            [
              72.724219,
              19.046094
            ],
            [
              72.725586,
              19.048828
            ],
            [
              72.725586,
              19.05293
            ],
            [
              72.726953,
              19.054297
            ],
            [
              72.726953,
              19.057031
            ],
            [
              72.722852,
              19.0625
            ]
          ]
        ]
      }
    },
    {
      "type": "Feature",
      "properties": {
        "spill_id": "palsar_573",
        "confidence": 0.84
      },
      "geometry": {
        "type": "Polygon",
        "coordinates": [
          [
            [
              72.670898,
              19.122656
            ],
            [
              72.636719,
              19.121289
            ],
            [
              72.625781,
              19.107617
            ],
            [
              72.612109,
              19.099414
            ],
            [
              72.584766,
              19.095312
            ],
            [
              72.571094,
              19.100781
            ],
            [
              72.550586,
              19.080273
            ],
            [
              72.519141,
              19.088477
            ],
            [
              72.501367,
              19.087109
            ],
            [
              72.5,
              19.058398
            ],
            [
              72.505469,
              19.054297
            ],
            [
              72.538281,
              19.055664
            ],
            [
              72.545117,
              19.051562
            ],
            [
              72.549219,
              19.040625
            ],
            [
              72.532812,
              19.033789
            ],
            [
              72.521875,
              19.022852
            ],
            [
              72.541016,
              19.025586
            ],
            [
              72.575195,
              19.041992
            ],
            [
              72.565625,
              19.050195
            ],
            [
              72.575195,
              19.063867
            ],
            [
              72.601172,
              19.07207
            ],
            [
              72.614844,
              19.07207
            ],
            [
              72.638086,
              19.083008
            ],
            [
              72.670898,
              19.122656
            ]
          ]
        ]
      }
    },
    {
      "type": "Feature",
      "properties": {
        "spill_id": "palsar_573",
        "confidence": 0.84
      },
      "geometry": {
        "type": "Polygon",
        "coordinates": [
          [
            [
              72.819922,
              19.128125
            ],
            [
              72.817187,
              19.125391
            ],
            [
              72.817187,
              19.117188
            ],
            [
              72.818555,
              19.11582
            ],
            [
              72.818555,
              19.114453
            ],
            [
              72.821289,
              19.111719
            ],
            [
              72.822656,
              19.111719
            ],
            [
              72.824023,
              19.110352
            ],
            [
              72.828125,
              19.110352
            ],
            [
              72.829492,
              19.111719
            ],
            [
              72.832227,
              19.111719
            ],
            [
              72.834961,
              19.114453
            ],
            [
              72.834961,
              19.11582
            ],
            [
              72.836328,
              19.117188
            ],
            [
              72.836328,
              19.121289
            ],
            [
              72.834961,
              19.122656
            ],
            [
              72.833594,
              19.122656
            ],
            [
              72.832227,
              19.124023
            ],
            [
              72.830859,
              19.124023
            ],
            [
              72.828125,
              19.126758
            ],
            [
              72.826758,
              19.126758
            ],
            [
              72.825391,
              19.128125
            ],
            [
              72.819922,
              19.128125
            ]
          ]
        ]
      }
    },
    {
      "type": "Feature",
      "properties": {
        "spill_id": "palsar_573",
        "confidence": 0.84
      },
      "geometry": {
        "type": "Polygon",
        "coordinates": [
          [
            [
              72.789844,
              19.141797
            ],
            [
              72.791211,
              19.141797
            ],
            [
              72.792578,
              19.14043
            ],
            [
              72.792578,
              19.139062
            ],
            [
              72.79668,
              19.139062
            ],
            [
              72.800781,
              19.141797
            ],
            [
              72.80625,
              19.137695
            ],
            [
              72.807617,
              19.137695
            ],
            [
              72.808984,
              19.136328
            ],
            [
              72.811719,
              19.136328
            ],
            [
              72.813086,
              19.134961
            ],
            [
              72.826758,
              19.134961
            ],
            [
              72.828125,
              19.136328
            ],
            [
              72.832227,
              19.136328
            ],
            [
              72.833594,
              19.137695
            ],
            [
              72.834961,
              19.137695
            ],
            [
              72.839062,
              19.143164
            ],
            [
              72.839062,
              19.147266
            ],
            [
              72.837695,
              19.148633
            ],
            [
              72.837695,
              19.15
            ],
            [
              72.810352,
              19.15
            ],
            [
              72.807617,
              19.147266
            ],
            [
              72.804883,
              19.147266
            ],
            [
              72.803516,
              19.145898
            ],
            [
              72.800781,
              19.145898
            ],
            [
              72.799414,
              19.144531
            ],
            [
              72.793945,
              19.144531
            ],
            [
              72.791211,
              19.141797
            ],
            [
              72.789844,
              19.141797
            ]
          ]
        ]
      }
    }
  ]
}