{
  "type": "FeatureCollection",
  "features": [
    {
      "type": "Feature",
      "properties": {
        "spill_id": "palsar_670",
        "confidence": 0.84
      },
      "geometry": {
        "type": "Polygon",
        "coordinates": [
          [
            [
              72.627148,
              18.817773
            ],
            [
              72.625781,
              18.819141
            ],
            [
              72.616211,
              18.819141
            ],
            [
              72.613477,
              18.816406
            ],
            [
              72.613477,
              18.815039
            ],
            [
              72.612109,
              18.813672
            ],
            [
              72.612109,
              18.805469
            ],
            [
              72.617578,
              18.805469
            ],
            [
              72.620312,
              18.808203
            ],
            [
              72.62168,
              18.808203
            ],
            [
              72.627148,
              18.813672
            ],
            [
              72.627148,
              18.817773
            ]
          ]
        ]
      }
    },
    {
      "type": "Feature",
      "properties": {
        "spill_id": "palsar_670",
        "confidence": 0.84
      },
      "geometry": {
        "type": "Polygon",
        "coordinates": [
          [
            [
              72.777539,
              18.838281
            ],
            [
              72.77207,
              18.842383
            ],
            [
              72.766602,
              18.842383
            ],
            [
              72.765234,
              18.84375
            ],
            [
              72.7625,
              18.84375
            ],
            [
              72.758398,
              18.841016
            ],
            [
              72.755664,
              18.841016
            ],
            [
              72.751562,
              18.838281
            ],
            [
              72.748828,
              18.838281
            ],
            [
              72.746094,
              18.835547
            ],
            [
              72.744727,
              18.835547
            ],
            [
              72.741992,
              18.832812
            ],
            [
              72.740625,
              18.832812
            ],
            [
              72.737891,
              18.830078
            ],
            [
              72.736523,
              18.830078
            ],
            [
              72.733789,
              18.827344
            ],
            [
              72.732422,
              18.827344
            ],
            [
              72.731055,
              18.825977
            ],
            [
              72.731055,
              18.821875
            ],
            [
              72.733789,
              18.821875
            ],
            [
              72.735156,
              18.820508
            ],
            [
              72.736523,
              18.821875
            ],
            [
              72.740625,
              18.821875
            ],
            [
              72.741992,
              18.820508
            ],
            [
              72.743359,
              18.821875
            ],
            [
              72.746094,
              18.821875
            ],
            [
              72.758398,
              18.828711
            ],
            [
              72.7625,
              18.828711
            ],
            [
              72.763867,
              18.830078
            ],
            [
              72.770703,
              18.830078
            ],
            [
              72.77207,
              18.831445
            ],
            [
              72.774805,
              18.831445
            ],
            [
              72.777539,
              18.83418
            ],
            [
              72.777539,
              18.838281
            ]
          ]
        ]
      }
    },
    {
      "type": "Feature",
      "properties": {
        "spill_id": "palsar_670",
        "confidence": 0.84
      },
      "geometry": {
        "type": "Polygon",
        "coordinates": [
          [
            [
              72.588867,
              18.868359
            ],
            [
              72.5875,
              18.869727
            ],
            [
              72.57793,
              18.869727
            ],
            [
              72.571094,
              18.865625
            ],
            [
              72.565625,
              18.865625
            ],
            [
              72.564258,
              18.866992
            ],
            [
              72.558789,
              18.866992
            ],
            [
              72.557422,
              18.868359
            ],
            [
              72.556055,
              18.868359
            ],
            [
              72.554688,
              18.866992
            ],
            [
              72.55332,
              18.866992
            ],
            [
              72.549219,
              18.862891
            ],
            [
              72.549219,
              18.857422
            ],
            [
              72.55332,
              18.85332
            ],
            [
              72.554688,
              18.85332
            ],
            [
              72.556055,
              18.851953
            ],
            [
              72.576562,
              18.851953
            ],
            [
              72.579297,
              18.854688
            ],
            [
              72.580664,
              18.854688
            ],
            [
              72.588867,
              18.862891
            ],
            [
              72.588867,
              18.868359
            ]
          ]
        ]
      }
    },
    {
      "type": "Feature",
      "properties": {
        "spill_id": "palsar_670",
        "confidence": 0.84
      },
      "geometry": {
        "type": "Polygon",
        "coordinates": [
          [
            [
              72.751562,
              18.953125
            ],
            [
              72.748828,
              18.955859
            ],
            [
              72.744727,
              18.955859
            ],
            [
              72.743359,
              18.957227
            ],
            [
              72.739258,
              18.957227
            ],
            [
              72.737891,
              18.955859
            ],
            [
              72.729688,
              18.955859
            ],
            [
              72.72832,
              18.954492
            ],
            [
              72.726953,
              18.954492
            ],
            [
              72.721484,
              18.949023
            ],
            [
              72.721484,
              18.947656
            ],
            [
              72.720117,
              18.946289
            ],
            [
              72.720117,
              18.943555
            ],
            [
              72.71875,
              18.942188
            ],
            [
              72.720117,
              18.94082
            ],
            [
              72.720117,
              18.938086
            ],
            [
              72.722852,
              18.935352
            ],
            [
              72.724219,
              18.935352
            ],
            [
              72.725586,
              18.933984
            ],
            [
              72.731055,
              18.933984
            ],
            [
              72.732422,
              18.935352
            ],
            [
              72.735156,
              18.935352
            ],
            [
              72.736523,
              18.936719
            ],
            [
              72.739258,
              18.936719
            ],
            [
              72.740625,
              18.938086
            ],
            [
              72.743359,
              18.938086
            ],
            [
              72.744727,
              18.939453
            ],
            [
              72.747461,
              18.939453
            ],
            [
              72.750195,
              18.942188
            ],
            [
              72.750195,
              18.943555
            ],
            [
              72.751562,
              18.944922
            ],
            [
              72.751562,
              18.953125
            ]
          ]
        ]
      }
    },
    {
      "type": "Feature",
      "properties": {
        "spill_id": "palsar_670",
        "confidence": 0.84
      },
      "geometry": {
        "type": "Polygon",
        "coordinates": [
          [
            [
              72.711914,
              19.006445
            ],
            [
              72.705078,
              19.007812
            ],
            [
              72.694141,
              18.999609
            ],
            [
              72.677734,
              19.002344
            ],
            [
              72.662695,
              18.987305
            ],
            [
              72.613477,
              18.987305
            ],
            [
              72.616211,
              18.976367
            ],
            [
              72.628516,
              18.969531
            ],
            [
              72.624414,
              18.964062
            ],
            [
              72.603906,
              18.96543
            ],
            [
              72.582031,
              18.953125
            ],
            [
              72.568359,
              18.950391
            ],
            [
              72.568359,
              18.947656
            ],
            [
              72.583398,
              18.94082
            ],
            [
              72.598438,
              18.925781
            ],
            [
              72.606641,
              18.924414
            ],
            [
              72.609375,
              18.910742
            ],
            [
              72.613477,
              18.906641
            ],
            [
              72.620312,
              18.906641
            ],
            [
              72.643555,
              18.924414
            ],
            [
              72.64082,
              18.928516
            ],
            [
              72.63125,
              18.928516
            ],
            [
              72.624414,
              18.939453
            ],
            [
              72.642187,
              18.954492
            ],
            [
              72.670898,
              18.961328
            ],
            [
              72.676367,
              18.972266
            ],
            [
              72.699609,
              18.988672
            ],
            [
              72.711914,
              19.006445
            ]
          ]
        ]
      }
    },
    {
      "type": "Feature",
      "properties": {
        "spill_id": "palsar_670",
        "confidence": 0.84
      },
      "geometry": {
        "type": "Polygon",
        "coordinates": [
          [
            [
              72.613477,
              19.002344
            ],
            [
              72.594336,
              19.014648
            ],
            [
              72.564258,
              19.010547
            ],
            [
              72.549219,
              18.995508
            ],
            [
              72.53418,
              18.991406
            ],
            [
              72.524609,
              19.006445
            ],
            [
              72.513672,
              19.005078
            ],
            [
              72.50957,
              18.998242
            ],
            [
              72.510938,
              18.981836
            ],
            [
              72.531445,
              18.972266
            ],
            [
              72.535547,
              18.959961
            ],
            [
              72.530078,
              18.954492
            ],
            [
              72.501367,
              18.944922
            ],
            [
              72.5,
              18.927148
            ],
            [
              72.508203,
              18.924414
            ],
            [
              72.528711,
              18.932617
            ],
            [
              72.538281,
              18.932617
            ],
            [
              72.558789,
              18.953125
            ],
            [
              72.556055,
              18.959961
            ],
            [
              72.545117,
              18.96543
            ],
            [
              72.545117,
              18.972266
            ],
            [
              72.550586,
              18.977734
            ],
            [
              72.572461,
              18.980469
            ],
            [
              72.57793,
              18.990039
            ],
            [
              72.588867,
              18.996875
            ],
            [
              72.599805,
              18.996875
            ],
            [
              72.608008,
              18.990039
            ],
            [
              72.614844,
              18.990039
            ],
            [
              72.613477,
              19.002344
            ]
          ]
        ]
      }
    },
    {
      "type": "Feature",
      "properties": {
        "spill_id": "palsar_670",
        "confidence": 0.84
      },
      "geometry": {
        "type": "Polygon",
        "coordinates": [
          [
            [
              72.795312,
              19.043359
            ],
            [
              72.793945,
              19.044727
            ],
            [
              72.788477,
              19.044727
            ],
            [
              72.787109,
              19.043359
            ],
            [
              72.784375,
              19.043359
            ],
            [
              72.783008,
              19.041992
            ],
            [
              72.781641,
              19.041992
            ],
            [
              72.780273,
              19.040625
            ],
            [
              72.777539,
              19.040625
            ],
            [
              72.776172,
              19.039258
            ],
            [
              72.774805,
              19.039258
            ],
            [
              72.773438,
              19.037891
            ],
            [
              72.77207,
              19.037891
            ],
            [
              72.77207,
              19.035156
            ],
            [
              72.773438,
              19.033789
            ],
            [
              72.785742,
              19.033789
            ],
            [
              72.787109,
              19.035156
            ],
            [
              72.791211,
              19.035156
            ],
            [
              72.795312,
              19.039258
            ],
            [
              72.795312,
              19.043359
            ]
          ]
        ]
      }
    },
    {
      "type": "Feature",
      "properties": {
        "spill_id": "palsar_670",
        "confidence": 0.84
      },
      "geometry": {
        "type": "Polygon",
        "coordinates": [
          [
            [
              72.653125,
              19.048828
            ],
            [
              72.653125,
              19.047461
            ],
            [
              72.651758,
              19.046094
            ],
            [
              72.651758,
              19.044727
            ],
            [
              72.653125,
              19.043359
            ],
            [
              72.653125,
              19.040625
            ],
            [
              72.654492,
              19.039258
            ],
            [
              72.654492,
              19.037891
            ],
            [
              72.655859,
              19.036523
            ],
            [
              72.655859,
              19.035156
            ],
            [
              72.658594,
              19.032422
            ],
            [
              72.669531,
              19.032422
            ],
            [
              72.670898,
              19.033789
            ],
            [
              72.672266,
              19.033789
            ],
            [
              72.675,
              19.036523
            ],
            [
              72.675,
              19.040625
            ],
            [
              72.673633,
              19.041992
            ],
            [
              72.673633,
              19.043359
            ],
            [
              72.668164,
              19.048828
            ],
            [
              72.666797,
              19.048828
            ],
            [
              72.66543,
              19.050195
            ],
            [
              72.662695,
              19.050195
            ],
            [
              72.661328,
              19.051562
            ],
            [
              72.658594,
              19.051562
            ],
            [
              72.657227,
              19.050195
            ],
            [
              72.654492,
              19.050195
            ],
            [
              72.653125,
              19.048828
            ]
          ]
        ]
      }
    },
    {
      "type": "Feature",
      "properties": {
        "spill_id": "palsar_670",
        "confidence": 0.84
      },
      "geometry": {
        "type": "Polygon",
        "coordinates": [
          [
            [
              72.819922,
              19.066602
            ],
            [
              72.817187,
              19.066602
            ],
            [
              72.81582,
              19.067969
            ],
            [
              72.813086,
              19.067969
            ],
            [
              72.811719,
              19.066602
            ],
            [
              72.808984,
              19.066602
            ],
            [
              72.807617,
              19.065234
            ],
            [
              72.804883,
              19.065234
            ],
            [
              72.802148,
              19.0625
            ],
            [
              72.800781,
              19.0625
            ],
            [
              72.798047,
              19.059766
            ],
            [
              72.79668,
              19.059766
            ],
            [
              72.79668,
              19.057031
            ],
            [
              72.799414,
              19.054297
            ],
            [
              72.800781,
              19.054297
            ],
            [
              72.804883,
              19.050195
            ],
            [
              72.803516,
              19.048828
            ],
            [
              72.804883,
              19.047461
            ],
            [
              72.804883,
              19.044727
            ],
            [
              72.814453,
              19.044727
            ],
            [
              72.817187,
              19.047461
            ],
            [
              72.817187,
              19.048828
            ],
            [
              72.818555,
              19.050195
            ],
            [
              72.818555,
              19.055664
            ],
            [
              72.819922,
              19.057031
            ],
            [
              72.819922,
              19.059766
            ],
            [
              72.821289,
              19.061133
            ],
            [
              72.821289,
              19.065234
            ],
            [
              72.819922,
              19.066602
            ]
          ]
        ]
      }
    },
    {
      "type": "Feature",
      "properties": {
        "spill_id": "palsar_670",
        "confidence": 0.84
      },
      "geometry": {
        "type": "Polygon",
        "coordinates": [
          [
            [
              72.653125,
              19.069336
            ],
            [
              72.650391,
              19.07207
            ],
            [
              72.647656,
              19.07207
            ],
            [
              72.646289,
              19.070703
            ],
            [
              72.642187,
              19.070703
            ],
            [
              72.64082,
              19.069336
            ],
            [
              72.636719,
              19.069336
            ],
            [
              72.635352,
              19.067969
            ],
            [
              72.632617,
              19.067969
            ],
            [
              72.629883,
              19.065234
            ],
            [
              72.628516,
              19.065234
            ],
            [
              72.62168,
              19.058398
            ],
            [
              72.62168,
              19.057031
            ],
            [
              72.620312,
              19.055664
            ],
            [
              72.620312,
              19.051562
            ],
            [
              72.617578,
              19.047461
            ],
            [
              72.617578,
              19.043359
            ],
            [
              72.620312,
              19.040625
            ],
            [
              72.628516,
              19.040625
            ],
            [
              72.629883,
              19.041992
            ],
            [
              72.63125,
              19.041992
            ],
            [
              72.633984,
              19.044727
            ],
            [
              72.635352,
              19.044727
            ],
            [
              72.64082,
              19.050195
            ],
            [
              72.642187,
              19.050195
            ],
            [
              72.650391,
              19.058398
            ],
            [
              72.650391,
              19.059766
            ],
            [
              72.653125,
              19.063867
            ],
            [
              72.653125,
              19.069336
            ]
          ]
        ]
      }
    },
    {
      "type": "Feature",
      "properties": {
        "spill_id": "palsar_670",
        "confidence": 0.84
      },
      "geometry": {
        "type": "Polygon",
        "coordinates": [
          [
            [
              72.642187,
              19.118555
            ],
            [
              72.642187,
              19.110352
            ],
            [
              72.643555,
              19.108984
            ],
            [
              72.647656,
              19.108984
            ],
            [
              72.649023,
              19.110352
            ],
            [
              72.651758,
              19.110352
            ],
            [
              72.653125,
              19.111719
            ],
            [
              72.655859,
              19.111719
            ],
            [
              72.657227,
              19.113086
            ],
            [
              72.658594,
              19.113086
            ],
            [
              72.659961,
              19.114453
            ],
            [
              72.659961,
              19.117188
            ],
            [
              72.661328,
              19.118555
            ],
            [
              72.659961,
              19.119922
            ],
            [
              72.659961,
              19.121289
            ],
            [
              72.658594,
              19.122656
            ],
            [
              72.647656,
              19.122656
            ],
            [
              72.646289,
              19.121289
            ],
            [
              72.644922,
              19.121289
            ],
            [
              72.642187,
              19.118555
            ]
          ]
        ]
      }
    }
  ]
}