{
  "type": "FeatureCollection",
  "features": [
    {
      "type": "Feature",
      "properties": {
        "spill_id": "palsar_250",
        "confidence": 0.8
      },
      "geometry": {
        "type": "Polygon",
        "coordinates": [
          [
            [
              72.789844,
              18.845117
            ],
            [
              72.788477,
              18.842383
            ],
            [
              72.793945,
              18.835547
            ],
            [
              72.793945,
              18.832812
            ],
            [
              72.795312,
              18.831445
            ],
            [
              72.795312,
              18.823242
            ],
            [
              72.79668,
              18.821875
            ],
            [
              72.798047,
              18.816406
            ],
            [
              72.800781,
              18.813672
            ],
            [
              72.80625,
              18.810938
            ],
            [
              72.808984,
              18.810938
            ],
            [
              72.810352,
              18.80957
            ],
            [
              72.814453,
              18.80957
            ],
            [
              72.81582,
              18.808203
            ],
            [
              72.824023,
              18.808203
            ],
            [
              72.825391,
              18.80957
            ],
            [
              72.830859,
              18.810938
            ],
            [
              72.830859,
              18.817773
            ],
            [
              72.829492,
              18.820508
            ],
            [
              72.828125,
              18.820508
            ],
            [
              72.825391,
              18.823242
            ],
            [
              72.822656,
              18.828711
            ],
            [
              72.822656,
              18.835547
            ],
            [
              72.821289,
              18.836914
            ],
            [
              72.821289,
              18.839648
            ],
            [
              72.818555,
              18.842383
            ],
            [
              72.81582,
              18.84375
            ],
            [
              72.811719,
              18.84375
            ],
            [
              72.810352,
              18.845117
            ],
            [
              72.793945,
              18.845117
            ],
            [
              72.792578,
              18.846484
            ],
            [
              72.789844,
              18.845117
            ]
          ]
        ]
      }
    },
    {
      "type": "Feature",
      "properties": {
        "spill_id": "palsar_250",
        "confidence": 0.8
      },
      "geometry": {
        "type": "Polygon",
        "coordinates": [
          [
            [
              72.595703,
              18.873828
            ],
            [
              72.594336,
              18.880664
            ],
            [
              72.588867,
              18.886133
            ],
            [
              72.580664,
              18.888867
            ],
            [
              72.564258,
              18.908008
            ],
            [
              72.560156,
              18.906641
            ],
            [
              72.551953,
              18.89707
            ],
            [
              72.545117,
              18.894336
            ],
            [
              72.536914,
              18.894336
            ],
            [
              72.523242,
              18.899805
            ],
            [
              72.515039,
              18.899805
            ],
            [
              72.5,
              18.894336
            ],
            [
              72.5,
              18.882031
            ],
            [
              72.504102,
              18.880664
            ],
            [
              72.517773,
              18.884766
            ],
            [
              72.524609,
              18.884766
            ],
            [
              72.530078,
              18.882031
            ],
            [
              72.557422,
              18.87793
            ],
            [
              72.565625,
              18.873828
            ],
            [
              72.576562,
              18.875195
            ],
            [
              72.5875,
              18.871094
            ],
            [
              72.592969,
              18.871094
            ],
            [
              72.595703,
              18.873828
            ]
          ]
        ]
      }
    },
    {
      "type": "Feature",
      "properties": {
        "spill_id": "palsar_250",
        "confidence": 0.8
      },
      "geometry": {
        "type": "Polygon",
        "coordinates": [
          [
            [
              72.731055,
              18.932617
            ],
            [
              72.732422,
              18.927148
            ],
            [
              72.740625,
              18.920312
            ],
            [
              72.755664,
              18.918945
            ],
            [
              72.759766,
              18.909375
            ],
            [
              72.757031,
              18.895703
            ],
            [
              72.766602,
              18.883398
            ],
            [
              72.773438,
              18.882031
            ],
            [
              72.781641,
              18.886133
            ],
            [
              72.791211,
              18.880664
            ],
            [
              72.798047,
              18.880664
            ],
            [
              72.808984,
              18.886133
            ],
            [
              72.81582,
              18.892969
            ],
            [
              72.817187,
              18.89707
            ],
            [
              72.811719,
              18.901172
            ],
            [
              72.798047,
              18.899805
            ],
            [
              72.792578,
              18.89707
            ],
            [
              72.773438,
              18.901172
            ],
            [
              72.769336,
              18.905273
            ],
            [
              72.770703,
              18.910742
            ],
            [
              72.766602,
              18.923047
            ],
            [
              72.758398,
              18.929883
            ],
            [
              72.754297,
              18.94082
            ],
            [
              72.747461,
              18.946289
            ],
            [
              72.740625,
              18.944922
            ],
            [
              72.731055,
              18.932617
            ]
          ]
        ]
      }
    },
    {
      "type": "Feature",
      "properties": {
        "spill_id": "palsar_250",
        "confidence": 0.8
      },
      "geometry": {
        "type": "Polygon",
        "coordinates": [
          [
            [
              72.646289,
              19.014648
            ],
            [
              72.646289,
              19.013281
            ],
            [
              72.644922,
              19.011914
            ],
            [
              72.644922,
              19.00918
            ],
            [
              72.647656,
              19.006445
            ],
            [
              72.649023,
              19.006445
            ],
            [
              72.650391,
              19.005078
            ],
            [
              72.653125,
              19.005078
            ],
            [
              72.654492,
              19.003711
            ],
            [
              72.655859,
              19.003711
            ],
            [
              72.661328,
              18.998242
            ],
            [
              72.661328,
              18.992773
            ],
            [
              72.662695,
              18.991406
            ],
            [
              72.664062,
              18.991406
            ],
            [
              72.664062,
              18.995508
            ],
            [
              72.661328,
              18.998242
            ],
            [
              72.662695,
              18.999609
            ],
            [
              72.662695,
              19.003711
            ],
            [
              72.661328,
              19.005078
            ],
            [
              72.661328,
              19.006445
            ],
            [
              72.659961,
              19.007812
            ],
            [
              72.659961,
              19.010547
            ],
            [
              72.657227,
              19.013281
            ],
            [
              72.657227,
              19.014648
            ],
            [
              72.655859,
              19.014648
            ],
            [
              72.654492,
              19.016016
            ],
            [
              72.649023,
              19.016016
            ],
            [
              72.647656,
              19.014648
            ],
            [
              72.646289,
              19.014648
            ]
          ]
        ]
      }
    },
    {
      "type": "Feature",
      "properties": {
        "spill_id": "palsar_250",
        "confidence": 0.8
      },
      "geometry": {
        "type": "Polygon",
        "coordinates": [
          [
            [
              72.565625,
              19.044727
            ],
            [
              72.568359,
              19.041992
            ],
            [
              72.568359,
              19.040625
            ],
            [
              72.572461,
              19.036523
            ],
            [
              72.580664,
              19.036523
            ],
            [
              72.582031,
              19.037891
            ],
            [
              72.583398,
              19.037891
            ],
            [
              72.584766,
              19.039258
            ],
            [
              72.586133,
              19.039258
            ],
            [
              72.590234,
              19.043359
            ],
            [
              72.590234,
              19.047461
            ],
            [
              72.588867,
              19.048828
            ],
            [
              72.5875,
              19.048828
            ],
            [
              72.586133,
              19.050195
            ],
            [
              72.573828,
              19.050195
            ],
            [
              72.572461,
              19.048828
            ],
            [
              72.568359,
              19.048828
            ],
            [
              72.566992,
              19.047461
            ],
            [
              72.566992,
              19.046094
            ],
            [
              72.565625,
              19.044727
            ]
          ]
        ]
      }
    },
    {
      "type": "Feature",
      "properties": {
        "spill_id": "palsar_250",
        "confidence": 0.8
      },
      "geometry": {
        "type": "Polygon",
        "coordinates": [
          [
            [
              72.777539,
              19.054297
            ],
            [
              72.763867,
              19.059766
            ],
            [
              72.757031,
              19.070703
            ],
            [
              72.757031,
              19.084375
            ],
            [
              72.747461,
              19.089844
            ],
            [
              72.743359,
              19.087109
            ],
            [
              72.740625,
              19.077539
            ],
            [
              72.743359,
              19.067969
            ],
            [
              72.739258,
              19.061133
            ],
            [
              72.724219,
              19.047461
            ],
            [
              72.713281,
              19.048828
            ],
            [
              72.705078,
              19.058398
            ],
            [
              72.700977,
              19.059766
            ],
            [
              72.692773,
              19.058398
            ],
            [
              72.685938,
              19.05293
            ],
            [
              72.669531,
              19.061133
            ],
            [
              72.664062,
              19.061133
            ],
            [
              72.662695,
              19.057031
            ],
            [
              72.66543,
              19.048828
            ],
            [
              72.677734,
              19.047461
            ],
            [
              72.68457,
              19.051562
            ],
            [
              72.699609,
              19.039258
            ],
            [
              72.706445,
              19.039258
            ],
            [
              72.714648,
              19.032422
            ],
            [
              72.724219,
              19.033789
            ],
            [
              72.729688,
              19.039258
            ],
            [
              72.737891,
              19.040625
            ],
            [
              72.750195,
              19.048828
            ],
            [
              72.77207,
              19.048828
            ],
            [
              72.777539,
              19.054297
            ]
          ]
        ]
      }
    },
    {
      "type": "Feature",
      "properties": {
        "spill_id": "palsar_250",
        "confidence": 0.8
      },
      "geometry": {
        "type": "Polygon",
        "coordinates": [
          [
            [
              72.625781,
              19.143164
            ],
            [
              72.620312,
              19.128125
            ],
            [
              72.610742,
              19.11582
            ],
            [
              72.608008,
              19.100781
            ],
            [
              72.612109,
              19.092578
            ],
            [
              72.625781,
              19.092578
            ],
            [
              72.629883,
              19.087109
            ],
            [
              72.627148,
              19.084375
            ],
            [
              72.612109,
              19.085742
            ],
            [
              72.601172,
              19.083008
            ],
            [
              72.59707,
              19.078906
            ],
            [
              72.59707,
              19.070703
            ],
            [
              72.599805,
              19.065234
            ],
            [
              72.610742,
              19.061133
            ],
            [
              72.623047,
              19.048828
            ],
            [
              72.624414,
              19.043359
            ],
            [
              72.618945,
              19.035156
            ],
            [
              72.617578,
              19.024219
            ],
            [
              72.624414,
              19.01875
            ],
            [
              72.629883,
              19.01875
            ],
            [
              72.632617,
              19.022852
            ],
            [
              72.632617,
              19.032422
            ],
            [
              72.651758,
              19.054297
            ],
            [
              72.650391,
              19.065234
            ],
            [
              72.655859,
              19.077539
            ],
            [
              72.649023,
              19.088477
            ],
            [
              72.649023,
              19.09668
            ],
            [
              72.636719,
              19.111719
            ],
            [
              72.638086,
              19.124023
            ],
            [
              72.633984,
              19.141797
            ],
            [
              72.625781,
              19.143164
            ]
          ]
        ]
      }
    }
  ]
}