{
  "type": "FeatureCollection",
  "features": [
    {
      "type": "Feature",
      "properties": {
        "spill_id": "palsar_648",
        "confidence": 0.84
      },
      "geometry": {
        "type": "Polygon",
        "coordinates": [
          [
            [
              72.765234,
              18.890234
            ],
            [
              72.765234,
              18.886133
            ],
            [
              72.766602,
              18.883398
            ],
            [
              72.77207,
              18.87793
            ],
            [
              72.778906,
              18.87793
            ],
            [
              72.785742,
              18.869727
            ],
            [
              72.792578,
              18.869727
            ],
            [
              72.793945,
              18.871094
            ],
            [
              72.802148,
              18.871094
            ],
            [
              72.804883,
              18.875195
            ],
            [
              72.804883,
              18.87793
            ],
            [
              72.803516,
              18.879297
            ],
            [
              72.803516,
              18.892969
            ],
            [
              72.800781,
              18.898438
            ],
            [
              72.800781,
              18.903906
            ],
            [
              72.79668,
              18.906641
            ],
            [
              72.789844,
              18.906641
            ],
            [
              72.784375,
              18.903906
            ],
            [
              72.774805,
              18.892969
            ],
            [
              72.767969,
              18.892969
            ],
            [
              72.765234,
              18.890234
            ]
          ]
        ]
      }
    },
    {
      "type": "Feature",
      "properties": {
        "spill_id": "palsar_648",
        "confidence": 0.84
      },
      "geometry": {
        "type": "Polygon",
        "coordinates": [
          [
            [
              72.793945,
              19.041992
            ],
            [
              72.793945,
              19.039258
            ],
            [
              72.789844,
              19.033789
            ],
            [
              72.793945,
              19.025586
            ],
            [
              72.802148,
              19.020117
            ],
            [
              72.802148,
              19.017383
            ],
            [
              72.799414,
              19.013281
            ],
            [
              72.800781,
              19.00918
            ],
            [
              72.813086,
              19.00918
            ],
            [
              72.821289,
              19.002344
            ],
            [
              72.834961,
              19.002344
            ],
            [
              72.84043,
              19.005078
            ],
            [
              72.844531,
              19.00918
            ],
            [
              72.844531,
              19.017383
            ],
            [
              72.839062,
              19.024219
            ],
            [
              72.834961,
              19.033789
            ],
            [
              72.832227,
              19.035156
            ],
            [
              72.819922,
              19.035156
            ],
            [
              72.813086,
              19.040625
            ],
            [
              72.810352,
              19.040625
            ],
            [
              72.803516,
              19.044727
            ],
            [
              72.79668,
              19.044727
            ],
            [
              72.793945,
              19.041992
            ]
          ]
        ]
      }
    },
    {
      "type": "Feature",
      "properties": {
        "spill_id": "palsar_648",
        "confidence": 0.84
      },
      "geometry": {
        "type": "Polygon",
        "coordinates": [
          [
            [
              72.55332,
              19.121289
            ],
            [
              72.55332,
              19.108984
            ],
            [
              72.556055,
              19.099414
            ],
            [
              72.561523,
              19.088477
            ],
            [
              72.566992,
              19.085742
            ],
            [
              72.580664,
              19.084375
            ],
            [
              72.5875,
              19.080273
            ],
            [
              72.594336,
              19.080273
            ],
            [
              72.595703,
              19.078906
            ],
            [
              72.603906,
              19.080273
            ],
            [
              72.606641,
              19.085742
            ],
            [
              72.606641,
              19.09668
            ],
            [
              72.609375,
              19.103516
            ],
            [
              72.609375,
              19.108984
            ],
            [
              72.603906,
              19.122656
            ],
            [
              72.594336,
              19.130859
            ],
            [
              72.580664,
              19.132227
            ],
            [
              72.573828,
              19.124023
            ],
            [
              72.571094,
              19.117188
            ],
            [
              72.561523,
              19.121289
            ],
            [
              72.55332,
              19.121289
            ]
          ]
        ]
      }
    }
  ]
}