{
  "type": "FeatureCollection",
  "features": [
    {
      "type": "Feature",
      "properties": {
        "spill_id": "palsar_384",
        "confidence": 0.96
      },
      "geometry": {
        "type": "Polygon",
        "coordinates": [
          [
            [
              72.582031,
              19.15
            ],
            [
              72.547852,
              19.148633
            ],
            [
              72.546484,
              19.113086
            ],
            [
              72.530078,
              19.15
            ],
            [
              72.512305,
              19.147266
            ],
            [
              72.5,
              19.089844
            ],
            [
              72.5,
              18.801367
            ],
            [
              72.539648,
              18.805469
            ],
            [
              72.551953,
              18.939453
            ],
            [
              72.564258,
              18.954492
            ],
            [
              72.564258,
              18.975
            ],
            [
              72.572461,
              18.988672
            ],
            [
              72.569727,
              19.00918
            ],
            [
              72.584766,
              19.036523
            ],
            [
              72.579297,
              19.054297
            ],
            [
              72.591602,
              19.076172
            ],
            [
              72.580664,
              19.124023
            ],
            [
              72.582031,
              19.15
            ]
          ]
        ]
      }
    }
  ]
}