{
  "type": "FeatureCollection",
  "features": [
    {
      "type": "Feature",
      "properties": {
        "spill_id": "palsar_357",
        "confidence": 0.84
      },
      "geometry": {
        "type": "Polygon",
        "coordinates": [
          [
            [
              72.824023,
              18.813672
            ],
            [
              72.824023,
              18.808203
            ],
            [
              72.825391,
              18.806836
            ],
            [
              72.825391,
              18.804102
            ],
            [
              72.828125,
              18.801367
            ],
            [
              72.833594,
              18.801367
            ],
            [
              72.834961,
              18.802734
            ],
            [
              72.834961,
              18.804102
            ],
            [
              72.836328,
              18.805469
            ],
            [
              72.837695,
              18.805469
            ],
            [
              72.839062,
              18.806836
            ],
            [
              72.839062,
              18.808203
            ],
            [
              72.84043,
              18.80957
            ],
            [
              72.84043,
              18.810938
            ],
            [
              72.837695,
              18.813672
            ],
            [
              72.833594,
              18.813672
            ],
            [
              72.832227,
              18.815039
            ],
            [
              72.825391,
              18.815039
            ],
            [
              72.824023,
              18.813672
            ]
          ]
        ]
      }
    },
    {
      "type": "Feature",
      "properties": {
        "spill_id": "palsar_357",
        "confidence": 0.84
      },
      "geometry": {
        "type": "Polygon",
        "coordinates": [
          [
            [
              72.624414,
              18.817773
            ],
            [
              72.620312,
              18.820508
            ],
            [
              72.616211,
              18.820508
            ],
            [
              72.608008,
              18.816406
            ],
            [
              72.603906,
              18.816406
            ],
            [
              72.602539,
              18.815039
            ],
            [
              72.59707,
              18.815039
            ],
            [
              72.595703,
              18.813672
            ],
            [
              72.588867,
              18.813672
            ],
            [
              72.584766,
              18.810938
            ],
            [
              72.573828,
              18.810938
            ],
            [
              72.571094,
              18.805469
            ],
            [
              72.573828,
              18.802734
            ],
            [
              72.580664,
              18.802734
            ],
            [
              72.582031,
              18.804102
            ],
            [
              72.586133,
              18.801367
            ],
            [
              72.612109,
              18.801367
            ],
            [
              72.623047,
              18.812305
            ],
            [
              72.624414,
              18.815039
            ],
            [
              72.624414,
              18.817773
            ]
          ]
        ]
      }
    },
    {
      "type": "Feature",
      "properties": {
        "spill_id": "palsar_357",
        "confidence": 0.84
      },
      "geometry": {
        "type": "Polygon",
        "coordinates": [
          [
            [
              72.561523,
              18.836914
            ],
            [
              72.560156,
              18.838281
            ],
            [
              72.556055,
              18.838281
            ],
            [
              72.554688,
              18.836914
            ],
            [
              72.539648,
              18.838281
            ],
            [
              72.531445,
              18.83418
            ],
            [
              72.521875,
              18.832812
            ],
            [
              72.515039,
              18.828711
            ],
            [
              72.510938,
              18.830078
            ],
            [
              72.505469,
              18.830078
            ],
            [
              72.505469,
              18.828711
            ],
            [
              72.508203,
              18.827344
            ],
            [
              72.512305,
              18.828711
            ],
            [
              72.519141,
              18.821875
            ],
            [
              72.520508,
              18.817773
            ],
            [
              72.527344,
              18.816406
            ],
            [
              72.531445,
              18.810938
            ],
            [
              72.538281,
              18.808203
            ],
            [
              72.546484,
              18.808203
            ],
            [
              72.545117,
              18.812305
            ],
            [
              72.542383,
              18.813672
            ],
            [
              72.536914,
              18.813672
            ],
            [
              72.53418,
              18.815039
            ],
            [
              72.532812,
              18.817773
            ],
            [
              72.542383,
              18.825977
            ],
            [
              72.547852,
              18.827344
            ],
            [
              72.554688,
              18.831445
            ],
            [
              72.558789,
              18.831445
            ],
            [
              72.561523,
              18.83418
            ],
            [
              72.561523,
              18.836914
            ]
          ]
        ]
      }
    },
    {
      "type": "Feature",
      "properties": {
        "spill_id": "palsar_357",
        "confidence": 0.84
      },
      "geometry": {
        "type": "Polygon",
        "coordinates": [
          [
            [
              72.792578,
              18.838281
            ],
            [
              72.792578,
              18.836914
            ],
            [
              72.793945,
              18.835547
            ],
            [
              72.79668,
              18.828711
            ],
            [
              72.799414,
              18.825977
            ],
            [
              72.800781,
              18.825977
            ],
            [
              72.802148,
              18.824609
            ],
            [
              72.804883,
              18.824609
            ],
            [
              72.80625,
              18.823242
            ],
            [
              72.811719,
              18.823242
            ],
            [
              72.813086,
              18.821875
            ],
            [
              72.81582,
              18.821875
            ],
            [
              72.817187,
              18.820508
            ],
            [
              72.825391,
              18.820508
            ],
            [
              72.828125,
              18.823242
            ],
            [
              72.828125,
              18.824609
            ],
            [
              72.830859,
              18.828711
            ],
            [
              72.830859,
              18.831445
            ],
            [
              72.826758,
              18.835547
            ],
            [
              72.825391,
              18.835547
            ],
            [
              72.818555,
              18.839648
            ],
            [
              72.81582,
              18.839648
            ],
            [
              72.814453,
              18.841016
            ],
            [
              72.808984,
              18.841016
            ],
            [
              72.807617,
              18.842383
            ],
            [
              72.79668,
              18.842383
            ],
            [
              72.795312,
              18.841016
            ],
            [
              72.793945,
              18.841016
            ],
            [
              72.793945,
              18.839648
            ],
            [
              72.792578,
              18.838281
            ]
          ]
        ]
      }
    },
    {
      "type": "Feature",
      "properties": {
        "spill_id": "palsar_357",
        "confidence": 0.84
      },
      "geometry": {
        "type": "Polygon",
        "coordinates": [
          [
            [
              72.632617,
              18.85332
            ],
            [
              72.632617,
              18.856055
            ],
            [
              72.624414,
              18.864258
            ],
            [
              72.618945,
              18.866992
            ],
            [
              72.617578,
              18.876562
            ],
            [
              72.614844,
              18.882031
            ],
            [
              72.606641,
              18.880664
            ],
            [
              72.599805,
              18.873828
            ],
            [
              72.572461,
              18.875195
            ],
            [
              72.55332,
              18.866992
            ],
            [
              72.55332,
              18.864258
            ],
            [
              72.558789,
              18.856055
            ],
            [
              72.573828,
              18.85332
            ],
            [
              72.57793,
              18.850586
            ],
            [
              72.584766,
              18.849219
            ],
            [
              72.588867,
              18.845117
            ],
            [
              72.592969,
              18.84375
            ],
            [
              72.620312,
              18.84375
            ],
            [
              72.625781,
              18.846484
            ],
            [
              72.632617,
              18.85332
            ]
          ]
        ]
      }
    },
    {
      "type": "Feature",
      "properties": {
        "spill_id": "palsar_357",
        "confidence": 0.84
      },
      "geometry": {
        "type": "Polygon",
        "coordinates": [
          [
            [
              72.808984,
              18.951758
            ],
            [
              72.808984,
              18.950391
            ],
            [
              72.807617,
              18.949023
            ],
            [
              72.807617,
              18.944922
            ],
            [
              72.813086,
              18.939453
            ],
            [
              72.813086,
              18.938086
            ],
            [
              72.814453,
              18.936719
            ],
            [
              72.814453,
              18.935352
            ],
            [
              72.81582,
              18.933984
            ],
            [
              72.81582,
              18.932617
            ],
            [
              72.817187,
              18.93125
            ],
            [
              72.818555,
              18.93125
            ],
            [
              72.819922,
              18.929883
            ],
            [
              72.822656,
              18.929883
            ],
            [
              72.824023,
              18.93125
            ],
            [
              72.825391,
              18.93125
            ],
            [
              72.825391,
              18.932617
            ],
            [
              72.826758,
              18.933984
            ],
            [
              72.826758,
              18.936719
            ],
            [
              72.828125,
              18.938086
            ],
            [
              72.828125,
              18.946289
            ],
            [
              72.822656,
              18.951758
            ],
            [
              72.821289,
              18.951758
            ],
            [
              72.819922,
              18.953125
            ],
            [
              72.811719,
              18.953125
            ],
            [
              72.810352,
              18.951758
            ],
            [
              72.808984,
              18.951758
            ]
          ]
        ]
      }
    },
    {
      "type": "Feature",
      "properties": {
        "spill_id": "palsar_357",
        "confidence": 0.84
      },
      "geometry": {
        "type": "Polygon",
        "coordinates": [
          [
            [
              72.66543,
              18.969531
            ],
            [
              72.659961,
              18.975
            ],
            [
              72.643555,
              18.975
            ],
            [
              72.639453,
              18.970898
            ],
            [
              72.639453,
              18.969531
            ],
            [
              72.633984,
              18.962695
            ],
            [
              72.63125,
              18.961328
            ],
            [
              72.628516,
              18.961328
            ],
            [
              72.627148,
              18.959961
            ],
            [
              72.623047,
              18.959961
            ],
            [
              72.62168,
              18.958594
            ],
            [
              72.618945,
              18.958594
            ],
            [
              72.617578,
              18.955859
            ],
            [
              72.620312,
              18.953125
            ],
            [
              72.623047,
              18.953125
            ],
            [
              72.624414,
              18.951758
            ],
            [
              72.63125,
              18.951758
            ],
            [
              72.635352,
              18.947656
            ],
            [
              72.64082,
              18.944922
            ],
            [
              72.649023,
              18.944922
            ],
            [
              72.651758,
              18.946289
            ],
            [
              72.655859,
              18.950391
            ],
            [
              72.655859,
              18.951758
            ],
            [
              72.662695,
              18.957227
            ],
            [
              72.664062,
              18.959961
            ],
            [
              72.664062,
              18.962695
            ],
            [
              72.66543,
              18.964062
            ],
            [
              72.66543,
              18.969531
            ]
          ]
        ]
      }
    },
    {
      "type": "Feature",
      "properties": {
        "spill_id": "palsar_357",
        "confidence": 0.84
      },
      "geometry": {
        "type": "Polygon",
        "coordinates": [
          [
            [
              72.592969,
              18.979102
            ],
            [
              72.583398,
              18.980469
            ],
            [
              72.580664,
              18.977734
            ],
            [
              72.556055,
              18.975
            ],
            [
              72.554688,
              18.968164
            ],
            [
              72.558789,
              18.951758
            ],
            [
              72.55332,
              18.947656
            ],
            [
              72.541016,
              18.946289
            ],
            [
              72.521875,
              18.938086
            ],
            [
              72.512305,
              18.94082
            ],
            [
              72.506836,
              18.946289
            ],
            [
              72.5,
              18.944922
            ],
            [
              72.5,
              18.927148
            ],
            [
              72.50957,
              18.924414
            ],
            [
              72.538281,
              18.93125
            ],
            [
              72.557422,
              18.942188
            ],
            [
              72.569727,
              18.935352
            ],
            [
              72.579297,
              18.924414
            ],
            [
              72.590234,
              18.924414
            ],
            [
              72.602539,
              18.942188
            ],
            [
              72.599805,
              18.951758
            ],
            [
              72.5875,
              18.964062
            ],
            [
              72.5875,
              18.970898
            ],
            [
              72.592969,
              18.979102
            ]
          ]
        ]
      }
    },
    {
      "type": "Feature",
      "properties": {
        "spill_id": "palsar_357",
        "confidence": 0.84
      },
      "geometry": {
        "type": "Polygon",
        "coordinates": [
          [
            [
              72.822656,
              18.992773
            ],
            [
              72.822656,
              18.983203
            ],
            [
              72.824023,
              18.981836
            ],
            [
              72.824023,
              18.980469
            ],
            [
              72.821289,
              18.976367
            ],
            [
              72.822656,
              18.975
            ],
            [
              72.822656,
              18.972266
            ],
            [
              72.826758,
              18.970898
            ],
            [
              72.837695,
              18.959961
            ],
            [
              72.845898,
              18.959961
            ],
            [
              72.848633,
              18.962695
            ],
            [
              72.848633,
              18.969531
            ],
            [
              72.847266,
              18.969531
            ],
            [
              72.843164,
              18.975
            ],
            [
              72.843164,
              18.979102
            ],
            [
              72.847266,
              18.983203
            ],
            [
              72.847266,
              18.98457
            ],
            [
              72.848633,
              18.985938
            ],
            [
              72.847266,
              18.987305
            ],
            [
              72.847266,
              18.988672
            ],
            [
              72.843164,
              18.992773
            ],
            [
              72.822656,
              18.992773
            ]
          ]
        ]
      }
    },
    {
      "type": "Feature",
      "properties": {
        "spill_id": "palsar_357",
        "confidence": 0.84
      },
      "geometry": {
        "type": "Polygon",
        "coordinates": [
          [
            [
              72.5,
              19.01875
            ],
            [
              72.5,
              18.980469
            ],
            [
              72.501367,
              18.980469
            ],
            [
              72.502734,
              18.979102
            ],
            [
              72.506836,
              18.979102
            ],
            [
              72.508203,
              18.980469
            ],
            [
              72.50957,
              18.980469
            ],
            [
              72.515039,
              18.985938
            ],
            [
              72.515039,
              18.987305
            ],
            [
              72.517773,
              18.990039
            ],
            [
              72.520508,
              18.996875
            ],
            [
              72.523242,
              18.999609
            ],
            [
              72.524609,
              19.003711
            ],
            [
              72.523242,
              19.005078
            ],
            [
              72.519141,
              19.006445
            ],
            [
              72.512305,
              19.013281
            ],
            [
              72.510938,
              19.013281
            ],
            [
              72.506836,
              19.017383
            ],
            [
              72.501367,
              19.017383
            ],
            [
              72.5,
              19.01875
            ]
          ]
        ]
      }
    },
    {
      "type": "Feature",
      "properties": {
        "spill_id": "palsar_357",
        "confidence": 0.84
      },
      "geometry": {
        "type": "Polygon",
        "coordinates": [
          [
            [
              72.795312,
              19.024219
            ],
            [
              72.787109,
              19.024219
            ],
            [
              72.777539,
              19.017383
            ],
            [
              72.765234,
              19.016016
            ],
            [
              72.761133,
              19.013281
            ],
            [
              72.759766,
              19.006445
            ],
            [
              72.747461,
              19.010547
            ],
            [
              72.726953,
              18.996875
            ],
            [
              72.740625,
              18.992773
            ],
            [
              72.747461,
              18.998242
            ],
            [
              72.757031,
              19.000977
            ],
            [
              72.759766,
              19.006445
            ],
            [
              72.770703,
              19.007812
            ],
            [
              72.773438,
              19.005078
            ],
            [
              72.773438,
              18.996875
            ],
            [
              72.767969,
              18.991406
            ],
            [
              72.763867,
              18.981836
            ],
            [
              72.75293,
              18.969531
            ],
            [
              72.748828,
              18.968164
            ],
            [
              72.751562,
              18.951758
            ],
            [
              72.758398,
              18.949023
            ],
            [
              72.769336,
              18.953125
            ],
            [
              72.77207,
              18.959961
            ],
            [
              72.766602,
              18.966797
            ],
            [
              72.77207,
              18.970898
            ],
            [
              72.784375,
              18.973633
            ],
            [
              72.785742,
              18.980469
            ],
            [
              72.780273,
              18.996875
            ],
            [
              72.798047,
              19.013281
            ],
            [
              72.799414,
              19.01875
            ],
            [
              72.795312,
              19.024219
            ]
          ]
        ]
      }
    },
    {
      "type": "Feature",
      "properties": {
        "spill_id": "palsar_357",
        "confidence": 0.84
      },
      "geometry": {
        "type": "Polygon",
        "coordinates": [
          [
            [
              72.680469,
              19.07207
            ],
            [
              72.679102,
              19.07207
            ],
            [
              72.677734,
              19.073438
            ],
            [
              72.672266,
              19.073438
            ],
            [
              72.670898,
              19.07207
            ],
            [
              72.668164,
              19.07207
            ],
            [
              72.666797,
              19.070703
            ],
            [
              72.666797,
              19.069336
            ],
            [
              72.66543,
              19.067969
            ],
            [
              72.66543,
              19.065234
            ],
            [
              72.664062,
              19.063867
            ],
            [
              72.664062,
              19.061133
            ],
            [
              72.661328,
              19.057031
            ],
            [
              72.661328,
              19.047461
            ],
            [
              72.668164,
              19.047461
            ],
            [
              72.669531,
              19.048828
            ],
            [
              72.670898,
              19.048828
            ],
            [
              72.681836,
              19.059766
            ],
            [
              72.681836,
              19.061133
            ],
            [
              72.683203,
              19.0625
            ],
            [
              72.683203,
              19.067969
            ],
            [
              72.680469,
              19.07207
            ]
          ]
        ]
      }
    },
    {
      "type": "Feature",
      "properties": {
        "spill_id": "palsar_357",
        "confidence": 0.84
      },
      "geometry": {
        "type": "Polygon",
        "coordinates": [
          [
            [
              72.5,
              19.143164
            ],
            [
              72.5,
              19.050195
            ],
            [
              72.558789,
              19.063867
            ],
            [
              72.558789,
              19.02832
            ],
            [
              72.603906,
              19.026953
            ],
            [
              72.614844,
              18.985938
            ],
            [
              72.629883,
              19.007812
            ],
            [
              72.63125,
              19.031055
            ],
            [
              72.598438,
              19.036523
            ],
            [
              72.605273,
              19.089844
            ],
            [
              72.694141,
              19.129492
            ],
            [
              72.732422,
              19.11582
            ],
            [
              72.7625,
              19.078906
            ],
            [
              72.754297,
              19.070703
            ],
            [
              72.778906,
              19.066602
            ],
            [
              72.79668,
              19.043359
            ],
            [
              72.828125,
              19.031055
            ],
            [
              72.844531,
              19.037891
            ],
            [
              72.841797,
              19.050195
            ],
            [
              72.813086,
              19.057031
            ],
            [
              72.800781,
              19.073438
            ],
            [
              72.808984,
              19.114453
            ],
            [
              72.795312,
              19.113086
            ],
            [
              72.792578,
              19.093945
            ],
            [
              72.763867,
              19.091211
            ],
            [
              72.744727,
              19.11582
            ],
            [
              72.740625,
              19.144531
            ],
            [
              72.666797,
              19.15
            ],
            [
              72.673633,
              19.136328
            ],
            [
              72.66543,
              19.129492
            ],
            [
              72.651758,
              19.136328
            ],
            [
              72.653125,
              19.15
            ],
            [
              72.5,
              19.143164
            ]
          ]
        ]
      }
    }
  ]
}