{
  "type": "FeatureCollection",
  "features": [
    {
      "type": "Feature",
      "properties": {
        "spill_id": "palsar_459",
        "confidence": 0.88
      },
      "geometry": {
        "type": "Polygon",
        "coordinates": [
          [
            [
              72.70918,
              18.806836
            ],
            [
              72.713281,
              18.801367
            ],
            [
              72.722852,
              18.801367
            ],
            [
              72.724219,
              18.802734
            ],
            [
              72.732422,
              18.802734
            ],
            [
              72.733789,
              18.801367
            ],
            [
              72.759766,
              18.801367
            ],
            [
              72.7625,
              18.805469
            ],
            [
              72.7625,
              18.808203
            ],
            [
              72.757031,
              18.812305
            ],
            [
              72.743359,
              18.812305
            ],
            [
              72.741992,
              18.810938
            ],
            [
              72.737891,
              18.810938
            ],
            [
              72.733789,
              18.808203
            ],
            [
              72.729688,
              18.808203
            ],
            [
              72.726953,
              18.810938
            ],
            [
              72.721484,
              18.813672
            ],
            [
              72.711914,
              18.813672
            ],
            [
              72.710547,
              18.812305
            ],
            [
              72.710547,
              18.808203
            ],
            [
              72.70918,
              18.806836
            ]
          ]
        ]
      }
    },
    {
      "type": "Feature",
      "properties": {
        "spill_id": "palsar_459",
        "confidence": 0.88
      },
      "geometry": {
        "type": "Polygon",
        "coordinates": [
          [
            [
              72.839062,
              18.820508
            ],
            [
              72.836328,
              18.817773
            ],
            [
              72.836328,
              18.802734
            ],
            [
              72.837695,
              18.801367
            ],
            [
              72.848633,
              18.801367
            ],
            [
              72.848633,
              18.819141
            ],
            [
              72.847266,
              18.819141
            ],
            [
              72.845898,
              18.820508
            ],
            [
              72.839062,
              18.820508
            ]
          ]
        ]
      }
    },
    {
      "type": "Feature",
      "properties": {
        "spill_id": "palsar_459",
        "confidence": 0.88
      },
      "geometry": {
        "type": "Polygon",
        "coordinates": [
          [
            [
              72.535547,
              18.821875
            ],
            [
              72.532812,
              18.819141
            ],
            [
              72.531445,
              18.819141
            ],
            [
              72.528711,
              18.816406
            ],
            [
              72.528711,
              18.812305
            ],
            [
              72.530078,
              18.810938
            ],
            [
              72.530078,
              18.80957
            ],
            [
              72.53418,
              18.805469
            ],
            [
              72.541016,
              18.805469
            ],
            [
              72.542383,
              18.806836
            ],
            [
              72.54375,
              18.806836
            ],
            [
              72.546484,
              18.80957
            ],
            [
              72.546484,
              18.819141
            ],
            [
              72.54375,
              18.821875
            ],
            [
              72.535547,
              18.821875
            ]
          ]
        ]
      }
    },
    {
      "type": "Feature",
      "properties": {
        "spill_id": "palsar_459",
        "confidence": 0.88
      },
      "geometry": {
        "type": "Polygon",
        "coordinates": [
          [
            [
              72.664062,
              18.835547
            ],
            [
              72.661328,
              18.832812
            ],
            [
              72.661328,
              18.828711
            ],
            [
              72.664062,
              18.824609
            ],
            [
              72.664062,
              18.820508
            ],
            [
              72.66543,
              18.819141
            ],
            [
              72.66543,
              18.817773
            ],
            [
              72.666797,
              18.816406
            ],
            [
              72.666797,
              18.815039
            ],
            [
              72.668164,
              18.813672
            ],
            [
              72.668164,
              18.812305
            ],
            [
              72.669531,
              18.810938
            ],
            [
              72.669531,
              18.80957
            ],
            [
              72.670898,
              18.808203
            ],
            [
              72.670898,
              18.806836
            ],
            [
              72.673633,
              18.806836
            ],
            [
              72.675,
              18.808203
            ],
            [
              72.676367,
              18.808203
            ],
            [
              72.677734,
              18.80957
            ],
            [
              72.679102,
              18.80957
            ],
            [
              72.681836,
              18.812305
            ],
            [
              72.681836,
              18.820508
            ],
            [
              72.680469,
              18.821875
            ],
            [
              72.680469,
              18.823242
            ],
            [
              72.679102,
              18.824609
            ],
            [
              72.679102,
              18.825977
            ],
            [
              72.670898,
              18.83418
            ],
            [
              72.669531,
              18.83418
            ],
            [
              72.668164,
              18.835547
            ],
            [
              72.664062,
              18.835547
            ]
          ]
        ]
      }
    },
    {
      "type": "Feature",
      "properties": {
        "spill_id": "palsar_459",
        "confidence": 0.88
      },
      "geometry": {
        "type": "Polygon",
        "coordinates": [
          [
            [
              72.774805,
              18.85332
            ],
            [
              72.774805,
              18.845117
            ],
            [
              72.776172,
              18.84375
            ],
            [
              72.776172,
              18.841016
            ],
            [
              72.784375,
              18.832812
            ],
            [
              72.785742,
              18.832812
            ],
            [
              72.787109,
              18.831445
            ],
            [
              72.788477,
              18.827344
            ],
            [
              72.789844,
              18.825977
            ],
            [
              72.800781,
              18.825977
            ],
            [
              72.802148,
              18.827344
            ],
            [
              72.802148,
              18.831445
            ],
            [
              72.799414,
              18.83418
            ],
            [
              72.799414,
              18.835547
            ],
            [
              72.79668,
              18.838281
            ],
            [
              72.79668,
              18.839648
            ],
            [
              72.787109,
              18.849219
            ],
            [
              72.785742,
              18.849219
            ],
            [
              72.781641,
              18.85332
            ],
            [
              72.780273,
              18.85332
            ],
            [
              72.778906,
              18.854688
            ],
            [
              72.774805,
              18.85332
            ]
          ]
        ]
      }
    },
    {
      "type": "Feature",
      "properties": {
        "spill_id": "palsar_459",
        "confidence": 0.88
      },
      "geometry": {
        "type": "Polygon",
        "coordinates": [
          [
            [
              72.516406,
              18.8875
            ],
            [
              72.515039,
              18.8875
            ],
            [
              72.513672,
              18.888867
            ],
            [
              72.510938,
              18.888867
            ],
            [
              72.50957,
              18.890234
            ],
            [
              72.506836,
              18.890234
            ],
            [
              72.505469,
              18.888867
            ],
            [
              72.502734,
              18.888867
            ],
            [
              72.501367,
              18.8875
            ],
            [
              72.5,
              18.8875
            ],
            [
              72.5,
              18.868359
            ],
            [
              72.501367,
              18.868359
            ],
            [
              72.502734,
              18.866992
            ],
            [
              72.506836,
              18.866992
            ],
            [
              72.512305,
              18.872461
            ],
            [
              72.512305,
              18.873828
            ],
            [
              72.517773,
              18.879297
            ],
            [
              72.517773,
              18.880664
            ],
            [
              72.519141,
              18.882031
            ],
            [
              72.519141,
              18.883398
            ],
            [
              72.517773,
              18.884766
            ],
            [
              72.517773,
              18.886133
            ],
            [
              72.516406,
              18.8875
            ]
          ]
        ]
      }
    },
    {
      "type": "Feature",
      "properties": {
        "spill_id": "palsar_459",
        "confidence": 0.88
      },
      "geometry": {
        "type": "Polygon",
        "coordinates": [
          [
            [
              72.798047,
              18.898438
            ],
            [
              72.795312,
              18.895703
            ],
            [
              72.795312,
              18.888867
            ],
            [
              72.798047,
              18.886133
            ],
            [
              72.798047,
              18.884766
            ],
            [
              72.80625,
              18.876562
            ],
            [
              72.80625,
              18.875195
            ],
            [
              72.810352,
              18.871094
            ],
            [
              72.811719,
              18.871094
            ],
            [
              72.81582,
              18.868359
            ],
            [
              72.825391,
              18.868359
            ],
            [
              72.828125,
              18.871094
            ],
            [
              72.828125,
              18.872461
            ],
            [
              72.829492,
              18.873828
            ],
            [
              72.829492,
              18.880664
            ],
            [
              72.828125,
              18.882031
            ],
            [
              72.828125,
              18.884766
            ],
            [
              72.826758,
              18.886133
            ],
            [
              72.826758,
              18.888867
            ],
            [
              72.825391,
              18.890234
            ],
            [
              72.825391,
              18.891602
            ],
            [
              72.822656,
              18.894336
            ],
            [
              72.821289,
              18.894336
            ],
            [
              72.817187,
              18.89707
            ],
            [
              72.814453,
              18.89707
            ],
            [
              72.813086,
              18.898438
            ],
            [
              72.798047,
              18.898438
            ]
          ]
        ]
      }
    },
    {
      "type": "Feature",
      "properties": {
        "spill_id": "palsar_459",
        "confidence": 0.88
      },
      "geometry": {
        "type": "Polygon",
        "coordinates": [
          [
            [
              72.822656,
              19.011914
            ],
            [
              72.817187,
              19.006445
            ],
            [
              72.81582,
              18.992773
            ],
            [
              72.829492,
              18.964062
            ],
            [
              72.830859,
              18.942188
            ],
            [
              72.825391,
              18.935352
            ],
            [
              72.818555,
              18.935352
            ],
            [
              72.817187,
              18.932617
            ],
            [
              72.819922,
              18.925781
            ],
            [
              72.829492,
              18.916211
            ],
            [
              72.84043,
              18.914844
            ],
            [
              72.844531,
              18.917578
            ],
            [
              72.848633,
              18.924414
            ],
            [
              72.848633,
              18.976367
            ],
            [
              72.834961,
              18.988672
            ],
            [
              72.830859,
              18.996875
            ],
            [
              72.830859,
              19.00918
            ],
            [
              72.822656,
              19.011914
            ]
          ]
        ]
      }
    },
    {
      "type": "Feature",
      "properties": {
        "spill_id": "palsar_459",
        "confidence": 0.88
      },
      "geometry": {
        "type": "Polygon",
        "coordinates": [
          [
            [
              72.680469,
              19.051562
            ],
            [
              72.677734,
              19.048828
            ],
            [
              72.677734,
              19.044727
            ],
            [
              72.679102,
              19.043359
            ],
            [
              72.679102,
              19.040625
            ],
            [
              72.680469,
              19.039258
            ],
            [
              72.680469,
              19.037891
            ],
            [
              72.685938,
              19.032422
            ],
            [
              72.690039,
              19.031055
            ],
            [
              72.692773,
              19.02832
            ],
            [
              72.692773,
              19.026953
            ],
            [
              72.694141,
              19.025586
            ],
            [
              72.696875,
              19.025586
            ],
            [
              72.699609,
              19.022852
            ],
            [
              72.703711,
              19.026953
            ],
            [
              72.703711,
              19.029687
            ],
            [
              72.705078,
              19.031055
            ],
            [
              72.705078,
              19.033789
            ],
            [
              72.706445,
              19.035156
            ],
            [
              72.705078,
              19.039258
            ],
            [
              72.702344,
              19.041992
            ],
            [
              72.700977,
              19.041992
            ],
            [
              72.696875,
              19.046094
            ],
            [
              72.696875,
              19.047461
            ],
            [
              72.695508,
              19.048828
            ],
            [
              72.695508,
              19.050195
            ],
            [
              72.692773,
              19.05293
            ],
            [
              72.692773,
              19.054297
            ],
            [
              72.688672,
              19.054297
            ],
            [
              72.687305,
              19.05293
            ],
            [
              72.683203,
              19.05293
            ],
            [
              72.681836,
              19.051562
            ],
            [
              72.680469,
              19.051562
            ]
          ]
        ]
      }
    },
    {
      "type": "Feature",
      "properties": {
        "spill_id": "palsar_459",
        "confidence": 0.88
      },
      "geometry": {
        "type": "Polygon",
        "coordinates": [
          [
            [
              72.77207,
              19.15
            ],
            [
              72.77207,
              19.143164
            ],
            [
              72.781641,
              19.133594
            ],
            [
              72.781641,
              19.125391
            ],
            [
              72.787109,
              19.114453
            ],
            [
              72.810352,
              19.083008
            ],
            [
              72.817187,
              19.061133
            ],
            [
              72.825391,
              19.046094
            ],
            [
              72.84043,
              19.033789
            ],
            [
              72.848633,
              19.032422
            ],
            [
              72.848633,
              19.15
            ],
            [
              72.77207,
              19.15
            ]
          ]
        ]
      }
    },
    {
      "type": "Feature",
      "properties": {
        "spill_id": "palsar_459",
        "confidence": 0.88
      },
      "geometry": {
        "type": "Polygon",
        "coordinates": [
          [
            [
              72.747461,
              19.15
            ],
            [
              72.729688,
              19.15
            ],
            [
              72.729688,
              19.148633
            ],
            [
              72.72832,
              19.147266
            ],
            [
              72.72832,
              19.144531
            ],
            [
              72.725586,
              19.14043
            ],
            [
              72.725586,
              19.133594
            ],
            [
              72.726953,
              19.132227
            ],
            [
              72.726953,
              19.129492
            ],
            [
              72.72832,
              19.128125
            ],
            [
              72.729688,
              19.128125
            ],
            [
              72.731055,
              19.126758
            ],
            [
              72.735156,
              19.126758
            ],
            [
              72.736523,
              19.128125
            ],
            [
              72.737891,
              19.128125
            ],
            [
              72.737891,
              19.129492
            ],
            [
              72.740625,
              19.132227
            ],
            [
              72.740625,
              19.133594
            ],
            [
              72.741992,
              19.134961
            ],
            [
              72.741992,
              19.136328
            ],
            [
              72.743359,
              19.137695
            ],
            [
              72.743359,
              19.139062
            ],
            [
              72.746094,
              19.141797
            ],
            [
              72.746094,
              19.143164
            ],
            [
              72.747461,
              19.144531
            ],
            [
              72.747461,
              19.15
            ]
          ]
        ]
      }
    },
    {
      "type": "Feature",
      "properties": {
        "spill_id": "palsar_459",
        "confidence": 0.88
      },
      "geometry": {
        "type": "Polygon",
        "coordinates": [
          [
            [
              72.505469,
              19.15
            ],
            [
              72.50957,
              19.14043
            ],
            [
              72.523242,
              19.137695
            ],
            [
              72.53418,
              19.117188
            ],
            [
              72.532812,
              19.108984
            ],
            [
              72.523242,
              19.111719
            ],
            [
              72.516406,
              19.104883
            ],
            [
              72.523242,
              19.084375
            ],
            [
              72.531445,
              19.076172
            ],
            [
              72.54375,
              19.078906
            ],
            [
              72.535547,
              19.108984
            ],
            [
              72.584766,
              19.033789
            ],
            [
              72.592969,
              19.055664
            ],
            [
              72.605273,
              19.044727
            ],
            [
              72.601172,
              19.026953
            ],
            [
              72.586133,
              19.031055
            ],
            [
              72.582031,
              19.01875
            ],
            [
              72.562891,
              19.007812
            ],
            [
              72.571094,
              18.995508
            ],
            [
              72.5875,
              18.994141
            ],
            [
              72.601172,
              18.973633
            ],
            [
              72.627148,
              18.895703
            ],
            [
              72.632617,
              18.913477
            ],
            [
              72.620312,
              18.958594
            ],
            [
              72.617578,
              19.006445
            ],
            [
              72.624414,
              19.043359
            ],
            [
              72.638086,
              19.066602
            ],
            [
              72.63125,
              19.092578
            ],
            [
              72.616211,
              19.09668
            ],
            [
              72.599805,
              19.129492
            ],
            [
              72.591602,
              19.125391
            ],
            [
              72.590234,
              19.10625
            ],
            [
              72.568359,
              19.15
            ],
            [
              72.505469,
              19.15
            ]
          ]
        ]
      }
    }
  ]
}