{
  "type": "FeatureCollection",
  "features": [
    {
      "type": "Feature",
      "properties": {
        "spill_id": "palsar_560",
        "confidence": 0.76
      },
      "geometry": {
        "type": "Polygon",
        "coordinates": [
          [
            [
              72.64082,
              18.83418
            ],
            [
              72.639453,
              18.83418
            ],
            [
              72.638086,
              18.832812
            ],
            [
              72.636719,
              18.832812
            ],
            [
              72.636719,
              18.831445
            ],
            [
              72.633984,
              18.828711
            ],
            [
              72.633984,
              18.825977
            ],
            [
              72.632617,
              18.824609
            ],
            [
              72.632617,
              18.820508
            ],
            [
              72.635352,
              18.820508
            ],
            [
              72.638086,
              18.823242
            ],
            [
              72.638086,
              18.824609
            ],
            [
              72.64082,
              18.827344
            ],
            [
              72.64082,
              18.828711
            ],
            [
              72.642187,
              18.830078
            ],
            [
              72.642187,
              18.832812
            ],
            [
              72.64082,
              18.83418
            ]
          ]
        ]
      }
    },
    {
      "type": "Feature",
      "properties": {
        "spill_id": "palsar_560",
        "confidence": 0.76
      },
      "geometry": {
        "type": "Polygon",
        "coordinates": [
          [
            [
              72.582031,
              18.828711
            ],
            [
              72.580664,
              18.830078
            ],
            [
              72.575195,
              18.830078
            ],
            [
              72.571094,
              18.827344
            ],
            [
              72.566992,
              18.827344
            ],
            [
              72.561523,
              18.831445
            ],
            [
              72.560156,
              18.831445
            ],
            [
              72.557422,
              18.83418
            ],
            [
              72.554688,
              18.83418
            ],
            [
              72.554688,
              18.832812
            ],
            [
              72.55332,
              18.831445
            ],
            [
              72.55332,
              18.815039
            ],
            [
              72.550586,
              18.812305
            ],
            [
              72.550586,
              18.804102
            ],
            [
              72.55332,
              18.801367
            ],
            [
              72.556055,
              18.801367
            ],
            [
              72.557422,
              18.802734
            ],
            [
              72.558789,
              18.802734
            ],
            [
              72.571094,
              18.816406
            ],
            [
              72.575195,
              18.816406
            ],
            [
              72.576562,
              18.817773
            ],
            [
              72.57793,
              18.817773
            ],
            [
              72.57793,
              18.819141
            ],
            [
              72.582031,
              18.824609
            ],
            [
              72.582031,
              18.828711
            ]
          ]
        ]
      }
    },
    {
      "type": "Feature",
      "properties": {
        "spill_id": "palsar_560",
        "confidence": 0.76
      },
      "geometry": {
        "type": "Polygon",
        "coordinates": [
          [
            [
              72.843164,
              18.835547
            ],
            [
              72.841797,
              18.835547
            ],
            [
              72.836328,
              18.830078
            ],
            [
              72.834961,
              18.830078
            ],
            [
              72.832227,
              18.827344
            ],
            [
              72.830859,
              18.827344
            ],
            [
              72.830859,
              18.824609
            ],
            [
              72.832227,
              18.823242
            ],
            [
              72.832227,
              18.821875
            ],
            [
              72.836328,
              18.821875
            ],
            [
              72.84043,
              18.825977
            ],
            [
              72.84043,
              18.827344
            ],
            [
              72.841797,
              18.828711
            ],
            [
              72.841797,
              18.831445
            ],
            [
              72.843164,
              18.832812
            ],
            [
              72.843164,
              18.835547
            ]
          ]
        ]
      }
    },
    {
      "type": "Feature",
      "properties": {
        "spill_id": "palsar_560",
        "confidence": 0.76
      },
      "geometry": {
        "type": "Polygon",
        "coordinates": [
          [
            [
              72.735156,
              18.845117
            ],
            [
              72.729688,
              18.845117
            ],
            [
              72.72832,
              18.84375
            ],
            [
              72.726953,
              18.84375
            ],
            [
              72.725586,
              18.842383
            ],
            [
              72.724219,
              18.842383
            ],
            [
              72.724219,
              18.841016
            ],
            [
              72.721484,
              18.838281
            ],
            [
              72.721484,
              18.835547
            ],
            [
              72.725586,
              18.831445
            ],
            [
              72.725586,
              18.830078
            ],
            [
              72.72832,
              18.832812
            ],
            [
              72.729688,
              18.832812
            ],
            [
              72.731055,
              18.83418
            ],
            [
              72.731055,
              18.835547
            ],
            [
              72.732422,
              18.836914
            ],
            [
              72.732422,
              18.839648
            ],
            [
              72.733789,
              18.841016
            ],
            [
              72.733789,
              18.84375
            ],
            [
              72.735156,
              18.845117
            ]
          ]
        ]
      }
    },
    {
      "type": "Feature",
      "properties": {
        "spill_id": "palsar_560",
        "confidence": 0.76
      },
      "geometry": {
        "type": "Polygon",
        "coordinates": [
          [
            [
              72.658594,
              18.879297
            ],
            [
              72.653125,
              18.879297
            ],
            [
              72.650391,
              18.876562
            ],
            [
              72.650391,
              18.875195
            ],
            [
              72.649023,
              18.873828
            ],
            [
              72.649023,
              18.861523
            ],
            [
              72.651758,
              18.858789
            ],
            [
              72.658594,
              18.865625
            ],
            [
              72.658594,
              18.866992
            ],
            [
              72.659961,
              18.868359
            ],
            [
              72.659961,
              18.869727
            ],
            [
              72.661328,
              18.871094
            ],
            [
              72.661328,
              18.876562
            ],
            [
              72.658594,
              18.879297
            ]
          ]
        ]
      }
    },
    {
      "type": "Feature",
      "properties": {
        "spill_id": "palsar_560",
        "confidence": 0.76
      },
      "geometry": {
        "type": "Polygon",
        "coordinates": [
          [
            [
              72.7625,
              18.903906
            ],
            [
              72.761133,
              18.902539
            ],
            [
              72.759766,
              18.902539
            ],
            [
              72.759766,
              18.901172
            ],
            [
              72.758398,
              18.899805
            ],
            [
              72.758398,
              18.898438
            ],
            [
              72.757031,
              18.89707
            ],
            [
              72.757031,
              18.892969
            ],
            [
              72.755664,
              18.891602
            ],
            [
              72.755664,
              18.890234
            ],
            [
              72.754297,
              18.888867
            ],
            [
              72.754297,
              18.886133
            ],
            [
              72.75293,
              18.884766
            ],
            [
              72.75293,
              18.883398
            ],
            [
              72.755664,
              18.883398
            ],
            [
              72.761133,
              18.888867
            ],
            [
              72.7625,
              18.888867
            ],
            [
              72.765234,
              18.891602
            ],
            [
              72.765234,
              18.894336
            ],
            [
              72.766602,
              18.895703
            ],
            [
              72.766602,
              18.89707
            ],
            [
              72.765234,
              18.898438
            ],
            [
              72.765234,
              18.901172
            ],
            [
              72.7625,
              18.903906
            ]
          ]
        ]
      }
    },
    {
      "type": "Feature",
      "properties": {
        "spill_id": "palsar_560",
        "confidence": 0.76
      },
      "geometry": {
        "type": "Polygon",
        "coordinates": [
          [
            [
              72.510938,
              18.912109
            ],
            [
              72.505469,
              18.909375
            ],
            [
              72.5,
              18.901172
            ],
            [
              72.5,
              18.894336
            ],
            [
              72.501367,
              18.894336
            ],
            [
              72.505469,
              18.888867
            ],
            [
              72.505469,
              18.883398
            ],
            [
              72.502734,
              18.87793
            ],
            [
              72.502734,
              18.858789
            ],
            [
              72.506836,
              18.847852
            ],
            [
              72.505469,
              18.83418
            ],
            [
              72.508203,
              18.830078
            ],
            [
              72.512305,
              18.831445
            ],
            [
              72.516406,
              18.841016
            ],
            [
              72.516406,
              18.85332
            ],
            [
              72.515039,
              18.854688
            ],
            [
              72.513672,
              18.868359
            ],
            [
              72.515039,
              18.869727
            ],
            [
              72.516406,
              18.8875
            ],
            [
              72.519141,
              18.892969
            ],
            [
              72.519141,
              18.899805
            ],
            [
              72.515039,
              18.910742
            ],
            [
              72.510938,
              18.912109
            ]
          ]
        ]
      }
    },
    {
      "type": "Feature",
      "properties": {
        "spill_id": "palsar_560",
        "confidence": 0.76
      },
      "geometry": {
        "type": "Polygon",
        "coordinates": [
          [
            [
              72.566992,
              18.939453
            ],
            [
              72.561523,
              18.939453
            ],
            [
              72.557422,
              18.935352
            ],
            [
              72.557422,
              18.93125
            ],
            [
              72.554688,
              18.928516
            ],
            [
              72.554688,
              18.924414
            ],
            [
              72.556055,
              18.923047
            ],
            [
              72.560156,
              18.923047
            ],
            [
              72.564258,
              18.927148
            ],
            [
              72.565625,
              18.927148
            ],
            [
              72.568359,
              18.929883
            ],
            [
              72.568359,
              18.932617
            ],
            [
              72.569727,
              18.933984
            ],
            [
              72.568359,
              18.935352
            ],
            [
              72.568359,
              18.936719
            ],
            [
              72.566992,
              18.938086
            ],
            [
              72.566992,
              18.939453
            ]
          ]
        ]
      }
    },
    {
      "type": "Feature",
      "properties": {
        "spill_id": "palsar_560",
        "confidence": 0.76
      },
      "geometry": {
        "type": "Polygon",
        "coordinates": [
          [
            [
              72.757031,
              18.954492
            ],
            [
              72.754297,
              18.954492
            ],
            [
              72.754297,
              18.953125
            ],
            [
              72.746094,
              18.944922
            ],
            [
              72.746094,
              18.943555
            ],
            [
              72.743359,
              18.94082
            ],
            [
              72.743359,
              18.929883
            ],
            [
              72.740625,
              18.927148
            ],
            [
              72.740625,
              18.924414
            ],
            [
              72.744727,
              18.924414
            ],
            [
              72.746094,
              18.925781
            ],
            [
              72.746094,
              18.927148
            ],
            [
              72.750195,
              18.93125
            ],
            [
              72.750195,
              18.932617
            ],
            [
              72.75293,
              18.936719
            ],
            [
              72.75293,
              18.939453
            ],
            [
              72.754297,
              18.94082
            ],
            [
              72.754297,
              18.946289
            ],
            [
              72.75293,
              18.947656
            ],
            [
              72.75293,
              18.950391
            ],
            [
              72.757031,
              18.954492
            ]
          ]
        ]
      }
    },
    {
      "type": "Feature",
      "properties": {
        "spill_id": "palsar_560",
        "confidence": 0.76
      },
      "geometry": {
        "type": "Polygon",
        "coordinates": [
          [
            [
              72.629883,
              18.955859
            ],
            [
              72.625781,
              18.953125
            ],
            [
              72.62168,
              18.946289
            ],
            [
              72.617578,
              18.923047
            ],
            [
              72.610742,
              18.912109
            ],
            [
              72.606641,
              18.89707
            ],
            [
              72.591602,
              18.869727
            ],
            [
              72.591602,
              18.864258
            ],
            [
              72.599805,
              18.850586
            ],
            [
              72.605273,
              18.850586
            ],
            [
              72.610742,
              18.857422
            ],
            [
              72.610742,
              18.865625
            ],
            [
              72.608008,
              18.869727
            ],
            [
              72.608008,
              18.873828
            ],
            [
              72.612109,
              18.883398
            ],
            [
              72.627148,
              18.895703
            ],
            [
              72.636719,
              18.909375
            ],
            [
              72.636719,
              18.913477
            ],
            [
              72.629883,
              18.923047
            ],
            [
              72.632617,
              18.943555
            ],
            [
              72.632617,
              18.954492
            ],
            [
              72.629883,
              18.955859
            ]
          ]
        ]
      }
    },
    {
      "type": "Feature",
      "properties": {
        "spill_id": "palsar_560",
        "confidence": 0.76
      },
      "geometry": {
        "type": "Polygon",
        "coordinates": [
          [
            [
              72.845898,
              18.969531
            ],
            [
              72.839062,
              18.969531
            ],
            [
              72.836328,
              18.968164
            ],
            [
              72.832227,
              18.964062
            ],
            [
              72.826758,
              18.953125
            ],
            [
              72.826758,
              18.950391
            ],
            [
              72.825391,
              18.949023
            ],
            [
              72.825391,
              18.94082
            ],
            [
              72.826758,
              18.939453
            ],
            [
              72.826758,
              18.936719
            ],
            [
              72.824023,
              18.929883
            ],
            [
              72.817187,
              18.92168
            ],
            [
              72.817187,
              18.912109
            ],
            [
              72.818555,
              18.910742
            ],
            [
              72.822656,
              18.910742
            ],
            [
              72.828125,
              18.914844
            ],
            [
              72.832227,
              18.929883
            ],
            [
              72.837695,
              18.94082
            ],
            [
              72.848633,
              18.954492
            ],
            [
              72.848633,
              18.968164
            ],
            [
              72.845898,
              18.969531
            ]
          ]
        ]
      }
    },
    {
      "type": "Feature",
      "properties": {
        "spill_id": "palsar_560",
        "confidence": 0.76
      },
      "geometry": {
        "type": "Polygon",
        "coordinates": [
          [
            [
              72.71875,
              18.975
            ],
            [
              72.716016,
              18.975
            ],
            [
              72.711914,
              18.966797
            ],
            [
              72.705078,
              18.958594
            ],
            [
              72.705078,
              18.953125
            ],
            [
              72.702344,
              18.950391
            ],
            [
              72.696875,
              18.938086
            ],
            [
              72.695508,
              18.925781
            ],
            [
              72.688672,
              18.913477
            ],
            [
              72.679102,
              18.902539
            ],
            [
              72.680469,
              18.894336
            ],
            [
              72.687305,
              18.894336
            ],
            [
              72.694141,
              18.898438
            ],
            [
              72.699609,
              18.910742
            ],
            [
              72.70918,
              18.917578
            ],
            [
              72.710547,
              18.927148
            ],
            [
              72.714648,
              18.936719
            ],
            [
              72.714648,
              18.947656
            ],
            [
              72.721484,
              18.959961
            ],
            [
              72.721484,
              18.970898
            ],
            [
              72.71875,
              18.975
            ]
          ]
        ]
      }
    },
    {
      "type": "Feature",
      "properties": {
        "spill_id": "palsar_560",
        "confidence": 0.76
      },
      "geometry": {
        "type": "Polygon",
        "coordinates": [
          [
            [
              72.562891,
              18.983203
            ],
            [
              72.560156,
              18.983203
            ],
            [
              72.560156,
              18.981836
            ],
            [
              72.556055,
              18.977734
            ],
            [
              72.556055,
              18.976367
            ],
            [
              72.55332,
              18.973633
            ],
            [
              72.55332,
              18.962695
            ],
            [
              72.554688,
              18.961328
            ],
            [
              72.554688,
              18.958594
            ],
            [
              72.556055,
              18.957227
            ],
            [
              72.556055,
              18.955859
            ],
            [
              72.557422,
              18.954492
            ],
            [
              72.558789,
              18.954492
            ],
            [
              72.560156,
              18.953125
            ],
            [
              72.561523,
              18.954492
            ],
            [
              72.562891,
              18.954492
            ],
            [
              72.565625,
              18.957227
            ],
            [
              72.565625,
              18.976367
            ],
            [
              72.564258,
              18.977734
            ],
            [
              72.564258,
              18.980469
            ],
            [
              72.562891,
              18.981836
            ],
            [
              72.562891,
              18.983203
            ]
          ]
        ]
      }
    },
    {
      "type": "Feature",
      "properties": {
        "spill_id": "palsar_560",
        "confidence": 0.76
      },
      "geometry": {
        "type": "Polygon",
        "coordinates": [
          [
            [
              72.720117,
              19.011914
            ],
            [
              72.71875,
              19.011914
            ],
            [
              72.71875,
              19.00918
            ],
            [
              72.717383,
              19.007812
            ],
            [
              72.717383,
              18.999609
            ],
            [
              72.716016,
              18.998242
            ],
            [
              72.716016,
              18.996875
            ],
            [
              72.714648,
              18.995508
            ],
            [
              72.713281,
              18.995508
            ],
            [
              72.713281,
              18.988672
            ],
            [
              72.711914,
              18.987305
            ],
            [
              72.713281,
              18.985938
            ],
            [
              72.713281,
              18.983203
            ],
            [
              72.716016,
              18.980469
            ],
            [
              72.720117,
              18.98457
            ],
            [
              72.720117,
              18.987305
            ],
            [
              72.721484,
              18.988672
            ],
            [
              72.721484,
              18.990039
            ],
            [
              72.722852,
              18.991406
            ],
            [
              72.722852,
              19.007812
            ],
            [
              72.721484,
              19.00918
            ],
            [
              72.721484,
              19.010547
            ],
            [
              72.720117,
              19.011914
            ]
          ]
        ]
      }
    },
    {
      "type": "Feature",
      "properties": {
        "spill_id": "palsar_560",
        "confidence": 0.76
      },
      "geometry": {
        "type": "Polygon",
        "coordinates": [
          [
            [
              72.757031,
              19.073438
            ],
            [
              72.755664,
              19.07207
            ],
            [
              72.754297,
              19.07207
            ],
            [
              72.750195,
              19.067969
            ],
            [
              72.748828,
              19.067969
            ],
            [
              72.747461,
              19.066602
            ],
            [
              72.746094,
              19.066602
            ],
            [
              72.743359,
              19.063867
            ],
            [
              72.743359,
              19.0625
            ],
            [
              72.739258,
              19.058398
            ],
            [
              72.737891,
              19.058398
            ],
            [
              72.733789,
              19.054297
            ],
            [
              72.733789,
              19.05293
            ],
            [
              72.732422,
              19.051562
            ],
            [
              72.732422,
              19.046094
            ],
            [
              72.736523,
              19.046094
            ],
            [
              72.737891,
              19.047461
            ],
            [
              72.739258,
              19.047461
            ],
            [
              72.746094,
              19.054297
            ],
            [
              72.746094,
              19.057031
            ],
            [
              72.747461,
              19.058398
            ],
            [
              72.747461,
              19.059766
            ],
            [
              72.748828,
              19.061133
            ],
            [
              72.748828,
              19.0625
            ],
            [
              72.750195,
              19.063867
            ],
            [
              72.750195,
              19.065234
            ],
            [
              72.754297,
              19.069336
            ],
            [
              72.757031,
              19.069336
            ],
            [
              72.758398,
              19.070703
            ],
            [
              72.758398,
              19.07207
            ],
            [
              72.757031,
              19.073438
            ]
          ]
        ]
      }
    },
    {
      "type": "Feature",
      "properties": {
        "spill_id": "palsar_560",
        "confidence": 0.76
      },
      "geometry": {
        "type": "Polygon",
        "coordinates": [
          [
            [
              72.799414,
              19.091211
            ],
            [
              72.795312,
              19.091211
            ],
            [
              72.791211,
              19.085742
            ],
            [
              72.785742,
              19.084375
            ],
            [
              72.783008,
              19.081641
            ],
            [
              72.784375,
              19.078906
            ],
            [
              72.792578,
              19.077539
            ],
            [
              72.79668,
              19.073438
            ],
            [
              72.795312,
              19.061133
            ],
            [
              72.791211,
              19.05293
            ],
            [
              72.789844,
              19.041992
            ],
            [
              72.787109,
              19.039258
            ],
            [
              72.787109,
              19.031055
            ],
            [
              72.788477,
              19.029687
            ],
            [
              72.787109,
              19.020117
            ],
            [
              72.789844,
              19.017383
            ],
            [
              72.788477,
              19.016016
            ],
            [
              72.789844,
              19.011914
            ],
            [
              72.792578,
              19.013281
            ],
            [
              72.789844,
              19.021484
            ],
            [
              72.792578,
              19.026953
            ],
            [
              72.800781,
              19.025586
            ],
            [
              72.804883,
              19.029687
            ],
            [
              72.804883,
              19.033789
            ],
            [
              72.807617,
              19.037891
            ],
            [
              72.807617,
              19.047461
            ],
            [
              72.808984,
              19.048828
            ],
            [
              72.808984,
              19.057031
            ],
            [
              72.811719,
              19.067969
            ],
            [
              72.811719,
              19.076172
            ],
            [
              72.804883,
              19.081641
            ],
            [
              72.803516,
              19.087109
            ],
            [
              72.799414,
              19.091211
            ]
          ]
        ]
      }
    },
    {
      "type": "Feature",
      "properties": {
        "spill_id": "palsar_560",
        "confidence": 0.76
      },
      "geometry": {
        "type": "Polygon",
        "coordinates": [
          [
            [
              72.721484,
              19.10625
            ],
            [
              72.717383,
              19.107617
            ],
            [
              72.711914,
              19.103516
            ],
            [
              72.707812,
              19.089844
            ],
            [
              72.703711,
              19.087109
            ],
            [
              72.692773,
              19.087109
            ],
            [
              72.68457,
              19.098047
            ],
            [
              72.670898,
              19.088477
            ],
            [
              72.666797,
              19.074805
            ],
            [
              72.654492,
              19.0625
            ],
            [
              72.642187,
              19.036523
            ],
            [
              72.642187,
              19.020117
            ],
            [
              72.63125,
              19.006445
            ],
            [
              72.629883,
              18.977734
            ],
            [
              72.635352,
              18.970898
            ],
            [
              72.647656,
              18.977734
            ],
            [
              72.661328,
              19.000977
            ],
            [
              72.662695,
              19.01875
            ],
            [
              72.676367,
              19.036523
            ],
            [
              72.676367,
              19.047461
            ],
            [
              72.68457,
              19.065234
            ],
            [
              72.692773,
              19.073438
            ],
            [
              72.710547,
              19.073438
            ],
            [
              72.717383,
              19.067969
            ],
            [
              72.724219,
              19.070703
            ],
            [
              72.726953,
              19.095312
            ],
            [
              72.721484,
              19.10625
            ]
          ]
        ]
      }
    },
    {
      "type": "Feature",
      "properties": {
        "spill_id": "palsar_560",
        "confidence": 0.76
      },
      "geometry": {
        "type": "Polygon",
        "coordinates": [
          [
            [
              72.837695,
              19.15
            ],
            [
              72.819922,
              19.15
            ],
            [
              72.819922,
              19.137695
            ],
            [
              72.821289,
              19.136328
            ],
            [
              72.821289,
              19.132227
            ],
            [
              72.81582,
              19.125391
            ],
            [
              72.813086,
              19.125391
            ],
            [
              72.810352,
              19.122656
            ],
            [
              72.808984,
              19.122656
            ],
            [
              72.810352,
              19.11582
            ],
            [
              72.813086,
              19.111719
            ],
            [
              72.818555,
              19.118555
            ],
            [
              72.822656,
              19.119922
            ],
            [
              72.832227,
              19.129492
            ],
            [
              72.834961,
              19.136328
            ],
            [
              72.839062,
              19.14043
            ],
            [
              72.839062,
              19.148633
            ],
            [
              72.837695,
              19.15
            ]
          ]
        ]
      }
    }
  ]
}