{
  "type": "FeatureCollection",
  "features": [
    {
      "type": "Feature",
      "properties": {
        "spill_id": "palsar_6",
        "confidence": 0.85
      },
      "geometry": {
        "type": "Polygon",
        "coordinates": [
          [
            [
              72.5,
              19.037891
            ],
            [
              72.5,
              19.013281
            ],
            [
              72.502734,
              19.013281
            ],
            [
              72.50957,
              19.00918
            ],
            [
              72.510938,
              18.999609
            ],
            [
              72.512305,
              18.998242
            ],
            [
              72.512305,
              18.992773
            ],
            [
              72.508203,
              18.981836
            ],
            [
              72.508203,
              18.977734
            ],
            [
              72.50957,
              18.977734
            ],
            [
              72.525977,
              18.991406
            ],
            [
              72.527344,
              18.994141
            ],
            [
              72.528711,
              19.007812
            ],
            [
              72.536914,
              19.01875
            ],
            [
              72.531445,
              19.01875
            ],
            [
              72.530078,
              19.020117
            ],
            [
              72.517773,
              19.020117
            ],
            [
              72.515039,
              19.021484
            ],
            [
              72.512305,
              19.026953
            ],
            [
              72.512305,
              19.031055
            ],
            [
              72.506836,
              19.036523
            ],
            [
              72.501367,
              19.036523
            ],
            [
              72.5,
              19.037891
            ]
          ]
        ]
      }
    },
    {
      "type": "Feature",
      "properties": {
        "spill_id": "palsar_6",
        "confidence": 0.85
      },
      "geometry": {
        "type": "Polygon",
        "coordinates": [
          [
            [
              72.848633,
              19.058398
            ],
            [
              72.828125,
              19.055664
            ],
            [
              72.804883,
              19.013281
            ],
            [
              72.776172,
              19.005078
            ],
            [
              72.758398,
              18.976367
            ],
            [
              72.748828,
              18.998242
            ],
            [
              72.776172,
              19.014648
            ],
            [
              72.774805,
              19.073438
            ],
            [
              72.732422,
              18.991406
            ],
            [
              72.659961,
              18.936719
            ],
            [
              72.666797,
              18.927148
            ],
            [
              72.713281,
              18.949023
            ],
            [
              72.71875,
              18.93125
            ],
            [
              72.672266,
              18.883398
            ],
            [
              72.633984,
              18.901172
            ],
            [
              72.590234,
              18.845117
            ],
            [
              72.5875,
              18.801367
            ],
            [
              72.666797,
              18.832812
            ],
            [
              72.685938,
              18.883398
            ],
            [
              72.726953,
              18.912109
            ],
            [
              72.720117,
              18.93125
            ],
            [
              72.785742,
              18.968164
            ],
            [
              72.79668,
              18.883398
            ],
            [
              72.722852,
              18.804102
            ],
            [
              72.77207,
              18.801367
            ],
            [
              72.791211,
              18.825977
            ],
            [
              72.804883,
              18.801367
            ],
            [
              72.836328,
              18.821875
            ],
            [
              72.847266,
              18.808203
            ],
            [
              72.810352,
              18.845117
            ],
            [
              72.837695,
              18.849219
            ],
            [
              72.848633,
              18.954492
            ],
            [
              72.829492,
              18.954492
            ],
            [
              72.848633,
              18.983203
            ],
            [
              72.848633,
              19.016016
            ],
            [
              72.834961,
              19.017383
            ],
            [
              72.848633,
              19.058398
            ]
          ]
        ]
      }
    },
    {
      "type": "Feature",
      "properties": {
        "spill_id": "palsar_6",
        "confidence": 0.85
      },
      "geometry": {
        "type": "Polygon",
        "coordinates": [
          [
            [
              72.837695,
              19.108984
            ],
            [
              72.833594,
              19.108984
            ],
            [
              72.832227,
              19.107617
            ],
            [
              72.825391,
              19.107617
            ],
            [
              72.824023,
              19.10625
            ],
            [
              72.818555,
              19.10625
            ],
            [
              72.808984,
              19.102148
            ],
            [
              72.800781,
              19.100781
            ],
            [
              72.785742,
              19.088477
            ],
            [
              72.784375,
              19.085742
            ],
            [
              72.784375,
              19.077539
            ],
            [
              72.795312,
              19.074805
            ],
            [
              72.804883,
              19.078906
            ],
            [
              72.817187,
              19.078906
            ],
            [
              72.818555,
              19.080273
            ],
            [
              72.822656,
              19.080273
            ],
            [
              72.826758,
              19.085742
            ],
            [
              72.826758,
              19.089844
            ],
            [
              72.830859,
              19.099414
            ],
            [
              72.837695,
              19.10625
            ],
            [
              72.837695,
              19.108984
            ]
          ]
        ]
      }
    },
    {
      "type": "Feature",
      "properties": {
        "spill_id": "palsar_6",
        "confidence": 0.85
      },
      "geometry": {
        "type": "Polygon",
        "coordinates": [
          [
            [
              72.649023,
              19.09668
            ],
            [
              72.643555,
              19.098047
            ],
            [
              72.636719,
              19.088477
            ],
            [
              72.625781,
              19.087109
            ],
            [
              72.618945,
              19.091211
            ],
            [
              72.614844,
              19.089844
            ],
            [
              72.609375,
              19.099414
            ],
            [
              72.610742,
              19.128125
            ],
            [
              72.598438,
              19.136328
            ],
            [
              72.590234,
              19.136328
            ],
            [
              72.584766,
              19.119922
            ],
            [
              72.586133,
              19.085742
            ],
            [
              72.572461,
              19.087109
            ],
            [
              72.562891,
              19.081641
            ],
            [
              72.55332,
              19.081641
            ],
            [
              72.53418,
              19.063867
            ],
            [
              72.536914,
              19.058398
            ],
            [
              72.54375,
              19.057031
            ],
            [
              72.55332,
              19.0625
            ],
            [
              72.576562,
              19.067969
            ],
            [
              72.582031,
              19.059766
            ],
            [
              72.5875,
              19.059766
            ],
            [
              72.603906,
              19.07207
            ],
            [
              72.632617,
              19.077539
            ],
            [
              72.647656,
              19.091211
            ],
            [
              72.649023,
              19.09668
            ]
          ]
        ]
      }
    },
    {
      "type": "Feature",
      "properties": {
        "spill_id": "palsar_6",
        "confidence": 0.85
      },
      "geometry": {
        "type": "Polygon",
        "coordinates": [
          [
            [
              72.639453,
              19.15
            ],
            [
              72.632617,
              19.15
            ],
            [
              72.632617,
              19.148633
            ],
            [
              72.63125,
              19.147266
            ],
            [
              72.63125,
              19.145898
            ],
            [
              72.629883,
              19.144531
            ],
            [
              72.629883,
              19.129492
            ],
            [
              72.63125,
              19.128125
            ],
            [
              72.63125,
              19.121289
            ],
            [
              72.639453,
              19.129492
            ],
            [
              72.639453,
              19.132227
            ],
            [
              72.64082,
              19.133594
            ],
            [
              72.64082,
              19.145898
            ],
            [
              72.639453,
              19.147266
            ],
            [
              72.639453,
              19.15
            ]
          ]
        ]
      }
    },
    {
      "type": "Feature",
      "properties": {
        "spill_id": "palsar_6",
        "confidence": 0.85
      },
      "geometry": {
        "type": "Polygon",
        "coordinates": [
          [
            [
              72.565625,
              19.15
            ],
            [
              72.541016,
              19.15
            ],
            [
              72.541016,
              19.147266
            ],
            [
              72.539648,
              19.145898
            ],
            [
              72.541016,
              19.144531
            ],
            [
              72.541016,
              19.141797
            ],
            [
              72.550586,
              19.130859
            ],
            [
              72.550586,
              19.122656
            ],
            [
              72.549219,
              19.121289
            ],
            [
              72.549219,
              19.11582
            ],
            [
              72.547852,
              19.114453
            ],
            [
              72.546484,
              19.117188
            ],
            [
              72.54375,
              19.117188
            ],
            [
              72.535547,
              19.111719
            ],
            [
              72.53418,
              19.107617
            ],
            [
              72.535547,
              19.10625
            ],
            [
              72.535547,
              19.102148
            ],
            [
              72.538281,
              19.098047
            ],
            [
              72.546484,
              19.107617
            ],
            [
              72.547852,
              19.114453
            ],
            [
              72.55332,
              19.117188
            ],
            [
              72.557422,
              19.121289
            ],
            [
              72.560156,
              19.128125
            ],
            [
              72.560156,
              19.133594
            ],
            [
              72.565625,
              19.145898
            ],
            [
              72.565625,
              19.15
            ]
          ]
        ]
      }
    },
    {
      "type": "Feature",
      "properties": {
        "spill_id": "palsar_6",
        "confidence": 0.85
      },
      "geometry": {
        "type": "Polygon",
        "coordinates": [
          [
            [
              72.5,
              19.141797
            ],
            [
              72.501367,
              19.14043
            ],
            [
              72.502734,
              19.14043
            ],
            [
              72.505469,
              19.137695
            ],
            [
              72.512305,
              19.137695
            ],
            [
              72.513672,
              19.139062
            ],
            [
              72.517773,
              19.139062
            ],
            [
              72.520508,
              19.141797
            ],
            [
              72.521875,
              19.141797
            ],
            [
              72.527344,
              19.147266
            ],
            [
              72.527344,
              19.15
            ],
            [
              72.5,
              19.15
            ],
            [
              72.5,
              19.141797
            ]
          ]
        ]
      }
    }
  ]
}