{
  "type": "FeatureCollection",
  "features": [
    {
      "type": "Feature",
      "properties": {
        "spill_id": "palsar_17",
        "confidence": 0.8
      },
      "geometry": {
        "type": "Polygon",
        "coordinates": [
          [
            [
              72.666797,
              18.901172
            ],
            [
              72.669531,
              18.89707
            ],
            [
              72.672266,
              18.89707
            ],
            [
              72.673633,
              18.895703
            ],
            [
              72.685938,
              18.895703
            ],
            [
              72.694141,
              18.902539
            ],
            [
              72.703711,
              18.903906
            ],
            [
              72.711914,
              18.908008
            ],
            [
              72.716016,
              18.908008
            ],
            [
              72.720117,
              18.912109
            ],
            [
              72.722852,
              18.912109
            ],
            [
              72.725586,
              18.914844
            ],
            [
              72.725586,
              18.918945
            ],
            [
              72.717383,
              18.923047
            ],
            [
              72.711914,
              18.923047
            ],
            [
              72.710547,
              18.924414
            ],
            [
              72.699609,
              18.924414
            ],
            [
              72.690039,
              18.932617
            ],
            [
              72.681836,
              18.932617
            ],
            [
              72.679102,
              18.93125
            ],
            [
              72.669531,
              18.920312
            ],
            [
              72.668164,
              18.910742
            ],
            [
              72.666797,
              18.909375
            ],
            [
              72.666797,
              18.901172
            ]
          ]
        ]
      }
    },
    {
      "type": "Feature",
      "properties": {
        "spill_id": "palsar_17",
        "confidence": 0.8
      },
      "geometry": {
        "type": "Polygon",
        "coordinates": [
          [
            [
              72.512305,
              19.119922
            ],
            [
              72.50957,
              19.117188
            ],
            [
              72.504102,
              19.104883
            ],
            [
              72.5,
              19.100781
            ],
            [
              72.5,
              19.093945
            ],
            [
              72.506836,
              19.085742
            ],
            [
              72.506836,
              19.083008
            ],
            [
              72.508203,
              19.081641
            ],
            [
              72.508203,
              19.076172
            ],
            [
              72.512305,
              19.067969
            ],
            [
              72.513672,
              19.067969
            ],
            [
              72.516406,
              19.065234
            ],
            [
              72.521875,
              19.067969
            ],
            [
              72.521875,
              19.069336
            ],
            [
              72.528711,
              19.078906
            ],
            [
              72.528711,
              19.083008
            ],
            [
              72.530078,
              19.084375
            ],
            [
              72.530078,
              19.104883
            ],
            [
              72.527344,
              19.110352
            ],
            [
              72.524609,
              19.113086
            ],
            [
              72.524609,
              19.11582
            ],
            [
              72.523242,
              19.117188
            ],
            [
              72.520508,
              19.117188
            ],
            [
              72.519141,
              19.118555
            ],
            [
              72.513672,
              19.118555
            ],
            [
              72.512305,
              19.119922
            ]
          ]
        ]
      }
    },
    {
      "type": "Feature",
      "properties": {
        "spill_id": "palsar_17",
        "confidence": 0.8
      },
      "geometry": {
        "type": "Polygon",
        "coordinates": [
          [
            [
              72.747461,
              19.119922
            ],
            [
              72.750195,
              19.117188
            ],
            [
              72.751562,
              19.117188
            ],
            [
              72.75293,
              19.11582
            ],
            [
              72.754297,
              19.11582
            ],
            [
              72.755664,
              19.117188
            ],
            [
              72.758398,
              19.117188
            ],
            [
              72.758398,
              19.118555
            ],
            [
              72.7625,
              19.122656
            ],
            [
              72.7625,
              19.124023
            ],
            [
              72.763867,
              19.125391
            ],
            [
              72.763867,
              19.126758
            ],
            [
              72.7625,
              19.128125
            ],
            [
              72.750195,
              19.128125
            ],
            [
              72.747461,
              19.125391
            ],
            [
              72.747461,
              19.119922
            ]
          ]
        ]
      }
    },
    {
      "type": "Feature",
      "properties": {
        "spill_id": "palsar_17",
        "confidence": 0.8
      },
      "geometry": {
        "type": "Polygon",
        "coordinates": [
          [
            [
              72.72832,
              19.14043
            ],
            [
              72.721484,
              19.14043
            ],
            [
              72.720117,
              19.139062
            ],
            [
              72.71875,
              19.139062
            ],
            [
              72.717383,
              19.137695
            ],
            [
              72.716016,
              19.137695
            ],
            [
              72.714648,
              19.136328
            ],
            [
              72.713281,
              19.136328
            ],
            [
              72.713281,
              19.132227
            ],
            [
              72.714648,
              19.130859
            ],
            [
              72.714648,
              19.129492
            ],
            [
              72.717383,
              19.126758
            ],
            [
              72.720117,
              19.126758
            ],
            [
              72.721484,
              19.125391
            ],
            [
              72.724219,
              19.125391
            ],
            [
              72.725586,
              19.126758
            ],
            [
              72.726953,
              19.126758
            ],
            [
              72.72832,
              19.128125
            ],
            [
              72.72832,
              19.132227
            ],
            [
              72.729688,
              19.133594
            ],
            [
              72.729688,
              19.139062
            ],
            [
              72.72832,
              19.14043
            ]
          ]
        ]
      }
    }
  ]
}