{
  "type": "FeatureCollection",
  "features": [
    {
      "type": "Feature",
      "properties": {
        "spill_id": "palsar_521",
        "confidence": 0.95
      },
      "geometry": {
        "type": "Polygon",
        "coordinates": [
          [
            [
              72.516406,
              18.872461
            ],
            [
              72.516406,
              18.866992
            ],
            [
              72.519141,
              18.860156
            ],
            [
              72.519141,
              18.846484
            ],
            [
              72.516406,
              18.839648
            ],
            [
              72.517773,
              18.838281
            ],
            [
              72.517773,
              18.832812
            ],
            [
              72.524609,
              18.820508
            ],
            [
              72.524609,
              18.816406
            ],
            [
              72.527344,
              18.813672
            ],
            [
              72.530078,
              18.805469
            ],
            [
              72.532812,
              18.802734
            ],
            [
              72.536914,
              18.801367
            ],
            [
              72.541016,
              18.804102
            ],
            [
              72.541016,
              18.80957
            ],
            [
              72.539648,
              18.813672
            ],
            [
              72.535547,
              18.817773
            ],
            [
              72.536914,
              18.821875
            ],
            [
              72.536914,
              18.835547
            ],
            [
              72.532812,
              18.847852
            ],
            [
              72.530078,
              18.851953
            ],
            [
              72.531445,
              18.864258
            ],
            [
              72.525977,
              18.871094
            ],
            [
              72.523242,
              18.872461
            ],
            [
              72.516406,
              18.872461
            ]
          ]
        ]
      }
    },
    {
      "type": "Feature",
      "properties": {
        "spill_id": "palsar_521",
        "confidence": 0.95
      },
      "geometry": {
        "type": "Polygon",
        "coordinates": [
          [
            [
              72.551953,
              18.936719
            ],
            [
              72.551953,
              18.93125
            ],
            [
              72.55332,
              18.929883
            ],
            [
              72.55332,
              18.928516
            ],
            [
              72.558789,
              18.923047
            ],
            [
              72.560156,
              18.923047
            ],
            [
              72.561523,
              18.92168
            ],
            [
              72.565625,
              18.92168
            ],
            [
              72.566992,
              18.923047
            ],
            [
              72.566992,
              18.929883
            ],
            [
              72.564258,
              18.932617
            ],
            [
              72.564258,
              18.933984
            ],
            [
              72.561523,
              18.936719
            ],
            [
              72.558789,
              18.936719
            ],
            [
              72.557422,
              18.938086
            ],
            [
              72.554688,
              18.938086
            ],
            [
              72.55332,
              18.936719
            ],
            [
              72.551953,
              18.936719
            ]
          ]
        ]
      }
    },
    {
      "type": "Feature",
      "properties": {
        "spill_id": "palsar_521",
        "confidence": 0.95
      },
      "geometry": {
        "type": "Polygon",
        "coordinates": [
          [
            [
              72.848633,
              19.130859
            ],
            [
              72.844531,
              19.130859
            ],
            [
              72.839062,
              19.125391
            ],
            [
              72.839062,
              19.124023
            ],
            [
              72.837695,
              19.122656
            ],
            [
              72.837695,
              19.121289
            ],
            [
              72.839062,
              19.119922
            ],
            [
              72.839062,
              19.117188
            ],
            [
              72.837695,
              19.11582
            ],
            [
              72.841797,
              19.11582
            ],
            [
              72.843164,
              19.117188
            ],
            [
              72.844531,
              19.117188
            ],
            [
              72.845898,
              19.118555
            ],
            [
              72.848633,
              19.118555
            ],
            [
              72.848633,
              19.130859
            ]
          ]
        ]
      }
    },
    {
      "type": "Feature",
      "properties": {
        "spill_id": "palsar_521",
        "confidence": 0.95
      },
      "geometry": {
        "type": "Polygon",
        "coordinates": [
          [
            [
              72.5,
              19.15
            ],
            [
              72.558789,
              19.088477
            ],
            [
              72.699609,
              19.01875
            ],
            [
              72.713281,
              18.903906
            ],
            [
              72.765234,
              18.825977
            ],
            [
              72.814453,
              18.801367
            ],
            [
              72.848633,
              18.801367
            ],
            [
              72.848633,
              18.962695
            ],
            [
              72.787109,
              18.976367
            ],
            [
              72.751562,
              19.046094
            ],
            [
              72.763867,
              19.059766
            ],
            [
              72.810352,
              19.050195
            ],
            [
              72.795312,
              19.022852
            ],
            [
              72.824023,
              19.00918
            ],
            [
              72.848633,
              19.035156
            ],
            [
              72.848633,
              19.077539
            ],
            [
              72.777539,
              19.114453
            ],
            [
              72.696875,
              19.089844
            ],
            [
              72.675,
              19.121289
            ],
            [
              72.714648,
              19.136328
            ],
            [
              72.690039,
              19.15
            ],
            [
              72.5,
              19.15
            ]
          ]
        ]
      }
    }
  ]
}