{
  "type": "FeatureCollection",
  "features": [
    {
      "type": "Feature",
      "properties": {
        "spill_id": "palsar_21",
        "confidence": 0.88
      },
      "geometry": {
        "type": "Polygon",
        "coordinates": [
          [
            [
              72.748828,
              18.804102
            ],
            [
              72.748828,
              18.802734
            ],
            [
              72.750195,
              18.801367
            ],
            [
              72.763867,
              18.801367
            ],
            [
              72.765234,
              18.802734
            ],
            [
              72.7625,
              18.805469
            ],
            [
              72.750195,
              18.805469
            ],
            [
              72.748828,
              18.804102
            ]
          ]
        ]
      }
    },
    {
      "type": "Feature",
      "properties": {
        "spill_id": "palsar_21",
        "confidence": 0.88
      },
      "geometry": {
        "type": "Polygon",
        "coordinates": [
          [
            [
              72.5,
              18.888867
            ],
            [
              72.5,
              18.87793
            ],
            [
              72.504102,
              18.87793
            ],
            [
              72.512305,
              18.868359
            ],
            [
              72.545117,
              18.861523
            ],
            [
              72.560156,
              18.845117
            ],
            [
              72.584766,
              18.835547
            ],
            [
              72.594336,
              18.824609
            ],
            [
              72.614844,
              18.813672
            ],
            [
              72.628516,
              18.801367
            ],
            [
              72.676367,
              18.802734
            ],
            [
              72.673633,
              18.806836
            ],
            [
              72.590234,
              18.850586
            ],
            [
              72.557422,
              18.872461
            ],
            [
              72.530078,
              18.879297
            ],
            [
              72.513672,
              18.879297
            ],
            [
              72.50957,
              18.8875
            ],
            [
              72.5,
              18.888867
            ]
          ]
        ]
      }
    },
    {
      "type": "Feature",
      "properties": {
        "spill_id": "palsar_21",
        "confidence": 0.88
      },
      "geometry": {
        "type": "Polygon",
        "coordinates": [
          [
            [
              72.5,
              19.14043
            ],
            [
              72.5,
              19.130859
            ],
            [
              72.50957,
              19.121289
            ],
            [
              72.512305,
              19.114453
            ],
            [
              72.512305,
              19.104883
            ],
            [
              72.506836,
              19.091211
            ],
            [
              72.512305,
              19.085742
            ],
            [
              72.515039,
              19.066602
            ],
            [
              72.519141,
              19.059766
            ],
            [
              72.515039,
              19.044727
            ],
            [
              72.524609,
              19.037891
            ],
            [
              72.541016,
              19.036523
            ],
            [
              72.554688,
              19.029687
            ],
            [
              72.562891,
              19.037891
            ],
            [
              72.564258,
              19.061133
            ],
            [
              72.571094,
              19.073438
            ],
            [
              72.564258,
              19.088477
            ],
            [
              72.564258,
              19.098047
            ],
            [
              72.572461,
              19.108984
            ],
            [
              72.571094,
              19.11582
            ],
            [
              72.565625,
              19.118555
            ],
            [
              72.568359,
              19.129492
            ],
            [
              72.558789,
              19.136328
            ],
            [
              72.546484,
              19.139062
            ],
            [
              72.517773,
              19.137695
            ],
            [
              72.50957,
              19.141797
            ],
            [
              72.5,
              19.14043
            ]
          ]
        ]
      }
    }
  ]
}