{
  "type": "FeatureCollection",
  "features": [
    {
      "type": "Feature",
      "properties": {
        "spill_id": "palsar_188",
        "confidence": 0.89
      },
      "geometry": {
        "type": "Polygon",
        "coordinates": [
          [
            [
              72.516406,
              18.866992
            ],
            [
              72.516406,
              18.861523
            ],
            [
              72.517773,
              18.860156
            ],
            [
              72.517773,
              18.858789
            ],
            [
              72.531445,
              18.845117
            ],
            [
              72.535547,
              18.84375
            ],
            [
              72.542383,
              18.838281
            ],
            [
              72.54375,
              18.838281
            ],
            [
              72.545117,
              18.836914
            ],
            [
              72.547852,
              18.836914
            ],
            [
              72.549219,
              18.835547
            ],
            [
              72.55332,
              18.835547
            ],
            [
              72.556055,
              18.838281
            ],
            [
              72.556055,
              18.84375
            ],
            [
              72.554688,
              18.845117
            ],
            [
              72.55332,
              18.849219
            ],
            [
              72.551953,
              18.850586
            ],
            [
              72.550586,
              18.850586
            ],
            [
              72.545117,
              18.856055
            ],
            [
              72.54375,
              18.860156
            ],
            [
              72.541016,
              18.862891
            ],
            [
              72.539648,
              18.862891
            ],
            [
              72.536914,
              18.865625
            ],
            [
              72.53418,
              18.865625
            ],
            [
              72.532812,
              18.866992
            ],
            [
              72.530078,
              18.866992
            ],
            [
              72.528711,
              18.868359
            ],
            [
              72.519141,
              18.868359
            ],
            [
              72.517773,
              18.866992
            ],
            [
              72.516406,
              18.866992
            ]
          ]
        ]
      }
    },
    {
      "type": "Feature",
      "properties": {
        "spill_id": "palsar_188",
        "confidence": 0.89
      },
      "geometry": {
        "type": "Polygon",
        "coordinates": [
          [
            [
              72.80625,
              18.906641
            ],
            [
              72.800781,
              18.901172
            ],
            [
              72.799414,
              18.895703
            ],
            [
              72.802148,
              18.895703
            ],
            [
              72.80625,
              18.892969
            ],
            [
              72.811719,
              18.883398
            ],
            [
              72.817187,
              18.87793
            ],
            [
              72.824023,
              18.858789
            ],
            [
              72.830859,
              18.851953
            ],
            [
              72.841797,
              18.845117
            ],
            [
              72.848633,
              18.846484
            ],
            [
              72.848633,
              18.858789
            ],
            [
              72.847266,
              18.858789
            ],
            [
              72.844531,
              18.862891
            ],
            [
              72.841797,
              18.888867
            ],
            [
              72.839062,
              18.894336
            ],
            [
              72.832227,
              18.901172
            ],
            [
              72.822656,
              18.906641
            ],
            [
              72.818555,
              18.906641
            ],
            [
              72.817187,
              18.908008
            ],
            [
              72.80625,
              18.906641
            ]
          ]
        ]
      }
    },
    {
      "type": "Feature",
      "properties": {
        "spill_id": "palsar_188",
        "confidence": 0.89
      },
      "geometry": {
        "type": "Polygon",
        "coordinates": [
          [
            [
              72.783008,
              18.962695
            ],
            [
              72.785742,
              18.958594
            ],
            [
              72.788477,
              18.957227
            ],
            [
              72.791211,
              18.957227
            ],
            [
              72.792578,
              18.955859
            ],
            [
              72.818555,
              18.955859
            ],
            [
              72.821289,
              18.957227
            ],
            [
              72.826758,
              18.964062
            ],
            [
              72.829492,
              18.969531
            ],
            [
              72.829492,
              18.973633
            ],
            [
              72.828125,
              18.975
            ],
            [
              72.819922,
              18.975
            ],
            [
              72.814453,
              18.972266
            ],
            [
              72.807617,
              18.972266
            ],
            [
              72.804883,
              18.973633
            ],
            [
              72.798047,
              18.981836
            ],
            [
              72.789844,
              18.981836
            ],
            [
              72.785742,
              18.976367
            ],
            [
              72.785742,
              18.973633
            ],
            [
              72.783008,
              18.968164
            ],
            [
              72.783008,
              18.962695
            ]
          ]
        ]
      }
    },
    {
      "type": "Feature",
      "properties": {
        "spill_id": "palsar_188",
        "confidence": 0.89
      },
      "geometry": {
        "type": "Polygon",
        "coordinates": [
          [
            [
              72.643555,
              19.15
            ],
            [
              72.643555,
              19.139062
            ],
            [
              72.651758,
              19.124023
            ],
            [
              72.651758,
              19.118555
            ],
            [
              72.647656,
              19.113086
            ],
            [
              72.647656,
              19.102148
            ],
            [
              72.650391,
              19.099414
            ],
            [
              72.655859,
              19.098047
            ],
            [
              72.661328,
              19.102148
            ],
            [
              72.668164,
              19.102148
            ],
            [
              72.669531,
              19.103516
            ],
            [
              72.672266,
              19.103516
            ],
            [
              72.675,
              19.10625
            ],
            [
              72.675,
              19.110352
            ],
            [
              72.668164,
              19.118555
            ],
            [
              72.668164,
              19.124023
            ],
            [
              72.669531,
              19.125391
            ],
            [
              72.669531,
              19.130859
            ],
            [
              72.670898,
              19.132227
            ],
            [
              72.670898,
              19.15
            ],
            [
              72.643555,
              19.15
            ]
          ]
        ]
      }
    },
    {
      "type": "Feature",
      "properties": {
        "spill_id": "palsar_188",
        "confidence": 0.89
      },
      "geometry": {
        "type": "Polygon",
        "coordinates": [
          [
            [
              72.5,
              19.15
            ],
            [
              72.50957,
              19.088477
            ],
            [
              72.536914,
              19.065234
            ],
            [
              72.515039,
              19.046094
            ],
            [
              72.505469,
              18.999609
            ],
            [
              72.527344,
              18.950391
            ],
            [
              72.557422,
              18.946289
            ],
            [
              72.527344,
              18.992773
            ],
            [
              72.547852,
              19.011914
            ],
            [
              72.595703,
              18.977734
            ],
            [
              72.595703,
              18.999609
            ],
            [
              72.562891,
              19.037891
            ],
            [
              72.5875,
              19.043359
            ],
            [
              72.651758,
              18.966797
            ],
            [
              72.680469,
              18.957227
            ],
            [
              72.698242,
              18.914844
            ],
            [
              72.72832,
              18.8875
            ],
            [
              72.721484,
              18.860156
            ],
            [
              72.732422,
              18.838281
            ],
            [
              72.758398,
              18.835547
            ],
            [
              72.784375,
              18.876562
            ],
            [
              72.776172,
              18.910742
            ],
            [
              72.739258,
              18.938086
            ],
            [
              72.750195,
              18.970898
            ],
            [
              72.720117,
              18.949023
            ],
            [
              72.700977,
              18.987305
            ],
            [
              72.666797,
              19.000977
            ],
            [
              72.68457,
              19.065234
            ],
            [
              72.662695,
              19.07207
            ],
            [
              72.627148,
              19.036523
            ],
            [
              72.590234,
              19.077539
            ],
            [
              72.557422,
              19.076172
            ],
            [
              72.556055,
              19.087109
            ],
            [
              72.582031,
              19.100781
            ],
            [
              72.57793,
              19.117188
            ],
            [
              72.55332,
              19.124023
            ],
            [
              72.541016,
              19.15
            ],
            [
              72.5,
              19.15
            ]
          ]
        ]
      }
    }
  ]
}