{
  "type": "FeatureCollection",
  "features": [
    {
      "type": "Feature",
      "properties": {
        "spill_id": "palsar_80",
        "confidence": 0.87
      },
      "geometry": {
        "type": "Polygon",
        "coordinates": [
          [
            [
              72.618945,
              18.812305
            ],
            [
              72.618945,
              18.808203
            ],
            [
              72.62168,
              18.805469
            ],
            [
              72.623047,
              18.805469
            ],
            [
              72.624414,
              18.804102
            ],
            [
              72.628516,
              18.804102
            ],
            [
              72.629883,
              18.802734
            ],
            [
              72.635352,
              18.802734
            ],
            [
              72.635352,
              18.804102
            ],
            [
              72.636719,
              18.805469
            ],
            [
              72.636719,
              18.80957
            ],
            [
              72.635352,
              18.810938
            ],
            [
              72.635352,
              18.813672
            ],
            [
              72.632617,
              18.816406
            ],
            [
              72.627148,
              18.816406
            ],
            [
              72.625781,
              18.815039
            ],
            [
              72.624414,
              18.815039
            ],
            [
              72.623047,
              18.813672
            ],
            [
              72.620312,
              18.813672
            ],
            [
              72.618945,
              18.812305
            ]
          ]
        ]
      }
    },
    {
      "type": "Feature",
      "properties": {
        "spill_id": "palsar_80",
        "confidence": 0.87
      },
      "geometry": {
        "type": "Polygon",
        "coordinates": [
          [
            [
              72.848633,
              18.883398
            ],
            [
              72.843164,
              18.883398
            ],
            [
              72.84043,
              18.880664
            ],
            [
              72.837695,
              18.875195
            ],
            [
              72.832227,
              18.869727
            ],
            [
              72.830859,
              18.869727
            ],
            [
              72.826758,
              18.864258
            ],
            [
              72.826758,
              18.861523
            ],
            [
              72.825391,
              18.860156
            ],
            [
              72.825391,
              18.836914
            ],
            [
              72.822656,
              18.831445
            ],
            [
              72.822656,
              18.825977
            ],
            [
              72.828125,
              18.825977
            ],
            [
              72.833594,
              18.831445
            ],
            [
              72.833594,
              18.832812
            ],
            [
              72.836328,
              18.83418
            ],
            [
              72.844531,
              18.842383
            ],
            [
              72.844531,
              18.84375
            ],
            [
              72.848633,
              18.847852
            ],
            [
              72.848633,
              18.883398
            ]
          ]
        ]
      }
    },
    {
      "type": "Feature",
      "properties": {
        "spill_id": "palsar_80",
        "confidence": 0.87
      },
      "geometry": {
        "type": "Polygon",
        "coordinates": [
          [
            [
              72.566992,
              18.973633
            ],
            [
              72.566992,
              18.969531
            ],
            [
              72.568359,
              18.969531
            ],
            [
              72.569727,
              18.968164
            ],
            [
              72.573828,
              18.968164
            ],
            [
              72.575195,
              18.966797
            ],
            [
              72.576562,
              18.968164
            ],
            [
              72.57793,
              18.968164
            ],
            [
              72.579297,
              18.969531
            ],
            [
              72.579297,
              18.972266
            ],
            [
              72.57793,
              18.973633
            ],
            [
              72.575195,
              18.973633
            ],
            [
              72.573828,
              18.975
            ],
            [
              72.569727,
              18.975
            ],
            [
              72.568359,
              18.973633
            ],
            [
              72.566992,
              18.973633
            ]
          ]
        ]
      }
    },
    {
      "type": "Feature",
      "properties": {
        "spill_id": "palsar_80",
        "confidence": 0.87
      },
      "geometry": {
        "type": "Polygon",
        "coordinates": [
          [
            [
              72.826758,
              19.014648
            ],
            [
              72.824023,
              19.014648
            ],
            [
              72.821289,
              19.011914
            ],
            [
              72.821289,
              19.00918
            ],
            [
              72.819922,
              19.007812
            ],
            [
              72.819922,
              19.000977
            ],
            [
              72.822656,
              18.998242
            ],
            [
              72.824023,
              18.998242
            ],
            [
              72.825391,
              18.996875
            ],
            [
              72.826758,
              18.998242
            ],
            [
              72.829492,
              18.998242
            ],
            [
              72.830859,
              18.999609
            ],
            [
              72.832227,
              18.999609
            ],
            [
              72.832227,
              19.000977
            ],
            [
              72.834961,
              19.003711
            ],
            [
              72.834961,
              19.005078
            ],
            [
              72.836328,
              19.006445
            ],
            [
              72.836328,
              19.007812
            ],
            [
              72.834961,
              19.00918
            ],
            [
              72.834961,
              19.010547
            ],
            [
              72.833594,
              19.011914
            ],
            [
              72.830859,
              19.011914
            ],
            [
              72.829492,
              19.013281
            ],
            [
              72.828125,
              19.013281
            ],
            [
              72.826758,
              19.014648
            ]
          ]
        ]
      }
    },
    {
      "type": "Feature",
      "properties": {
        "spill_id": "palsar_80",
        "confidence": 0.87
      },
      "geometry": {
        "type": "Polygon",
        "coordinates": [
          [
            [
              72.80625,
              19.070703
            ],
            [
              72.783008,
              19.047461
            ],
            [
              72.776172,
              19.033789
            ],
            [
              72.781641,
              19.022852
            ],
            [
              72.781641,
              19.013281
            ],
            [
              72.765234,
              19.000977
            ],
            [
              72.7625,
              18.979102
            ],
            [
              72.754297,
              18.964062
            ],
            [
              72.758398,
              18.932617
            ],
            [
              72.754297,
              18.925781
            ],
            [
              72.741992,
              18.927148
            ],
            [
              72.739258,
              18.924414
            ],
            [
              72.737891,
              18.913477
            ],
            [
              72.741992,
              18.909375
            ],
            [
              72.747461,
              18.910742
            ],
            [
              72.754297,
              18.920312
            ],
            [
              72.765234,
              18.916211
            ],
            [
              72.770703,
              18.925781
            ],
            [
              72.767969,
              18.936719
            ],
            [
              72.774805,
              18.955859
            ],
            [
              72.776172,
              18.980469
            ],
            [
              72.793945,
              18.987305
            ],
            [
              72.804883,
              19.007812
            ],
            [
              72.803516,
              19.014648
            ],
            [
              72.818555,
              19.039258
            ],
            [
              72.818555,
              19.048828
            ],
            [
              72.814453,
              19.05293
            ],
            [
              72.818555,
              19.066602
            ],
            [
              72.80625,
              19.070703
            ]
          ]
        ]
      }
    },
    {
      "type": "Feature",
      "properties": {
        "spill_id": "palsar_80",
        "confidence": 0.87
      },
      "geometry": {
        "type": "Polygon",
        "coordinates": [
          [
            [
              72.647656,
              19.088477
            ],
            [
              72.646289,
              19.088477
            ],
            [
              72.644922,
              19.089844
            ],
            [
              72.639453,
              19.089844
            ],
            [
              72.638086,
              19.088477
            ],
            [
              72.636719,
              19.088477
            ],
            [
              72.635352,
              19.087109
            ],
            [
              72.633984,
              19.087109
            ],
            [
              72.632617,
              19.085742
            ],
            [
              72.63125,
              19.085742
            ],
            [
              72.629883,
              19.084375
            ],
            [
              72.629883,
              19.081641
            ],
            [
              72.632617,
              19.078906
            ],
            [
              72.643555,
              19.078906
            ],
            [
              72.646289,
              19.081641
            ],
            [
              72.647656,
              19.081641
            ],
            [
              72.647656,
              19.084375
            ],
            [
              72.649023,
              19.085742
            ],
            [
              72.647656,
              19.087109
            ],
            [
              72.647656,
              19.088477
            ]
          ]
        ]
      }
    },
    {
      "type": "Feature",
      "properties": {
        "spill_id": "palsar_80",
        "confidence": 0.87
      },
      "geometry": {
        "type": "Polygon",
        "coordinates": [
          [
            [
              72.848633,
              19.113086
            ],
            [
              72.830859,
              19.11582
            ],
            [
              72.825391,
              19.121289
            ],
            [
              72.819922,
              19.122656
            ],
            [
              72.804883,
              19.108984
            ],
            [
              72.793945,
              19.10625
            ],
            [
              72.778906,
              19.092578
            ],
            [
              72.774805,
              19.085742
            ],
            [
              72.774805,
              19.077539
            ],
            [
              72.778906,
              19.073438
            ],
            [
              72.783008,
              19.07207
            ],
            [
              72.799414,
              19.07207
            ],
            [
              72.802148,
              19.074805
            ],
            [
              72.808984,
              19.074805
            ],
            [
              72.813086,
              19.078906
            ],
            [
              72.821289,
              19.080273
            ],
            [
              72.826758,
              19.074805
            ],
            [
              72.830859,
              19.076172
            ],
            [
              72.833594,
              19.080273
            ],
            [
              72.848633,
              19.089844
            ],
            [
              72.848633,
              19.113086
            ]
          ]
        ]
      }
    },
    {
      "type": "Feature",
      "properties": {
        "spill_id": "palsar_80",
        "confidence": 0.87
      },
      "geometry": {
        "type": "Polygon",
        "coordinates": [
          [
            [
              72.711914,
              19.15
            ],
            [
              72.699609,
              19.147266
            ],
            [
              72.677734,
              19.110352
            ],
            [
              72.657227,
              19.093945
            ],
            [
              72.654492,
              19.046094
            ],
            [
              72.636719,
              19.037891
            ],
            [
              72.632617,
              19.022852
            ],
            [
              72.613477,
              19.020117
            ],
            [
              72.586133,
              18.979102
            ],
            [
              72.592969,
              18.975
            ],
            [
              72.627148,
              18.992773
            ],
            [
              72.64082,
              19.021484
            ],
            [
              72.657227,
              19.031055
            ],
            [
              72.670898,
              19.02832
            ],
            [
              72.68457,
              19.041992
            ],
            [
              72.683203,
              18.936719
            ],
            [
              72.675,
              18.927148
            ],
            [
              72.655859,
              18.933984
            ],
            [
              72.657227,
              18.902539
            ],
            [
              72.675,
              18.865625
            ],
            [
              72.677734,
              18.821875
            ],
            [
              72.699609,
              18.832812
            ],
            [
              72.700977,
              18.87793
            ],
            [
              72.710547,
              18.895703
            ],
            [
              72.700977,
              18.916211
            ],
            [
              72.702344,
              18.953125
            ],
            [
              72.721484,
              18.991406
            ],
            [
              72.711914,
              19.050195
            ],
            [
              72.724219,
              19.118555
            ],
            [
              72.711914,
              19.15
            ]
          ]
        ]
      }
    }
  ]
}