{
  "type": "FeatureCollection",
  "features": [
    {
      "type": "Feature",
      "properties": {
        "spill_id": "palsar_240",
        "confidence": 0.84
      },
      "geometry": {
        "type": "Polygon",
        "coordinates": [
          [
            [
              72.662695,
              18.804102
            ],
            [
              72.66543,
              18.801367
            ],
            [
              72.676367,
              18.801367
            ],
            [
              72.677734,
              18.802734
            ],
            [
              72.679102,
              18.802734
            ],
            [
              72.681836,
              18.805469
            ],
            [
              72.681836,
              18.806836
            ],
            [
              72.683203,
              18.808203
            ],
            [
              72.683203,
              18.80957
            ],
            [
              72.680469,
              18.812305
            ],
            [
              72.669531,
              18.812305
            ],
            [
              72.668164,
              18.810938
            ],
            [
              72.66543,
              18.810938
            ],
            [
              72.664062,
              18.80957
            ],
            [
              72.664062,
              18.808203
            ],
            [
              72.662695,
              18.806836
            ],
            [
              72.662695,
              18.804102
            ]
          ]
        ]
      }
    },
    {
      "type": "Feature",
      "properties": {
        "spill_id": "palsar_240",
        "confidence": 0.84
      },
      "geometry": {
        "type": "Polygon",
        "coordinates": [
          [
            [
              72.848633,
              18.886133
            ],
            [
              72.833594,
              18.888867
            ],
            [
              72.818555,
              18.884766
            ],
            [
              72.799414,
              18.875195
            ],
            [
              72.776172,
              18.857422
            ],
            [
              72.747461,
              18.846484
            ],
            [
              72.746094,
              18.842383
            ],
            [
              72.759766,
              18.83418
            ],
            [
              72.766602,
              18.83418
            ],
            [
              72.778906,
              18.841016
            ],
            [
              72.781641,
              18.838281
            ],
            [
              72.769336,
              18.821875
            ],
            [
              72.754297,
              18.813672
            ],
            [
              72.750195,
              18.804102
            ],
            [
              72.765234,
              18.801367
            ],
            [
              72.778906,
              18.808203
            ],
            [
              72.808984,
              18.832812
            ],
            [
              72.81582,
              18.842383
            ],
            [
              72.847266,
              18.84375
            ],
            [
              72.848633,
              18.861523
            ],
            [
              72.836328,
              18.868359
            ],
            [
              72.848633,
              18.879297
            ],
            [
              72.848633,
              18.886133
            ]
          ]
        ]
      }
    },
    {
      "type": "Feature",
      "properties": {
        "spill_id": "palsar_240",
        "confidence": 0.84
      },
      "geometry": {
        "type": "Polygon",
        "coordinates": [
          [
            [
              72.737891,
              18.920312
            ],
            [
              72.702344,
              18.939453
            ],
            [
              72.688672,
              18.93125
            ],
            [
              72.677734,
              18.916211
            ],
            [
              72.614844,
              18.890234
            ],
            [
              72.602539,
              18.876562
            ],
            [
              72.510938,
              18.865625
            ],
            [
              72.5,
              18.860156
            ],
            [
              72.5,
              18.849219
            ],
            [
              72.575195,
              18.856055
            ],
            [
              72.583398,
              18.85332
            ],
            [
              72.582031,
              18.842383
            ],
            [
              72.594336,
              18.841016
            ],
            [
              72.649023,
              18.856055
            ],
            [
              72.687305,
              18.875195
            ],
            [
              72.720117,
              18.883398
            ],
            [
              72.726953,
              18.894336
            ],
            [
              72.717383,
              18.901172
            ],
            [
              72.737891,
              18.920312
            ]
          ]
        ]
      }
    },
    {
      "type": "Feature",
      "properties": {
        "spill_id": "palsar_240",
        "confidence": 0.84
      },
      "geometry": {
        "type": "Polygon",
        "coordinates": [
          [
            [
              72.845898,
              18.953125
            ],
            [
              72.833594,
              18.954492
            ],
            [
              72.829492,
              18.964062
            ],
            [
              72.825391,
              18.966797
            ],
            [
              72.814453,
              18.966797
            ],
            [
              72.795312,
              18.944922
            ],
            [
              72.792578,
              18.923047
            ],
            [
              72.785742,
              18.916211
            ],
            [
              72.754297,
              18.908008
            ],
            [
              72.748828,
              18.903906
            ],
            [
              72.748828,
              18.901172
            ],
            [
              72.758398,
              18.898438
            ],
            [
              72.777539,
              18.899805
            ],
            [
              72.792578,
              18.908008
            ],
            [
              72.803516,
              18.909375
            ],
            [
              72.821289,
              18.920312
            ],
            [
              72.833594,
              18.935352
            ],
            [
              72.841797,
              18.94082
            ],
            [
              72.845898,
              18.946289
            ],
            [
              72.845898,
              18.953125
            ]
          ]
        ]
      }
    },
    {
      "type": "Feature",
      "properties": {
        "spill_id": "palsar_240",
        "confidence": 0.84
      },
      "geometry": {
        "type": "Polygon",
        "coordinates": [
          [
            [
              72.700977,
              19.017383
            ],
            [
              72.694141,
              19.021484
            ],
            [
              72.676367,
              19.013281
            ],
            [
              72.653125,
              19.013281
            ],
            [
              72.643555,
              19.005078
            ],
            [
              72.647656,
              18.995508
            ],
            [
              72.642187,
              18.988672
            ],
            [
              72.636719,
              18.990039
            ],
            [
              72.633984,
              18.999609
            ],
            [
              72.628516,
              18.999609
            ],
            [
              72.602539,
              18.985938
            ],
            [
              72.602539,
              18.980469
            ],
            [
              72.616211,
              18.975
            ],
            [
              72.617578,
              18.958594
            ],
            [
              72.601172,
              18.947656
            ],
            [
              72.5875,
              18.947656
            ],
            [
              72.582031,
              18.959961
            ],
            [
              72.571094,
              18.964062
            ],
            [
              72.549219,
              18.953125
            ],
            [
              72.530078,
              18.950391
            ],
            [
              72.524609,
              18.938086
            ],
            [
              72.538281,
              18.933984
            ],
            [
              72.558789,
              18.94082
            ],
            [
              72.566992,
              18.929883
            ],
            [
              72.576562,
              18.925781
            ],
            [
              72.629883,
              18.944922
            ],
            [
              72.642187,
              18.954492
            ],
            [
              72.669531,
              18.990039
            ],
            [
              72.694141,
              19.007812
            ],
            [
              72.700977,
              19.017383
            ]
          ]
        ]
      }
    },
    {
      "type": "Feature",
      "properties": {
        "spill_id": "palsar_240",
        "confidence": 0.84
      },
      "geometry": {
        "type": "Polygon",
        "coordinates": [
          [
            [
              72.733789,
              19.077539
            ],
            [
              72.729688,
              19.080273
            ],
            [
              72.706445,
              19.081641
            ],
            [
              72.688672,
              19.070703
            ],
            [
              72.685938,
              19.070703
            ],
            [
              72.68457,
              19.069336
            ],
            [
              72.683203,
              19.070703
            ],
            [
              72.676367,
              19.070703
            ],
            [
              72.675,
              19.069336
            ],
            [
              72.672266,
              19.069336
            ],
            [
              72.669531,
              19.065234
            ],
            [
              72.669531,
              19.057031
            ],
            [
              72.673633,
              19.051562
            ],
            [
              72.679102,
              19.050195
            ],
            [
              72.683203,
              19.055664
            ],
            [
              72.688672,
              19.059766
            ],
            [
              72.694141,
              19.059766
            ],
            [
              72.702344,
              19.063867
            ],
            [
              72.717383,
              19.063867
            ],
            [
              72.71875,
              19.065234
            ],
            [
              72.722852,
              19.065234
            ],
            [
              72.72832,
              19.067969
            ],
            [
              72.733789,
              19.073438
            ],
            [
              72.733789,
              19.077539
            ]
          ]
        ]
      }
    },
    {
      "type": "Feature",
      "properties": {
        "spill_id": "palsar_240",
        "confidence": 0.84
      },
      "geometry": {
        "type": "Polygon",
        "coordinates": [
          [
            [
              72.817187,
              19.11582
            ],
            [
              72.81582,
              19.117188
            ],
            [
              72.811719,
              19.117188
            ],
            [
              72.811719,
              19.11582
            ],
            [
              72.810352,
              19.114453
            ],
            [
              72.808984,
              19.114453
            ],
            [
              72.808984,
              19.113086
            ],
            [
              72.807617,
              19.111719
            ],
            [
              72.80625,
              19.113086
            ],
            [
              72.80625,
              19.111719
            ],
            [
              72.798047,
              19.103516
            ],
            [
              72.798047,
              19.100781
            ],
            [
              72.799414,
              19.100781
            ],
            [
              72.800781,
              19.099414
            ],
            [
              72.803516,
              19.099414
            ],
            [
              72.807617,
              19.103516
            ],
            [
              72.807617,
              19.104883
            ],
            [
              72.808984,
              19.10625
            ],
            [
              72.808984,
              19.111719
            ],
            [
              72.810352,
              19.113086
            ],
            [
              72.81582,
              19.113086
            ],
            [
              72.817187,
              19.114453
            ],
            [
              72.817187,
              19.11582
            ]
          ]
        ]
      }
    },
    {
      "type": "Feature",
      "properties": {
        "spill_id": "palsar_240",
        "confidence": 0.84
      },
      "geometry": {
        "type": "Polygon",
        "coordinates": [
          [
            [
              72.614844,
              19.148633
            ],
            [
              72.618945,
              19.143164
            ],
            [
              72.624414,
              19.14043
            ],
            [
              72.627148,
              19.14043
            ],
            [
              72.633984,
              19.136328
            ],
            [
              72.636719,
              19.136328
            ],
            [
              72.638086,
              19.134961
            ],
            [
              72.650391,
              19.134961
            ],
            [
              72.651758,
              19.136328
            ],
            [
              72.657227,
              19.136328
            ],
            [
              72.658594,
              19.137695
            ],
            [
              72.661328,
              19.137695
            ],
            [
              72.677734,
              19.145898
            ],
            [
              72.680469,
              19.15
            ],
            [
              72.614844,
              19.15
            ],
            [
              72.614844,
              19.148633
            ]
          ]
        ]
      }
    },
    {
      "type": "Feature",
      "properties": {
        "spill_id": "palsar_240",
        "confidence": 0.84
      },
      "geometry": {
        "type": "Polygon",
        "coordinates": [
          [
            [
              72.5,
              19.124023
            ],
            [
              72.50957,
              19.125391
            ],
            [
              72.523242,
              19.137695
            ],
            [
              72.531445,
              19.141797
            ],
            [
              72.535547,
              19.141797
            ],
            [
              72.54375,
              19.134961
            ],
            [
              72.556055,
              19.133594
            ],
            [
              72.566992,
              19.14043
            ],
            [
              72.599805,
              19.144531
            ],
            [
              72.605273,
              19.147266
            ],
            [
              72.606641,
              19.15
            ],
            [
              72.515039,
              19.15
            ],
            [
              72.5,
              19.14043
            ],
            [
              72.5,
              19.124023
            ]
          ]
        ]
      }
    }
  ]
}