{
  "type": "FeatureCollection",
  "features": [
    {
      "type": "Feature",
      "properties": {
        "spill_id": "palsar_290",
        "confidence": 0.73
      },
      "geometry": {
        "type": "Polygon",
        "coordinates": [
          [
            [
              72.603906,
              18.828711
            ],
            [
              72.601172,
              18.831445
            ],
            [
              72.599805,
              18.831445
            ],
            [
              72.598438,
              18.832812
            ],
            [
              72.594336,
              18.832812
            ],
            [
              72.592969,
              18.831445
            ],
            [
              72.590234,
              18.831445
            ],
            [
              72.588867,
              18.830078
            ],
            [
              72.586133,
              18.830078
            ],
            [
              72.584766,
              18.828711
            ],
            [
              72.583398,
              18.828711
            ],
            [
              72.579297,
              18.824609
            ],
            [
              72.579297,
              18.820508
            ],
            [
              72.580664,
              18.819141
            ],
            [
              72.580664,
              18.817773
            ],
            [
              72.583398,
              18.815039
            ],
            [
              72.586133,
              18.815039
            ],
            [
              72.5875,
              18.813672
            ],
            [
              72.590234,
              18.813672
            ],
            [
              72.591602,
              18.815039
            ],
            [
              72.595703,
              18.815039
            ],
            [
              72.59707,
              18.816406
            ],
            [
              72.601172,
              18.816406
            ],
            [
              72.602539,
              18.817773
            ],
            [
              72.603906,
              18.817773
            ],
            [
              72.605273,
              18.819141
            ],
            [
              72.605273,
              18.825977
            ],
            [
              72.603906,
              18.827344
            ],
            [
              72.603906,
              18.828711
            ]
          ]
        ]
      }
    },
    {
      "type": "Feature",
      "properties": {
        "spill_id": "palsar_290",
        "confidence": 0.73
      },
      "geometry": {
        "type": "Polygon",
        "coordinates": [
          [
            [
              72.644922,
              18.858789
            ],
            [
              72.644922,
              18.856055
            ],
            [
              72.643555,
              18.854688
            ],
            [
              72.643555,
              18.850586
            ],
            [
              72.644922,
              18.849219
            ],
            [
              72.644922,
              18.845117
            ],
            [
              72.646289,
              18.845117
            ],
            [
              72.649023,
              18.842383
            ],
            [
              72.657227,
              18.842383
            ],
            [
              72.658594,
              18.84375
            ],
            [
              72.659961,
              18.84375
            ],
            [
              72.659961,
              18.845117
            ],
            [
              72.661328,
              18.846484
            ],
            [
              72.661328,
              18.85332
            ],
            [
              72.659961,
              18.854688
            ],
            [
              72.659961,
              18.857422
            ],
            [
              72.658594,
              18.858789
            ],
            [
              72.657227,
              18.858789
            ],
            [
              72.655859,
              18.860156
            ],
            [
              72.647656,
              18.860156
            ],
            [
              72.646289,
              18.858789
            ],
            [
              72.644922,
              18.858789
            ]
          ]
        ]
      }
    },
    {
      "type": "Feature",
      "properties": {
        "spill_id": "palsar_290",
        "confidence": 0.73
      },
      "geometry": {
        "type": "Polygon",
        "coordinates": [
          [
            [
              72.527344,
              18.917578
            ],
            [
              72.527344,
              18.912109
            ],
            [
              72.525977,
              18.910742
            ],
            [
              72.527344,
              18.909375
            ],
            [
              72.527344,
              18.906641
            ],
            [
              72.531445,
              18.902539
            ],
            [
              72.532812,
              18.902539
            ],
            [
              72.539648,
              18.898438
            ],
            [
              72.554688,
              18.898438
            ],
            [
              72.556055,
              18.899805
            ],
            [
              72.558789,
              18.899805
            ],
            [
              72.560156,
              18.901172
            ],
            [
              72.562891,
              18.901172
            ],
            [
              72.564258,
              18.902539
            ],
            [
              72.564258,
              18.905273
            ],
            [
              72.562891,
              18.906641
            ],
            [
              72.561523,
              18.906641
            ],
            [
              72.558789,
              18.909375
            ],
            [
              72.557422,
              18.909375
            ],
            [
              72.556055,
              18.910742
            ],
            [
              72.55332,
              18.910742
            ],
            [
              72.551953,
              18.912109
            ],
            [
              72.549219,
              18.912109
            ],
            [
              72.542383,
              18.917578
            ],
            [
              72.539648,
              18.917578
            ],
            [
              72.538281,
              18.918945
            ],
            [
              72.532812,
              18.918945
            ],
            [
              72.531445,
              18.920312
            ],
            [
              72.527344,
              18.917578
            ]
          ]
        ]
      }
    }
  ]
}