{
  "type": "FeatureCollection",
  "features": [
    {
      "type": "Feature",
      "properties": {
        "spill_id": "palsar_727",
        "confidence": 0.75
      },
      "geometry": {
        "type": "Polygon",
        "coordinates": [
          [
            [
              72.5,
              18.819141
            ],
            [
              72.5,
              18.806836
            ],
            [
              72.502734,
              18.806836
            ],
            [
              72.504102,
              18.805469
            ],
            [
              72.508203,
              18.805469
            ],
            [
              72.510938,
              18.808203
            ],
            [
              72.512305,
              18.808203
            ],
            [
              72.513672,
              18.80957
            ],
            [
              72.515039,
              18.80957
            ],
            [
              72.517773,
              18.812305
            ],
            [
              72.517773,
              18.813672
            ],
            [
              72.516406,
              18.815039
            ],
            [
              72.504102,
              18.815039
            ],
            [
              72.5,
              18.819141
            ]
          ]
        ]
      }
    },
    {
      "type": "Feature",
      "properties": {
        "spill_id": "palsar_727",
        "confidence": 0.75
      },
      "geometry": {
        "type": "Polygon",
        "coordinates": [
          [
            [
              72.819922,
              18.928516
            ],
            [
              72.819922,
              18.924414
            ],
            [
              72.822656,
              18.924414
            ],
            [
              72.825391,
              18.92168
            ],
            [
              72.826758,
              18.92168
            ],
            [
              72.828125,
              18.920312
            ],
            [
              72.833594,
              18.920312
            ],
            [
              72.834961,
              18.92168
            ],
            [
              72.836328,
              18.92168
            ],
            [
              72.84043,
              18.924414
            ],
            [
              72.845898,
              18.924414
            ],
            [
              72.847266,
              18.925781
            ],
            [
              72.848633,
              18.925781
            ],
            [
              72.848633,
              18.939453
            ],
            [
              72.847266,
              18.939453
            ],
            [
              72.845898,
              18.94082
            ],
            [
              72.843164,
              18.94082
            ],
            [
              72.841797,
              18.942188
            ],
            [
              72.834961,
              18.942188
            ],
            [
              72.833594,
              18.94082
            ],
            [
              72.832227,
              18.942188
            ],
            [
              72.832227,
              18.943555
            ],
            [
              72.829492,
              18.943555
            ],
            [
              72.828125,
              18.942188
            ],
            [
              72.828125,
              18.94082
            ],
            [
              72.826758,
              18.939453
            ],
            [
              72.825391,
              18.935352
            ],
            [
              72.821289,
              18.93125
            ],
            [
              72.821289,
              18.929883
            ],
            [
              72.819922,
              18.928516
            ]
          ]
        ]
      }
    },
    {
      "type": "Feature",
      "properties": {
        "spill_id": "palsar_727",
        "confidence": 0.75
      },
      "geometry": {
        "type": "Polygon",
        "coordinates": [
          [
            [
              72.662695,
              19.000977
            ],
            [
              72.629883,
              18.973633
            ],
            [
              72.632617,
              18.950391
            ],
            [
              72.613477,
              18.905273
            ],
            [
              72.583398,
              18.872461
            ],
            [
              72.599805,
              18.842383
            ],
            [
              72.566992,
              18.812305
            ],
            [
              72.575195,
              18.801367
            ],
            [
              72.695508,
              18.801367
            ],
            [
              72.685938,
              18.816406
            ],
            [
              72.695508,
              18.830078
            ],
            [
              72.716016,
              18.823242
            ],
            [
              72.739258,
              18.83418
            ],
            [
              72.755664,
              18.802734
            ],
            [
              72.793945,
              18.806836
            ],
            [
              72.795312,
              18.845117
            ],
            [
              72.777539,
              18.861523
            ],
            [
              72.776172,
              18.879297
            ],
            [
              72.792578,
              18.92168
            ],
            [
              72.843164,
              18.98457
            ],
            [
              72.75293,
              18.932617
            ],
            [
              72.751562,
              18.916211
            ],
            [
              72.707812,
              18.871094
            ],
            [
              72.687305,
              18.87793
            ],
            [
              72.66543,
              18.846484
            ],
            [
              72.63125,
              18.857422
            ],
            [
              72.616211,
              18.842383
            ],
            [
              72.609375,
              18.869727
            ],
            [
              72.617578,
              18.875195
            ],
            [
              72.618945,
              18.864258
            ],
            [
              72.632617,
              18.862891
            ],
            [
              72.649023,
              18.899805
            ],
            [
              72.632617,
              18.916211
            ],
            [
              72.650391,
              18.935352
            ],
            [
              72.654492,
              18.959961
            ],
            [
              72.68457,
              18.96543
            ],
            [
              72.681836,
              18.998242
            ],
            [
              72.662695,
              19.000977
            ]
          ]
        ]
      }
    },
    {
      "type": "Feature",
      "properties": {
        "spill_id": "palsar_727",
        "confidence": 0.75
      },
      "geometry": {
        "type": "Polygon",
        "coordinates": [
          [
            [
              72.84043,
              19.074805
            ],
            [
              72.836328,
              19.074805
            ],
            [
              72.834961,
              19.073438
            ],
            [
              72.833594,
              19.073438
            ],
            [
              72.832227,
              19.07207
            ],
            [
              72.828125,
              19.07207
            ],
            [
              72.826758,
              19.070703
            ],
            [
              72.825391,
              19.070703
            ],
            [
              72.822656,
              19.067969
            ],
            [
              72.822656,
              19.066602
            ],
            [
              72.821289,
              19.065234
            ],
            [
              72.821289,
              19.063867
            ],
            [
              72.819922,
              19.0625
            ],
            [
              72.819922,
              19.058398
            ],
            [
              72.821289,
              19.057031
            ],
            [
              72.822656,
              19.057031
            ],
            [
              72.824023,
              19.055664
            ],
            [
              72.825391,
              19.055664
            ],
            [
              72.826758,
              19.054297
            ],
            [
              72.833594,
              19.054297
            ],
            [
              72.84043,
              19.061133
            ],
            [
              72.841797,
              19.061133
            ],
            [
              72.841797,
              19.0625
            ],
            [
              72.843164,
              19.063867
            ],
            [
              72.843164,
              19.065234
            ],
            [
              72.841797,
              19.066602
            ],
            [
              72.841797,
              19.070703
            ],
            [
              72.84043,
              19.07207
            ],
            [
              72.84043,
              19.074805
            ]
          ]
        ]
      }
    },
    {
      "type": "Feature",
      "properties": {
        "spill_id": "palsar_727",
        "confidence": 0.75
      },
      "geometry": {
        "type": "Polygon",
        "coordinates": [
          [
            [
              72.57793,
              19.084375
            ],
            [
              72.568359,
              19.084375
            ],
            [
              72.557422,
              19.069336
            ],
            [
              72.55332,
              19.059766
            ],
            [
              72.541016,
              19.048828
            ],
            [
              72.539648,
              19.044727
            ],
            [
              72.532812,
              19.037891
            ],
            [
              72.515039,
              19.032422
            ],
            [
              72.508203,
              19.026953
            ],
            [
              72.5,
              19.024219
            ],
            [
              72.5,
              19.014648
            ],
            [
              72.521875,
              19.016016
            ],
            [
              72.531445,
              19.007812
            ],
            [
              72.54375,
              19.003711
            ],
            [
              72.542383,
              19.017383
            ],
            [
              72.550586,
              19.033789
            ],
            [
              72.579297,
              19.05293
            ],
            [
              72.583398,
              19.069336
            ],
            [
              72.583398,
              19.076172
            ],
            [
              72.57793,
              19.084375
            ]
          ]
        ]
      }
    },
    {
      "type": "Feature",
      "properties": {
        "spill_id": "palsar_727",
        "confidence": 0.75
      },
      "geometry": {
        "type": "Polygon",
        "coordinates": [
          [
            [
              72.71875,
              19.15
            ],
            [
              72.713281,
              19.15
            ],
            [
              72.716016,
              19.15
            ],
            [
              72.717383,
              19.148633
            ],
            [
              72.716016,
              19.147266
            ],
            [
              72.70918,
              19.147266
            ],
            [
              72.699609,
              19.141797
            ],
            [
              72.694141,
              19.141797
            ],
            [
              72.692773,
              19.14043
            ],
            [
              72.68457,
              19.14043
            ],
            [
              72.683203,
              19.139062
            ],
            [
              72.683203,
              19.137695
            ],
            [
              72.687305,
              19.132227
            ],
            [
              72.687305,
              19.129492
            ],
            [
              72.688672,
              19.128125
            ],
            [
              72.695508,
              19.126758
            ],
            [
              72.698242,
              19.124023
            ],
            [
              72.698242,
              19.122656
            ],
            [
              72.702344,
              19.122656
            ],
            [
              72.703711,
              19.124023
            ],
            [
              72.710547,
              19.126758
            ],
            [
              72.717383,
              19.133594
            ],
            [
              72.717383,
              19.136328
            ],
            [
              72.71875,
              19.137695
            ],
            [
              72.71875,
              19.143164
            ],
            [
              72.720117,
              19.144531
            ],
            [
              72.720117,
              19.147266
            ],
            [
              72.71875,
              19.148633
            ],
            [
              72.71875,
              19.15
            ]
          ]
        ]
      }
    }
  ]
}