{
  "type": "FeatureCollection",
  "features": [
    {
      "type": "Feature",
      "properties": {
        "spill_id": "palsar_315",
        "confidence": 0.84
      },
      "geometry": {
        "type": "Polygon",
        "coordinates": [
          [
            [
              72.510938,
              18.946289
            ],
            [
              72.510938,
              18.939453
            ],
            [
              72.517773,
              18.933984
            ],
            [
              72.569727,
              18.909375
            ],
            [
              72.594336,
              18.884766
            ],
            [
              72.616211,
              18.879297
            ],
            [
              72.625781,
              18.883398
            ],
            [
              72.628516,
              18.888867
            ],
            [
              72.618945,
              18.892969
            ],
            [
              72.617578,
              18.898438
            ],
            [
              72.623047,
              18.903906
            ],
            [
              72.629883,
              18.903906
            ],
            [
              72.638086,
              18.89707
            ],
            [
              72.647656,
              18.875195
            ],
            [
              72.673633,
              18.851953
            ],
            [
              72.676367,
              18.865625
            ],
            [
              72.646289,
              18.89707
            ],
            [
              72.644922,
              18.914844
            ],
            [
              72.64082,
              18.918945
            ],
            [
              72.588867,
              18.918945
            ],
            [
              72.556055,
              18.939453
            ],
            [
              72.530078,
              18.950391
            ],
            [
              72.517773,
              18.951758
            ],
            [
              72.510938,
              18.946289
            ]
          ]
        ]
      }
    },
    {
      "type": "Feature",
      "properties": {
        "spill_id": "palsar_315",
        "confidence": 0.84
      },
      "geometry": {
        "type": "Polygon",
        "coordinates": [
          [
            [
              72.763867,
              18.987305
            ],
            [
              72.763867,
              18.979102
            ],
            [
              72.767969,
              18.969531
            ],
            [
              72.773438,
              18.961328
            ],
            [
              72.781641,
              18.953125
            ],
            [
              72.783008,
              18.953125
            ],
            [
              72.788477,
              18.946289
            ],
            [
              72.792578,
              18.943555
            ],
            [
              72.795312,
              18.943555
            ],
            [
              72.804883,
              18.936719
            ],
            [
              72.811719,
              18.938086
            ],
            [
              72.817187,
              18.943555
            ],
            [
              72.818555,
              18.946289
            ],
            [
              72.818555,
              18.951758
            ],
            [
              72.814453,
              18.957227
            ],
            [
              72.80625,
              18.959961
            ],
            [
              72.802148,
              18.964062
            ],
            [
              72.793945,
              18.968164
            ],
            [
              72.774805,
              18.988672
            ],
            [
              72.765234,
              18.988672
            ],
            [
              72.763867,
              18.987305
            ]
          ]
        ]
      }
    },
    {
      "type": "Feature",
      "properties": {
        "spill_id": "palsar_315",
        "confidence": 0.84
      },
      "geometry": {
        "type": "Polygon",
        "coordinates": [
          [
            [
              72.55332,
              19.02832
            ],
            [
              72.551953,
              19.02832
            ],
            [
              72.549219,
              19.025586
            ],
            [
              72.546484,
              19.025586
            ],
            [
              72.545117,
              19.024219
            ],
            [
              72.542383,
              19.024219
            ],
            [
              72.542383,
              19.022852
            ],
            [
              72.54375,
              19.021484
            ],
            [
              72.54375,
              19.020117
            ],
            [
              72.545117,
              19.01875
            ],
            [
              72.545117,
              19.017383
            ],
            [
              72.547852,
              19.014648
            ],
            [
              72.551953,
              19.014648
            ],
            [
              72.55332,
              19.016016
            ],
            [
              72.554688,
              19.016016
            ],
            [
              72.556055,
              19.017383
            ],
            [
              72.556055,
              19.01875
            ],
            [
              72.557422,
              19.020117
            ],
            [
              72.556055,
              19.021484
            ],
            [
              72.556055,
              19.022852
            ],
            [
              72.554688,
              19.024219
            ],
            [
              72.554688,
              19.025586
            ],
            [
              72.55332,
              19.026953
            ],
            [
              72.55332,
              19.02832
            ]
          ]
        ]
      }
    },
    {
      "type": "Feature",
      "properties": {
        "spill_id": "palsar_315",
        "confidence": 0.84
      },
      "geometry": {
        "type": "Polygon",
        "coordinates": [
          [
            [
              72.71875,
              19.043359
            ],
            [
              72.71875,
              19.040625
            ],
            [
              72.717383,
              19.039258
            ],
            [
              72.717383,
              19.035156
            ],
            [
              72.724219,
              19.024219
            ],
            [
              72.725586,
              19.024219
            ],
            [
              72.736523,
              19.014648
            ],
            [
              72.737891,
              19.010547
            ],
            [
              72.741992,
              19.005078
            ],
            [
              72.744727,
              19.005078
            ],
            [
              72.746094,
              19.003711
            ],
            [
              72.748828,
              19.003711
            ],
            [
              72.750195,
              19.005078
            ],
            [
              72.755664,
              19.005078
            ],
            [
              72.7625,
              19.000977
            ],
            [
              72.765234,
              19.002344
            ],
            [
              72.765234,
              19.006445
            ],
            [
              72.763867,
              19.007812
            ],
            [
              72.763867,
              19.016016
            ],
            [
              72.765234,
              19.01875
            ],
            [
              72.761133,
              19.024219
            ],
            [
              72.755664,
              19.026953
            ],
            [
              72.751562,
              19.026953
            ],
            [
              72.740625,
              19.032422
            ],
            [
              72.72832,
              19.044727
            ],
            [
              72.725586,
              19.046094
            ],
            [
              72.722852,
              19.046094
            ],
            [
              72.71875,
              19.043359
            ]
          ]
        ]
      }
    },
    {
      "type": "Feature",
      "properties": {
        "spill_id": "palsar_315",
        "confidence": 0.84
      },
      "geometry": {
        "type": "Polygon",
        "coordinates": [
          [
            [
              72.818555,
              19.07207
            ],
            [
              72.81582,
              19.069336
            ],
            [
              72.81582,
              19.065234
            ],
            [
              72.817187,
              19.063867
            ],
            [
              72.81582,
              19.0625
            ],
            [
              72.814453,
              19.047461
            ],
            [
              72.821289,
              19.041992
            ],
            [
              72.824023,
              19.041992
            ],
            [
              72.826758,
              19.040625
            ],
            [
              72.833594,
              19.035156
            ],
            [
              72.841797,
              19.031055
            ],
            [
              72.848633,
              19.032422
            ],
            [
              72.848633,
              19.054297
            ],
            [
              72.847266,
              19.054297
            ],
            [
              72.844531,
              19.057031
            ],
            [
              72.841797,
              19.0625
            ],
            [
              72.841797,
              19.065234
            ],
            [
              72.832227,
              19.07207
            ],
            [
              72.818555,
              19.07207
            ]
          ]
        ]
      }
    },
    {
      "type": "Feature",
      "properties": {
        "spill_id": "palsar_315",
        "confidence": 0.84
      },
      "geometry": {
        "type": "Polygon",
        "coordinates": [
          [
            [
              72.843164,
              19.103516
            ],
            [
              72.841797,
              19.102148
            ],
            [
              72.841797,
              19.100781
            ],
            [
              72.84043,
              19.099414
            ],
            [
              72.84043,
              19.092578
            ],
            [
              72.841797,
              19.091211
            ],
            [
              72.843164,
              19.091211
            ],
            [
              72.844531,
              19.089844
            ],
            [
              72.848633,
              19.089844
            ],
            [
              72.848633,
              19.103516
            ],
            [
              72.843164,
              19.103516
            ]
          ]
        ]
      }
    },
    {
      "type": "Feature",
      "properties": {
        "spill_id": "palsar_315",
        "confidence": 0.84
      },
      "geometry": {
        "type": "Polygon",
        "coordinates": [
          [
            [
              72.583398,
              19.128125
            ],
            [
              72.583398,
              19.121289
            ],
            [
              72.5875,
              19.117188
            ],
            [
              72.5875,
              19.11582
            ],
            [
              72.590234,
              19.113086
            ],
            [
              72.590234,
              19.110352
            ],
            [
              72.591602,
              19.108984
            ],
            [
              72.591602,
              19.10625
            ],
            [
              72.599805,
              19.098047
            ],
            [
              72.601172,
              19.098047
            ],
            [
              72.602539,
              19.09668
            ],
            [
              72.608008,
              19.09668
            ],
            [
              72.610742,
              19.099414
            ],
            [
              72.610742,
              19.103516
            ],
            [
              72.612109,
              19.104883
            ],
            [
              72.612109,
              19.108984
            ],
            [
              72.613477,
              19.110352
            ],
            [
              72.612109,
              19.111719
            ],
            [
              72.612109,
              19.113086
            ],
            [
              72.609375,
              19.11582
            ],
            [
              72.608008,
              19.11582
            ],
            [
              72.605273,
              19.118555
            ],
            [
              72.603906,
              19.118555
            ],
            [
              72.595703,
              19.128125
            ],
            [
              72.594336,
              19.128125
            ],
            [
              72.592969,
              19.129492
            ],
            [
              72.586133,
              19.129492
            ],
            [
              72.584766,
              19.128125
            ],
            [
              72.583398,
              19.128125
            ]
          ]
        ]
      }
    },
    {
      "type": "Feature",
      "properties": {
        "spill_id": "palsar_315",
        "confidence": 0.84
      },
      "geometry": {
        "type": "Polygon",
        "coordinates": [
          [
            [
              72.722852,
              19.136328
            ],
            [
              72.721484,
              19.134961
            ],
            [
              72.717383,
              19.134961
            ],
            [
              72.716016,
              19.133594
            ],
            [
              72.714648,
              19.133594
            ],
            [
              72.711914,
              19.130859
            ],
            [
              72.711914,
              19.122656
            ],
            [
              72.71875,
              19.122656
            ],
            [
              72.720117,
              19.124023
            ],
            [
              72.722852,
              19.124023
            ],
            [
              72.724219,
              19.125391
            ],
            [
              72.724219,
              19.126758
            ],
            [
              72.725586,
              19.128125
            ],
            [
              72.725586,
              19.132227
            ],
            [
              72.724219,
              19.133594
            ],
            [
              72.724219,
              19.134961
            ],
            [
              72.722852,
              19.136328
            ]
          ]
        ]
      }
    },
    {
      "type": "Feature",
      "properties": {
        "spill_id": "palsar_315",
        "confidence": 0.84
      },
      "geometry": {
        "type": "Polygon",
        "coordinates": [
          [
            [
              72.669531,
              19.144531
            ],
            [
              72.66543,
              19.14043
            ],
            [
              72.661328,
              19.129492
            ],
            [
              72.661328,
              19.103516
            ],
            [
              72.666797,
              19.091211
            ],
            [
              72.669531,
              19.073438
            ],
            [
              72.677734,
              19.065234
            ],
            [
              72.685938,
              19.065234
            ],
            [
              72.694141,
              19.07207
            ],
            [
              72.696875,
              19.077539
            ],
            [
              72.696875,
              19.092578
            ],
            [
              72.690039,
              19.098047
            ],
            [
              72.688672,
              19.104883
            ],
            [
              72.68457,
              19.111719
            ],
            [
              72.683203,
              19.124023
            ],
            [
              72.680469,
              19.128125
            ],
            [
              72.680469,
              19.133594
            ],
            [
              72.679102,
              19.134961
            ],
            [
              72.679102,
              19.141797
            ],
            [
              72.675,
              19.144531
            ],
            [
              72.669531,
              19.144531
            ]
          ]
        ]
      }
    }
  ]
}