{
  "type": "FeatureCollection",
  "features": [
    {
      "type": "Feature",
      "properties": {
        "spill_id": "palsar_725",
        "confidence": 0.84
      },
      "geometry": {
        "type": "Polygon",
        "coordinates": [
          [
            [
              72.848633,
              18.835547
            ],
            [
              72.841797,
              18.835547
            ],
            [
              72.839062,
              18.832812
            ],
            [
              72.837695,
              18.832812
            ],
            [
              72.837695,
              18.831445
            ],
            [
              72.834961,
              18.828711
            ],
            [
              72.834961,
              18.820508
            ],
            [
              72.836328,
              18.819141
            ],
            [
              72.836328,
              18.817773
            ],
            [
              72.834961,
              18.816406
            ],
            [
              72.834961,
              18.808203
            ],
            [
              72.837695,
              18.805469
            ],
            [
              72.837695,
              18.804102
            ],
            [
              72.84043,
              18.804102
            ],
            [
              72.841797,
              18.802734
            ],
            [
              72.844531,
              18.802734
            ],
            [
              72.847266,
              18.805469
            ],
            [
              72.848633,
              18.805469
            ],
            [
              72.848633,
              18.835547
            ]
          ]
        ]
      }
    },
    {
      "type": "Feature",
      "properties": {
        "spill_id": "palsar_725",
        "confidence": 0.84
      },
      "geometry": {
        "type": "Polygon",
        "coordinates": [
          [
            [
              72.746094,
              18.857422
            ],
            [
              72.743359,
              18.857422
            ],
            [
              72.741992,
              18.858789
            ],
            [
              72.733789,
              18.858789
            ],
            [
              72.72832,
              18.856055
            ],
            [
              72.72832,
              18.854688
            ],
            [
              72.725586,
              18.851953
            ],
            [
              72.724219,
              18.846484
            ],
            [
              72.722852,
              18.845117
            ],
            [
              72.722852,
              18.841016
            ],
            [
              72.721484,
              18.839648
            ],
            [
              72.721484,
              18.830078
            ],
            [
              72.720117,
              18.828711
            ],
            [
              72.720117,
              18.825977
            ],
            [
              72.717383,
              18.820508
            ],
            [
              72.720117,
              18.813672
            ],
            [
              72.725586,
              18.810938
            ],
            [
              72.733789,
              18.810938
            ],
            [
              72.737891,
              18.815039
            ],
            [
              72.739258,
              18.820508
            ],
            [
              72.744727,
              18.830078
            ],
            [
              72.744727,
              18.83418
            ],
            [
              72.746094,
              18.835547
            ],
            [
              72.746094,
              18.845117
            ],
            [
              72.747461,
              18.846484
            ],
            [
              72.747461,
              18.850586
            ],
            [
              72.748828,
              18.851953
            ],
            [
              72.748828,
              18.854688
            ],
            [
              72.746094,
              18.857422
            ]
          ]
        ]
      }
    },
    {
      "type": "Feature",
      "properties": {
        "spill_id": "palsar_725",
        "confidence": 0.84
      },
      "geometry": {
        "type": "Polygon",
        "coordinates": [
          [
            [
              72.754297,
              19.006445
            ],
            [
              72.75293,
              19.005078
            ],
            [
              72.750195,
              19.005078
            ],
            [
              72.746094,
              19.000977
            ],
            [
              72.746094,
              18.999609
            ],
            [
              72.743359,
              18.995508
            ],
            [
              72.744727,
              18.994141
            ],
            [
              72.744727,
              18.992773
            ],
            [
              72.751562,
              18.985938
            ],
            [
              72.75293,
              18.985938
            ],
            [
              72.754297,
              18.98457
            ],
            [
              72.75293,
              18.983203
            ],
            [
              72.75293,
              18.980469
            ],
            [
              72.751562,
              18.979102
            ],
            [
              72.751562,
              18.973633
            ],
            [
              72.754297,
              18.970898
            ],
            [
              72.757031,
              18.970898
            ],
            [
              72.758398,
              18.969531
            ],
            [
              72.759766,
              18.969531
            ],
            [
              72.761133,
              18.970898
            ],
            [
              72.763867,
              18.970898
            ],
            [
              72.765234,
              18.972266
            ],
            [
              72.765234,
              18.973633
            ],
            [
              72.766602,
              18.975
            ],
            [
              72.766602,
              18.981836
            ],
            [
              72.763867,
              18.985938
            ],
            [
              72.7625,
              18.985938
            ],
            [
              72.761133,
              18.987305
            ],
            [
              72.758398,
              18.987305
            ],
            [
              72.754297,
              18.990039
            ],
            [
              72.757031,
              18.992773
            ],
            [
              72.757031,
              18.994141
            ],
            [
              72.758398,
              18.995508
            ],
            [
              72.758398,
              18.998242
            ],
            [
              72.759766,
              18.999609
            ],
            [
              72.759766,
              19.002344
            ],
            [
              72.761133,
              19.003711
            ],
            [
              72.761133,
              19.006445
            ],
            [
              72.754297,
              19.006445
            ]
          ]
        ]
      }
    },
    {
      "type": "Feature",
      "properties": {
        "spill_id": "palsar_725",
        "confidence": 0.84
      },
      "geometry": {
        "type": "Polygon",
        "coordinates": [
          [
            [
              72.627148,
              19.011914
            ],
            [
              72.613477,
              19.013281
            ],
            [
              72.602539,
              18.999609
            ],
            [
              72.602539,
              18.972266
            ],
            [
              72.614844,
              18.961328
            ],
            [
              72.617578,
              18.947656
            ],
            [
              72.627148,
              18.933984
            ],
            [
              72.63125,
              18.89707
            ],
            [
              72.606641,
              18.875195
            ],
            [
              72.591602,
              18.84375
            ],
            [
              72.566992,
              18.821875
            ],
            [
              72.556055,
              18.805469
            ],
            [
              72.557422,
              18.801367
            ],
            [
              72.582031,
              18.801367
            ],
            [
              72.606641,
              18.83418
            ],
            [
              72.617578,
              18.842383
            ],
            [
              72.627148,
              18.871094
            ],
            [
              72.647656,
              18.895703
            ],
            [
              72.650391,
              18.917578
            ],
            [
              72.662695,
              18.933984
            ],
            [
              72.649023,
              18.961328
            ],
            [
              72.629883,
              18.983203
            ],
            [
              72.635352,
              19.003711
            ],
            [
              72.627148,
              19.011914
            ]
          ]
        ]
      }
    },
    {
      "type": "Feature",
      "properties": {
        "spill_id": "palsar_725",
        "confidence": 0.84
      },
      "geometry": {
        "type": "Polygon",
        "coordinates": [
          [
            [
              72.773438,
              19.020117
            ],
            [
              72.770703,
              19.017383
            ],
            [
              72.770703,
              19.016016
            ],
            [
              72.769336,
              19.014648
            ],
            [
              72.769336,
              19.010547
            ],
            [
              72.770703,
              19.00918
            ],
            [
              72.770703,
              19.007812
            ],
            [
              72.77207,
              19.006445
            ],
            [
              72.773438,
              19.006445
            ],
            [
              72.774805,
              19.005078
            ],
            [
              72.774805,
              19.002344
            ],
            [
              72.780273,
              19.002344
            ],
            [
              72.781641,
              19.003711
            ],
            [
              72.781641,
              19.005078
            ],
            [
              72.780273,
              19.006445
            ],
            [
              72.780273,
              19.007812
            ],
            [
              72.781641,
              19.00918
            ],
            [
              72.781641,
              19.017383
            ],
            [
              72.778906,
              19.020117
            ],
            [
              72.773438,
              19.020117
            ]
          ]
        ]
      }
    },
    {
      "type": "Feature",
      "properties": {
        "spill_id": "palsar_725",
        "confidence": 0.84
      },
      "geometry": {
        "type": "Polygon",
        "coordinates": [
          [
            [
              72.848633,
              19.035156
            ],
            [
              72.839062,
              19.035156
            ],
            [
              72.836328,
              19.032422
            ],
            [
              72.836328,
              19.031055
            ],
            [
              72.834961,
              19.029687
            ],
            [
              72.834961,
              19.026953
            ],
            [
              72.833594,
              19.025586
            ],
            [
              72.833594,
              19.024219
            ],
            [
              72.830859,
              19.021484
            ],
            [
              72.830859,
              19.020117
            ],
            [
              72.828125,
              19.016016
            ],
            [
              72.828125,
              19.010547
            ],
            [
              72.829492,
              19.00918
            ],
            [
              72.830859,
              19.005078
            ],
            [
              72.833594,
              19.002344
            ],
            [
              72.84043,
              19.002344
            ],
            [
              72.843164,
              19.005078
            ],
            [
              72.843164,
              19.006445
            ],
            [
              72.844531,
              19.007812
            ],
            [
              72.844531,
              19.00918
            ],
            [
              72.845898,
              19.010547
            ],
            [
              72.845898,
              19.011914
            ],
            [
              72.848633,
              19.016016
            ],
            [
              72.848633,
              19.035156
            ]
          ]
        ]
      }
    },
    {
      "type": "Feature",
      "properties": {
        "spill_id": "palsar_725",
        "confidence": 0.84
      },
      "geometry": {
        "type": "Polygon",
        "coordinates": [
          [
            [
              72.789844,
              19.102148
            ],
            [
              72.785742,
              19.099414
            ],
            [
              72.781641,
              19.088477
            ],
            [
              72.781641,
              19.084375
            ],
            [
              72.787109,
              19.074805
            ],
            [
              72.787109,
              19.069336
            ],
            [
              72.788477,
              19.067969
            ],
            [
              72.788477,
              19.055664
            ],
            [
              72.785742,
              19.050195
            ],
            [
              72.785742,
              19.043359
            ],
            [
              72.791211,
              19.036523
            ],
            [
              72.803516,
              19.036523
            ],
            [
              72.80625,
              19.037891
            ],
            [
              72.814453,
              19.051562
            ],
            [
              72.81582,
              19.065234
            ],
            [
              72.813086,
              19.073438
            ],
            [
              72.800781,
              19.087109
            ],
            [
              72.799414,
              19.091211
            ],
            [
              72.800781,
              19.098047
            ],
            [
              72.799414,
              19.100781
            ],
            [
              72.79668,
              19.102148
            ],
            [
              72.789844,
              19.102148
            ]
          ]
        ]
      }
    },
    {
      "type": "Feature",
      "properties": {
        "spill_id": "palsar_725",
        "confidence": 0.84
      },
      "geometry": {
        "type": "Polygon",
        "coordinates": [
          [
            [
              72.517773,
              19.15
            ],
            [
              72.5,
              19.15
            ],
            [
              72.5,
              19.129492
            ],
            [
              72.508203,
              19.129492
            ],
            [
              72.510938,
              19.132227
            ],
            [
              72.510938,
              19.133594
            ],
            [
              72.513672,
              19.136328
            ],
            [
              72.513672,
              19.137695
            ],
            [
              72.519141,
              19.143164
            ],
            [
              72.519141,
              19.145898
            ],
            [
              72.517773,
              19.147266
            ],
            [
              72.517773,
              19.15
            ]
          ]
        ]
      }
    }
  ]
}