{
  "type": "FeatureCollection",
  "features": [
    {
      "type": "Feature",
      "properties": {
        "spill_id": "palsar_131",
        "confidence": 0.76
      },
      "geometry": {
        "type": "Polygon",
        "coordinates": [
          [
            [
              72.586133,
              19.044727
            ],
            [
              72.571094,
              19.046094
            ],
            [
              72.560156,
              19.037891
            ],
            [
              72.551953,
              19.020117
            ],
            [
              72.541016,
              19.013281
            ],
            [
              72.535547,
              18.998242
            ],
            [
              72.519141,
              18.977734
            ],
            [
              72.5,
              18.96543
            ],
            [
              72.5,
              18.953125
            ],
            [
              72.505469,
              18.943555
            ],
            [
              72.513672,
              18.942188
            ],
            [
              72.525977,
              18.951758
            ],
            [
              72.527344,
              18.962695
            ],
            [
              72.53418,
              18.969531
            ],
            [
              72.538281,
              18.979102
            ],
            [
              72.565625,
              19.003711
            ],
            [
              72.572461,
              19.01875
            ],
            [
              72.588867,
              19.032422
            ],
            [
              72.590234,
              19.039258
            ],
            [
              72.586133,
              19.044727
            ]
          ]
        ]
      }
    },
    {
      "type": "Feature",
      "properties": {
        "spill_id": "palsar_131",
        "confidence": 0.76
      },
      "geometry": {
        "type": "Polygon",
        "coordinates": [
          [
            [
              72.519141,
              19.046094
            ],
            [
              72.517773,
              19.044727
            ],
            [
              72.516406,
              19.044727
            ],
            [
              72.512305,
              19.040625
            ],
            [
              72.510938,
              19.036523
            ],
            [
              72.508203,
              19.033789
            ],
            [
              72.508203,
              19.032422
            ],
            [
              72.505469,
              19.029687
            ],
            [
              72.505469,
              19.02832
            ],
            [
              72.502734,
              19.024219
            ],
            [
              72.508203,
              19.017383
            ],
            [
              72.510938,
              19.017383
            ],
            [
              72.512305,
              19.016016
            ],
            [
              72.513672,
              19.017383
            ],
            [
              72.516406,
              19.017383
            ],
            [
              72.517773,
              19.01875
            ],
            [
              72.519141,
              19.01875
            ],
            [
              72.520508,
              19.020117
            ],
            [
              72.524609,
              19.021484
            ],
            [
              72.528711,
              19.025586
            ],
            [
              72.528711,
              19.026953
            ],
            [
              72.530078,
              19.02832
            ],
            [
              72.530078,
              19.033789
            ],
            [
              72.520508,
              19.043359
            ],
            [
              72.520508,
              19.044727
            ],
            [
              72.519141,
              19.046094
            ]
          ]
        ]
      }
    },
    {
      "type": "Feature",
      "properties": {
        "spill_id": "palsar_131",
        "confidence": 0.76
      },
      "geometry": {
        "type": "Polygon",
        "coordinates": [
          [
            [
              72.814453,
              19.055664
            ],
            [
              72.813086,
              19.055664
            ],
            [
              72.810352,
              19.05293
            ],
            [
              72.808984,
              19.05293
            ],
            [
              72.807617,
              19.051562
            ],
            [
              72.807617,
              19.050195
            ],
            [
              72.80625,
              19.048828
            ],
            [
              72.80625,
              19.044727
            ],
            [
              72.807617,
              19.043359
            ],
            [
              72.807617,
              19.041992
            ],
            [
              72.813086,
              19.041992
            ],
            [
              72.814453,
              19.043359
            ],
            [
              72.814453,
              19.046094
            ],
            [
              72.81582,
              19.047461
            ],
            [
              72.81582,
              19.050195
            ],
            [
              72.817187,
              19.051562
            ],
            [
              72.817187,
              19.05293
            ],
            [
              72.814453,
              19.055664
            ]
          ]
        ]
      }
    },
    {
      "type": "Feature",
      "properties": {
        "spill_id": "palsar_131",
        "confidence": 0.76
      },
      "geometry": {
        "type": "Polygon",
        "coordinates": [
          [
            [
              72.601172,
              19.063867
            ],
            [
              72.602539,
              19.0625
            ],
            [
              72.602539,
              19.058398
            ],
            [
              72.612109,
              19.058398
            ],
            [
              72.613477,
              19.059766
            ],
            [
              72.614844,
              19.059766
            ],
            [
              72.614844,
              19.065234
            ],
            [
              72.613477,
              19.066602
            ],
            [
              72.610742,
              19.066602
            ],
            [
              72.609375,
              19.067969
            ],
            [
              72.603906,
              19.067969
            ],
            [
              72.602539,
              19.066602
            ],
            [
              72.602539,
              19.065234
            ],
            [
              72.601172,
              19.063867
            ]
          ]
        ]
      }
    },
    {
      "type": "Feature",
      "properties": {
        "spill_id": "palsar_131",
        "confidence": 0.76
      },
      "geometry": {
        "type": "Polygon",
        "coordinates": [
          [
            [
              72.80625,
              19.095312
            ],
            [
              72.804883,
              19.09668
            ],
            [
              72.798047,
              19.09668
            ],
            [
              72.792578,
              19.093945
            ],
            [
              72.787109,
              19.088477
            ],
            [
              72.780273,
              19.087109
            ],
            [
              72.777539,
              19.084375
            ],
            [
              72.777539,
              19.081641
            ],
            [
              72.776172,
              19.078906
            ],
            [
              72.773438,
              19.076172
            ],
            [
              72.767969,
              19.073438
            ],
            [
              72.765234,
              19.067969
            ],
            [
              72.765234,
              19.063867
            ],
            [
              72.763867,
              19.061133
            ],
            [
              72.770703,
              19.061133
            ],
            [
              72.773438,
              19.063867
            ],
            [
              72.774805,
              19.063867
            ],
            [
              72.777539,
              19.067969
            ],
            [
              72.777539,
              19.07207
            ],
            [
              72.781641,
              19.077539
            ],
            [
              72.792578,
              19.077539
            ],
            [
              72.793945,
              19.080273
            ],
            [
              72.802148,
              19.088477
            ],
            [
              72.803516,
              19.088477
            ],
            [
              72.803516,
              19.089844
            ],
            [
              72.80625,
              19.092578
            ],
            [
              72.80625,
              19.095312
            ]
          ]
        ]
      }
    },
    {
      "type": "Feature",
      "properties": {
        "spill_id": "palsar_131",
        "confidence": 0.76
      },
      "geometry": {
        "type": "Polygon",
        "coordinates": [
          [
            [
              72.647656,
              19.15
            ],
            [
              72.636719,
              19.15
            ],
            [
              72.633984,
              19.147266
            ],
            [
              72.632617,
              19.147266
            ],
            [
              72.63125,
              19.145898
            ],
            [
              72.628516,
              19.145898
            ],
            [
              72.624414,
              19.141797
            ],
            [
              72.624414,
              19.14043
            ],
            [
              72.623047,
              19.139062
            ],
            [
              72.623047,
              19.134961
            ],
            [
              72.620312,
              19.130859
            ],
            [
              72.620312,
              19.126758
            ],
            [
              72.623047,
              19.122656
            ],
            [
              72.623047,
              19.119922
            ],
            [
              72.624414,
              19.118555
            ],
            [
              72.624414,
              19.114453
            ],
            [
              72.625781,
              19.113086
            ],
            [
              72.625781,
              19.110352
            ],
            [
              72.629883,
              19.110352
            ],
            [
              72.635352,
              19.11582
            ],
            [
              72.635352,
              19.117188
            ],
            [
              72.638086,
              19.119922
            ],
            [
              72.638086,
              19.121289
            ],
            [
              72.639453,
              19.122656
            ],
            [
              72.639453,
              19.128125
            ],
            [
              72.64082,
              19.129492
            ],
            [
              72.64082,
              19.137695
            ],
            [
              72.642187,
              19.139062
            ],
            [
              72.642187,
              19.14043
            ],
            [
              72.647656,
              19.145898
            ],
            [
              72.647656,
              19.147266
            ],
            [
              72.646289,
              19.148633
            ],
            [
              72.647656,
              19.15
            ]
          ]
        ]
      }
    },
    {
      "type": "Feature",
      "properties": {
        "spill_id": "palsar_131",
        "confidence": 0.76
      },
      "geometry": {
        "type": "Polygon",
        "coordinates": [
          [
            [
              72.602539,
              19.15
            ],
            [
              72.598438,
              19.15
            ],
            [
              72.594336,
              19.145898
            ],
            [
              72.592969,
              19.137695
            ],
            [
              72.5875,
              19.125391
            ],
            [
              72.571094,
              19.111719
            ],
            [
              72.569727,
              19.108984
            ],
            [
              72.571094,
              19.103516
            ],
            [
              72.562891,
              19.098047
            ],
            [
              72.551953,
              19.09668
            ],
            [
              72.541016,
              19.084375
            ],
            [
              72.53418,
              19.085742
            ],
            [
              72.528711,
              19.084375
            ],
            [
              72.527344,
              19.078906
            ],
            [
              72.556055,
              19.076172
            ],
            [
              72.565625,
              19.087109
            ],
            [
              72.582031,
              19.088477
            ],
            [
              72.588867,
              19.098047
            ],
            [
              72.591602,
              19.11582
            ],
            [
              72.603906,
              19.134961
            ],
            [
              72.605273,
              19.145898
            ],
            [
              72.602539,
              19.15
            ]
          ]
        ]
      }
    }
  ]
}