{
  "type": "FeatureCollection",
  "features": [
    {
      "type": "Feature",
      "properties": {
        "spill_id": "palsar_331",
        "confidence": 0.82
      },
      "geometry": {
        "type": "Polygon",
        "coordinates": [
          [
            [
              72.599805,
              18.842383
            ],
            [
              72.599805,
              18.838281
            ],
            [
              72.605273,
              18.832812
            ],
            [
              72.613477,
              18.831445
            ],
            [
              72.616211,
              18.828711
            ],
            [
              72.620312,
              18.817773
            ],
            [
              72.620312,
              18.806836
            ],
            [
              72.632617,
              18.806836
            ],
            [
              72.638086,
              18.801367
            ],
            [
              72.695508,
              18.801367
            ],
            [
              72.705078,
              18.812305
            ],
            [
              72.703711,
              18.816406
            ],
            [
              72.688672,
              18.824609
            ],
            [
              72.688672,
              18.842383
            ],
            [
              72.683203,
              18.849219
            ],
            [
              72.653125,
              18.862891
            ],
            [
              72.642187,
              18.862891
            ],
            [
              72.633984,
              18.858789
            ],
            [
              72.625781,
              18.858789
            ],
            [
              72.625781,
              18.854688
            ],
            [
              72.614844,
              18.846484
            ],
            [
              72.599805,
              18.842383
            ]
          ]
        ]
      }
    },
    {
      "type": "Feature",
      "properties": {
        "spill_id": "palsar_331",
        "confidence": 0.82
      },
      "geometry": {
        "type": "Polygon",
        "coordinates": [
          [
            [
              72.783008,
              18.857422
            ],
            [
              72.780273,
              18.860156
            ],
            [
              72.774805,
              18.861523
            ],
            [
              72.769336,
              18.866992
            ],
            [
              72.7625,
              18.868359
            ],
            [
              72.757031,
              18.862891
            ],
            [
              72.754297,
              18.836914
            ],
            [
              72.740625,
              18.825977
            ],
            [
              72.72832,
              18.820508
            ],
            [
              72.720117,
              18.810938
            ],
            [
              72.71875,
              18.806836
            ],
            [
              72.721484,
              18.801367
            ],
            [
              72.75293,
              18.801367
            ],
            [
              72.757031,
              18.806836
            ],
            [
              72.761133,
              18.819141
            ],
            [
              72.777539,
              18.839648
            ],
            [
              72.783008,
              18.857422
            ]
          ]
        ]
      }
    },
    {
      "type": "Feature",
      "properties": {
        "spill_id": "palsar_331",
        "confidence": 0.82
      },
      "geometry": {
        "type": "Polygon",
        "coordinates": [
          [
            [
              72.635352,
              19.05293
            ],
            [
              72.624414,
              19.051562
            ],
            [
              72.599805,
              19.029687
            ],
            [
              72.598438,
              19.013281
            ],
            [
              72.610742,
              18.991406
            ],
            [
              72.595703,
              18.973633
            ],
            [
              72.599805,
              18.949023
            ],
            [
              72.5875,
              18.935352
            ],
            [
              72.546484,
              18.912109
            ],
            [
              72.501367,
              18.906641
            ],
            [
              72.513672,
              18.895703
            ],
            [
              72.538281,
              18.892969
            ],
            [
              72.549219,
              18.868359
            ],
            [
              72.573828,
              18.847852
            ],
            [
              72.591602,
              18.847852
            ],
            [
              72.602539,
              18.857422
            ],
            [
              72.623047,
              18.861523
            ],
            [
              72.617578,
              18.87793
            ],
            [
              72.602539,
              18.879297
            ],
            [
              72.582031,
              18.871094
            ],
            [
              72.57793,
              18.8875
            ],
            [
              72.584766,
              18.895703
            ],
            [
              72.582031,
              18.914844
            ],
            [
              72.588867,
              18.927148
            ],
            [
              72.624414,
              18.950391
            ],
            [
              72.623047,
              18.96543
            ],
            [
              72.644922,
              18.990039
            ],
            [
              72.644922,
              19.002344
            ],
            [
              72.633984,
              19.013281
            ],
            [
              72.644922,
              19.035156
            ],
            [
              72.635352,
              19.05293
            ]
          ]
        ]
      }
    },
    {
      "type": "Feature",
      "properties": {
        "spill_id": "palsar_331",
        "confidence": 0.82
      },
      "geometry": {
        "type": "Polygon",
        "coordinates": [
          [
            [
              72.740625,
              19.039258
            ],
            [
              72.748828,
              19.031055
            ],
            [
              72.751562,
              19.029687
            ],
            [
              72.755664,
              19.029687
            ],
            [
              72.757031,
              19.02832
            ],
            [
              72.758398,
              19.029687
            ],
            [
              72.7625,
              19.029687
            ],
            [
              72.763867,
              19.031055
            ],
            [
              72.773438,
              19.032422
            ],
            [
              72.781641,
              19.036523
            ],
            [
              72.783008,
              19.040625
            ],
            [
              72.789844,
              19.048828
            ],
            [
              72.789844,
              19.05293
            ],
            [
              72.788477,
              19.054297
            ],
            [
              72.77207,
              19.054297
            ],
            [
              72.769336,
              19.051562
            ],
            [
              72.761133,
              19.051562
            ],
            [
              72.755664,
              19.054297
            ],
            [
              72.75293,
              19.05293
            ],
            [
              72.748828,
              19.05293
            ],
            [
              72.740625,
              19.048828
            ],
            [
              72.740625,
              19.039258
            ]
          ]
        ]
      }
    },
    {
      "type": "Feature",
      "properties": {
        "spill_id": "palsar_331",
        "confidence": 0.82
      },
      "geometry": {
        "type": "Polygon",
        "coordinates": [
          [
            [
              72.677734,
              19.104883
            ],
            [
              72.666797,
              19.104883
            ],
            [
              72.664062,
              19.103516
            ],
            [
              72.658594,
              19.098047
            ],
            [
              72.655859,
              19.091211
            ],
            [
              72.653125,
              19.088477
            ],
            [
              72.651758,
              19.085742
            ],
            [
              72.651758,
              19.073438
            ],
            [
              72.653125,
              19.07207
            ],
            [
              72.651758,
              19.070703
            ],
            [
              72.651758,
              19.066602
            ],
            [
              72.650391,
              19.065234
            ],
            [
              72.650391,
              19.061133
            ],
            [
              72.651758,
              19.058398
            ],
            [
              72.654492,
              19.058398
            ],
            [
              72.664062,
              19.065234
            ],
            [
              72.670898,
              19.067969
            ],
            [
              72.676367,
              19.073438
            ],
            [
              72.676367,
              19.074805
            ],
            [
              72.681836,
              19.081641
            ],
            [
              72.681836,
              19.087109
            ],
            [
              72.679102,
              19.091211
            ],
            [
              72.679102,
              19.095312
            ],
            [
              72.680469,
              19.09668
            ],
            [
              72.680469,
              19.102148
            ],
            [
              72.677734,
              19.104883
            ]
          ]
        ]
      }
    },
    {
      "type": "Feature",
      "properties": {
        "spill_id": "palsar_331",
        "confidence": 0.82
      },
      "geometry": {
        "type": "Polygon",
        "coordinates": [
          [
            [
              72.843164,
              19.134961
            ],
            [
              72.832227,
              19.134961
            ],
            [
              72.814453,
              19.11582
            ],
            [
              72.810352,
              19.078906
            ],
            [
              72.785742,
              19.024219
            ],
            [
              72.802148,
              18.992773
            ],
            [
              72.814453,
              18.988672
            ],
            [
              72.819922,
              18.975
            ],
            [
              72.837695,
              18.96543
            ],
            [
              72.828125,
              18.947656
            ],
            [
              72.822656,
              18.895703
            ],
            [
              72.813086,
              18.876562
            ],
            [
              72.819922,
              18.846484
            ],
            [
              72.825391,
              18.846484
            ],
            [
              72.826758,
              18.865625
            ],
            [
              72.843164,
              18.888867
            ],
            [
              72.848633,
              18.925781
            ],
            [
              72.848633,
              18.992773
            ],
            [
              72.824023,
              19.016016
            ],
            [
              72.819922,
              19.058398
            ],
            [
              72.847266,
              19.122656
            ],
            [
              72.843164,
              19.134961
            ]
          ]
        ]
      }
    },
    {
      "type": "Feature",
      "properties": {
        "spill_id": "palsar_331",
        "confidence": 0.82
      },
      "geometry": {
        "type": "Polygon",
        "coordinates": [
          [
            [
              72.725586,
              19.15
            ],
            [
              72.724219,
              19.15
            ],
            [
              72.725586,
              19.148633
            ],
            [
              72.724219,
              19.147266
            ],
            [
              72.717383,
              19.144531
            ],
            [
              72.713281,
              19.14043
            ],
            [
              72.713281,
              19.130859
            ],
            [
              72.711914,
              19.128125
            ],
            [
              72.702344,
              19.119922
            ],
            [
              72.696875,
              19.117188
            ],
            [
              72.694141,
              19.117188
            ],
            [
              72.690039,
              19.114453
            ],
            [
              72.690039,
              19.111719
            ],
            [
              72.687305,
              19.108984
            ],
            [
              72.690039,
              19.103516
            ],
            [
              72.692773,
              19.102148
            ],
            [
              72.699609,
              19.102148
            ],
            [
              72.711914,
              19.108984
            ],
            [
              72.714648,
              19.108984
            ],
            [
              72.716016,
              19.110352
            ],
            [
              72.721484,
              19.110352
            ],
            [
              72.726953,
              19.113086
            ],
            [
              72.726953,
              19.117188
            ],
            [
              72.72832,
              19.118555
            ],
            [
              72.726953,
              19.141797
            ],
            [
              72.72832,
              19.143164
            ],
            [
              72.72832,
              19.145898
            ],
            [
              72.725586,
              19.15
            ]
          ]
        ]
      }
    }
  ]
}