{
  "type": "FeatureCollection",
  "features": [
    {
      "type": "Feature",
      "properties": {
        "spill_id": "palsar_708",
        "confidence": 0.89
      },
      "geometry": {
        "type": "Polygon",
        "coordinates": [
          [
            [
              72.664062,
              19.032422
            ],
            [
              72.658594,
              19.032422
            ],
            [
              72.657227,
              19.031055
            ],
            [
              72.655859,
              19.031055
            ],
            [
              72.655859,
              19.029687
            ],
            [
              72.654492,
              19.02832
            ],
            [
              72.654492,
              19.026953
            ],
            [
              72.653125,
              19.025586
            ],
            [
              72.653125,
              19.024219
            ],
            [
              72.650391,
              19.020117
            ],
            [
              72.650391,
              19.016016
            ],
            [
              72.647656,
              19.013281
            ],
            [
              72.647656,
              19.000977
            ],
            [
              72.649023,
              19.002344
            ],
            [
              72.650391,
              19.002344
            ],
            [
              72.654492,
              19.005078
            ],
            [
              72.654492,
              19.006445
            ],
            [
              72.655859,
              19.007812
            ],
            [
              72.655859,
              19.00918
            ],
            [
              72.657227,
              19.010547
            ],
            [
              72.657227,
              19.011914
            ],
            [
              72.658594,
              19.013281
            ],
            [
              72.658594,
              19.014648
            ],
            [
              72.661328,
              19.017383
            ],
            [
              72.661328,
              19.01875
            ],
            [
              72.66543,
              19.022852
            ],
            [
              72.66543,
              19.024219
            ],
            [
              72.666797,
              19.025586
            ],
            [
              72.666797,
              19.029687
            ],
            [
              72.664062,
              19.032422
            ]
          ]
        ]
      }
    },
    {
      "type": "Feature",
      "properties": {
        "spill_id": "palsar_708",
        "confidence": 0.89
      },
      "geometry": {
        "type": "Polygon",
        "coordinates": [
          [
            [
              72.608008,
              19.124023
            ],
            [
              72.602539,
              19.121289
            ],
            [
              72.602539,
              19.118555
            ],
            [
              72.601172,
              19.117188
            ],
            [
              72.601172,
              19.113086
            ],
            [
              72.598438,
              19.108984
            ],
            [
              72.598438,
              19.104883
            ],
            [
              72.59707,
              19.103516
            ],
            [
              72.59707,
              19.098047
            ],
            [
              72.595703,
              19.09668
            ],
            [
              72.595703,
              19.092578
            ],
            [
              72.594336,
              19.091211
            ],
            [
              72.594336,
              19.085742
            ],
            [
              72.591602,
              19.081641
            ],
            [
              72.591602,
              19.073438
            ],
            [
              72.594336,
              19.070703
            ],
            [
              72.599805,
              19.070703
            ],
            [
              72.602539,
              19.07207
            ],
            [
              72.609375,
              19.085742
            ],
            [
              72.613477,
              19.091211
            ],
            [
              72.613477,
              19.103516
            ],
            [
              72.614844,
              19.104883
            ],
            [
              72.614844,
              19.107617
            ],
            [
              72.613477,
              19.108984
            ],
            [
              72.613477,
              19.119922
            ],
            [
              72.608008,
              19.124023
            ]
          ]
        ]
      }
    },
    {
      "type": "Feature",
      "properties": {
        "spill_id": "palsar_708",
        "confidence": 0.89
      },
      "geometry": {
        "type": "Polygon",
        "coordinates": [
          [
            [
              72.505469,
              19.15
            ],
            [
              72.5,
              19.040625
            ],
            [
              72.505469,
              18.994141
            ],
            [
              72.525977,
              18.990039
            ],
            [
              72.513672,
              18.938086
            ],
            [
              72.531445,
              18.918945
            ],
            [
              72.5,
              18.882031
            ],
            [
              72.502734,
              18.802734
            ],
            [
              72.848633,
              18.808203
            ],
            [
              72.841797,
              19.117188
            ],
            [
              72.818555,
              19.059766
            ],
            [
              72.802148,
              19.058398
            ],
            [
              72.791211,
              19.083008
            ],
            [
              72.769336,
              19.063867
            ],
            [
              72.747461,
              19.073438
            ],
            [
              72.757031,
              19.05293
            ],
            [
              72.781641,
              19.051562
            ],
            [
              72.767969,
              18.999609
            ],
            [
              72.748828,
              19.032422
            ],
            [
              72.739258,
              19.002344
            ],
            [
              72.713281,
              18.998242
            ],
            [
              72.711914,
              18.977734
            ],
            [
              72.5875,
              18.923047
            ],
            [
              72.5875,
              18.985938
            ],
            [
              72.569727,
              19.002344
            ],
            [
              72.590234,
              19.050195
            ],
            [
              72.551953,
              19.15
            ],
            [
              72.524609,
              19.139062
            ],
            [
              72.505469,
              19.15
            ]
          ]
        ]
      }
    }
  ]
}