{
  "type": "FeatureCollection",
  "features": [
    {
      "type": "Feature",
      "properties": {
        "spill_id": "palsar_503",
        "confidence": 0.86
      },
      "geometry": {
        "type": "Polygon",
        "coordinates": [
          [
            [
              72.5875,
              18.845117
            ],
            [
              72.580664,
              18.845117
            ],
            [
              72.579297,
              18.846484
            ],
            [
              72.575195,
              18.84375
            ],
            [
              72.575195,
              18.842383
            ],
            [
              72.573828,
              18.841016
            ],
            [
              72.573828,
              18.838281
            ],
            [
              72.571094,
              18.835547
            ],
            [
              72.571094,
              18.83418
            ],
            [
              72.569727,
              18.832812
            ],
            [
              72.568359,
              18.832812
            ],
            [
              72.565625,
              18.830078
            ],
            [
              72.565625,
              18.828711
            ],
            [
              72.564258,
              18.827344
            ],
            [
              72.564258,
              18.824609
            ],
            [
              72.562891,
              18.823242
            ],
            [
              72.562891,
              18.820508
            ],
            [
              72.566992,
              18.816406
            ],
            [
              72.568359,
              18.816406
            ],
            [
              72.569727,
              18.815039
            ],
            [
              72.573828,
              18.815039
            ],
            [
              72.575195,
              18.816406
            ],
            [
              72.579297,
              18.816406
            ],
            [
              72.586133,
              18.820508
            ],
            [
              72.586133,
              18.821875
            ],
            [
              72.590234,
              18.828711
            ],
            [
              72.590234,
              18.841016
            ],
            [
              72.5875,
              18.845117
            ]
          ]
        ]
      }
    },
    {
      "type": "Feature",
      "properties": {
        "spill_id": "palsar_503",
        "confidence": 0.86
      },
      "geometry": {
        "type": "Polygon",
        "coordinates": [
          [
            [
              72.825391,
              18.828711
            ],
            [
              72.821289,
              18.832812
            ],
            [
              72.810352,
              18.83418
            ],
            [
              72.808984,
              18.842383
            ],
            [
              72.79668,
              18.847852
            ],
            [
              72.791211,
              18.847852
            ],
            [
              72.777539,
              18.838281
            ],
            [
              72.765234,
              18.838281
            ],
            [
              72.763867,
              18.832812
            ],
            [
              72.757031,
              18.827344
            ],
            [
              72.743359,
              18.831445
            ],
            [
              72.733789,
              18.84375
            ],
            [
              72.72832,
              18.842383
            ],
            [
              72.733789,
              18.831445
            ],
            [
              72.735156,
              18.823242
            ],
            [
              72.726953,
              18.810938
            ],
            [
              72.72832,
              18.801367
            ],
            [
              72.743359,
              18.801367
            ],
            [
              72.747461,
              18.805469
            ],
            [
              72.754297,
              18.801367
            ],
            [
              72.795312,
              18.801367
            ],
            [
              72.799414,
              18.805469
            ],
            [
              72.804883,
              18.806836
            ],
            [
              72.813086,
              18.816406
            ],
            [
              72.819922,
              18.817773
            ],
            [
              72.825391,
              18.823242
            ],
            [
              72.825391,
              18.828711
            ]
          ]
        ]
      }
    },
    {
      "type": "Feature",
      "properties": {
        "spill_id": "palsar_503",
        "confidence": 0.86
      },
      "geometry": {
        "type": "Polygon",
        "coordinates": [
          [
            [
              72.657227,
              18.888867
            ],
            [
              72.644922,
              18.8875
            ],
            [
              72.638086,
              18.880664
            ],
            [
              72.635352,
              18.873828
            ],
            [
              72.633984,
              18.845117
            ],
            [
              72.617578,
              18.820508
            ],
            [
              72.614844,
              18.812305
            ],
            [
              72.614844,
              18.805469
            ],
            [
              72.620312,
              18.801367
            ],
            [
              72.63125,
              18.812305
            ],
            [
              72.644922,
              18.810938
            ],
            [
              72.657227,
              18.828711
            ],
            [
              72.66543,
              18.850586
            ],
            [
              72.668164,
              18.868359
            ],
            [
              72.670898,
              18.872461
            ],
            [
              72.670898,
              18.87793
            ],
            [
              72.66543,
              18.880664
            ],
            [
              72.657227,
              18.888867
            ]
          ]
        ]
      }
    },
    {
      "type": "Feature",
      "properties": {
        "spill_id": "palsar_503",
        "confidence": 0.86
      },
      "geometry": {
        "type": "Polygon",
        "coordinates": [
          [
            [
              72.666797,
              18.924414
            ],
            [
              72.666797,
              18.918945
            ],
            [
              72.66543,
              18.917578
            ],
            [
              72.666797,
              18.916211
            ],
            [
              72.66543,
              18.914844
            ],
            [
              72.666797,
              18.913477
            ],
            [
              72.666797,
              18.906641
            ],
            [
              72.669531,
              18.906641
            ],
            [
              72.672266,
              18.909375
            ],
            [
              72.672266,
              18.910742
            ],
            [
              72.673633,
              18.912109
            ],
            [
              72.673633,
              18.914844
            ],
            [
              72.675,
              18.916211
            ],
            [
              72.675,
              18.920312
            ],
            [
              72.670898,
              18.924414
            ],
            [
              72.666797,
              18.924414
            ]
          ]
        ]
      }
    },
    {
      "type": "Feature",
      "properties": {
        "spill_id": "palsar_503",
        "confidence": 0.86
      },
      "geometry": {
        "type": "Polygon",
        "coordinates": [
          [
            [
              72.845898,
              18.93125
            ],
            [
              72.839062,
              18.932617
            ],
            [
              72.837695,
              18.93125
            ],
            [
              72.834961,
              18.93125
            ],
            [
              72.832227,
              18.928516
            ],
            [
              72.826758,
              18.925781
            ],
            [
              72.824023,
              18.925781
            ],
            [
              72.822656,
              18.924414
            ],
            [
              72.818555,
              18.924414
            ],
            [
              72.817187,
              18.923047
            ],
            [
              72.814453,
              18.917578
            ],
            [
              72.814453,
              18.913477
            ],
            [
              72.813086,
              18.912109
            ],
            [
              72.813086,
              18.905273
            ],
            [
              72.811719,
              18.903906
            ],
            [
              72.811719,
              18.892969
            ],
            [
              72.813086,
              18.891602
            ],
            [
              72.81582,
              18.891602
            ],
            [
              72.822656,
              18.898438
            ],
            [
              72.822656,
              18.899805
            ],
            [
              72.828125,
              18.906641
            ],
            [
              72.830859,
              18.913477
            ],
            [
              72.833594,
              18.916211
            ],
            [
              72.836328,
              18.916211
            ],
            [
              72.839062,
              18.918945
            ],
            [
              72.841797,
              18.920312
            ],
            [
              72.844531,
              18.920312
            ],
            [
              72.848633,
              18.924414
            ],
            [
              72.848633,
              18.928516
            ],
            [
              72.845898,
              18.93125
            ]
          ]
        ]
      }
    },
    {
      "type": "Feature",
      "properties": {
        "spill_id": "palsar_503",
        "confidence": 0.86
      },
      "geometry": {
        "type": "Polygon",
        "coordinates": [
          [
            [
              72.610742,
              18.983203
            ],
            [
              72.606641,
              18.983203
            ],
            [
              72.606641,
              18.975
            ],
            [
              72.605273,
              18.973633
            ],
            [
              72.603906,
              18.973633
            ],
            [
              72.603906,
              18.972266
            ],
            [
              72.601172,
              18.968164
            ],
            [
              72.601172,
              18.964062
            ],
            [
              72.591602,
              18.954492
            ],
            [
              72.591602,
              18.951758
            ],
            [
              72.590234,
              18.950391
            ],
            [
              72.590234,
              18.94082
            ],
            [
              72.592969,
              18.938086
            ],
            [
              72.592969,
              18.936719
            ],
            [
              72.598438,
              18.936719
            ],
            [
              72.602539,
              18.942188
            ],
            [
              72.602539,
              18.944922
            ],
            [
              72.603906,
              18.946289
            ],
            [
              72.603906,
              18.949023
            ],
            [
              72.605273,
              18.950391
            ],
            [
              72.605273,
              18.959961
            ],
            [
              72.606641,
              18.961328
            ],
            [
              72.606641,
              18.962695
            ],
            [
              72.608008,
              18.964062
            ],
            [
              72.609375,
              18.964062
            ],
            [
              72.609375,
              18.96543
            ],
            [
              72.612109,
              18.969531
            ],
            [
              72.612109,
              18.972266
            ],
            [
              72.613477,
              18.973633
            ],
            [
              72.613477,
              18.981836
            ],
            [
              72.612109,
              18.981836
            ],
            [
              72.610742,
              18.983203
            ]
          ]
        ]
      }
    },
    {
      "type": "Feature",
      "properties": {
        "spill_id": "palsar_503",
        "confidence": 0.86
      },
      "geometry": {
        "type": "Polygon",
        "coordinates": [
          [
            [
              72.638086,
              19.087109
            ],
            [
              72.635352,
              19.087109
            ],
            [
              72.632617,
              19.084375
            ],
            [
              72.63125,
              19.084375
            ],
            [
              72.628516,
              19.081641
            ],
            [
              72.627148,
              19.081641
            ],
            [
              72.624414,
              19.078906
            ],
            [
              72.623047,
              19.078906
            ],
            [
              72.623047,
              19.077539
            ],
            [
              72.620312,
              19.074805
            ],
            [
              72.620312,
              19.069336
            ],
            [
              72.62168,
              19.069336
            ],
            [
              72.623047,
              19.067969
            ],
            [
              72.624414,
              19.069336
            ],
            [
              72.628516,
              19.069336
            ],
            [
              72.633984,
              19.074805
            ],
            [
              72.633984,
              19.076172
            ],
            [
              72.636719,
              19.078906
            ],
            [
              72.636719,
              19.080273
            ],
            [
              72.638086,
              19.081641
            ],
            [
              72.638086,
              19.083008
            ],
            [
              72.639453,
              19.084375
            ],
            [
              72.638086,
              19.085742
            ],
            [
              72.638086,
              19.087109
            ]
          ]
        ]
      }
    },
    {
      "type": "Feature",
      "properties": {
        "spill_id": "palsar_503",
        "confidence": 0.86
      },
      "geometry": {
        "type": "Polygon",
        "coordinates": [
          [
            [
              72.848633,
              19.126758
            ],
            [
              72.836328,
              19.124023
            ],
            [
              72.832227,
              19.09668
            ],
            [
              72.79668,
              19.085742
            ],
            [
              72.77207,
              19.09668
            ],
            [
              72.743359,
              19.051562
            ],
            [
              72.724219,
              19.058398
            ],
            [
              72.699609,
              19.031055
            ],
            [
              72.651758,
              19.011914
            ],
            [
              72.625781,
              18.975
            ],
            [
              72.639453,
              18.979102
            ],
            [
              72.644922,
              18.995508
            ],
            [
              72.672266,
              18.998242
            ],
            [
              72.702344,
              19.021484
            ],
            [
              72.714648,
              19.016016
            ],
            [
              72.71875,
              18.983203
            ],
            [
              72.743359,
              19.037891
            ],
            [
              72.758398,
              19.01875
            ],
            [
              72.780273,
              19.039258
            ],
            [
              72.799414,
              19.041992
            ],
            [
              72.793945,
              18.999609
            ],
            [
              72.770703,
              18.981836
            ],
            [
              72.750195,
              18.991406
            ],
            [
              72.726953,
              18.954492
            ],
            [
              72.729688,
              18.939453
            ],
            [
              72.750195,
              18.947656
            ],
            [
              72.729688,
              18.906641
            ],
            [
              72.713281,
              18.918945
            ],
            [
              72.713281,
              18.942188
            ],
            [
              72.688672,
              18.917578
            ],
            [
              72.71875,
              18.892969
            ],
            [
              72.757031,
              18.912109
            ],
            [
              72.784375,
              18.899805
            ],
            [
              72.789844,
              18.93125
            ],
            [
              72.804883,
              18.949023
            ],
            [
              72.799414,
              18.972266
            ],
            [
              72.824023,
              19.016016
            ],
            [
              72.818555,
              19.040625
            ],
            [
              72.848633,
              19.083008
            ],
            [
              72.848633,
              19.126758
            ]
          ]
        ]
      }
    },
    {
      "type": "Feature",
      "properties": {
        "spill_id": "palsar_503",
        "confidence": 0.86
      },
      "geometry": {
        "type": "Polygon",
        "coordinates": [
          [
            [
              72.561523,
              19.132227
            ],
            [
              72.551953,
              19.113086
            ],
            [
              72.546484,
              19.104883
            ],
            [
              72.541016,
              19.100781
            ],
            [
              72.538281,
              19.092578
            ],
            [
              72.541016,
              19.088477
            ],
            [
              72.54375,
              19.087109
            ],
            [
              72.549219,
              19.087109
            ],
            [
              72.556055,
              19.089844
            ],
            [
              72.557422,
              19.088477
            ],
            [
              72.556055,
              19.083008
            ],
            [
              72.560156,
              19.073438
            ],
            [
              72.565625,
              19.073438
            ],
            [
              72.57793,
              19.088477
            ],
            [
              72.582031,
              19.098047
            ],
            [
              72.580664,
              19.10625
            ],
            [
              72.576562,
              19.108984
            ],
            [
              72.566992,
              19.10625
            ],
            [
              72.562891,
              19.108984
            ],
            [
              72.562891,
              19.113086
            ],
            [
              72.568359,
              19.122656
            ],
            [
              72.569727,
              19.129492
            ],
            [
              72.566992,
              19.132227
            ],
            [
              72.561523,
              19.132227
            ]
          ]
        ]
      }
    },
    {
      "type": "Feature",
      "properties": {
        "spill_id": "palsar_503",
        "confidence": 0.86
      },
      "geometry": {
        "type": "Polygon",
        "coordinates": [
          [
            [
              72.610742,
              19.15
            ],
            [
              72.599805,
              19.15
            ],
            [
              72.594336,
              19.144531
            ],
            [
              72.592969,
              19.144531
            ],
            [
              72.591602,
              19.143164
            ],
            [
              72.590234,
              19.143164
            ],
            [
              72.588867,
              19.141797
            ],
            [
              72.5875,
              19.141797
            ],
            [
              72.584766,
              19.139062
            ],
            [
              72.584766,
              19.132227
            ],
            [
              72.588867,
              19.128125
            ],
            [
              72.590234,
              19.128125
            ],
            [
              72.591602,
              19.126758
            ],
            [
              72.595703,
              19.126758
            ],
            [
              72.59707,
              19.128125
            ],
            [
              72.598438,
              19.128125
            ],
            [
              72.603906,
              19.133594
            ],
            [
              72.605273,
              19.133594
            ],
            [
              72.606641,
              19.134961
            ],
            [
              72.606641,
              19.136328
            ],
            [
              72.609375,
              19.14043
            ],
            [
              72.609375,
              19.143164
            ],
            [
              72.610742,
              19.144531
            ],
            [
              72.610742,
              19.15
            ]
          ]
        ]
      }
    },
    {
      "type": "Feature",
      "properties": {
        "spill_id": "palsar_503",
        "confidence": 0.86
      },
      "geometry": {
        "type": "Polygon",
        "coordinates": [
          [
            [
              72.550586,
              19.15
            ],
            [
              72.5,
              19.15
            ],
            [
              72.5,
              19.054297
            ],
            [
              72.505469,
              19.054297
            ],
            [
              72.515039,
              19.063867
            ],
            [
              72.532812,
              19.092578
            ],
            [
              72.532812,
              19.099414
            ],
            [
              72.525977,
              19.111719
            ],
            [
              72.536914,
              19.128125
            ],
            [
              72.549219,
              19.141797
            ],
            [
              72.550586,
              19.15
            ]
          ]
        ]
      }
    }
  ]
}