{
  "type": "FeatureCollection",
  "features": [
    {
      "type": "Feature",
      "properties": {
        "spill_id": "palsar_75",
        "confidence": 0.88
      },
      "geometry": {
        "type": "Polygon",
        "coordinates": [
          [
            [
              72.506836,
              18.943555
            ],
            [
              72.5,
              18.939453
            ],
            [
              72.5,
              18.801367
            ],
            [
              72.530078,
              18.801367
            ],
            [
              72.532812,
              18.805469
            ],
            [
              72.530078,
              18.806836
            ],
            [
              72.532812,
              18.827344
            ],
            [
              72.538281,
              18.835547
            ],
            [
              72.539648,
              18.850586
            ],
            [
              72.535547,
              18.864258
            ],
            [
              72.520508,
              18.869727
            ],
            [
              72.516406,
              18.876562
            ],
            [
              72.516406,
              18.880664
            ],
            [
              72.523242,
              18.890234
            ],
            [
              72.521875,
              18.901172
            ],
            [
              72.524609,
              18.912109
            ],
            [
              72.520508,
              18.920312
            ],
            [
              72.521875,
              18.936719
            ],
            [
              72.520508,
              18.94082
            ],
            [
              72.506836,
              18.943555
            ]
          ]
        ]
      }
    },
    {
      "type": "Feature",
      "properties": {
        "spill_id": "palsar_75",
        "confidence": 0.88
      },
      "geometry": {
        "type": "Polygon",
        "coordinates": [
          [
            [
              72.523242,
              19.007812
            ],
            [
              72.523242,
              19.006445
            ],
            [
              72.520508,
              19.002344
            ],
            [
              72.520508,
              18.999609
            ],
            [
              72.519141,
              18.998242
            ],
            [
              72.519141,
              18.991406
            ],
            [
              72.520508,
              18.990039
            ],
            [
              72.520508,
              18.988672
            ],
            [
              72.521875,
              18.988672
            ],
            [
              72.524609,
              18.985938
            ],
            [
              72.532812,
              18.985938
            ],
            [
              72.53418,
              18.987305
            ],
            [
              72.538281,
              18.987305
            ],
            [
              72.539648,
              18.988672
            ],
            [
              72.542383,
              18.988672
            ],
            [
              72.545117,
              18.991406
            ],
            [
              72.546484,
              18.991406
            ],
            [
              72.546484,
              18.992773
            ],
            [
              72.549219,
              18.995508
            ],
            [
              72.549219,
              18.999609
            ],
            [
              72.550586,
              19.000977
            ],
            [
              72.550586,
              19.003711
            ],
            [
              72.547852,
              19.006445
            ],
            [
              72.546484,
              19.006445
            ],
            [
              72.545117,
              19.007812
            ],
            [
              72.542383,
              19.007812
            ],
            [
              72.541016,
              19.00918
            ],
            [
              72.539648,
              19.00918
            ],
            [
              72.536914,
              19.011914
            ],
            [
              72.53418,
              19.011914
            ],
            [
              72.532812,
              19.013281
            ],
            [
              72.528711,
              19.013281
            ],
            [
              72.523242,
              19.007812
            ]
          ]
        ]
      }
    }
  ]
}