{
  "type": "FeatureCollection",
  "features": [
    {
      "type": "Feature",
      "properties": {
        "spill_id": "palsar_460",
        "confidence": 0.88
      },
      "geometry": {
        "type": "Polygon",
        "coordinates": [
          [
            [
              72.535547,
              18.806836
            ],
            [
              72.532812,
              18.80957
            ],
            [
              72.531445,
              18.80957
            ],
            [
              72.530078,
              18.810938
            ],
            [
              72.530078,
              18.812305
            ],
            [
              72.527344,
              18.815039
            ],
            [
              72.524609,
              18.815039
            ],
            [
              72.523242,
              18.816406
            ],
            [
              72.520508,
              18.816406
            ],
            [
              72.519141,
              18.815039
            ],
            [
              72.512305,
              18.815039
            ],
            [
              72.510938,
              18.813672
            ],
            [
              72.50957,
              18.813672
            ],
            [
              72.506836,
              18.810938
            ],
            [
              72.506836,
              18.80957
            ],
            [
              72.505469,
              18.808203
            ],
            [
              72.505469,
              18.804102
            ],
            [
              72.506836,
              18.802734
            ],
            [
              72.506836,
              18.801367
            ],
            [
              72.532812,
              18.801367
            ],
            [
              72.535547,
              18.804102
            ],
            [
              72.535547,
              18.806836
            ]
          ]
        ]
      }
    },
    {
      "type": "Feature",
      "properties": {
        "spill_id": "palsar_460",
        "confidence": 0.88
      },
      "geometry": {
        "type": "Polygon",
        "coordinates": [
          [
            [
              72.606641,
              18.831445
            ],
            [
              72.606641,
              18.819141
            ],
            [
              72.598438,
              18.80957
            ],
            [
              72.598438,
              18.806836
            ],
            [
              72.59707,
              18.805469
            ],
            [
              72.598438,
              18.801367
            ],
            [
              72.628516,
              18.801367
            ],
            [
              72.63125,
              18.806836
            ],
            [
              72.629883,
              18.808203
            ],
            [
              72.629883,
              18.812305
            ],
            [
              72.63125,
              18.813672
            ],
            [
              72.63125,
              18.816406
            ],
            [
              72.633984,
              18.821875
            ],
            [
              72.636719,
              18.824609
            ],
            [
              72.636719,
              18.830078
            ],
            [
              72.635352,
              18.831445
            ],
            [
              72.624414,
              18.831445
            ],
            [
              72.623047,
              18.830078
            ],
            [
              72.614844,
              18.830078
            ],
            [
              72.613477,
              18.831445
            ],
            [
              72.606641,
              18.831445
            ]
          ]
        ]
      }
    },
    {
      "type": "Feature",
      "properties": {
        "spill_id": "palsar_460",
        "confidence": 0.88
      },
      "geometry": {
        "type": "Polygon",
        "coordinates": [
          [
            [
              72.629883,
              18.8875
            ],
            [
              72.627148,
              18.888867
            ],
            [
              72.623047,
              18.888867
            ],
            [
              72.616211,
              18.880664
            ],
            [
              72.612109,
              18.880664
            ],
            [
              72.608008,
              18.87793
            ],
            [
              72.603906,
              18.868359
            ],
            [
              72.601172,
              18.866992
            ],
            [
              72.592969,
              18.858789
            ],
            [
              72.592969,
              18.85332
            ],
            [
              72.59707,
              18.847852
            ],
            [
              72.602539,
              18.847852
            ],
            [
              72.606641,
              18.851953
            ],
            [
              72.606641,
              18.85332
            ],
            [
              72.610742,
              18.857422
            ],
            [
              72.610742,
              18.858789
            ],
            [
              72.623047,
              18.868359
            ],
            [
              72.625781,
              18.875195
            ],
            [
              72.628516,
              18.87793
            ],
            [
              72.629883,
              18.87793
            ],
            [
              72.63125,
              18.880664
            ],
            [
              72.63125,
              18.884766
            ],
            [
              72.629883,
              18.8875
            ]
          ]
        ]
      }
    },
    {
      "type": "Feature",
      "properties": {
        "spill_id": "palsar_460",
        "confidence": 0.88
      },
      "geometry": {
        "type": "Polygon",
        "coordinates": [
          [
            [
              72.54375,
              18.898438
            ],
            [
              72.536914,
              18.898438
            ],
            [
              72.53418,
              18.899805
            ],
            [
              72.532812,
              18.898438
            ],
            [
              72.530078,
              18.898438
            ],
            [
              72.527344,
              18.895703
            ],
            [
              72.527344,
              18.890234
            ],
            [
              72.525977,
              18.888867
            ],
            [
              72.524609,
              18.879297
            ],
            [
              72.520508,
              18.871094
            ],
            [
              72.520508,
              18.858789
            ],
            [
              72.519141,
              18.857422
            ],
            [
              72.519141,
              18.85332
            ],
            [
              72.517773,
              18.851953
            ],
            [
              72.517773,
              18.845117
            ],
            [
              72.523242,
              18.845117
            ],
            [
              72.524609,
              18.846484
            ],
            [
              72.527344,
              18.85332
            ],
            [
              72.530078,
              18.856055
            ],
            [
              72.532812,
              18.861523
            ],
            [
              72.532812,
              18.864258
            ],
            [
              72.536914,
              18.872461
            ],
            [
              72.541016,
              18.876562
            ],
            [
              72.546484,
              18.886133
            ],
            [
              72.546484,
              18.895703
            ],
            [
              72.54375,
              18.898438
            ]
          ]
        ]
      }
    },
    {
      "type": "Feature",
      "properties": {
        "spill_id": "palsar_460",
        "confidence": 0.88
      },
      "geometry": {
        "type": "Polygon",
        "coordinates": [
          [
            [
              72.711914,
              18.954492
            ],
            [
              72.702344,
              18.955859
            ],
            [
              72.687305,
              18.949023
            ],
            [
              72.676367,
              18.949023
            ],
            [
              72.661328,
              18.936719
            ],
            [
              72.661328,
              18.920312
            ],
            [
              72.668164,
              18.909375
            ],
            [
              72.668164,
              18.903906
            ],
            [
              72.659961,
              18.895703
            ],
            [
              72.651758,
              18.880664
            ],
            [
              72.638086,
              18.866992
            ],
            [
              72.64082,
              18.847852
            ],
            [
              72.646289,
              18.835547
            ],
            [
              72.666797,
              18.835547
            ],
            [
              72.668164,
              18.845117
            ],
            [
              72.694141,
              18.862891
            ],
            [
              72.699609,
              18.891602
            ],
            [
              72.695508,
              18.895703
            ],
            [
              72.683203,
              18.898438
            ],
            [
              72.681836,
              18.905273
            ],
            [
              72.699609,
              18.918945
            ],
            [
              72.711914,
              18.933984
            ],
            [
              72.714648,
              18.942188
            ],
            [
              72.711914,
              18.954492
            ]
          ]
        ]
      }
    },
    {
      "type": "Feature",
      "properties": {
        "spill_id": "palsar_460",
        "confidence": 0.88
      },
      "geometry": {
        "type": "Polygon",
        "coordinates": [
          [
            [
              72.848633,
              19.065234
            ],
            [
              72.833594,
              19.0625
            ],
            [
              72.791211,
              19.02832
            ],
            [
              72.791211,
              19.000977
            ],
            [
              72.773438,
              18.987305
            ],
            [
              72.744727,
              19.002344
            ],
            [
              72.758398,
              19.025586
            ],
            [
              72.776172,
              19.035156
            ],
            [
              72.774805,
              19.066602
            ],
            [
              72.759766,
              19.066602
            ],
            [
              72.743359,
              19.048828
            ],
            [
              72.736523,
              19.067969
            ],
            [
              72.721484,
              19.05293
            ],
            [
              72.71875,
              19.017383
            ],
            [
              72.683203,
              18.985938
            ],
            [
              72.681836,
              18.975
            ],
            [
              72.690039,
              18.969531
            ],
            [
              72.736523,
              18.998242
            ],
            [
              72.744727,
              18.991406
            ],
            [
              72.725586,
              18.950391
            ],
            [
              72.743359,
              18.906641
            ],
            [
              72.725586,
              18.871094
            ],
            [
              72.698242,
              18.845117
            ],
            [
              72.688672,
              18.801367
            ],
            [
              72.699609,
              18.805469
            ],
            [
              72.714648,
              18.836914
            ],
            [
              72.757031,
              18.8875
            ],
            [
              72.7625,
              18.914844
            ],
            [
              72.751562,
              18.939453
            ],
            [
              72.763867,
              18.953125
            ],
            [
              72.773438,
              18.946289
            ],
            [
              72.788477,
              18.951758
            ],
            [
              72.807617,
              18.979102
            ],
            [
              72.813086,
              19.005078
            ],
            [
              72.848633,
              19.037891
            ],
            [
              72.848633,
              19.065234
            ]
          ]
        ]
      }
    },
    {
      "type": "Feature",
      "properties": {
        "spill_id": "palsar_460",
        "confidence": 0.88
      },
      "geometry": {
        "type": "Polygon",
        "coordinates": [
          [
            [
              72.556055,
              19.129492
            ],
            [
              72.541016,
              19.126758
            ],
            [
              72.55332,
              19.013281
            ],
            [
              72.54375,
              19.006445
            ],
            [
              72.531445,
              19.013281
            ],
            [
              72.521875,
              18.991406
            ],
            [
              72.5,
              18.985938
            ],
            [
              72.5,
              18.966797
            ],
            [
              72.512305,
              18.969531
            ],
            [
              72.516406,
              18.962695
            ],
            [
              72.523242,
              18.961328
            ],
            [
              72.539648,
              18.969531
            ],
            [
              72.55332,
              18.981836
            ],
            [
              72.579297,
              19.016016
            ],
            [
              72.583398,
              19.032422
            ],
            [
              72.57793,
              19.054297
            ],
            [
              72.583398,
              19.063867
            ],
            [
              72.583398,
              19.074805
            ],
            [
              72.554688,
              19.111719
            ],
            [
              72.551953,
              19.118555
            ],
            [
              72.556055,
              19.129492
            ]
          ]
        ]
      }
    },
    {
      "type": "Feature",
      "properties": {
        "spill_id": "palsar_460",
        "confidence": 0.88
      },
      "geometry": {
        "type": "Polygon",
        "coordinates": [
          [
            [
              72.848633,
              19.15
            ],
            [
              72.826758,
              19.15
            ],
            [
              72.826758,
              19.136328
            ],
            [
              72.832227,
              19.122656
            ],
            [
              72.832227,
              19.110352
            ],
            [
              72.818555,
              19.099414
            ],
            [
              72.813086,
              19.089844
            ],
            [
              72.792578,
              19.076172
            ],
            [
              72.788477,
              19.066602
            ],
            [
              72.791211,
              19.061133
            ],
            [
              72.798047,
              19.059766
            ],
            [
              72.808984,
              19.065234
            ],
            [
              72.819922,
              19.077539
            ],
            [
              72.830859,
              19.084375
            ],
            [
              72.844531,
              19.099414
            ],
            [
              72.848633,
              19.100781
            ],
            [
              72.848633,
              19.15
            ]
          ]
        ]
      }
    },
    {
      "type": "Feature",
      "properties": {
        "spill_id": "palsar_460",
        "confidence": 0.88
      },
      "geometry": {
        "type": "Polygon",
        "coordinates": [
          [
            [
              72.802148,
              19.128125
            ],
            [
              72.781641,
              19.134961
            ],
            [
              72.773438,
              19.15
            ],
            [
              72.739258,
              19.15
            ],
            [
              72.735156,
              19.14043
            ],
            [
              72.735156,
              19.133594
            ],
            [
              72.740625,
              19.128125
            ],
            [
              72.751562,
              19.125391
            ],
            [
              72.75293,
              19.113086
            ],
            [
              72.733789,
              19.093945
            ],
            [
              72.732422,
              19.088477
            ],
            [
              72.733789,
              19.076172
            ],
            [
              72.736523,
              19.073438
            ],
            [
              72.741992,
              19.074805
            ],
            [
              72.754297,
              19.084375
            ],
            [
              72.763867,
              19.088477
            ],
            [
              72.776172,
              19.099414
            ],
            [
              72.788477,
              19.114453
            ],
            [
              72.800781,
              19.122656
            ],
            [
              72.802148,
              19.128125
            ]
          ]
        ]
      }
    },
    {
      "type": "Feature",
      "properties": {
        "spill_id": "palsar_460",
        "confidence": 0.88
      },
      "geometry": {
        "type": "Polygon",
        "coordinates": [
          [
            [
              72.588867,
              19.15
            ],
            [
              72.573828,
              19.15
            ],
            [
              72.571094,
              19.147266
            ],
            [
              72.569727,
              19.147266
            ],
            [
              72.568359,
              19.145898
            ],
            [
              72.566992,
              19.145898
            ],
            [
              72.565625,
              19.144531
            ],
            [
              72.564258,
              19.144531
            ],
            [
              72.562891,
              19.143164
            ],
            [
              72.562891,
              19.139062
            ],
            [
              72.561523,
              19.137695
            ],
            [
              72.561523,
              19.136328
            ],
            [
              72.562891,
              19.134961
            ],
            [
              72.562891,
              19.133594
            ],
            [
              72.564258,
              19.132227
            ],
            [
              72.564258,
              19.130859
            ],
            [
              72.565625,
              19.129492
            ],
            [
              72.571094,
              19.129492
            ],
            [
              72.57793,
              19.136328
            ],
            [
              72.57793,
              19.139062
            ],
            [
              72.582031,
              19.143164
            ],
            [
              72.583398,
              19.143164
            ],
            [
              72.584766,
              19.144531
            ],
            [
              72.586133,
              19.143164
            ],
            [
              72.588867,
              19.145898
            ],
            [
              72.588867,
              19.15
            ]
          ]
        ]
      }
    }
  ]
}