{
  "type": "FeatureCollection",
  "features": [
    {
      "type": "Feature",
      "properties": {
        "spill_id": "palsar_389",
        "confidence": 0.82
      },
      "geometry": {
        "type": "Polygon",
        "coordinates": [
          [
            [
              72.848633,
              18.87793
            ],
            [
              72.841797,
              18.879297
            ],
            [
              72.834961,
              18.864258
            ],
            [
              72.824023,
              18.864258
            ],
            [
              72.813086,
              18.858789
            ],
            [
              72.79668,
              18.854688
            ],
            [
              72.783008,
              18.854688
            ],
            [
              72.773438,
              18.847852
            ],
            [
              72.7625,
              18.846484
            ],
            [
              72.75293,
              18.830078
            ],
            [
              72.75293,
              18.824609
            ],
            [
              72.758398,
              18.810938
            ],
            [
              72.765234,
              18.805469
            ],
            [
              72.778906,
              18.808203
            ],
            [
              72.785742,
              18.815039
            ],
            [
              72.793945,
              18.819141
            ],
            [
              72.795312,
              18.835547
            ],
            [
              72.80625,
              18.842383
            ],
            [
              72.819922,
              18.842383
            ],
            [
              72.825391,
              18.839648
            ],
            [
              72.836328,
              18.841016
            ],
            [
              72.841797,
              18.850586
            ],
            [
              72.848633,
              18.854688
            ],
            [
              72.848633,
              18.87793
            ]
          ]
        ]
      }
    },
    {
      "type": "Feature",
      "properties": {
        "spill_id": "palsar_389",
        "confidence": 0.82
      },
      "geometry": {
        "type": "Polygon",
        "coordinates": [
          [
            [
              72.776172,
              18.950391
            ],
            [
              72.774805,
              18.949023
            ],
            [
              72.774805,
              18.947656
            ],
            [
              72.773438,
              18.946289
            ],
            [
              72.773438,
              18.94082
            ],
            [
              72.774805,
              18.939453
            ],
            [
              72.774805,
              18.938086
            ],
            [
              72.776172,
              18.938086
            ],
            [
              72.777539,
              18.936719
            ],
            [
              72.784375,
              18.936719
            ],
            [
              72.785742,
              18.938086
            ],
            [
              72.787109,
              18.938086
            ],
            [
              72.787109,
              18.939453
            ],
            [
              72.788477,
              18.94082
            ],
            [
              72.788477,
              18.944922
            ],
            [
              72.787109,
              18.946289
            ],
            [
              72.787109,
              18.947656
            ],
            [
              72.785742,
              18.949023
            ],
            [
              72.784375,
              18.949023
            ],
            [
              72.783008,
              18.950391
            ],
            [
              72.776172,
              18.950391
            ]
          ]
        ]
      }
    },
    {
      "type": "Feature",
      "properties": {
        "spill_id": "palsar_389",
        "confidence": 0.82
      },
      "geometry": {
        "type": "Polygon",
        "coordinates": [
          [
            [
              72.72832,
              18.955859
            ],
            [
              72.70918,
              18.961328
            ],
            [
              72.705078,
              18.973633
            ],
            [
              72.696875,
              18.972266
            ],
            [
              72.692773,
              18.957227
            ],
            [
              72.687305,
              18.950391
            ],
            [
              72.691406,
              18.923047
            ],
            [
              72.679102,
              18.920312
            ],
            [
              72.662695,
              18.92168
            ],
            [
              72.639453,
              18.933984
            ],
            [
              72.628516,
              18.951758
            ],
            [
              72.618945,
              18.959961
            ],
            [
              72.608008,
              18.961328
            ],
            [
              72.605273,
              18.958594
            ],
            [
              72.62168,
              18.92168
            ],
            [
              72.638086,
              18.902539
            ],
            [
              72.638086,
              18.894336
            ],
            [
              72.632617,
              18.890234
            ],
            [
              72.632617,
              18.886133
            ],
            [
              72.639453,
              18.879297
            ],
            [
              72.644922,
              18.879297
            ],
            [
              72.661328,
              18.895703
            ],
            [
              72.683203,
              18.894336
            ],
            [
              72.694141,
              18.906641
            ],
            [
              72.694141,
              18.917578
            ],
            [
              72.721484,
              18.932617
            ],
            [
              72.729688,
              18.950391
            ],
            [
              72.72832,
              18.955859
            ]
          ]
        ]
      }
    },
    {
      "type": "Feature",
      "properties": {
        "spill_id": "palsar_389",
        "confidence": 0.82
      },
      "geometry": {
        "type": "Polygon",
        "coordinates": [
          [
            [
              72.705078,
              18.996875
            ],
            [
              72.705078,
              18.994141
            ],
            [
              72.703711,
              18.992773
            ],
            [
              72.702344,
              18.985938
            ],
            [
              72.703711,
              18.98457
            ],
            [
              72.703711,
              18.981836
            ],
            [
              72.705078,
              18.980469
            ],
            [
              72.706445,
              18.976367
            ],
            [
              72.717383,
              18.976367
            ],
            [
              72.71875,
              18.977734
            ],
            [
              72.731055,
              18.977734
            ],
            [
              72.735156,
              18.981836
            ],
            [
              72.735156,
              18.983203
            ],
            [
              72.736523,
              18.98457
            ],
            [
              72.736523,
              18.987305
            ],
            [
              72.737891,
              18.988672
            ],
            [
              72.737891,
              18.991406
            ],
            [
              72.739258,
              18.992773
            ],
            [
              72.739258,
              18.995508
            ],
            [
              72.737891,
              18.996875
            ],
            [
              72.735156,
              18.996875
            ],
            [
              72.733789,
              18.998242
            ],
            [
              72.724219,
              18.998242
            ],
            [
              72.722852,
              18.999609
            ],
            [
              72.71875,
              18.999609
            ],
            [
              72.717383,
              19.000977
            ],
            [
              72.710547,
              19.000977
            ],
            [
              72.70918,
              18.999609
            ],
            [
              72.707812,
              18.999609
            ],
            [
              72.705078,
              18.996875
            ]
          ]
        ]
      }
    },
    {
      "type": "Feature",
      "properties": {
        "spill_id": "palsar_389",
        "confidence": 0.82
      },
      "geometry": {
        "type": "Polygon",
        "coordinates": [
          [
            [
              72.839062,
              19.077539
            ],
            [
              72.837695,
              19.076172
            ],
            [
              72.836328,
              19.076172
            ],
            [
              72.836328,
              19.074805
            ],
            [
              72.834961,
              19.073438
            ],
            [
              72.834961,
              19.07207
            ],
            [
              72.833594,
              19.070703
            ],
            [
              72.833594,
              19.067969
            ],
            [
              72.832227,
              19.066602
            ],
            [
              72.832227,
              19.057031
            ],
            [
              72.834961,
              19.054297
            ],
            [
              72.834961,
              19.05293
            ],
            [
              72.836328,
              19.05293
            ],
            [
              72.837695,
              19.051562
            ],
            [
              72.839062,
              19.051562
            ],
            [
              72.84043,
              19.05293
            ],
            [
              72.841797,
              19.05293
            ],
            [
              72.843164,
              19.054297
            ],
            [
              72.845898,
              19.054297
            ],
            [
              72.847266,
              19.055664
            ],
            [
              72.848633,
              19.055664
            ],
            [
              72.848633,
              19.073438
            ],
            [
              72.845898,
              19.073438
            ],
            [
              72.844531,
              19.074805
            ],
            [
              72.843164,
              19.074805
            ],
            [
              72.841797,
              19.076172
            ],
            [
              72.84043,
              19.076172
            ],
            [
              72.839062,
              19.077539
            ]
          ]
        ]
      }
    },
    {
      "type": "Feature",
      "properties": {
        "spill_id": "palsar_389",
        "confidence": 0.82
      },
      "geometry": {
        "type": "Polygon",
        "coordinates": [
          [
            [
              72.599805,
              19.081641
            ],
            [
              72.59707,
              19.078906
            ],
            [
              72.59707,
              19.074805
            ],
            [
              72.601172,
              19.070703
            ],
            [
              72.605273,
              19.070703
            ],
            [
              72.609375,
              19.074805
            ],
            [
              72.609375,
              19.076172
            ],
            [
              72.610742,
              19.077539
            ],
            [
              72.610742,
              19.078906
            ],
            [
              72.609375,
              19.080273
            ],
            [
              72.609375,
              19.081641
            ],
            [
              72.599805,
              19.081641
            ]
          ]
        ]
      }
    },
    {
      "type": "Feature",
      "properties": {
        "spill_id": "palsar_389",
        "confidence": 0.82
      },
      "geometry": {
        "type": "Polygon",
        "coordinates": [
          [
            [
              72.800781,
              19.098047
            ],
            [
              72.799414,
              19.09668
            ],
            [
              72.799414,
              19.092578
            ],
            [
              72.800781,
              19.091211
            ],
            [
              72.800781,
              19.089844
            ],
            [
              72.799414,
              19.088477
            ],
            [
              72.799414,
              19.084375
            ],
            [
              72.798047,
              19.083008
            ],
            [
              72.798047,
              19.080273
            ],
            [
              72.79668,
              19.078906
            ],
            [
              72.79668,
              19.076172
            ],
            [
              72.795312,
              19.074805
            ],
            [
              72.795312,
              19.066602
            ],
            [
              72.79668,
              19.065234
            ],
            [
              72.798047,
              19.061133
            ],
            [
              72.800781,
              19.058398
            ],
            [
              72.808984,
              19.058398
            ],
            [
              72.811719,
              19.0625
            ],
            [
              72.811719,
              19.067969
            ],
            [
              72.810352,
              19.069336
            ],
            [
              72.810352,
              19.070703
            ],
            [
              72.818555,
              19.078906
            ],
            [
              72.818555,
              19.080273
            ],
            [
              72.819922,
              19.081641
            ],
            [
              72.819922,
              19.084375
            ],
            [
              72.817187,
              19.088477
            ],
            [
              72.813086,
              19.089844
            ],
            [
              72.810352,
              19.092578
            ],
            [
              72.80625,
              19.093945
            ],
            [
              72.802148,
              19.098047
            ],
            [
              72.800781,
              19.098047
            ]
          ]
        ]
      }
    },
    {
      "type": "Feature",
      "properties": {
        "spill_id": "palsar_389",
        "confidence": 0.82
      },
      "geometry": {
        "type": "Polygon",
        "coordinates": [
          [
            [
              72.711914,
              19.139062
            ],
            [
              72.707812,
              19.134961
            ],
            [
              72.707812,
              19.130859
            ],
            [
              72.706445,
              19.129492
            ],
            [
              72.707812,
              19.128125
            ],
            [
              72.707812,
              19.124023
            ],
            [
              72.702344,
              19.119922
            ],
            [
              72.702344,
              19.117188
            ],
            [
              72.705078,
              19.114453
            ],
            [
              72.710547,
              19.114453
            ],
            [
              72.713281,
              19.111719
            ],
            [
              72.716016,
              19.111719
            ],
            [
              72.717383,
              19.110352
            ],
            [
              72.726953,
              19.110352
            ],
            [
              72.72832,
              19.111719
            ],
            [
              72.729688,
              19.111719
            ],
            [
              72.731055,
              19.113086
            ],
            [
              72.731055,
              19.11582
            ],
            [
              72.726953,
              19.118555
            ],
            [
              72.726953,
              19.122656
            ],
            [
              72.72832,
              19.124023
            ],
            [
              72.731055,
              19.124023
            ],
            [
              72.732422,
              19.125391
            ],
            [
              72.733789,
              19.125391
            ],
            [
              72.736523,
              19.128125
            ],
            [
              72.736523,
              19.129492
            ],
            [
              72.737891,
              19.130859
            ],
            [
              72.737891,
              19.133594
            ],
            [
              72.736523,
              19.134961
            ],
            [
              72.732422,
              19.134961
            ],
            [
              72.731055,
              19.136328
            ],
            [
              72.726953,
              19.136328
            ],
            [
              72.725586,
              19.137695
            ],
            [
              72.722852,
              19.137695
            ],
            [
              72.71875,
              19.14043
            ],
            [
              72.711914,
              19.139062
            ]
          ]
        ]
      }
    },
    {
      "type": "Feature",
      "properties": {
        "spill_id": "palsar_389",
        "confidence": 0.82
      },
      "geometry": {
        "type": "Polygon",
        "coordinates": [
          [
            [
              72.554688,
              19.15
            ],
            [
              72.55332,
              19.139062
            ],
            [
              72.556055,
              19.132227
            ],
            [
              72.562891,
              19.126758
            ],
            [
              72.565625,
              19.128125
            ],
            [
              72.566992,
              19.126758
            ],
            [
              72.568359,
              19.128125
            ],
            [
              72.572461,
              19.126758
            ],
            [
              72.568359,
              19.124023
            ],
            [
              72.564258,
              19.124023
            ],
            [
              72.557422,
              19.118555
            ],
            [
              72.55332,
              19.113086
            ],
            [
              72.55332,
              19.108984
            ],
            [
              72.560156,
              19.108984
            ],
            [
              72.566992,
              19.11582
            ],
            [
              72.579297,
              19.11582
            ],
            [
              72.582031,
              19.117188
            ],
            [
              72.586133,
              19.124023
            ],
            [
              72.5875,
              19.122656
            ],
            [
              72.591602,
              19.122656
            ],
            [
              72.592969,
              19.124023
            ],
            [
              72.590234,
              19.130859
            ],
            [
              72.586133,
              19.124023
            ],
            [
              72.579297,
              19.129492
            ],
            [
              72.583398,
              19.137695
            ],
            [
              72.583398,
              19.144531
            ],
            [
              72.579297,
              19.15
            ],
            [
              72.554688,
              19.15
            ]
          ]
        ]
      }
    }
  ]
}