{
  "type": "FeatureCollection",
  "features": [
    {
      "type": "Feature",
      "properties": {
        "spill_id": "palsar_66",
        "confidence": 0.88
      },
      "geometry": {
        "type": "Polygon",
        "coordinates": [
          [
            [
              72.546484,
              18.950391
            ],
            [
              72.53418,
              18.950391
            ],
            [
              72.530078,
              18.946289
            ],
            [
              72.525977,
              18.938086
            ],
            [
              72.520508,
              18.933984
            ],
            [
              72.519141,
              18.93125
            ],
            [
              72.519141,
              18.924414
            ],
            [
              72.528711,
              18.916211
            ],
            [
              72.528711,
              18.902539
            ],
            [
              72.532812,
              18.89707
            ],
            [
              72.53418,
              18.891602
            ],
            [
              72.538281,
              18.891602
            ],
            [
              72.549219,
              18.901172
            ],
            [
              72.561523,
              18.906641
            ],
            [
              72.565625,
              18.912109
            ],
            [
              72.561523,
              18.917578
            ],
            [
              72.551953,
              18.918945
            ],
            [
              72.547852,
              18.923047
            ],
            [
              72.547852,
              18.925781
            ],
            [
              72.55332,
              18.935352
            ],
            [
              72.55332,
              18.944922
            ],
            [
              72.546484,
              18.950391
            ]
          ]
        ]
      }
    },
    {
      "type": "Feature",
      "properties": {
        "spill_id": "palsar_66",
        "confidence": 0.88
      },
      "geometry": {
        "type": "Polygon",
        "coordinates": [
          [
            [
              72.843164,
              19.021484
            ],
            [
              72.839062,
              19.021484
            ],
            [
              72.837695,
              19.020117
            ],
            [
              72.836328,
              19.020117
            ],
            [
              72.833594,
              19.017383
            ],
            [
              72.833594,
              19.014648
            ],
            [
              72.832227,
              19.013281
            ],
            [
              72.832227,
              19.007812
            ],
            [
              72.834961,
              19.005078
            ],
            [
              72.834961,
              19.003711
            ],
            [
              72.837695,
              19.003711
            ],
            [
              72.839062,
              19.005078
            ],
            [
              72.841797,
              19.005078
            ],
            [
              72.845898,
              19.00918
            ],
            [
              72.845898,
              19.017383
            ],
            [
              72.844531,
              19.01875
            ],
            [
              72.844531,
              19.020117
            ],
            [
              72.843164,
              19.021484
            ]
          ]
        ]
      }
    },
    {
      "type": "Feature",
      "properties": {
        "spill_id": "palsar_66",
        "confidence": 0.88
      },
      "geometry": {
        "type": "Polygon",
        "coordinates": [
          [
            [
              72.740625,
              19.044727
            ],
            [
              72.744727,
              19.021484
            ],
            [
              72.763867,
              19.01875
            ],
            [
              72.769336,
              19.010547
            ],
            [
              72.755664,
              19.000977
            ],
            [
              72.751562,
              18.985938
            ],
            [
              72.754297,
              18.975
            ],
            [
              72.767969,
              18.973633
            ],
            [
              72.773438,
              19.007812
            ],
            [
              72.780273,
              18.999609
            ],
            [
              72.783008,
              18.968164
            ],
            [
              72.774805,
              18.951758
            ],
            [
              72.784375,
              18.912109
            ],
            [
              72.819922,
              18.886133
            ],
            [
              72.847266,
              18.836914
            ],
            [
              72.848633,
              18.954492
            ],
            [
              72.81582,
              18.972266
            ],
            [
              72.813086,
              18.994141
            ],
            [
              72.769336,
              19.043359
            ],
            [
              72.740625,
              19.044727
            ]
          ]
        ]
      }
    },
    {
      "type": "Feature",
      "properties": {
        "spill_id": "palsar_66",
        "confidence": 0.88
      },
      "geometry": {
        "type": "Polygon",
        "coordinates": [
          [
            [
              72.5,
              19.110352
            ],
            [
              72.5,
              19.055664
            ],
            [
              72.524609,
              19.0625
            ],
            [
              72.542383,
              19.039258
            ],
            [
              72.512305,
              19.037891
            ],
            [
              72.506836,
              19.017383
            ],
            [
              72.566992,
              18.979102
            ],
            [
              72.635352,
              18.87793
            ],
            [
              72.657227,
              18.955859
            ],
            [
              72.627148,
              18.995508
            ],
            [
              72.668164,
              18.968164
            ],
            [
              72.7625,
              18.836914
            ],
            [
              72.748828,
              18.801367
            ],
            [
              72.848633,
              18.804102
            ],
            [
              72.843164,
              18.824609
            ],
            [
              72.77207,
              18.861523
            ],
            [
              72.755664,
              18.903906
            ],
            [
              72.765234,
              18.928516
            ],
            [
              72.732422,
              18.939453
            ],
            [
              72.711914,
              18.992773
            ],
            [
              72.668164,
              19.010547
            ],
            [
              72.675,
              19.058398
            ],
            [
              72.713281,
              19.063867
            ],
            [
              72.690039,
              19.111719
            ],
            [
              72.629883,
              19.15
            ],
            [
              72.595703,
              19.130859
            ],
            [
              72.545117,
              19.144531
            ],
            [
              72.550586,
              19.098047
            ],
            [
              72.610742,
              19.074805
            ],
            [
              72.628516,
              19.092578
            ],
            [
              72.651758,
              19.070703
            ],
            [
              72.625781,
              19.046094
            ],
            [
              72.618945,
              19.007812
            ],
            [
              72.586133,
              18.996875
            ],
            [
              72.568359,
              19.010547
            ],
            [
              72.5875,
              19.048828
            ],
            [
              72.5,
              19.110352
            ]
          ]
        ]
      }
    }
  ]
}