{
  "type": "FeatureCollection",
  "features": [
    {
      "type": "Feature",
      "properties": {
        "spill_id": "palsar_432",
        "confidence": 0.75
      },
      "geometry": {
        "type": "Polygon",
        "coordinates": [
          [
            [
              72.550586,
              18.817773
            ],
            [
              72.547852,
              18.817773
            ],
            [
              72.545117,
              18.815039
            ],
            [
              72.54375,
              18.815039
            ],
            [
              72.54375,
              18.813672
            ],
            [
              72.542383,
              18.812305
            ],
            [
              72.54375,
              18.810938
            ],
            [
              72.54375,
              18.808203
            ],
            [
              72.545117,
              18.806836
            ],
            [
              72.549219,
              18.806836
            ],
            [
              72.551953,
              18.80957
            ],
            [
              72.551953,
              18.815039
            ],
            [
              72.550586,
              18.816406
            ],
            [
              72.550586,
              18.817773
            ]
          ]
        ]
      }
    },
    {
      "type": "Feature",
      "properties": {
        "spill_id": "palsar_432",
        "confidence": 0.75
      },
      "geometry": {
        "type": "Polygon",
        "coordinates": [
          [
            [
              72.57793,
              18.810938
            ],
            [
              72.580664,
              18.804102
            ],
            [
              72.614844,
              18.812305
            ],
            [
              72.625781,
              18.808203
            ],
            [
              72.642187,
              18.80957
            ],
            [
              72.653125,
              18.819141
            ],
            [
              72.675,
              18.817773
            ],
            [
              72.685938,
              18.825977
            ],
            [
              72.694141,
              18.828711
            ],
            [
              72.702344,
              18.825977
            ],
            [
              72.703711,
              18.828711
            ],
            [
              72.700977,
              18.831445
            ],
            [
              72.694141,
              18.830078
            ],
            [
              72.685938,
              18.836914
            ],
            [
              72.673633,
              18.836914
            ],
            [
              72.650391,
              18.827344
            ],
            [
              72.643555,
              18.827344
            ],
            [
              72.63125,
              18.836914
            ],
            [
              72.624414,
              18.838281
            ],
            [
              72.616211,
              18.832812
            ],
            [
              72.606641,
              18.821875
            ],
            [
              72.591602,
              18.821875
            ],
            [
              72.580664,
              18.816406
            ],
            [
              72.57793,
              18.810938
            ]
          ]
        ]
      }
    },
    {
      "type": "Feature",
      "properties": {
        "spill_id": "palsar_432",
        "confidence": 0.75
      },
      "geometry": {
        "type": "Polygon",
        "coordinates": [
          [
            [
              72.558789,
              18.856055
            ],
            [
              72.556055,
              18.856055
            ],
            [
              72.554688,
              18.854688
            ],
            [
              72.554688,
              18.849219
            ],
            [
              72.55332,
              18.847852
            ],
            [
              72.55332,
              18.845117
            ],
            [
              72.550586,
              18.841016
            ],
            [
              72.550586,
              18.832812
            ],
            [
              72.551953,
              18.831445
            ],
            [
              72.551953,
              18.824609
            ],
            [
              72.556055,
              18.824609
            ],
            [
              72.557422,
              18.825977
            ],
            [
              72.558789,
              18.825977
            ],
            [
              72.561523,
              18.828711
            ],
            [
              72.561523,
              18.830078
            ],
            [
              72.564258,
              18.83418
            ],
            [
              72.564258,
              18.836914
            ],
            [
              72.565625,
              18.838281
            ],
            [
              72.565625,
              18.845117
            ],
            [
              72.564258,
              18.846484
            ],
            [
              72.564258,
              18.847852
            ],
            [
              72.562891,
              18.849219
            ],
            [
              72.562891,
              18.850586
            ],
            [
              72.561523,
              18.851953
            ],
            [
              72.561523,
              18.85332
            ],
            [
              72.558789,
              18.856055
            ]
          ]
        ]
      }
    },
    {
      "type": "Feature",
      "properties": {
        "spill_id": "palsar_432",
        "confidence": 0.75
      },
      "geometry": {
        "type": "Polygon",
        "coordinates": [
          [
            [
              72.845898,
              18.894336
            ],
            [
              72.843164,
              18.89707
            ],
            [
              72.836328,
              18.895703
            ],
            [
              72.832227,
              18.888867
            ],
            [
              72.832227,
              18.87793
            ],
            [
              72.828125,
              18.875195
            ],
            [
              72.817187,
              18.876562
            ],
            [
              72.810352,
              18.857422
            ],
            [
              72.785742,
              18.838281
            ],
            [
              72.777539,
              18.835547
            ],
            [
              72.750195,
              18.83418
            ],
            [
              72.748828,
              18.831445
            ],
            [
              72.776172,
              18.824609
            ],
            [
              72.789844,
              18.824609
            ],
            [
              72.798047,
              18.827344
            ],
            [
              72.807617,
              18.835547
            ],
            [
              72.819922,
              18.839648
            ],
            [
              72.825391,
              18.84375
            ],
            [
              72.828125,
              18.849219
            ],
            [
              72.828125,
              18.856055
            ],
            [
              72.832227,
              18.866992
            ],
            [
              72.844531,
              18.87793
            ],
            [
              72.845898,
              18.894336
            ]
          ]
        ]
      }
    },
    {
      "type": "Feature",
      "properties": {
        "spill_id": "palsar_432",
        "confidence": 0.75
      },
      "geometry": {
        "type": "Polygon",
        "coordinates": [
          [
            [
              72.539648,
              18.912109
            ],
            [
              72.536914,
              18.909375
            ],
            [
              72.536914,
              18.903906
            ],
            [
              72.538281,
              18.902539
            ],
            [
              72.538281,
              18.899805
            ],
            [
              72.539648,
              18.898438
            ],
            [
              72.539648,
              18.892969
            ],
            [
              72.541016,
              18.891602
            ],
            [
              72.541016,
              18.890234
            ],
            [
              72.542383,
              18.888867
            ],
            [
              72.54375,
              18.888867
            ],
            [
              72.545117,
              18.8875
            ],
            [
              72.546484,
              18.8875
            ],
            [
              72.547852,
              18.886133
            ],
            [
              72.551953,
              18.886133
            ],
            [
              72.554688,
              18.888867
            ],
            [
              72.554688,
              18.892969
            ],
            [
              72.55332,
              18.894336
            ],
            [
              72.55332,
              18.895703
            ],
            [
              72.549219,
              18.899805
            ],
            [
              72.549219,
              18.901172
            ],
            [
              72.547852,
              18.902539
            ],
            [
              72.547852,
              18.905273
            ],
            [
              72.546484,
              18.906641
            ],
            [
              72.546484,
              18.908008
            ],
            [
              72.545117,
              18.909375
            ],
            [
              72.545117,
              18.910742
            ],
            [
              72.54375,
              18.910742
            ],
            [
              72.542383,
              18.912109
            ],
            [
              72.539648,
              18.912109
            ]
          ]
        ]
      }
    },
    {
      "type": "Feature",
      "properties": {
        "spill_id": "palsar_432",
        "confidence": 0.75
      },
      "geometry": {
        "type": "Polygon",
        "coordinates": [
          [
            [
              72.608008,
              18.943555
            ],
            [
              72.605273,
              18.944922
            ],
            [
              72.599805,
              18.944922
            ],
            [
              72.598438,
              18.943555
            ],
            [
              72.594336,
              18.943555
            ],
            [
              72.591602,
              18.942188
            ],
            [
              72.5875,
              18.944922
            ],
            [
              72.579297,
              18.946289
            ],
            [
              72.576562,
              18.942188
            ],
            [
              72.576562,
              18.933984
            ],
            [
              72.573828,
              18.93125
            ],
            [
              72.573828,
              18.929883
            ],
            [
              72.568359,
              18.924414
            ],
            [
              72.566992,
              18.924414
            ],
            [
              72.562891,
              18.918945
            ],
            [
              72.562891,
              18.910742
            ],
            [
              72.565625,
              18.908008
            ],
            [
              72.569727,
              18.909375
            ],
            [
              72.571094,
              18.914844
            ],
            [
              72.573828,
              18.917578
            ],
            [
              72.579297,
              18.918945
            ],
            [
              72.582031,
              18.92168
            ],
            [
              72.583398,
              18.925781
            ],
            [
              72.592969,
              18.935352
            ],
            [
              72.595703,
              18.936719
            ],
            [
              72.59707,
              18.935352
            ],
            [
              72.605273,
              18.935352
            ],
            [
              72.608008,
              18.939453
            ],
            [
              72.608008,
              18.943555
            ]
          ]
        ]
      }
    },
    {
      "type": "Feature",
      "properties": {
        "spill_id": "palsar_432",
        "confidence": 0.75
      },
      "geometry": {
        "type": "Polygon",
        "coordinates": [
          [
            [
              72.731055,
              19.000977
            ],
            [
              72.726953,
              19.003711
            ],
            [
              72.721484,
              19.003711
            ],
            [
              72.720117,
              19.002344
            ],
            [
              72.720117,
              19.000977
            ],
            [
              72.716016,
              18.996875
            ],
            [
              72.714648,
              18.996875
            ],
            [
              72.713281,
              18.995508
            ],
            [
              72.706445,
              18.992773
            ],
            [
              72.702344,
              18.985938
            ],
            [
              72.702344,
              18.983203
            ],
            [
              72.700977,
              18.981836
            ],
            [
              72.700977,
              18.979102
            ],
            [
              72.699609,
              18.977734
            ],
            [
              72.699609,
              18.970898
            ],
            [
              72.703711,
              18.970898
            ],
            [
              72.713281,
              18.976367
            ],
            [
              72.716016,
              18.976367
            ],
            [
              72.717383,
              18.977734
            ],
            [
              72.71875,
              18.977734
            ],
            [
              72.722852,
              18.981836
            ],
            [
              72.722852,
              18.983203
            ],
            [
              72.725586,
              18.985938
            ],
            [
              72.725586,
              18.987305
            ],
            [
              72.729688,
              18.991406
            ],
            [
              72.729688,
              18.992773
            ],
            [
              72.731055,
              18.994141
            ],
            [
              72.731055,
              19.000977
            ]
          ]
        ]
      }
    },
    {
      "type": "Feature",
      "properties": {
        "spill_id": "palsar_432",
        "confidence": 0.75
      },
      "geometry": {
        "type": "Polygon",
        "coordinates": [
          [
            [
              72.720117,
              19.051562
            ],
            [
              72.71875,
              19.050195
            ],
            [
              72.71875,
              19.048828
            ],
            [
              72.717383,
              19.047461
            ],
            [
              72.717383,
              19.044727
            ],
            [
              72.71875,
              19.043359
            ],
            [
              72.71875,
              19.041992
            ],
            [
              72.721484,
              19.041992
            ],
            [
              72.722852,
              19.040625
            ],
            [
              72.724219,
              19.041992
            ],
            [
              72.725586,
              19.041992
            ],
            [
              72.726953,
              19.043359
            ],
            [
              72.726953,
              19.047461
            ],
            [
              72.725586,
              19.048828
            ],
            [
              72.725586,
              19.050195
            ],
            [
              72.724219,
              19.051562
            ],
            [
              72.720117,
              19.051562
            ]
          ]
        ]
      }
    },
    {
      "type": "Feature",
      "properties": {
        "spill_id": "palsar_432",
        "confidence": 0.75
      },
      "geometry": {
        "type": "Polygon",
        "coordinates": [
          [
            [
              72.569727,
              19.089844
            ],
            [
              72.564258,
              19.092578
            ],
            [
              72.560156,
              19.092578
            ],
            [
              72.55332,
              19.098047
            ],
            [
              72.55332,
              19.092578
            ],
            [
              72.549219,
              19.088477
            ],
            [
              72.546484,
              19.083008
            ],
            [
              72.546484,
              19.073438
            ],
            [
              72.541016,
              19.067969
            ],
            [
              72.539648,
              19.063867
            ],
            [
              72.536914,
              19.061133
            ],
            [
              72.53418,
              19.0625
            ],
            [
              72.520508,
              19.0625
            ],
            [
              72.515039,
              19.058398
            ],
            [
              72.513672,
              19.055664
            ],
            [
              72.515039,
              19.051562
            ],
            [
              72.519141,
              19.047461
            ],
            [
              72.524609,
              19.047461
            ],
            [
              72.536914,
              19.057031
            ],
            [
              72.538281,
              19.055664
            ],
            [
              72.539648,
              19.057031
            ],
            [
              72.547852,
              19.058398
            ],
            [
              72.550586,
              19.063867
            ],
            [
              72.561523,
              19.074805
            ],
            [
              72.568359,
              19.078906
            ],
            [
              72.571094,
              19.085742
            ],
            [
              72.569727,
              19.089844
            ]
          ]
        ]
      }
    },
    {
      "type": "Feature",
      "properties": {
        "spill_id": "palsar_432",
        "confidence": 0.75
      },
      "geometry": {
        "type": "Polygon",
        "coordinates": [
          [
            [
              72.843164,
              19.134961
            ],
            [
              72.836328,
              19.137695
            ],
            [
              72.834961,
              19.128125
            ],
            [
              72.822656,
              19.119922
            ],
            [
              72.822656,
              19.108984
            ],
            [
              72.807617,
              19.091211
            ],
            [
              72.799414,
              19.089844
            ],
            [
              72.789844,
              19.09668
            ],
            [
              72.788477,
              19.104883
            ],
            [
              72.780273,
              19.10625
            ],
            [
              72.770703,
              19.099414
            ],
            [
              72.770703,
              19.089844
            ],
            [
              72.766602,
              19.085742
            ],
            [
              72.750195,
              19.084375
            ],
            [
              72.737891,
              19.074805
            ],
            [
              72.739258,
              19.065234
            ],
            [
              72.744727,
              19.061133
            ],
            [
              72.751562,
              19.061133
            ],
            [
              72.757031,
              19.067969
            ],
            [
              72.765234,
              19.07207
            ],
            [
              72.773438,
              19.069336
            ],
            [
              72.800781,
              19.070703
            ],
            [
              72.807617,
              19.073438
            ],
            [
              72.818555,
              19.085742
            ],
            [
              72.826758,
              19.085742
            ],
            [
              72.843164,
              19.076172
            ],
            [
              72.848633,
              19.077539
            ],
            [
              72.848633,
              19.088477
            ],
            [
              72.841797,
              19.093945
            ],
            [
              72.843164,
              19.134961
            ]
          ]
        ]
      }
    },
    {
      "type": "Feature",
      "properties": {
        "spill_id": "palsar_432",
        "confidence": 0.75
      },
      "geometry": {
        "type": "Polygon",
        "coordinates": [
          [
            [
              72.780273,
              19.137695
            ],
            [
              72.781641,
              19.137695
            ],
            [
              72.783008,
              19.136328
            ],
            [
              72.784375,
              19.136328
            ],
            [
              72.785742,
              19.137695
            ],
            [
              72.792578,
              19.137695
            ],
            [
              72.793945,
              19.139062
            ],
            [
              72.79668,
              19.139062
            ],
            [
              72.798047,
              19.14043
            ],
            [
              72.799414,
              19.14043
            ],
            [
              72.800781,
              19.141797
            ],
            [
              72.800781,
              19.143164
            ],
            [
              72.799414,
              19.144531
            ],
            [
              72.795312,
              19.144531
            ],
            [
              72.793945,
              19.145898
            ],
            [
              72.791211,
              19.145898
            ],
            [
              72.787109,
              19.15
            ],
            [
              72.784375,
              19.15
            ],
            [
              72.784375,
              19.148633
            ],
            [
              72.780273,
              19.144531
            ],
            [
              72.780273,
              19.137695
            ]
          ]
        ]
      }
    },
    {
      "type": "Feature",
      "properties": {
        "spill_id": "palsar_432",
        "confidence": 0.75
      },
      "geometry": {
        "type": "Polygon",
        "coordinates": [
          [
            [
              72.506836,
              19.15
            ],
            [
              72.523242,
              19.132227
            ],
            [
              72.523242,
              19.119922
            ],
            [
              72.536914,
              19.118555
            ],
            [
              72.549219,
              19.102148
            ],
            [
              72.569727,
              19.110352
            ],
            [
              72.575195,
              19.095312
            ],
            [
              72.590234,
              19.085742
            ],
            [
              72.59707,
              19.07207
            ],
            [
              72.603906,
              19.07207
            ],
            [
              72.613477,
              19.078906
            ],
            [
              72.617578,
              19.092578
            ],
            [
              72.629883,
              19.107617
            ],
            [
              72.64082,
              19.110352
            ],
            [
              72.653125,
              19.122656
            ],
            [
              72.655859,
              19.132227
            ],
            [
              72.654492,
              19.145898
            ],
            [
              72.651758,
              19.15
            ],
            [
              72.644922,
              19.15
            ],
            [
              72.635352,
              19.124023
            ],
            [
              72.613477,
              19.121289
            ],
            [
              72.602539,
              19.113086
            ],
            [
              72.586133,
              19.11582
            ],
            [
              72.571094,
              19.108984
            ],
            [
              72.565625,
              19.119922
            ],
            [
              72.568359,
              19.130859
            ],
            [
              72.562891,
              19.136328
            ],
            [
              72.545117,
              19.14043
            ],
            [
              72.530078,
              19.15
            ],
            [
              72.506836,
              19.15
            ]
          ]
        ]
      }
    }
  ]
}