{
  "type": "FeatureCollection",
  "features": [
    {
      "type": "Feature",
      "properties": {
        "spill_id": "palsar_494",
        "confidence": 0.88
      },
      "geometry": {
        "type": "Polygon",
        "coordinates": [
          [
            [
              72.761133,
              18.820508
            ],
            [
              72.757031,
              18.823242
            ],
            [
              72.751562,
              18.823242
            ],
            [
              72.750195,
              18.821875
            ],
            [
              72.744727,
              18.821875
            ],
            [
              72.743359,
              18.820508
            ],
            [
              72.741992,
              18.820508
            ],
            [
              72.731055,
              18.80957
            ],
            [
              72.731055,
              18.805469
            ],
            [
              72.733789,
              18.802734
            ],
            [
              72.735156,
              18.802734
            ],
            [
              72.736523,
              18.801367
            ],
            [
              72.757031,
              18.801367
            ],
            [
              72.761133,
              18.805469
            ],
            [
              72.761133,
              18.820508
            ]
          ]
        ]
      }
    },
    {
      "type": "Feature",
      "properties": {
        "spill_id": "palsar_494",
        "confidence": 0.88
      },
      "geometry": {
        "type": "Polygon",
        "coordinates": [
          [
            [
              72.848633,
              19.014648
            ],
            [
              72.81582,
              19.031055
            ],
            [
              72.747461,
              19.006445
            ],
            [
              72.724219,
              19.011914
            ],
            [
              72.713281,
              18.995508
            ],
            [
              72.59707,
              18.953125
            ],
            [
              72.573828,
              18.969531
            ],
            [
              72.551953,
              18.943555
            ],
            [
              72.551953,
              18.916211
            ],
            [
              72.502734,
              18.891602
            ],
            [
              72.5,
              18.868359
            ],
            [
              72.531445,
              18.861523
            ],
            [
              72.610742,
              18.884766
            ],
            [
              72.64082,
              18.851953
            ],
            [
              72.658594,
              18.876562
            ],
            [
              72.658594,
              18.909375
            ],
            [
              72.635352,
              18.89707
            ],
            [
              72.623047,
              18.92168
            ],
            [
              72.687305,
              18.946289
            ],
            [
              72.724219,
              18.865625
            ],
            [
              72.717383,
              18.849219
            ],
            [
              72.691406,
              18.845117
            ],
            [
              72.692773,
              18.828711
            ],
            [
              72.710547,
              18.813672
            ],
            [
              72.732422,
              18.850586
            ],
            [
              72.75293,
              18.858789
            ],
            [
              72.807617,
              18.801367
            ],
            [
              72.825391,
              18.842383
            ],
            [
              72.808984,
              18.862891
            ],
            [
              72.821289,
              18.886133
            ],
            [
              72.848633,
              18.899805
            ],
            [
              72.839062,
              18.923047
            ],
            [
              72.783008,
              18.905273
            ],
            [
              72.75293,
              18.928516
            ],
            [
              72.740625,
              18.958594
            ],
            [
              72.841797,
              18.979102
            ],
            [
              72.848633,
              19.014648
            ]
          ]
        ]
      }
    },
    {
      "type": "Feature",
      "properties": {
        "spill_id": "palsar_494",
        "confidence": 0.88
      },
      "geometry": {
        "type": "Polygon",
        "coordinates": [
          [
            [
              72.825391,
              19.085742
            ],
            [
              72.821289,
              19.089844
            ],
            [
              72.814453,
              19.089844
            ],
            [
              72.810352,
              19.087109
            ],
            [
              72.792578,
              19.084375
            ],
            [
              72.787109,
              19.080273
            ],
            [
              72.776172,
              19.080273
            ],
            [
              72.766602,
              19.073438
            ],
            [
              72.757031,
              19.070703
            ],
            [
              72.737891,
              19.069336
            ],
            [
              72.729688,
              19.065234
            ],
            [
              72.726953,
              19.058398
            ],
            [
              72.733789,
              19.050195
            ],
            [
              72.739258,
              19.048828
            ],
            [
              72.744727,
              19.050195
            ],
            [
              72.758398,
              19.058398
            ],
            [
              72.777539,
              19.0625
            ],
            [
              72.792578,
              19.069336
            ],
            [
              72.807617,
              19.066602
            ],
            [
              72.821289,
              19.076172
            ],
            [
              72.825391,
              19.085742
            ]
          ]
        ]
      }
    },
    {
      "type": "Feature",
      "properties": {
        "spill_id": "palsar_494",
        "confidence": 0.88
      },
      "geometry": {
        "type": "Polygon",
        "coordinates": [
          [
            [
              72.525977,
              19.100781
            ],
            [
              72.524609,
              19.100781
            ],
            [
              72.523242,
              19.102148
            ],
            [
              72.515039,
              19.102148
            ],
            [
              72.513672,
              19.100781
            ],
            [
              72.512305,
              19.100781
            ],
            [
              72.50957,
              19.098047
            ],
            [
              72.508203,
              19.098047
            ],
            [
              72.505469,
              19.095312
            ],
            [
              72.504102,
              19.095312
            ],
            [
              72.5,
              19.092578
            ],
            [
              72.5,
              19.067969
            ],
            [
              72.506836,
              19.067969
            ],
            [
              72.520508,
              19.080273
            ],
            [
              72.520508,
              19.081641
            ],
            [
              72.523242,
              19.084375
            ],
            [
              72.523242,
              19.085742
            ],
            [
              72.524609,
              19.087109
            ],
            [
              72.524609,
              19.089844
            ],
            [
              72.525977,
              19.091211
            ],
            [
              72.525977,
              19.100781
            ]
          ]
        ]
      }
    },
    {
      "type": "Feature",
      "properties": {
        "spill_id": "palsar_494",
        "confidence": 0.88
      },
      "geometry": {
        "type": "Polygon",
        "coordinates": [
          [
            [
              72.657227,
              19.15
            ],
            [
              72.586133,
              19.15
            ],
            [
              72.580664,
              19.133594
            ],
            [
              72.592969,
              19.118555
            ],
            [
              72.588867,
              19.102148
            ],
            [
              72.601172,
              19.095312
            ],
            [
              72.599805,
              19.087109
            ],
            [
              72.584766,
              19.073438
            ],
            [
              72.557422,
              19.059766
            ],
            [
              72.531445,
              19.026953
            ],
            [
              72.5,
              19.014648
            ],
            [
              72.5,
              18.990039
            ],
            [
              72.50957,
              18.988672
            ],
            [
              72.561523,
              19.006445
            ],
            [
              72.568359,
              19.020117
            ],
            [
              72.586133,
              19.032422
            ],
            [
              72.612109,
              19.040625
            ],
            [
              72.633984,
              19.040625
            ],
            [
              72.644922,
              19.047461
            ],
            [
              72.642187,
              19.059766
            ],
            [
              72.62168,
              19.0625
            ],
            [
              72.616211,
              19.067969
            ],
            [
              72.613477,
              19.104883
            ],
            [
              72.623047,
              19.125391
            ],
            [
              72.653125,
              19.141797
            ],
            [
              72.657227,
              19.15
            ]
          ]
        ]
      }
    },
    {
      "type": "Feature",
      "properties": {
        "spill_id": "palsar_494",
        "confidence": 0.88
      },
      "geometry": {
        "type": "Polygon",
        "coordinates": [
          [
            [
              72.5,
              19.137695
            ],
            [
              72.504102,
              19.136328
            ],
            [
              72.506836,
              19.133594
            ],
            [
              72.519141,
              19.133594
            ],
            [
              72.521875,
              19.136328
            ],
            [
              72.523242,
              19.136328
            ],
            [
              72.527344,
              19.139062
            ],
            [
              72.530078,
              19.139062
            ],
            [
              72.532812,
              19.141797
            ],
            [
              72.53418,
              19.141797
            ],
            [
              72.536914,
              19.144531
            ],
            [
              72.536914,
              19.15
            ],
            [
              72.502734,
              19.15
            ],
            [
              72.5,
              19.147266
            ],
            [
              72.5,
              19.137695
            ]
          ]
        ]
      }
    }
  ]
}