{
  "type": "FeatureCollection",
  "features": [
    {
      "type": "Feature",
      "properties": {
        "spill_id": "palsar_445",
        "confidence": 0.89
      },
      "geometry": {
        "type": "Polygon",
        "coordinates": [
          [
            [
              72.646289,
              19.134961
            ],
            [
              72.666797,
              19.126758
            ],
            [
              72.677734,
              19.114453
            ],
            [
              72.676367,
              19.091211
            ],
            [
              72.681836,
              19.083008
            ],
            [
              72.735156,
              19.087109
            ],
            [
              72.743359,
              19.09668
            ],
            [
              72.744727,
              19.117188
            ],
            [
              72.759766,
              19.130859
            ],
            [
              72.781641,
              19.126758
            ],
            [
              72.789844,
              19.10625
            ],
            [
              72.828125,
              19.118555
            ],
            [
              72.830859,
              19.111719
            ],
            [
              72.817187,
              19.085742
            ],
            [
              72.836328,
              19.07207
            ],
            [
              72.832227,
              19.05293
            ],
            [
              72.84043,
              19.031055
            ],
            [
              72.848633,
              19.029687
            ],
            [
              72.848633,
              19.145898
            ],
            [
              72.843164,
              19.15
            ],
            [
              72.650391,
              19.15
            ],
            [
              72.646289,
              19.134961
            ]
          ]
        ]
      }
    },
    {
      "type": "Feature",
      "properties": {
        "spill_id": "palsar_445",
        "confidence": 0.89
      },
      "geometry": {
        "type": "Polygon",
        "coordinates": [
          [
            [
              72.547852,
              19.15
            ],
            [
              72.510938,
              19.15
            ],
            [
              72.502734,
              19.139062
            ],
            [
              72.502734,
              19.133594
            ],
            [
              72.5,
              19.125391
            ],
            [
              72.502734,
              19.121289
            ],
            [
              72.502734,
              19.111719
            ],
            [
              72.5,
              19.108984
            ],
            [
              72.5,
              19.098047
            ],
            [
              72.505469,
              19.093945
            ],
            [
              72.512305,
              19.095312
            ],
            [
              72.519141,
              19.098047
            ],
            [
              72.525977,
              19.104883
            ],
            [
              72.531445,
              19.11582
            ],
            [
              72.536914,
              19.122656
            ],
            [
              72.536914,
              19.126758
            ],
            [
              72.538281,
              19.128125
            ],
            [
              72.536914,
              19.132227
            ],
            [
              72.539648,
              19.137695
            ],
            [
              72.547852,
              19.144531
            ],
            [
              72.547852,
              19.15
            ]
          ]
        ]
      }
    }
  ]
}