{
  "type": "FeatureCollection",
  "features": [
    {
      "type": "Feature",
      "properties": {
        "spill_id": "palsar_158",
        "confidence": 0.99
      },
      "geometry": {
        "type": "Polygon",
        "coordinates": [
          [
            [
              72.532812,
              19.15
            ],
            [
              72.532812,
              19.126758
            ],
            [
              72.57793,
              19.047461
            ],
            [
              72.608008,
              18.923047
            ],
            [
              72.646289,
              18.890234
            ],
            [
              72.677734,
              18.801367
            ],
            [
              72.848633,
              18.801367
            ],
            [
              72.848633,
              19.15
            ],
            [
              72.532812,
              19.15
            ]
          ]
        ]
      }
    }
  ]
}