{
  "type": "FeatureCollection",
  "features": [
    {
      "type": "Feature",
      "properties": {
        "spill_id": "palsar_718",
        "confidence": 0.83
      },
      "geometry": {
        "type": "Polygon",
        "coordinates": [
          [
            [
              72.711914,
              18.821875
            ],
            [
              72.710547,
              18.819141
            ],
            [
              72.710547,
              18.812305
            ],
            [
              72.711914,
              18.80957
            ],
            [
              72.716016,
              18.808203
            ],
            [
              72.724219,
              18.801367
            ],
            [
              72.741992,
              18.801367
            ],
            [
              72.743359,
              18.802734
            ],
            [
              72.743359,
              18.80957
            ],
            [
              72.740625,
              18.812305
            ],
            [
              72.739258,
              18.816406
            ],
            [
              72.746094,
              18.827344
            ],
            [
              72.746094,
              18.830078
            ],
            [
              72.744727,
              18.832812
            ],
            [
              72.741992,
              18.83418
            ],
            [
              72.739258,
              18.83418
            ],
            [
              72.737891,
              18.835547
            ],
            [
              72.731055,
              18.835547
            ],
            [
              72.722852,
              18.827344
            ],
            [
              72.717383,
              18.824609
            ],
            [
              72.714648,
              18.824609
            ],
            [
              72.711914,
              18.821875
            ]
          ]
        ]
      }
    },
    {
      "type": "Feature",
      "properties": {
        "spill_id": "palsar_718",
        "confidence": 0.83
      },
      "geometry": {
        "type": "Polygon",
        "coordinates": [
          [
            [
              72.598438,
              18.890234
            ],
            [
              72.598438,
              18.884766
            ],
            [
              72.605273,
              18.87793
            ],
            [
              72.627148,
              18.864258
            ],
            [
              72.638086,
              18.862891
            ],
            [
              72.643555,
              18.858789
            ],
            [
              72.662695,
              18.857422
            ],
            [
              72.673633,
              18.850586
            ],
            [
              72.677734,
              18.850586
            ],
            [
              72.688672,
              18.845117
            ],
            [
              72.695508,
              18.846484
            ],
            [
              72.698242,
              18.850586
            ],
            [
              72.683203,
              18.865625
            ],
            [
              72.675,
              18.866992
            ],
            [
              72.658594,
              18.865625
            ],
            [
              72.653125,
              18.868359
            ],
            [
              72.633984,
              18.869727
            ],
            [
              72.62168,
              18.876562
            ],
            [
              72.612109,
              18.879297
            ],
            [
              72.598438,
              18.890234
            ]
          ]
        ]
      }
    },
    {
      "type": "Feature",
      "properties": {
        "spill_id": "palsar_718",
        "confidence": 0.83
      },
      "geometry": {
        "type": "Polygon",
        "coordinates": [
          [
            [
              72.541016,
              18.920312
            ],
            [
              72.541016,
              18.916211
            ],
            [
              72.542383,
              18.916211
            ],
            [
              72.54375,
              18.914844
            ],
            [
              72.546484,
              18.914844
            ],
            [
              72.547852,
              18.913477
            ],
            [
              72.560156,
              18.913477
            ],
            [
              72.561523,
              18.914844
            ],
            [
              72.561523,
              18.918945
            ],
            [
              72.560156,
              18.918945
            ],
            [
              72.558789,
              18.920312
            ],
            [
              72.554688,
              18.920312
            ],
            [
              72.55332,
              18.92168
            ],
            [
              72.551953,
              18.92168
            ],
            [
              72.550586,
              18.923047
            ],
            [
              72.54375,
              18.923047
            ],
            [
              72.541016,
              18.920312
            ]
          ]
        ]
      }
    },
    {
      "type": "Feature",
      "properties": {
        "spill_id": "palsar_718",
        "confidence": 0.83
      },
      "geometry": {
        "type": "Polygon",
        "coordinates": [
          [
            [
              72.825391,
              19.073438
            ],
            [
              72.825391,
              19.067969
            ],
            [
              72.828125,
              19.065234
            ],
            [
              72.833594,
              19.065234
            ],
            [
              72.834961,
              19.066602
            ],
            [
              72.837695,
              19.066602
            ],
            [
              72.839062,
              19.067969
            ],
            [
              72.839062,
              19.073438
            ],
            [
              72.825391,
              19.073438
            ]
          ]
        ]
      }
    },
    {
      "type": "Feature",
      "properties": {
        "spill_id": "palsar_718",
        "confidence": 0.83
      },
      "geometry": {
        "type": "Polygon",
        "coordinates": [
          [
            [
              72.811719,
              19.15
            ],
            [
              72.811719,
              19.14043
            ],
            [
              72.818555,
              19.129492
            ],
            [
              72.818555,
              19.125391
            ],
            [
              72.813086,
              19.11582
            ],
            [
              72.813086,
              19.108984
            ],
            [
              72.81582,
              19.099414
            ],
            [
              72.821289,
              19.092578
            ],
            [
              72.825391,
              19.089844
            ],
            [
              72.828125,
              19.089844
            ],
            [
              72.836328,
              19.085742
            ],
            [
              72.84043,
              19.085742
            ],
            [
              72.844531,
              19.089844
            ],
            [
              72.848633,
              19.091211
            ],
            [
              72.848633,
              19.139062
            ],
            [
              72.843164,
              19.141797
            ],
            [
              72.829492,
              19.14043
            ],
            [
              72.825391,
              19.143164
            ],
            [
              72.819922,
              19.15
            ],
            [
              72.811719,
              19.15
            ]
          ]
        ]
      }
    },
    {
      "type": "Feature",
      "properties": {
        "spill_id": "palsar_718",
        "confidence": 0.83
      },
      "geometry": {
        "type": "Polygon",
        "coordinates": [
          [
            [
              72.646289,
              19.15
            ],
            [
              72.646289,
              19.141797
            ],
            [
              72.654492,
              19.130859
            ],
            [
              72.681836,
              19.110352
            ],
            [
              72.707812,
              19.083008
            ],
            [
              72.721484,
              19.081641
            ],
            [
              72.750195,
              19.065234
            ],
            [
              72.761133,
              19.051562
            ],
            [
              72.758398,
              19.037891
            ],
            [
              72.77207,
              19.035156
            ],
            [
              72.803516,
              18.998242
            ],
            [
              72.817187,
              18.999609
            ],
            [
              72.817187,
              19.010547
            ],
            [
              72.807617,
              19.02832
            ],
            [
              72.793945,
              19.043359
            ],
            [
              72.769336,
              19.058398
            ],
            [
              72.747461,
              19.107617
            ],
            [
              72.729688,
              19.118555
            ],
            [
              72.720117,
              19.107617
            ],
            [
              72.705078,
              19.100781
            ],
            [
              72.658594,
              19.15
            ],
            [
              72.646289,
              19.15
            ]
          ]
        ]
      }
    }
  ]
}