{
  "type": "FeatureCollection",
  "features": [
    {
      "type": "Feature",
      "properties": {
        "spill_id": "palsar_615",
        "confidence": 0.83
      },
      "geometry": {
        "type": "Polygon",
        "coordinates": [
          [
            [
              72.694141,
              18.812305
            ],
            [
              72.694141,
              18.810938
            ],
            [
              72.695508,
              18.80957
            ],
            [
              72.702344,
              18.80957
            ],
            [
              72.703711,
              18.808203
            ],
            [
              72.705078,
              18.808203
            ],
            [
              72.707812,
              18.804102
            ],
            [
              72.711914,
              18.804102
            ],
            [
              72.713281,
              18.802734
            ],
            [
              72.725586,
              18.802734
            ],
            [
              72.726953,
              18.801367
            ],
            [
              72.735156,
              18.801367
            ],
            [
              72.737891,
              18.804102
            ],
            [
              72.736523,
              18.805469
            ],
            [
              72.736523,
              18.806836
            ],
            [
              72.732422,
              18.80957
            ],
            [
              72.724219,
              18.80957
            ],
            [
              72.722852,
              18.808203
            ],
            [
              72.716016,
              18.808203
            ],
            [
              72.713281,
              18.810938
            ],
            [
              72.711914,
              18.810938
            ],
            [
              72.710547,
              18.812305
            ],
            [
              72.707812,
              18.812305
            ],
            [
              72.706445,
              18.813672
            ],
            [
              72.702344,
              18.813672
            ],
            [
              72.700977,
              18.815039
            ],
            [
              72.696875,
              18.815039
            ],
            [
              72.694141,
              18.812305
            ]
          ]
        ]
      }
    },
    {
      "type": "Feature",
      "properties": {
        "spill_id": "palsar_615",
        "confidence": 0.83
      },
      "geometry": {
        "type": "Polygon",
        "coordinates": [
          [
            [
              72.757031,
              18.846484
            ],
            [
              72.757031,
              18.842383
            ],
            [
              72.758398,
              18.841016
            ],
            [
              72.758398,
              18.839648
            ],
            [
              72.761133,
              18.836914
            ],
            [
              72.7625,
              18.836914
            ],
            [
              72.766602,
              18.83418
            ],
            [
              72.770703,
              18.83418
            ],
            [
              72.77207,
              18.832812
            ],
            [
              72.773438,
              18.83418
            ],
            [
              72.777539,
              18.83418
            ],
            [
              72.778906,
              18.835547
            ],
            [
              72.780273,
              18.835547
            ],
            [
              72.781641,
              18.836914
            ],
            [
              72.783008,
              18.836914
            ],
            [
              72.787109,
              18.839648
            ],
            [
              72.787109,
              18.84375
            ],
            [
              72.781641,
              18.849219
            ],
            [
              72.778906,
              18.849219
            ],
            [
              72.777539,
              18.850586
            ],
            [
              72.767969,
              18.850586
            ],
            [
              72.766602,
              18.851953
            ],
            [
              72.7625,
              18.851953
            ],
            [
              72.761133,
              18.850586
            ],
            [
              72.759766,
              18.850586
            ],
            [
              72.757031,
              18.846484
            ]
          ]
        ]
      }
    },
    {
      "type": "Feature",
      "properties": {
        "spill_id": "palsar_615",
        "confidence": 0.83
      },
      "geometry": {
        "type": "Polygon",
        "coordinates": [
          [
            [
              72.549219,
              18.873828
            ],
            [
              72.558789,
              18.865625
            ],
            [
              72.586133,
              18.858789
            ],
            [
              72.618945,
              18.860156
            ],
            [
              72.635352,
              18.857422
            ],
            [
              72.643555,
              18.861523
            ],
            [
              72.654492,
              18.861523
            ],
            [
              72.673633,
              18.854688
            ],
            [
              72.713281,
              18.851953
            ],
            [
              72.731055,
              18.861523
            ],
            [
              72.713281,
              18.868359
            ],
            [
              72.681836,
              18.865625
            ],
            [
              72.668164,
              18.872461
            ],
            [
              72.639453,
              18.879297
            ],
            [
              72.610742,
              18.876562
            ],
            [
              72.572461,
              18.8875
            ],
            [
              72.561523,
              18.886133
            ],
            [
              72.549219,
              18.873828
            ]
          ]
        ]
      }
    },
    {
      "type": "Feature",
      "properties": {
        "spill_id": "palsar_615",
        "confidence": 0.83
      },
      "geometry": {
        "type": "Polygon",
        "coordinates": [
          [
            [
              72.53418,
              18.894336
            ],
            [
              72.532812,
              18.895703
            ],
            [
              72.530078,
              18.895703
            ],
            [
              72.528711,
              18.89707
            ],
            [
              72.527344,
              18.89707
            ],
            [
              72.525977,
              18.895703
            ],
            [
              72.519141,
              18.895703
            ],
            [
              72.517773,
              18.894336
            ],
            [
              72.516406,
              18.894336
            ],
            [
              72.513672,
              18.891602
            ],
            [
              72.513672,
              18.890234
            ],
            [
              72.512305,
              18.888867
            ],
            [
              72.510938,
              18.888867
            ],
            [
              72.50957,
              18.890234
            ],
            [
              72.5,
              18.890234
            ],
            [
              72.5,
              18.888867
            ],
            [
              72.502734,
              18.888867
            ],
            [
              72.505469,
              18.886133
            ],
            [
              72.508203,
              18.886133
            ],
            [
              72.510938,
              18.888867
            ],
            [
              72.515039,
              18.888867
            ],
            [
              72.516406,
              18.8875
            ],
            [
              72.523242,
              18.8875
            ],
            [
              72.524609,
              18.888867
            ],
            [
              72.527344,
              18.888867
            ],
            [
              72.528711,
              18.890234
            ],
            [
              72.530078,
              18.890234
            ],
            [
              72.531445,
              18.891602
            ],
            [
              72.532812,
              18.891602
            ],
            [
              72.53418,
              18.892969
            ],
            [
              72.53418,
              18.894336
            ]
          ]
        ]
      }
    },
    {
      "type": "Feature",
      "properties": {
        "spill_id": "palsar_615",
        "confidence": 0.83
      },
      "geometry": {
        "type": "Polygon",
        "coordinates": [
          [
            [
              72.848633,
              19.025586
            ],
            [
              72.848633,
              19.029687
            ],
            [
              72.847266,
              19.029687
            ],
            [
              72.845898,
              19.031055
            ],
            [
              72.843164,
              19.031055
            ],
            [
              72.841797,
              19.032422
            ],
            [
              72.84043,
              19.031055
            ],
            [
              72.826758,
              19.031055
            ],
            [
              72.825391,
              19.029687
            ],
            [
              72.822656,
              19.029687
            ],
            [
              72.821289,
              19.031055
            ],
            [
              72.81582,
              19.031055
            ],
            [
              72.817187,
              19.029687
            ],
            [
              72.81582,
              19.02832
            ],
            [
              72.818555,
              19.02832
            ],
            [
              72.819922,
              19.026953
            ],
            [
              72.824023,
              19.026953
            ],
            [
              72.828125,
              19.024219
            ],
            [
              72.84043,
              19.024219
            ],
            [
              72.841797,
              19.022852
            ],
            [
              72.843164,
              19.024219
            ],
            [
              72.847266,
              19.024219
            ],
            [
              72.848633,
              19.025586
            ]
          ]
        ]
      }
    },
    {
      "type": "Feature",
      "properties": {
        "spill_id": "palsar_615",
        "confidence": 0.83
      },
      "geometry": {
        "type": "Polygon",
        "coordinates": [
          [
            [
              72.5,
              19.058398
            ],
            [
              72.5,
              19.032422
            ],
            [
              72.551953,
              19.026953
            ],
            [
              72.594336,
              18.995508
            ],
            [
              72.609375,
              18.999609
            ],
            [
              72.616211,
              19.014648
            ],
            [
              72.643555,
              19.014648
            ],
            [
              72.683203,
              19.000977
            ],
            [
              72.721484,
              19.005078
            ],
            [
              72.789844,
              18.977734
            ],
            [
              72.81582,
              18.981836
            ],
            [
              72.833594,
              18.969531
            ],
            [
              72.848633,
              18.968164
            ],
            [
              72.845898,
              18.985938
            ],
            [
              72.802148,
              18.983203
            ],
            [
              72.758398,
              19.017383
            ],
            [
              72.777539,
              19.032422
            ],
            [
              72.77207,
              19.039258
            ],
            [
              72.638086,
              19.036523
            ],
            [
              72.608008,
              19.047461
            ],
            [
              72.5,
              19.058398
            ]
          ]
        ]
      }
    },
    {
      "type": "Feature",
      "properties": {
        "spill_id": "palsar_615",
        "confidence": 0.83
      },
      "geometry": {
        "type": "Polygon",
        "coordinates": [
          [
            [
              72.624414,
              19.067969
            ],
            [
              72.624414,
              19.061133
            ],
            [
              72.627148,
              19.058398
            ],
            [
              72.627148,
              19.057031
            ],
            [
              72.629883,
              19.054297
            ],
            [
              72.63125,
              19.054297
            ],
            [
              72.632617,
              19.05293
            ],
            [
              72.64082,
              19.05293
            ],
            [
              72.642187,
              19.054297
            ],
            [
              72.649023,
              19.054297
            ],
            [
              72.650391,
              19.055664
            ],
            [
              72.654492,
              19.057031
            ],
            [
              72.658594,
              19.061133
            ],
            [
              72.658594,
              19.065234
            ],
            [
              72.657227,
              19.065234
            ],
            [
              72.655859,
              19.066602
            ],
            [
              72.653125,
              19.066602
            ],
            [
              72.651758,
              19.067969
            ],
            [
              72.642187,
              19.067969
            ],
            [
              72.64082,
              19.069336
            ],
            [
              72.632617,
              19.069336
            ],
            [
              72.63125,
              19.067969
            ],
            [
              72.624414,
              19.067969
            ]
          ]
        ]
      }
    },
    {
      "type": "Feature",
      "properties": {
        "spill_id": "palsar_615",
        "confidence": 0.83
      },
      "geometry": {
        "type": "Polygon",
        "coordinates": [
          [
            [
              72.573828,
              19.089844
            ],
            [
              72.573828,
              19.088477
            ],
            [
              72.576562,
              19.085742
            ],
            [
              72.57793,
              19.085742
            ],
            [
              72.584766,
              19.077539
            ],
            [
              72.592969,
              19.073438
            ],
            [
              72.595703,
              19.073438
            ],
            [
              72.599805,
              19.070703
            ],
            [
              72.612109,
              19.070703
            ],
            [
              72.613477,
              19.07207
            ],
            [
              72.62168,
              19.07207
            ],
            [
              72.624414,
              19.070703
            ],
            [
              72.627148,
              19.074805
            ],
            [
              72.625781,
              19.077539
            ],
            [
              72.62168,
              19.077539
            ],
            [
              72.620312,
              19.076172
            ],
            [
              72.618945,
              19.077539
            ],
            [
              72.616211,
              19.077539
            ],
            [
              72.612109,
              19.080273
            ],
            [
              72.612109,
              19.083008
            ],
            [
              72.609375,
              19.085742
            ],
            [
              72.606641,
              19.085742
            ],
            [
              72.601172,
              19.088477
            ],
            [
              72.595703,
              19.088477
            ],
            [
              72.594336,
              19.089844
            ],
            [
              72.573828,
              19.089844
            ]
          ]
        ]
      }
    },
    {
      "type": "Feature",
      "properties": {
        "spill_id": "palsar_615",
        "confidence": 0.83
      },
      "geometry": {
        "type": "Polygon",
        "coordinates": [
          [
            [
              72.777539,
              19.077539
            ],
            [
              72.780273,
              19.070703
            ],
            [
              72.784375,
              19.065234
            ],
            [
              72.788477,
              19.0625
            ],
            [
              72.792578,
              19.0625
            ],
            [
              72.799414,
              19.059766
            ],
            [
              72.808984,
              19.059766
            ],
            [
              72.817187,
              19.0625
            ],
            [
              72.828125,
              19.073438
            ],
            [
              72.830859,
              19.073438
            ],
            [
              72.839062,
              19.078906
            ],
            [
              72.841797,
              19.077539
            ],
            [
              72.843164,
              19.078906
            ],
            [
              72.847266,
              19.078906
            ],
            [
              72.848633,
              19.081641
            ],
            [
              72.841797,
              19.087109
            ],
            [
              72.826758,
              19.088477
            ],
            [
              72.825391,
              19.089844
            ],
            [
              72.818555,
              19.089844
            ],
            [
              72.817187,
              19.091211
            ],
            [
              72.808984,
              19.091211
            ],
            [
              72.807617,
              19.092578
            ],
            [
              72.800781,
              19.092578
            ],
            [
              72.799414,
              19.093945
            ],
            [
              72.788477,
              19.088477
            ],
            [
              72.783008,
              19.088477
            ],
            [
              72.784375,
              19.087109
            ],
            [
              72.777539,
              19.081641
            ],
            [
              72.777539,
              19.077539
            ]
          ]
        ]
      }
    },
    {
      "type": "Feature",
      "properties": {
        "spill_id": "palsar_615",
        "confidence": 0.83
      },
      "geometry": {
        "type": "Polygon",
        "coordinates": [
          [
            [
              72.609375,
              19.14043
            ],
            [
              72.609375,
              19.132227
            ],
            [
              72.610742,
              19.132227
            ],
            [
              72.612109,
              19.130859
            ],
            [
              72.614844,
              19.130859
            ],
            [
              72.616211,
              19.129492
            ],
            [
              72.62168,
              19.129492
            ],
            [
              72.623047,
              19.128125
            ],
            [
              72.624414,
              19.129492
            ],
            [
              72.625781,
              19.128125
            ],
            [
              72.627148,
              19.129492
            ],
            [
              72.63125,
              19.129492
            ],
            [
              72.632617,
              19.130859
            ],
            [
              72.635352,
              19.130859
            ],
            [
              72.636719,
              19.129492
            ],
            [
              72.64082,
              19.129492
            ],
            [
              72.642187,
              19.128125
            ],
            [
              72.647656,
              19.128125
            ],
            [
              72.649023,
              19.126758
            ],
            [
              72.650391,
              19.126758
            ],
            [
              72.651758,
              19.128125
            ],
            [
              72.653125,
              19.128125
            ],
            [
              72.653125,
              19.129492
            ],
            [
              72.654492,
              19.130859
            ],
            [
              72.654492,
              19.133594
            ],
            [
              72.653125,
              19.134961
            ],
            [
              72.651758,
              19.139062
            ],
            [
              72.649023,
              19.141797
            ],
            [
              72.647656,
              19.141797
            ],
            [
              72.643555,
              19.144531
            ],
            [
              72.635352,
              19.144531
            ],
            [
              72.633984,
              19.145898
            ],
            [
              72.629883,
              19.145898
            ],
            [
              72.628516,
              19.147266
            ],
            [
              72.618945,
              19.147266
            ],
            [
              72.617578,
              19.145898
            ],
            [
              72.614844,
              19.145898
            ],
            [
              72.613477,
              19.144531
            ],
            [
              72.612109,
              19.144531
            ],
            [
              72.609375,
              19.14043
            ]
          ]
        ]
      }
    }
  ]
}