{
  "type": "FeatureCollection",
  "features": [
    {
      "type": "Feature",
      "properties": {
        "spill_id": "palsar_434",
        "confidence": 0.81
      },
      "geometry": {
        "type": "Polygon",
        "coordinates": [
          [
            [
              72.769336,
              18.80957
            ],
            [
              72.769336,
              18.802734
            ],
            [
              72.770703,
              18.801367
            ],
            [
              72.789844,
              18.801367
            ],
            [
              72.791211,
              18.802734
            ],
            [
              72.791211,
              18.808203
            ],
            [
              72.788477,
              18.810938
            ],
            [
              72.785742,
              18.810938
            ],
            [
              72.784375,
              18.812305
            ],
            [
              72.77207,
              18.812305
            ],
            [
              72.769336,
              18.80957
            ]
          ]
        ]
      }
    },
    {
      "type": "Feature",
      "properties": {
        "spill_id": "palsar_434",
        "confidence": 0.81
      },
      "geometry": {
        "type": "Polygon",
        "coordinates": [
          [
            [
              72.688672,
              18.841016
            ],
            [
              72.685938,
              18.838281
            ],
            [
              72.685938,
              18.832812
            ],
            [
              72.687305,
              18.831445
            ],
            [
              72.687305,
              18.830078
            ],
            [
              72.691406,
              18.825977
            ],
            [
              72.691406,
              18.824609
            ],
            [
              72.698242,
              18.817773
            ],
            [
              72.698242,
              18.816406
            ],
            [
              72.700977,
              18.812305
            ],
            [
              72.700977,
              18.80957
            ],
            [
              72.699609,
              18.808203
            ],
            [
              72.702344,
              18.805469
            ],
            [
              72.70918,
              18.805469
            ],
            [
              72.710547,
              18.806836
            ],
            [
              72.714648,
              18.808203
            ],
            [
              72.716016,
              18.80957
            ],
            [
              72.71875,
              18.816406
            ],
            [
              72.721484,
              18.819141
            ],
            [
              72.721484,
              18.823242
            ],
            [
              72.716016,
              18.828711
            ],
            [
              72.714648,
              18.828711
            ],
            [
              72.711914,
              18.831445
            ],
            [
              72.710547,
              18.831445
            ],
            [
              72.700977,
              18.839648
            ],
            [
              72.699609,
              18.839648
            ],
            [
              72.698242,
              18.841016
            ],
            [
              72.695508,
              18.841016
            ],
            [
              72.694141,
              18.842383
            ],
            [
              72.691406,
              18.842383
            ],
            [
              72.690039,
              18.841016
            ],
            [
              72.688672,
              18.841016
            ]
          ]
        ]
      }
    },
    {
      "type": "Feature",
      "properties": {
        "spill_id": "palsar_434",
        "confidence": 0.81
      },
      "geometry": {
        "type": "Polygon",
        "coordinates": [
          [
            [
              72.77207,
              18.898438
            ],
            [
              72.770703,
              18.89707
            ],
            [
              72.770703,
              18.894336
            ],
            [
              72.77207,
              18.892969
            ],
            [
              72.77207,
              18.890234
            ],
            [
              72.781641,
              18.880664
            ],
            [
              72.787109,
              18.880664
            ],
            [
              72.788477,
              18.882031
            ],
            [
              72.788477,
              18.886133
            ],
            [
              72.787109,
              18.8875
            ],
            [
              72.787109,
              18.892969
            ],
            [
              72.785742,
              18.894336
            ],
            [
              72.785742,
              18.895703
            ],
            [
              72.784375,
              18.89707
            ],
            [
              72.783008,
              18.89707
            ],
            [
              72.780273,
              18.899805
            ],
            [
              72.774805,
              18.899805
            ],
            [
              72.773438,
              18.898438
            ],
            [
              72.77207,
              18.898438
            ]
          ]
        ]
      }
    },
    {
      "type": "Feature",
      "properties": {
        "spill_id": "palsar_434",
        "confidence": 0.81
      },
      "geometry": {
        "type": "Polygon",
        "coordinates": [
          [
            [
              72.778906,
              18.93125
            ],
            [
              72.773438,
              18.925781
            ],
            [
              72.773438,
              18.924414
            ],
            [
              72.77207,
              18.923047
            ],
            [
              72.77207,
              18.920312
            ],
            [
              72.770703,
              18.918945
            ],
            [
              72.770703,
              18.914844
            ],
            [
              72.773438,
              18.912109
            ],
            [
              72.774805,
              18.908008
            ],
            [
              72.778906,
              18.903906
            ],
            [
              72.784375,
              18.903906
            ],
            [
              72.785742,
              18.902539
            ],
            [
              72.792578,
              18.902539
            ],
            [
              72.793945,
              18.903906
            ],
            [
              72.79668,
              18.903906
            ],
            [
              72.799414,
              18.906641
            ],
            [
              72.799414,
              18.908008
            ],
            [
              72.800781,
              18.909375
            ],
            [
              72.799414,
              18.910742
            ],
            [
              72.799414,
              18.914844
            ],
            [
              72.798047,
              18.916211
            ],
            [
              72.798047,
              18.920312
            ],
            [
              72.79668,
              18.92168
            ],
            [
              72.79668,
              18.923047
            ],
            [
              72.792578,
              18.927148
            ],
            [
              72.791211,
              18.927148
            ],
            [
              72.784375,
              18.93125
            ],
            [
              72.778906,
              18.93125
            ]
          ]
        ]
      }
    },
    {
      "type": "Feature",
      "properties": {
        "spill_id": "palsar_434",
        "confidence": 0.81
      },
      "geometry": {
        "type": "Polygon",
        "coordinates": [
          [
            [
              72.651758,
              18.943555
            ],
            [
              72.654492,
              18.929883
            ],
            [
              72.668164,
              18.916211
            ],
            [
              72.670898,
              18.895703
            ],
            [
              72.685938,
              18.868359
            ],
            [
              72.696875,
              18.860156
            ],
            [
              72.700977,
              18.860156
            ],
            [
              72.706445,
              18.864258
            ],
            [
              72.711914,
              18.875195
            ],
            [
              72.724219,
              18.869727
            ],
            [
              72.735156,
              18.854688
            ],
            [
              72.743359,
              18.85332
            ],
            [
              72.747461,
              18.856055
            ],
            [
              72.748828,
              18.871094
            ],
            [
              72.720117,
              18.880664
            ],
            [
              72.717383,
              18.883398
            ],
            [
              72.717383,
              18.894336
            ],
            [
              72.699609,
              18.903906
            ],
            [
              72.696875,
              18.912109
            ],
            [
              72.698242,
              18.920312
            ],
            [
              72.703711,
              18.927148
            ],
            [
              72.702344,
              18.929883
            ],
            [
              72.68457,
              18.936719
            ],
            [
              72.679102,
              18.943555
            ],
            [
              72.679102,
              18.951758
            ],
            [
              72.676367,
              18.954492
            ],
            [
              72.668164,
              18.955859
            ],
            [
              72.651758,
              18.943555
            ]
          ]
        ]
      }
    },
    {
      "type": "Feature",
      "properties": {
        "spill_id": "palsar_434",
        "confidence": 0.81
      },
      "geometry": {
        "type": "Polygon",
        "coordinates": [
          [
            [
              72.800781,
              18.968164
            ],
            [
              72.799414,
              18.969531
            ],
            [
              72.798047,
              18.969531
            ],
            [
              72.79668,
              18.968164
            ],
            [
              72.795312,
              18.968164
            ],
            [
              72.793945,
              18.966797
            ],
            [
              72.792578,
              18.966797
            ],
            [
              72.791211,
              18.96543
            ],
            [
              72.788477,
              18.96543
            ],
            [
              72.787109,
              18.964062
            ],
            [
              72.785742,
              18.964062
            ],
            [
              72.785742,
              18.962695
            ],
            [
              72.784375,
              18.961328
            ],
            [
              72.784375,
              18.958594
            ],
            [
              72.785742,
              18.958594
            ],
            [
              72.787109,
              18.959961
            ],
            [
              72.791211,
              18.959961
            ],
            [
              72.792578,
              18.961328
            ],
            [
              72.79668,
              18.961328
            ],
            [
              72.799414,
              18.964062
            ],
            [
              72.799414,
              18.966797
            ],
            [
              72.800781,
              18.968164
            ]
          ]
        ]
      }
    },
    {
      "type": "Feature",
      "properties": {
        "spill_id": "palsar_434",
        "confidence": 0.81
      },
      "geometry": {
        "type": "Polygon",
        "coordinates": [
          [
            [
              72.510938,
              18.98457
            ],
            [
              72.5,
              18.975
            ],
            [
              72.5,
              18.880664
            ],
            [
              72.505469,
              18.861523
            ],
            [
              72.506836,
              18.806836
            ],
            [
              72.50957,
              18.801367
            ],
            [
              72.517773,
              18.801367
            ],
            [
              72.519141,
              18.820508
            ],
            [
              72.527344,
              18.846484
            ],
            [
              72.521875,
              18.854688
            ],
            [
              72.520508,
              18.882031
            ],
            [
              72.508203,
              18.924414
            ],
            [
              72.517773,
              18.935352
            ],
            [
              72.53418,
              18.923047
            ],
            [
              72.546484,
              18.924414
            ],
            [
              72.550586,
              18.944922
            ],
            [
              72.545117,
              18.954492
            ],
            [
              72.554688,
              18.959961
            ],
            [
              72.557422,
              18.968164
            ],
            [
              72.554688,
              18.972266
            ],
            [
              72.532812,
              18.975
            ],
            [
              72.531445,
              18.962695
            ],
            [
              72.525977,
              18.961328
            ],
            [
              72.519141,
              18.972266
            ],
            [
              72.520508,
              18.981836
            ],
            [
              72.510938,
              18.98457
            ]
          ]
        ]
      }
    },
    {
      "type": "Feature",
      "properties": {
        "spill_id": "palsar_434",
        "confidence": 0.81
      },
      "geometry": {
        "type": "Polygon",
        "coordinates": [
          [
            [
              72.751562,
              18.985938
            ],
            [
              72.751562,
              18.98457
            ],
            [
              72.750195,
              18.983203
            ],
            [
              72.750195,
              18.976367
            ],
            [
              72.75293,
              18.973633
            ],
            [
              72.754297,
              18.973633
            ],
            [
              72.755664,
              18.972266
            ],
            [
              72.7625,
              18.972266
            ],
            [
              72.763867,
              18.973633
            ],
            [
              72.765234,
              18.973633
            ],
            [
              72.766602,
              18.975
            ],
            [
              72.767969,
              18.975
            ],
            [
              72.767969,
              18.976367
            ],
            [
              72.769336,
              18.977734
            ],
            [
              72.769336,
              18.980469
            ],
            [
              72.766602,
              18.983203
            ],
            [
              72.761133,
              18.983203
            ],
            [
              72.759766,
              18.98457
            ],
            [
              72.758398,
              18.98457
            ],
            [
              72.757031,
              18.985938
            ],
            [
              72.751562,
              18.985938
            ]
          ]
        ]
      }
    },
    {
      "type": "Feature",
      "properties": {
        "spill_id": "palsar_434",
        "confidence": 0.81
      },
      "geometry": {
        "type": "Polygon",
        "coordinates": [
          [
            [
              72.811719,
              18.995508
            ],
            [
              72.810352,
              18.994141
            ],
            [
              72.808984,
              18.995508
            ],
            [
              72.80625,
              18.995508
            ],
            [
              72.804883,
              18.994141
            ],
            [
              72.803516,
              18.994141
            ],
            [
              72.799414,
              18.990039
            ],
            [
              72.799414,
              18.988672
            ],
            [
              72.800781,
              18.987305
            ],
            [
              72.800781,
              18.985938
            ],
            [
              72.802148,
              18.98457
            ],
            [
              72.802148,
              18.983203
            ],
            [
              72.808984,
              18.983203
            ],
            [
              72.810352,
              18.98457
            ],
            [
              72.811719,
              18.98457
            ],
            [
              72.814453,
              18.987305
            ],
            [
              72.814453,
              18.991406
            ],
            [
              72.813086,
              18.992773
            ],
            [
              72.813086,
              18.994141
            ],
            [
              72.811719,
              18.995508
            ]
          ]
        ]
      }
    },
    {
      "type": "Feature",
      "properties": {
        "spill_id": "palsar_434",
        "confidence": 0.81
      },
      "geometry": {
        "type": "Polygon",
        "coordinates": [
          [
            [
              72.748828,
              19.007812
            ],
            [
              72.744727,
              19.003711
            ],
            [
              72.744727,
              18.996875
            ],
            [
              72.746094,
              18.995508
            ],
            [
              72.747461,
              18.995508
            ],
            [
              72.748828,
              18.994141
            ],
            [
              72.751562,
              18.994141
            ],
            [
              72.751562,
              18.995508
            ],
            [
              72.75293,
              18.996875
            ],
            [
              72.75293,
              18.998242
            ],
            [
              72.754297,
              18.999609
            ],
            [
              72.754297,
              19.003711
            ],
            [
              72.75293,
              19.005078
            ],
            [
              72.75293,
              19.006445
            ],
            [
              72.751562,
              19.007812
            ],
            [
              72.748828,
              19.007812
            ]
          ]
        ]
      }
    },
    {
      "type": "Feature",
      "properties": {
        "spill_id": "palsar_434",
        "confidence": 0.81
      },
      "geometry": {
        "type": "Polygon",
        "coordinates": [
          [
            [
              72.683203,
              19.041992
            ],
            [
              72.680469,
              19.036523
            ],
            [
              72.680469,
              19.02832
            ],
            [
              72.677734,
              19.025586
            ],
            [
              72.677734,
              19.022852
            ],
            [
              72.676367,
              19.021484
            ],
            [
              72.676367,
              18.999609
            ],
            [
              72.677734,
              18.998242
            ],
            [
              72.677734,
              18.992773
            ],
            [
              72.683203,
              18.985938
            ],
            [
              72.687305,
              18.98457
            ],
            [
              72.696875,
              18.977734
            ],
            [
              72.702344,
              18.977734
            ],
            [
              72.706445,
              18.980469
            ],
            [
              72.706445,
              18.988672
            ],
            [
              72.702344,
              18.998242
            ],
            [
              72.698242,
              19.002344
            ],
            [
              72.694141,
              19.011914
            ],
            [
              72.694141,
              19.016016
            ],
            [
              72.696875,
              19.021484
            ],
            [
              72.696875,
              19.033789
            ],
            [
              72.695508,
              19.035156
            ],
            [
              72.695508,
              19.039258
            ],
            [
              72.691406,
              19.041992
            ],
            [
              72.683203,
              19.041992
            ]
          ]
        ]
      }
    },
    {
      "type": "Feature",
      "properties": {
        "spill_id": "palsar_434",
        "confidence": 0.81
      },
      "geometry": {
        "type": "Polygon",
        "coordinates": [
          [
            [
              72.53418,
              19.043359
            ],
            [
              72.532812,
              19.043359
            ],
            [
              72.531445,
              19.041992
            ],
            [
              72.528711,
              19.041992
            ],
            [
              72.527344,
              19.040625
            ],
            [
              72.525977,
              19.040625
            ],
            [
              72.524609,
              19.039258
            ],
            [
              72.524609,
              19.032422
            ],
            [
              72.527344,
              19.029687
            ],
            [
              72.531445,
              19.029687
            ],
            [
              72.53418,
              19.032422
            ],
            [
              72.53418,
              19.033789
            ],
            [
              72.535547,
              19.035156
            ],
            [
              72.535547,
              19.041992
            ],
            [
              72.53418,
              19.043359
            ]
          ]
        ]
      }
    },
    {
      "type": "Feature",
      "properties": {
        "spill_id": "palsar_434",
        "confidence": 0.81
      },
      "geometry": {
        "type": "Polygon",
        "coordinates": [
          [
            [
              72.758398,
              19.085742
            ],
            [
              72.757031,
              19.084375
            ],
            [
              72.759766,
              19.077539
            ],
            [
              72.758398,
              19.07207
            ],
            [
              72.769336,
              19.0625
            ],
            [
              72.770703,
              19.057031
            ],
            [
              72.769336,
              19.036523
            ],
            [
              72.7625,
              19.032422
            ],
            [
              72.767969,
              19.031055
            ],
            [
              72.77207,
              19.025586
            ],
            [
              72.784375,
              19.022852
            ],
            [
              72.792578,
              19.01875
            ],
            [
              72.79668,
              19.01875
            ],
            [
              72.802148,
              19.026953
            ],
            [
              72.802148,
              19.031055
            ],
            [
              72.792578,
              19.036523
            ],
            [
              72.791211,
              19.047461
            ],
            [
              72.784375,
              19.05293
            ],
            [
              72.784375,
              19.067969
            ],
            [
              72.783008,
              19.070703
            ],
            [
              72.774805,
              19.070703
            ],
            [
              72.765234,
              19.085742
            ],
            [
              72.758398,
              19.085742
            ]
          ]
        ]
      }
    },
    {
      "type": "Feature",
      "properties": {
        "spill_id": "palsar_434",
        "confidence": 0.81
      },
      "geometry": {
        "type": "Polygon",
        "coordinates": [
          [
            [
              72.758398,
              19.11582
            ],
            [
              72.750195,
              19.11582
            ],
            [
              72.748828,
              19.114453
            ],
            [
              72.747461,
              19.114453
            ],
            [
              72.741992,
              19.108984
            ],
            [
              72.741992,
              19.107617
            ],
            [
              72.740625,
              19.10625
            ],
            [
              72.740625,
              19.099414
            ],
            [
              72.741992,
              19.098047
            ],
            [
              72.741992,
              19.095312
            ],
            [
              72.743359,
              19.093945
            ],
            [
              72.744727,
              19.093945
            ],
            [
              72.746094,
              19.092578
            ],
            [
              72.748828,
              19.092578
            ],
            [
              72.757031,
              19.100781
            ],
            [
              72.757031,
              19.102148
            ],
            [
              72.758398,
              19.103516
            ],
            [
              72.758398,
              19.104883
            ],
            [
              72.759766,
              19.10625
            ],
            [
              72.759766,
              19.107617
            ],
            [
              72.761133,
              19.108984
            ],
            [
              72.761133,
              19.113086
            ],
            [
              72.758398,
              19.11582
            ]
          ]
        ]
      }
    },
    {
      "type": "Feature",
      "properties": {
        "spill_id": "palsar_434",
        "confidence": 0.81
      },
      "geometry": {
        "type": "Polygon",
        "coordinates": [
          [
            [
              72.658594,
              19.058398
            ],
            [
              72.676367,
              19.055664
            ],
            [
              72.681836,
              19.073438
            ],
            [
              72.669531,
              19.085742
            ],
            [
              72.669531,
              19.099414
            ],
            [
              72.690039,
              19.110352
            ],
            [
              72.714648,
              19.113086
            ],
            [
              72.716016,
              19.104883
            ],
            [
              72.725586,
              19.098047
            ],
            [
              72.726953,
              19.107617
            ],
            [
              72.721484,
              19.114453
            ],
            [
              72.726953,
              19.125391
            ],
            [
              72.735156,
              19.133594
            ],
            [
              72.751562,
              19.134961
            ],
            [
              72.757031,
              19.15
            ],
            [
              72.716016,
              19.15
            ],
            [
              72.70918,
              19.136328
            ],
            [
              72.688672,
              19.119922
            ],
            [
              72.676367,
              19.117188
            ],
            [
              72.668164,
              19.118555
            ],
            [
              72.66543,
              19.126758
            ],
            [
              72.687305,
              19.136328
            ],
            [
              72.690039,
              19.144531
            ],
            [
              72.685938,
              19.15
            ],
            [
              72.64082,
              19.15
            ],
            [
              72.639453,
              19.14043
            ],
            [
              72.647656,
              19.130859
            ],
            [
              72.644922,
              19.114453
            ],
            [
              72.662695,
              19.087109
            ],
            [
              72.658594,
              19.058398
            ]
          ]
        ]
      }
    }
  ]
}