{
  "type": "FeatureCollection",
  "features": [
    {
      "type": "Feature",
      "properties": {
        "spill_id": "palsar_177",
        "confidence": 0.82
      },
      "geometry": {
        "type": "Polygon",
        "coordinates": [
          [
            [
              72.535547,
              18.851953
            ],
            [
              72.532812,
              18.849219
            ],
            [
              72.532812,
              18.838281
            ],
            [
              72.538281,
              18.832812
            ],
            [
              72.542383,
              18.831445
            ],
            [
              72.55332,
              18.821875
            ],
            [
              72.556055,
              18.817773
            ],
            [
              72.557422,
              18.80957
            ],
            [
              72.562891,
              18.801367
            ],
            [
              72.576562,
              18.801367
            ],
            [
              72.579297,
              18.805469
            ],
            [
              72.57793,
              18.813672
            ],
            [
              72.571094,
              18.821875
            ],
            [
              72.568359,
              18.831445
            ],
            [
              72.562891,
              18.83418
            ],
            [
              72.554688,
              18.842383
            ],
            [
              72.550586,
              18.850586
            ],
            [
              72.547852,
              18.851953
            ],
            [
              72.535547,
              18.851953
            ]
          ]
        ]
      }
    },
    {
      "type": "Feature",
      "properties": {
        "spill_id": "palsar_177",
        "confidence": 0.82
      },
      "geometry": {
        "type": "Polygon",
        "coordinates": [
          [
            [
              72.845898,
              18.908008
            ],
            [
              72.845898,
              18.910742
            ],
            [
              72.844531,
              18.912109
            ],
            [
              72.841797,
              18.912109
            ],
            [
              72.84043,
              18.913477
            ],
            [
              72.837695,
              18.913477
            ],
            [
              72.836328,
              18.912109
            ],
            [
              72.829492,
              18.912109
            ],
            [
              72.828125,
              18.910742
            ],
            [
              72.825391,
              18.910742
            ],
            [
              72.828125,
              18.908008
            ],
            [
              72.830859,
              18.908008
            ],
            [
              72.832227,
              18.906641
            ],
            [
              72.839062,
              18.906641
            ],
            [
              72.84043,
              18.905273
            ],
            [
              72.841797,
              18.905273
            ],
            [
              72.843164,
              18.906641
            ],
            [
              72.844531,
              18.906641
            ],
            [
              72.845898,
              18.908008
            ]
          ]
        ]
      }
    },
    {
      "type": "Feature",
      "properties": {
        "spill_id": "palsar_177",
        "confidence": 0.82
      },
      "geometry": {
        "type": "Polygon",
        "coordinates": [
          [
            [
              72.780273,
              18.966797
            ],
            [
              72.780273,
              18.961328
            ],
            [
              72.781641,
              18.959961
            ],
            [
              72.781641,
              18.957227
            ],
            [
              72.783008,
              18.957227
            ],
            [
              72.787109,
              18.953125
            ],
            [
              72.789844,
              18.953125
            ],
            [
              72.791211,
              18.951758
            ],
            [
              72.792578,
              18.951758
            ],
            [
              72.793945,
              18.953125
            ],
            [
              72.795312,
              18.953125
            ],
            [
              72.798047,
              18.955859
            ],
            [
              72.799414,
              18.955859
            ],
            [
              72.802148,
              18.958594
            ],
            [
              72.802148,
              18.959961
            ],
            [
              72.803516,
              18.961328
            ],
            [
              72.803516,
              18.964062
            ],
            [
              72.799414,
              18.968164
            ],
            [
              72.798047,
              18.968164
            ],
            [
              72.79668,
              18.969531
            ],
            [
              72.792578,
              18.969531
            ],
            [
              72.791211,
              18.970898
            ],
            [
              72.783008,
              18.970898
            ],
            [
              72.781641,
              18.969531
            ],
            [
              72.781641,
              18.968164
            ],
            [
              72.780273,
              18.966797
            ]
          ]
        ]
      }
    },
    {
      "type": "Feature",
      "properties": {
        "spill_id": "palsar_177",
        "confidence": 0.82
      },
      "geometry": {
        "type": "Polygon",
        "coordinates": [
          [
            [
              72.713281,
              19.014648
            ],
            [
              72.713281,
              19.013281
            ],
            [
              72.714648,
              19.011914
            ],
            [
              72.714648,
              19.007812
            ],
            [
              72.717383,
              19.005078
            ],
            [
              72.71875,
              19.005078
            ],
            [
              72.720117,
              19.003711
            ],
            [
              72.733789,
              19.003711
            ],
            [
              72.735156,
              19.002344
            ],
            [
              72.737891,
              19.002344
            ],
            [
              72.739258,
              19.000977
            ],
            [
              72.740625,
              19.000977
            ],
            [
              72.741992,
              19.002344
            ],
            [
              72.744727,
              19.002344
            ],
            [
              72.746094,
              19.003711
            ],
            [
              72.750195,
              19.005078
            ],
            [
              72.75293,
              19.00918
            ],
            [
              72.75293,
              19.010547
            ],
            [
              72.750195,
              19.014648
            ],
            [
              72.747461,
              19.014648
            ],
            [
              72.737891,
              19.020117
            ],
            [
              72.733789,
              19.020117
            ],
            [
              72.732422,
              19.021484
            ],
            [
              72.724219,
              19.021484
            ],
            [
              72.722852,
              19.020117
            ],
            [
              72.720117,
              19.020117
            ],
            [
              72.71875,
              19.01875
            ],
            [
              72.716016,
              19.01875
            ],
            [
              72.713281,
              19.014648
            ]
          ]
        ]
      }
    },
    {
      "type": "Feature",
      "properties": {
        "spill_id": "palsar_177",
        "confidence": 0.82
      },
      "geometry": {
        "type": "Polygon",
        "coordinates": [
          [
            [
              72.763867,
              19.070703
            ],
            [
              72.763867,
              19.065234
            ],
            [
              72.769336,
              19.061133
            ],
            [
              72.792578,
              19.0625
            ],
            [
              72.800781,
              19.054297
            ],
            [
              72.804883,
              19.05293
            ],
            [
              72.807617,
              19.050195
            ],
            [
              72.811719,
              19.050195
            ],
            [
              72.814453,
              19.048828
            ],
            [
              72.81582,
              19.050195
            ],
            [
              72.818555,
              19.050195
            ],
            [
              72.822656,
              19.054297
            ],
            [
              72.822656,
              19.055664
            ],
            [
              72.819922,
              19.058398
            ],
            [
              72.817187,
              19.059766
            ],
            [
              72.811719,
              19.059766
            ],
            [
              72.808984,
              19.0625
            ],
            [
              72.807617,
              19.0625
            ],
            [
              72.800781,
              19.069336
            ],
            [
              72.799414,
              19.069336
            ],
            [
              72.791211,
              19.076172
            ],
            [
              72.773438,
              19.076172
            ],
            [
              72.77207,
              19.077539
            ],
            [
              72.770703,
              19.076172
            ],
            [
              72.767969,
              19.076172
            ],
            [
              72.763867,
              19.070703
            ]
          ]
        ]
      }
    },
    {
      "type": "Feature",
      "properties": {
        "spill_id": "palsar_177",
        "confidence": 0.82
      },
      "geometry": {
        "type": "Polygon",
        "coordinates": [
          [
            [
              72.505469,
              19.15
            ],
            [
              72.50957,
              19.122656
            ],
            [
              72.53418,
              19.065234
            ],
            [
              72.539648,
              19.061133
            ],
            [
              72.55332,
              19.065234
            ],
            [
              72.573828,
              19.0625
            ],
            [
              72.608008,
              19.025586
            ],
            [
              72.633984,
              19.016016
            ],
            [
              72.643555,
              18.998242
            ],
            [
              72.650391,
              18.996875
            ],
            [
              72.670898,
              19.00918
            ],
            [
              72.702344,
              19.040625
            ],
            [
              72.698242,
              19.048828
            ],
            [
              72.664062,
              19.048828
            ],
            [
              72.638086,
              19.0625
            ],
            [
              72.617578,
              19.0625
            ],
            [
              72.571094,
              19.076172
            ],
            [
              72.561523,
              19.084375
            ],
            [
              72.556055,
              19.104883
            ],
            [
              72.536914,
              19.119922
            ],
            [
              72.515039,
              19.15
            ],
            [
              72.505469,
              19.15
            ]
          ]
        ]
      }
    }
  ]
}