{
  "type": "FeatureCollection",
  "features": [
    {
      "type": "Feature",
      "properties": {
        "spill_id": "palsar_243",
        "confidence": 0.87
      },
      "geometry": {
        "type": "Polygon",
        "coordinates": [
          [
            [
              72.586133,
              18.812305
            ],
            [
              72.584766,
              18.813672
            ],
            [
              72.583398,
              18.813672
            ],
            [
              72.579297,
              18.816406
            ],
            [
              72.571094,
              18.816406
            ],
            [
              72.569727,
              18.815039
            ],
            [
              72.566992,
              18.815039
            ],
            [
              72.565625,
              18.813672
            ],
            [
              72.564258,
              18.813672
            ],
            [
              72.560156,
              18.810938
            ],
            [
              72.557422,
              18.810938
            ],
            [
              72.554688,
              18.806836
            ],
            [
              72.554688,
              18.804102
            ],
            [
              72.557422,
              18.801367
            ],
            [
              72.580664,
              18.801367
            ],
            [
              72.582031,
              18.802734
            ],
            [
              72.583398,
              18.802734
            ],
            [
              72.586133,
              18.805469
            ],
            [
              72.586133,
              18.812305
            ]
          ]
        ]
      }
    },
    {
      "type": "Feature",
      "properties": {
        "spill_id": "palsar_243",
        "confidence": 0.87
      },
      "geometry": {
        "type": "Polygon",
        "coordinates": [
          [
            [
              72.848633,
              18.901172
            ],
            [
              72.848633,
              18.92168
            ],
            [
              72.822656,
              18.938086
            ],
            [
              72.825391,
              18.943555
            ],
            [
              72.837695,
              18.942188
            ],
            [
              72.848633,
              18.950391
            ],
            [
              72.848633,
              18.973633
            ],
            [
              72.817187,
              18.968164
            ],
            [
              72.808984,
              18.980469
            ],
            [
              72.811719,
              19.006445
            ],
            [
              72.807617,
              19.013281
            ],
            [
              72.788477,
              18.999609
            ],
            [
              72.788477,
              18.98457
            ],
            [
              72.799414,
              18.96543
            ],
            [
              72.799414,
              18.954492
            ],
            [
              72.774805,
              18.973633
            ],
            [
              72.783008,
              18.994141
            ],
            [
              72.780273,
              19.005078
            ],
            [
              72.765234,
              19.002344
            ],
            [
              72.75293,
              18.973633
            ],
            [
              72.746094,
              18.975
            ],
            [
              72.731055,
              18.995508
            ],
            [
              72.706445,
              18.995508
            ],
            [
              72.683203,
              18.981836
            ],
            [
              72.690039,
              18.972266
            ],
            [
              72.710547,
              18.973633
            ],
            [
              72.72832,
              18.96543
            ],
            [
              72.735156,
              18.954492
            ],
            [
              72.781641,
              18.954492
            ],
            [
              72.798047,
              18.949023
            ],
            [
              72.821289,
              18.925781
            ],
            [
              72.834961,
              18.899805
            ],
            [
              72.848633,
              18.901172
            ]
          ]
        ]
      }
    },
    {
      "type": "Feature",
      "properties": {
        "spill_id": "palsar_243",
        "confidence": 0.87
      },
      "geometry": {
        "type": "Polygon",
        "coordinates": [
          [
            [
              72.843164,
              19.0625
            ],
            [
              72.803516,
              19.063867
            ],
            [
              72.731055,
              19.15
            ],
            [
              72.643555,
              19.15
            ],
            [
              72.613477,
              19.111719
            ],
            [
              72.643555,
              19.085742
            ],
            [
              72.613477,
              18.975
            ],
            [
              72.580664,
              19.006445
            ],
            [
              72.546484,
              18.977734
            ],
            [
              72.584766,
              18.973633
            ],
            [
              72.617578,
              18.947656
            ],
            [
              72.571094,
              18.913477
            ],
            [
              72.614844,
              18.8875
            ],
            [
              72.610742,
              18.872461
            ],
            [
              72.5,
              18.815039
            ],
            [
              72.625781,
              18.839648
            ],
            [
              72.650391,
              18.831445
            ],
            [
              72.662695,
              18.805469
            ],
            [
              72.702344,
              18.804102
            ],
            [
              72.650391,
              18.858789
            ],
            [
              72.706445,
              18.936719
            ],
            [
              72.658594,
              18.942188
            ],
            [
              72.650391,
              18.96543
            ],
            [
              72.687305,
              19.026953
            ],
            [
              72.71875,
              19.017383
            ],
            [
              72.695508,
              19.044727
            ],
            [
              72.729688,
              19.07207
            ],
            [
              72.71875,
              19.122656
            ],
            [
              72.741992,
              19.121289
            ],
            [
              72.802148,
              19.022852
            ],
            [
              72.848633,
              18.998242
            ],
            [
              72.843164,
              19.0625
            ]
          ]
        ]
      }
    }
  ]
}