{
  "type": "FeatureCollection",
  "features": [
    {
      "type": "Feature",
      "properties": {
        "spill_id": "palsar_523",
        "confidence": 0.85
      },
      "geometry": {
        "type": "Polygon",
        "coordinates": [
          [
            [
              72.510938,
              18.820508
            ],
            [
              72.510938,
              18.813672
            ],
            [
              72.512305,
              18.812305
            ],
            [
              72.512305,
              18.810938
            ],
            [
              72.513672,
              18.80957
            ],
            [
              72.515039,
              18.80957
            ],
            [
              72.517773,
              18.806836
            ],
            [
              72.524609,
              18.804102
            ],
            [
              72.527344,
              18.801367
            ],
            [
              72.542383,
              18.801367
            ],
            [
              72.54375,
              18.802734
            ],
            [
              72.545117,
              18.802734
            ],
            [
              72.545117,
              18.804102
            ],
            [
              72.547852,
              18.808203
            ],
            [
              72.547852,
              18.80957
            ],
            [
              72.546484,
              18.810938
            ],
            [
              72.546484,
              18.813672
            ],
            [
              72.545117,
              18.815039
            ],
            [
              72.545117,
              18.817773
            ],
            [
              72.54375,
              18.819141
            ],
            [
              72.54375,
              18.821875
            ],
            [
              72.539648,
              18.825977
            ],
            [
              72.539648,
              18.827344
            ],
            [
              72.538281,
              18.827344
            ],
            [
              72.536914,
              18.828711
            ],
            [
              72.532812,
              18.828711
            ],
            [
              72.528711,
              18.825977
            ],
            [
              72.523242,
              18.825977
            ],
            [
              72.521875,
              18.824609
            ],
            [
              72.516406,
              18.824609
            ],
            [
              72.515039,
              18.823242
            ],
            [
              72.513672,
              18.823242
            ],
            [
              72.510938,
              18.820508
            ]
          ]
        ]
      }
    },
    {
      "type": "Feature",
      "properties": {
        "spill_id": "palsar_523",
        "confidence": 0.85
      },
      "geometry": {
        "type": "Polygon",
        "coordinates": [
          [
            [
              72.778906,
              18.864258
            ],
            [
              72.776172,
              18.861523
            ],
            [
              72.776172,
              18.857422
            ],
            [
              72.777539,
              18.856055
            ],
            [
              72.777539,
              18.854688
            ],
            [
              72.778906,
              18.85332
            ],
            [
              72.778906,
              18.851953
            ],
            [
              72.781641,
              18.849219
            ],
            [
              72.784375,
              18.849219
            ],
            [
              72.785742,
              18.847852
            ],
            [
              72.787109,
              18.849219
            ],
            [
              72.788477,
              18.849219
            ],
            [
              72.789844,
              18.850586
            ],
            [
              72.789844,
              18.851953
            ],
            [
              72.791211,
              18.85332
            ],
            [
              72.791211,
              18.856055
            ],
            [
              72.789844,
              18.857422
            ],
            [
              72.789844,
              18.858789
            ],
            [
              72.785742,
              18.862891
            ],
            [
              72.783008,
              18.862891
            ],
            [
              72.781641,
              18.864258
            ],
            [
              72.778906,
              18.864258
            ]
          ]
        ]
      }
    },
    {
      "type": "Feature",
      "properties": {
        "spill_id": "palsar_523",
        "confidence": 0.85
      },
      "geometry": {
        "type": "Polygon",
        "coordinates": [
          [
            [
              72.744727,
              18.953125
            ],
            [
              72.747461,
              18.950391
            ],
            [
              72.750195,
              18.950391
            ],
            [
              72.751562,
              18.949023
            ],
            [
              72.75293,
              18.949023
            ],
            [
              72.757031,
              18.946289
            ],
            [
              72.763867,
              18.946289
            ],
            [
              72.767969,
              18.949023
            ],
            [
              72.770703,
              18.949023
            ],
            [
              72.774805,
              18.953125
            ],
            [
              72.774805,
              18.957227
            ],
            [
              72.77207,
              18.959961
            ],
            [
              72.77207,
              18.961328
            ],
            [
              72.770703,
              18.961328
            ],
            [
              72.769336,
              18.962695
            ],
            [
              72.765234,
              18.962695
            ],
            [
              72.763867,
              18.964062
            ],
            [
              72.750195,
              18.964062
            ],
            [
              72.748828,
              18.962695
            ],
            [
              72.748828,
              18.961328
            ],
            [
              72.746094,
              18.957227
            ],
            [
              72.746094,
              18.954492
            ],
            [
              72.744727,
              18.953125
            ]
          ]
        ]
      }
    },
    {
      "type": "Feature",
      "properties": {
        "spill_id": "palsar_523",
        "confidence": 0.85
      },
      "geometry": {
        "type": "Polygon",
        "coordinates": [
          [
            [
              72.5,
              19.047461
            ],
            [
              72.5,
              19.035156
            ],
            [
              72.502734,
              19.035156
            ],
            [
              72.504102,
              19.036523
            ],
            [
              72.505469,
              19.035156
            ],
            [
              72.508203,
              19.035156
            ],
            [
              72.50957,
              19.036523
            ],
            [
              72.510938,
              19.036523
            ],
            [
              72.510938,
              19.037891
            ],
            [
              72.50957,
              19.039258
            ],
            [
              72.50957,
              19.040625
            ],
            [
              72.508203,
              19.041992
            ],
            [
              72.508203,
              19.043359
            ],
            [
              72.506836,
              19.044727
            ],
            [
              72.506836,
              19.046094
            ],
            [
              72.502734,
              19.046094
            ],
            [
              72.501367,
              19.047461
            ],
            [
              72.5,
              19.047461
            ]
          ]
        ]
      }
    },
    {
      "type": "Feature",
      "properties": {
        "spill_id": "palsar_523",
        "confidence": 0.85
      },
      "geometry": {
        "type": "Polygon",
        "coordinates": [
          [
            [
              72.562891,
              19.058398
            ],
            [
              72.556055,
              19.044727
            ],
            [
              72.595703,
              18.998242
            ],
            [
              72.579297,
              18.991406
            ],
            [
              72.584766,
              18.970898
            ],
            [
              72.651758,
              18.891602
            ],
            [
              72.658594,
              18.873828
            ],
            [
              72.711914,
              18.819141
            ],
            [
              72.71875,
              18.801367
            ],
            [
              72.791211,
              18.801367
            ],
            [
              72.789844,
              18.812305
            ],
            [
              72.694141,
              18.886133
            ],
            [
              72.710547,
              18.910742
            ],
            [
              72.710547,
              18.925781
            ],
            [
              72.735156,
              18.93125
            ],
            [
              72.739258,
              18.946289
            ],
            [
              72.717383,
              18.942188
            ],
            [
              72.706445,
              18.925781
            ],
            [
              72.692773,
              18.92168
            ],
            [
              72.692773,
              18.905273
            ],
            [
              72.681836,
              18.908008
            ],
            [
              72.613477,
              18.987305
            ],
            [
              72.602539,
              19.01875
            ],
            [
              72.562891,
              19.058398
            ]
          ]
        ]
      }
    },
    {
      "type": "Feature",
      "properties": {
        "spill_id": "palsar_523",
        "confidence": 0.85
      },
      "geometry": {
        "type": "Polygon",
        "coordinates": [
          [
            [
              72.807617,
              19.078906
            ],
            [
              72.80625,
              19.077539
            ],
            [
              72.80625,
              19.073438
            ],
            [
              72.810352,
              19.067969
            ],
            [
              72.81582,
              19.055664
            ],
            [
              72.81582,
              19.037891
            ],
            [
              72.817187,
              19.035156
            ],
            [
              72.810352,
              19.021484
            ],
            [
              72.810352,
              19.014648
            ],
            [
              72.811719,
              19.013281
            ],
            [
              72.81582,
              19.013281
            ],
            [
              72.822656,
              19.016016
            ],
            [
              72.829492,
              19.024219
            ],
            [
              72.84043,
              19.033789
            ],
            [
              72.84043,
              19.037891
            ],
            [
              72.834961,
              19.048828
            ],
            [
              72.834961,
              19.054297
            ],
            [
              72.837695,
              19.058398
            ],
            [
              72.837695,
              19.065234
            ],
            [
              72.832227,
              19.074805
            ],
            [
              72.828125,
              19.077539
            ],
            [
              72.824023,
              19.077539
            ],
            [
              72.822656,
              19.078906
            ],
            [
              72.821289,
              19.077539
            ],
            [
              72.807617,
              19.078906
            ]
          ]
        ]
      }
    },
    {
      "type": "Feature",
      "properties": {
        "spill_id": "palsar_523",
        "confidence": 0.85
      },
      "geometry": {
        "type": "Polygon",
        "coordinates": [
          [
            [
              72.769336,
              19.15
            ],
            [
              72.769336,
              19.143164
            ],
            [
              72.774805,
              19.133594
            ],
            [
              72.774805,
              19.130859
            ],
            [
              72.777539,
              19.125391
            ],
            [
              72.777539,
              19.121289
            ],
            [
              72.780273,
              19.11582
            ],
            [
              72.783008,
              19.113086
            ],
            [
              72.784375,
              19.107617
            ],
            [
              72.788477,
              19.099414
            ],
            [
              72.792578,
              19.09668
            ],
            [
              72.795312,
              19.09668
            ],
            [
              72.798047,
              19.099414
            ],
            [
              72.799414,
              19.104883
            ],
            [
              72.800781,
              19.10625
            ],
            [
              72.799414,
              19.108984
            ],
            [
              72.799414,
              19.114453
            ],
            [
              72.798047,
              19.11582
            ],
            [
              72.798047,
              19.125391
            ],
            [
              72.795312,
              19.128125
            ],
            [
              72.789844,
              19.130859
            ],
            [
              72.783008,
              19.139062
            ],
            [
              72.783008,
              19.15
            ],
            [
              72.769336,
              19.15
            ]
          ]
        ]
      }
    },
    {
      "type": "Feature",
      "properties": {
        "spill_id": "palsar_523",
        "confidence": 0.85
      },
      "geometry": {
        "type": "Polygon",
        "coordinates": [
          [
            [
              72.582031,
              19.132227
            ],
            [
              72.583398,
              19.130859
            ],
            [
              72.583398,
              19.126758
            ],
            [
              72.586133,
              19.124023
            ],
            [
              72.586133,
              19.122656
            ],
            [
              72.592969,
              19.118555
            ],
            [
              72.59707,
              19.118555
            ],
            [
              72.598438,
              19.119922
            ],
            [
              72.603906,
              19.121289
            ],
            [
              72.612109,
              19.129492
            ],
            [
              72.614844,
              19.130859
            ],
            [
              72.623047,
              19.130859
            ],
            [
              72.628516,
              19.133594
            ],
            [
              72.63125,
              19.136328
            ],
            [
              72.635352,
              19.137695
            ],
            [
              72.636719,
              19.14043
            ],
            [
              72.633984,
              19.141797
            ],
            [
              72.625781,
              19.15
            ],
            [
              72.586133,
              19.15
            ],
            [
              72.586133,
              19.147266
            ],
            [
              72.582031,
              19.137695
            ],
            [
              72.582031,
              19.132227
            ]
          ]
        ]
      }
    }
  ]
}