{
  "type": "FeatureCollection",
  "features": [
    {
      "type": "Feature",
      "properties": {
        "spill_id": "palsar_436",
        "confidence": 0.88
      },
      "geometry": {
        "type": "Polygon",
        "coordinates": [
          [
            [
              72.520508,
              19.002344
            ],
            [
              72.521875,
              18.968164
            ],
            [
              72.53418,
              18.951758
            ],
            [
              72.557422,
              18.938086
            ],
            [
              72.569727,
              18.938086
            ],
            [
              72.586133,
              18.912109
            ],
            [
              72.609375,
              18.912109
            ],
            [
              72.639453,
              18.879297
            ],
            [
              72.688672,
              18.842383
            ],
            [
              72.694141,
              18.819141
            ],
            [
              72.732422,
              18.801367
            ],
            [
              72.75293,
              18.801367
            ],
            [
              72.7625,
              18.810938
            ],
            [
              72.766602,
              18.821875
            ],
            [
              72.747461,
              18.860156
            ],
            [
              72.731055,
              18.856055
            ],
            [
              72.720117,
              18.861523
            ],
            [
              72.683203,
              18.901172
            ],
            [
              72.657227,
              18.909375
            ],
            [
              72.624414,
              18.938086
            ],
            [
              72.565625,
              18.968164
            ],
            [
              72.551953,
              18.985938
            ],
            [
              72.520508,
              19.002344
            ]
          ]
        ]
      }
    }
  ]
}