{
  "type": "FeatureCollection",
  "features": [
    {
      "type": "Feature",
      "properties": {
        "spill_id": "palsar_487",
        "confidence": 0.95
      },
      "geometry": {
        "type": "Polygon",
        "coordinates": [
          [
            [
              72.616211,
              18.808203
            ],
            [
              72.613477,
              18.810938
            ],
            [
              72.612109,
              18.80957
            ],
            [
              72.610742,
              18.80957
            ],
            [
              72.609375,
              18.810938
            ],
            [
              72.605273,
              18.810938
            ],
            [
              72.603906,
              18.80957
            ],
            [
              72.601172,
              18.80957
            ],
            [
              72.599805,
              18.808203
            ],
            [
              72.59707,
              18.808203
            ],
            [
              72.594336,
              18.805469
            ],
            [
              72.594336,
              18.804102
            ],
            [
              72.595703,
              18.802734
            ],
            [
              72.595703,
              18.801367
            ],
            [
              72.613477,
              18.801367
            ],
            [
              72.613477,
              18.802734
            ],
            [
              72.614844,
              18.804102
            ],
            [
              72.614844,
              18.805469
            ],
            [
              72.616211,
              18.806836
            ],
            [
              72.616211,
              18.808203
            ]
          ]
        ]
      }
    },
    {
      "type": "Feature",
      "properties": {
        "spill_id": "palsar_487",
        "confidence": 0.95
      },
      "geometry": {
        "type": "Polygon",
        "coordinates": [
          [
            [
              72.576562,
              18.875195
            ],
            [
              72.575195,
              18.876562
            ],
            [
              72.566992,
              18.876562
            ],
            [
              72.565625,
              18.875195
            ],
            [
              72.564258,
              18.875195
            ],
            [
              72.562891,
              18.873828
            ],
            [
              72.561523,
              18.873828
            ],
            [
              72.557422,
              18.871094
            ],
            [
              72.554688,
              18.871094
            ],
            [
              72.55332,
              18.869727
            ],
            [
              72.551953,
              18.869727
            ],
            [
              72.549219,
              18.866992
            ],
            [
              72.549219,
              18.865625
            ],
            [
              72.547852,
              18.864258
            ],
            [
              72.547852,
              18.861523
            ],
            [
              72.546484,
              18.860156
            ],
            [
              72.547852,
              18.856055
            ],
            [
              72.550586,
              18.85332
            ],
            [
              72.551953,
              18.85332
            ],
            [
              72.55332,
              18.851953
            ],
            [
              72.557422,
              18.851953
            ],
            [
              72.558789,
              18.85332
            ],
            [
              72.562891,
              18.85332
            ],
            [
              72.564258,
              18.854688
            ],
            [
              72.565625,
              18.854688
            ],
            [
              72.569727,
              18.857422
            ],
            [
              72.572461,
              18.857422
            ],
            [
              72.576562,
              18.861523
            ],
            [
              72.576562,
              18.875195
            ]
          ]
        ]
      }
    },
    {
      "type": "Feature",
      "properties": {
        "spill_id": "palsar_487",
        "confidence": 0.95
      },
      "geometry": {
        "type": "Polygon",
        "coordinates": [
          [
            [
              72.590234,
              19.136328
            ],
            [
              72.584766,
              19.136328
            ],
            [
              72.579297,
              19.130859
            ],
            [
              72.579297,
              19.126758
            ],
            [
              72.580664,
              19.125391
            ],
            [
              72.580664,
              19.124023
            ],
            [
              72.582031,
              19.122656
            ],
            [
              72.582031,
              19.121289
            ],
            [
              72.583398,
              19.119922
            ],
            [
              72.586133,
              19.119922
            ],
            [
              72.588867,
              19.122656
            ],
            [
              72.588867,
              19.124023
            ],
            [
              72.590234,
              19.125391
            ],
            [
              72.590234,
              19.128125
            ],
            [
              72.591602,
              19.129492
            ],
            [
              72.591602,
              19.134961
            ],
            [
              72.590234,
              19.136328
            ]
          ]
        ]
      }
    },
    {
      "type": "Feature",
      "properties": {
        "spill_id": "palsar_487",
        "confidence": 0.95
      },
      "geometry": {
        "type": "Polygon",
        "coordinates": [
          [
            [
              72.623047,
              19.15
            ],
            [
              72.616211,
              19.092578
            ],
            [
              72.598438,
              19.093945
            ],
            [
              72.558789,
              19.025586
            ],
            [
              72.5,
              19.000977
            ],
            [
              72.5,
              18.898438
            ],
            [
              72.527344,
              18.884766
            ],
            [
              72.602539,
              18.898438
            ],
            [
              72.63125,
              18.928516
            ],
            [
              72.636719,
              18.850586
            ],
            [
              72.675,
              18.801367
            ],
            [
              72.780273,
              18.801367
            ],
            [
              72.784375,
              18.83418
            ],
            [
              72.717383,
              18.869727
            ],
            [
              72.713281,
              18.914844
            ],
            [
              72.726953,
              18.950391
            ],
            [
              72.780273,
              18.958594
            ],
            [
              72.848633,
              19.003711
            ],
            [
              72.848633,
              19.089844
            ],
            [
              72.829492,
              19.074805
            ],
            [
              72.754297,
              19.078906
            ],
            [
              72.780273,
              19.099414
            ],
            [
              72.80625,
              19.089844
            ],
            [
              72.848633,
              19.10625
            ],
            [
              72.848633,
              19.15
            ],
            [
              72.802148,
              19.137695
            ],
            [
              72.766602,
              19.15
            ],
            [
              72.703711,
              19.058398
            ],
            [
              72.683203,
              19.077539
            ],
            [
              72.716016,
              19.113086
            ],
            [
              72.720117,
              19.15
            ],
            [
              72.623047,
              19.15
            ]
          ]
        ]
      }
    }
  ]
}