{
  "type": "FeatureCollection",
  "features": [
    {
      "type": "Feature",
      "properties": {
        "spill_id": "palsar_626",
        "confidence": 0.92
      },
      "geometry": {
        "type": "Polygon",
        "coordinates": [
          [
            [
              72.848633,
              18.949023
            ],
            [
              72.833594,
              18.950391
            ],
            [
              72.800781,
              18.936719
            ],
            [
              72.740625,
              18.927148
            ],
            [
              72.71875,
              18.929883
            ],
            [
              72.668164,
              18.916211
            ],
            [
              72.635352,
              18.894336
            ],
            [
              72.501367,
              18.851953
            ],
            [
              72.5,
              18.819141
            ],
            [
              72.531445,
              18.824609
            ],
            [
              72.575195,
              18.845117
            ],
            [
              72.632617,
              18.860156
            ],
            [
              72.644922,
              18.869727
            ],
            [
              72.683203,
              18.868359
            ],
            [
              72.748828,
              18.890234
            ],
            [
              72.778906,
              18.8875
            ],
            [
              72.837695,
              18.898438
            ],
            [
              72.848633,
              18.905273
            ],
            [
              72.848633,
              18.949023
            ]
          ]
        ]
      }
    }
  ]
}