{
  "type": "FeatureCollection",
  "features": [
    {
      "type": "Feature",
      "properties": {
        "spill_id": "palsar_633",
        "confidence": 0.87
      },
      "geometry": {
        "type": "Polygon",
        "coordinates": [
          [
            [
              72.80625,
              18.882031
            ],
            [
              72.804883,
              18.879297
            ],
            [
              72.804883,
              18.872461
            ],
            [
              72.810352,
              18.868359
            ],
            [
              72.81582,
              18.865625
            ],
            [
              72.818555,
              18.865625
            ],
            [
              72.834961,
              18.857422
            ],
            [
              72.84043,
              18.857422
            ],
            [
              72.841797,
              18.856055
            ],
            [
              72.843164,
              18.857422
            ],
            [
              72.844531,
              18.856055
            ],
            [
              72.845898,
              18.857422
            ],
            [
              72.848633,
              18.857422
            ],
            [
              72.848633,
              18.882031
            ],
            [
              72.843164,
              18.884766
            ],
            [
              72.837695,
              18.884766
            ],
            [
              72.836328,
              18.886133
            ],
            [
              72.829492,
              18.886133
            ],
            [
              72.828125,
              18.8875
            ],
            [
              72.817187,
              18.8875
            ],
            [
              72.80625,
              18.882031
            ]
          ]
        ]
      }
    },
    {
      "type": "Feature",
      "properties": {
        "spill_id": "palsar_633",
        "confidence": 0.87
      },
      "geometry": {
        "type": "Polygon",
        "coordinates": [
          [
            [
              72.804883,
              18.902539
            ],
            [
              72.799414,
              18.909375
            ],
            [
              72.707812,
              18.914844
            ],
            [
              72.690039,
              18.908008
            ],
            [
              72.651758,
              18.910742
            ],
            [
              72.636719,
              18.901172
            ],
            [
              72.612109,
              18.913477
            ],
            [
              72.551953,
              18.894336
            ],
            [
              72.5,
              18.8875
            ],
            [
              72.5,
              18.820508
            ],
            [
              72.542383,
              18.801367
            ],
            [
              72.582031,
              18.801367
            ],
            [
              72.592969,
              18.819141
            ],
            [
              72.605273,
              18.801367
            ],
            [
              72.655859,
              18.801367
            ],
            [
              72.609375,
              18.832812
            ],
            [
              72.554688,
              18.84375
            ],
            [
              72.546484,
              18.856055
            ],
            [
              72.566992,
              18.871094
            ],
            [
              72.612109,
              18.882031
            ],
            [
              72.703711,
              18.8875
            ],
            [
              72.744727,
              18.882031
            ],
            [
              72.792578,
              18.891602
            ],
            [
              72.804883,
              18.902539
            ]
          ]
        ]
      }
    },
    {
      "type": "Feature",
      "properties": {
        "spill_id": "palsar_633",
        "confidence": 0.87
      },
      "geometry": {
        "type": "Polygon",
        "coordinates": [
          [
            [
              72.515039,
              19.15
            ],
            [
              72.525977,
              19.117188
            ],
            [
              72.633984,
              19.108984
            ],
            [
              72.651758,
              19.092578
            ],
            [
              72.644922,
              19.063867
            ],
            [
              72.711914,
              19.043359
            ],
            [
              72.722852,
              19.024219
            ],
            [
              72.558789,
              19.043359
            ],
            [
              72.524609,
              19.032422
            ],
            [
              72.538281,
              19.017383
            ],
            [
              72.5875,
              19.016016
            ],
            [
              72.654492,
              18.991406
            ],
            [
              72.740625,
              19.005078
            ],
            [
              72.808984,
              18.996875
            ],
            [
              72.828125,
              19.006445
            ],
            [
              72.821289,
              19.047461
            ],
            [
              72.848633,
              19.058398
            ],
            [
              72.84043,
              19.073438
            ],
            [
              72.795312,
              19.061133
            ],
            [
              72.687305,
              19.085742
            ],
            [
              72.685938,
              19.104883
            ],
            [
              72.659961,
              19.129492
            ],
            [
              72.62168,
              19.143164
            ],
            [
              72.580664,
              19.129492
            ],
            [
              72.554688,
              19.15
            ],
            [
              72.515039,
              19.15
            ]
          ]
        ]
      }
    }
  ]
}