{
  "type": "FeatureCollection",
  "features": [
    {
      "type": "Feature",
      "properties": {
        "spill_id": "palsar_564",
        "confidence": 0.91
      },
      "geometry": {
        "type": "Polygon",
        "coordinates": [
          [
            [
              72.629883,
              18.845117
            ],
            [
              72.63125,
              18.84375
            ],
            [
              72.63125,
              18.842383
            ],
            [
              72.633984,
              18.838281
            ],
            [
              72.635352,
              18.838281
            ],
            [
              72.636719,
              18.836914
            ],
            [
              72.642187,
              18.836914
            ],
            [
              72.643555,
              18.835547
            ],
            [
              72.644922,
              18.835547
            ],
            [
              72.646289,
              18.836914
            ],
            [
              72.649023,
              18.836914
            ],
            [
              72.651758,
              18.839648
            ],
            [
              72.653125,
              18.839648
            ],
            [
              72.654492,
              18.841016
            ],
            [
              72.655859,
              18.841016
            ],
            [
              72.657227,
              18.842383
            ],
            [
              72.658594,
              18.842383
            ],
            [
              72.661328,
              18.845117
            ],
            [
              72.661328,
              18.846484
            ],
            [
              72.657227,
              18.849219
            ],
            [
              72.654492,
              18.849219
            ],
            [
              72.653125,
              18.850586
            ],
            [
              72.649023,
              18.850586
            ],
            [
              72.647656,
              18.851953
            ],
            [
              72.636719,
              18.851953
            ],
            [
              72.635352,
              18.850586
            ],
            [
              72.633984,
              18.850586
            ],
            [
              72.632617,
              18.849219
            ],
            [
              72.632617,
              18.847852
            ],
            [
              72.629883,
              18.845117
            ]
          ]
        ]
      }
    },
    {
      "type": "Feature",
      "properties": {
        "spill_id": "palsar_564",
        "confidence": 0.91
      },
      "geometry": {
        "type": "Polygon",
        "coordinates": [
          [
            [
              72.5,
              18.864258
            ],
            [
              72.5,
              18.856055
            ],
            [
              72.502734,
              18.856055
            ],
            [
              72.506836,
              18.851953
            ],
            [
              72.508203,
              18.851953
            ],
            [
              72.50957,
              18.850586
            ],
            [
              72.510938,
              18.850586
            ],
            [
              72.517773,
              18.846484
            ],
            [
              72.53418,
              18.846484
            ],
            [
              72.536914,
              18.849219
            ],
            [
              72.538281,
              18.849219
            ],
            [
              72.538281,
              18.854688
            ],
            [
              72.536914,
              18.856055
            ],
            [
              72.535547,
              18.856055
            ],
            [
              72.532812,
              18.858789
            ],
            [
              72.531445,
              18.858789
            ],
            [
              72.524609,
              18.862891
            ],
            [
              72.520508,
              18.862891
            ],
            [
              72.519141,
              18.864258
            ],
            [
              72.5,
              18.864258
            ]
          ]
        ]
      }
    },
    {
      "type": "Feature",
      "properties": {
        "spill_id": "palsar_564",
        "confidence": 0.91
      },
      "geometry": {
        "type": "Polygon",
        "coordinates": [
          [
            [
              72.506836,
              19.000977
            ],
            [
              72.513672,
              18.96543
            ],
            [
              72.5,
              18.961328
            ],
            [
              72.5,
              18.943555
            ],
            [
              72.531445,
              18.935352
            ],
            [
              72.551953,
              18.909375
            ],
            [
              72.528711,
              18.892969
            ],
            [
              72.538281,
              18.868359
            ],
            [
              72.557422,
              18.866992
            ],
            [
              72.583398,
              18.882031
            ],
            [
              72.601172,
              18.873828
            ],
            [
              72.646289,
              18.902539
            ],
            [
              72.636719,
              18.917578
            ],
            [
              72.675,
              18.898438
            ],
            [
              72.672266,
              18.886133
            ],
            [
              72.683203,
              18.87793
            ],
            [
              72.747461,
              18.871094
            ],
            [
              72.769336,
              18.84375
            ],
            [
              72.789844,
              18.835547
            ],
            [
              72.777539,
              18.821875
            ],
            [
              72.789844,
              18.801367
            ],
            [
              72.836328,
              18.801367
            ],
            [
              72.832227,
              18.815039
            ],
            [
              72.848633,
              18.821875
            ],
            [
              72.818555,
              18.849219
            ],
            [
              72.832227,
              18.85332
            ],
            [
              72.848633,
              18.841016
            ],
            [
              72.848633,
              18.866992
            ],
            [
              72.80625,
              18.888867
            ],
            [
              72.765234,
              18.892969
            ],
            [
              72.766602,
              18.917578
            ],
            [
              72.664062,
              18.947656
            ],
            [
              72.5875,
              18.942188
            ],
            [
              72.545117,
              18.98457
            ],
            [
              72.506836,
              19.000977
            ]
          ]
        ]
      }
    },
    {
      "type": "Feature",
      "properties": {
        "spill_id": "palsar_564",
        "confidence": 0.91
      },
      "geometry": {
        "type": "Polygon",
        "coordinates": [
          [
            [
              72.75293,
              19.031055
            ],
            [
              72.75293,
              19.029687
            ],
            [
              72.755664,
              19.026953
            ],
            [
              72.757031,
              19.026953
            ],
            [
              72.761133,
              19.024219
            ],
            [
              72.766602,
              19.024219
            ],
            [
              72.767969,
              19.022852
            ],
            [
              72.785742,
              19.022852
            ],
            [
              72.787109,
              19.024219
            ],
            [
              72.789844,
              19.024219
            ],
            [
              72.791211,
              19.025586
            ],
            [
              72.791211,
              19.02832
            ],
            [
              72.789844,
              19.02832
            ],
            [
              72.788477,
              19.029687
            ],
            [
              72.784375,
              19.029687
            ],
            [
              72.783008,
              19.031055
            ],
            [
              72.780273,
              19.031055
            ],
            [
              72.776172,
              19.033789
            ],
            [
              72.77207,
              19.033789
            ],
            [
              72.770703,
              19.035156
            ],
            [
              72.765234,
              19.035156
            ],
            [
              72.763867,
              19.033789
            ],
            [
              72.759766,
              19.033789
            ],
            [
              72.758398,
              19.032422
            ],
            [
              72.755664,
              19.032422
            ],
            [
              72.754297,
              19.031055
            ],
            [
              72.75293,
              19.031055
            ]
          ]
        ]
      }
    },
    {
      "type": "Feature",
      "properties": {
        "spill_id": "palsar_564",
        "confidence": 0.91
      },
      "geometry": {
        "type": "Polygon",
        "coordinates": [
          [
            [
              72.800781,
              19.093945
            ],
            [
              72.800781,
              19.091211
            ],
            [
              72.804883,
              19.087109
            ],
            [
              72.804883,
              19.085742
            ],
            [
              72.80625,
              19.084375
            ],
            [
              72.807617,
              19.084375
            ],
            [
              72.811719,
              19.080273
            ],
            [
              72.813086,
              19.080273
            ],
            [
              72.81582,
              19.077539
            ],
            [
              72.817187,
              19.077539
            ],
            [
              72.818555,
              19.076172
            ],
            [
              72.821289,
              19.076172
            ],
            [
              72.822656,
              19.077539
            ],
            [
              72.824023,
              19.077539
            ],
            [
              72.825391,
              19.078906
            ],
            [
              72.825391,
              19.083008
            ],
            [
              72.824023,
              19.084375
            ],
            [
              72.824023,
              19.085742
            ],
            [
              72.819922,
              19.089844
            ],
            [
              72.817187,
              19.089844
            ],
            [
              72.81582,
              19.091211
            ],
            [
              72.813086,
              19.091211
            ],
            [
              72.811719,
              19.092578
            ],
            [
              72.810352,
              19.092578
            ],
            [
              72.808984,
              19.093945
            ],
            [
              72.800781,
              19.093945
            ]
          ]
        ]
      }
    },
    {
      "type": "Feature",
      "properties": {
        "spill_id": "palsar_564",
        "confidence": 0.91
      },
      "geometry": {
        "type": "Polygon",
        "coordinates": [
          [
            [
              72.5,
              19.09668
            ],
            [
              72.5,
              19.078906
            ],
            [
              72.502734,
              19.078906
            ],
            [
              72.504102,
              19.077539
            ],
            [
              72.505469,
              19.077539
            ],
            [
              72.508203,
              19.080273
            ],
            [
              72.508203,
              19.081641
            ],
            [
              72.513672,
              19.085742
            ],
            [
              72.516406,
              19.084375
            ],
            [
              72.520508,
              19.084375
            ],
            [
              72.521875,
              19.083008
            ],
            [
              72.535547,
              19.083008
            ],
            [
              72.536914,
              19.081641
            ],
            [
              72.547852,
              19.081641
            ],
            [
              72.551953,
              19.084375
            ],
            [
              72.551953,
              19.087109
            ],
            [
              72.547852,
              19.092578
            ],
            [
              72.542383,
              19.095312
            ],
            [
              72.538281,
              19.095312
            ],
            [
              72.536914,
              19.09668
            ],
            [
              72.523242,
              19.09668
            ],
            [
              72.521875,
              19.095312
            ],
            [
              72.516406,
              19.095312
            ],
            [
              72.515039,
              19.09668
            ],
            [
              72.5,
              19.09668
            ]
          ]
        ]
      }
    },
    {
      "type": "Feature",
      "properties": {
        "spill_id": "palsar_564",
        "confidence": 0.91
      },
      "geometry": {
        "type": "Polygon",
        "coordinates": [
          [
            [
              72.802148,
              19.15
            ],
            [
              72.802148,
              19.148633
            ],
            [
              72.803516,
              19.147266
            ],
            [
              72.803516,
              19.144531
            ],
            [
              72.80625,
              19.141797
            ],
            [
              72.808984,
              19.141797
            ],
            [
              72.811719,
              19.144531
            ],
            [
              72.811719,
              19.15
            ],
            [
              72.802148,
              19.15
            ]
          ]
        ]
      }
    }
  ]
}