{
  "type": "FeatureCollection",
  "features": [
    {
      "type": "Feature",
      "properties": {
        "spill_id": "palsar_42",
        "confidence": 0.84
      },
      "geometry": {
        "type": "Polygon",
        "coordinates": [
          [
            [
              72.5,
              18.846484
            ],
            [
              72.5,
              18.825977
            ],
            [
              72.501367,
              18.825977
            ],
            [
              72.504102,
              18.823242
            ],
            [
              72.513672,
              18.823242
            ],
            [
              72.515039,
              18.824609
            ],
            [
              72.516406,
              18.824609
            ],
            [
              72.519141,
              18.827344
            ],
            [
              72.519141,
              18.830078
            ],
            [
              72.520508,
              18.831445
            ],
            [
              72.520508,
              18.835547
            ],
            [
              72.519141,
              18.836914
            ],
            [
              72.519141,
              18.841016
            ],
            [
              72.517773,
              18.842383
            ],
            [
              72.517773,
              18.84375
            ],
            [
              72.515039,
              18.846484
            ],
            [
              72.513672,
              18.846484
            ],
            [
              72.512305,
              18.847852
            ],
            [
              72.502734,
              18.847852
            ],
            [
              72.501367,
              18.846484
            ],
            [
              72.5,
              18.846484
            ]
          ]
        ]
      }
    },
    {
      "type": "Feature",
      "properties": {
        "spill_id": "palsar_42",
        "confidence": 0.84
      },
      "geometry": {
        "type": "Polygon",
        "coordinates": [
          [
            [
              72.562891,
              18.862891
            ],
            [
              72.562891,
              18.861523
            ],
            [
              72.565625,
              18.858789
            ],
            [
              72.572461,
              18.858789
            ],
            [
              72.573828,
              18.860156
            ],
            [
              72.573828,
              18.864258
            ],
            [
              72.571094,
              18.866992
            ],
            [
              72.566992,
              18.866992
            ],
            [
              72.562891,
              18.862891
            ]
          ]
        ]
      }
    },
    {
      "type": "Feature",
      "properties": {
        "spill_id": "palsar_42",
        "confidence": 0.84
      },
      "geometry": {
        "type": "Polygon",
        "coordinates": [
          [
            [
              72.662695,
              18.879297
            ],
            [
              72.661328,
              18.879297
            ],
            [
              72.659961,
              18.880664
            ],
            [
              72.653125,
              18.880664
            ],
            [
              72.651758,
              18.879297
            ],
            [
              72.649023,
              18.879297
            ],
            [
              72.646289,
              18.876562
            ],
            [
              72.644922,
              18.876562
            ],
            [
              72.642187,
              18.873828
            ],
            [
              72.642187,
              18.872461
            ],
            [
              72.638086,
              18.868359
            ],
            [
              72.638086,
              18.866992
            ],
            [
              72.636719,
              18.865625
            ],
            [
              72.635352,
              18.865625
            ],
            [
              72.632617,
              18.862891
            ],
            [
              72.632617,
              18.860156
            ],
            [
              72.633984,
              18.858789
            ],
            [
              72.635352,
              18.858789
            ],
            [
              72.639453,
              18.856055
            ],
            [
              72.651758,
              18.856055
            ],
            [
              72.653125,
              18.857422
            ],
            [
              72.657227,
              18.858789
            ],
            [
              72.657227,
              18.861523
            ],
            [
              72.658594,
              18.862891
            ],
            [
              72.658594,
              18.864258
            ],
            [
              72.659961,
              18.865625
            ],
            [
              72.659961,
              18.866992
            ],
            [
              72.662695,
              18.871094
            ],
            [
              72.662695,
              18.873828
            ],
            [
              72.664062,
              18.875195
            ],
            [
              72.662695,
              18.879297
            ]
          ]
        ]
      }
    },
    {
      "type": "Feature",
      "properties": {
        "spill_id": "palsar_42",
        "confidence": 0.84
      },
      "geometry": {
        "type": "Polygon",
        "coordinates": [
          [
            [
              72.5,
              18.884766
            ],
            [
              72.5,
              18.857422
            ],
            [
              72.506836,
              18.85332
            ],
            [
              72.517773,
              18.85332
            ],
            [
              72.530078,
              18.860156
            ],
            [
              72.535547,
              18.861523
            ],
            [
              72.542383,
              18.866992
            ],
            [
              72.551953,
              18.866992
            ],
            [
              72.55332,
              18.868359
            ],
            [
              72.55332,
              18.871094
            ],
            [
              72.551953,
              18.872461
            ],
            [
              72.541016,
              18.872461
            ],
            [
              72.515039,
              18.883398
            ],
            [
              72.5,
              18.884766
            ]
          ]
        ]
      }
    },
    {
      "type": "Feature",
      "properties": {
        "spill_id": "palsar_42",
        "confidence": 0.84
      },
      "geometry": {
        "type": "Polygon",
        "coordinates": [
          [
            [
              72.808984,
              18.928516
            ],
            [
              72.80625,
              18.928516
            ],
            [
              72.804883,
              18.927148
            ],
            [
              72.804883,
              18.925781
            ],
            [
              72.803516,
              18.924414
            ],
            [
              72.803516,
              18.917578
            ],
            [
              72.800781,
              18.914844
            ],
            [
              72.800781,
              18.910742
            ],
            [
              72.802148,
              18.909375
            ],
            [
              72.807617,
              18.909375
            ],
            [
              72.808984,
              18.910742
            ],
            [
              72.808984,
              18.918945
            ],
            [
              72.810352,
              18.920312
            ],
            [
              72.810352,
              18.927148
            ],
            [
              72.808984,
              18.928516
            ]
          ]
        ]
      }
    },
    {
      "type": "Feature",
      "properties": {
        "spill_id": "palsar_42",
        "confidence": 0.84
      },
      "geometry": {
        "type": "Polygon",
        "coordinates": [
          [
            [
              72.748828,
              18.972266
            ],
            [
              72.743359,
              18.96543
            ],
            [
              72.743359,
              18.943555
            ],
            [
              72.741992,
              18.939453
            ],
            [
              72.744727,
              18.933984
            ],
            [
              72.748828,
              18.929883
            ],
            [
              72.754297,
              18.920312
            ],
            [
              72.7625,
              18.912109
            ],
            [
              72.765234,
              18.910742
            ],
            [
              72.781641,
              18.912109
            ],
            [
              72.784375,
              18.916211
            ],
            [
              72.783008,
              18.917578
            ],
            [
              72.783008,
              18.925781
            ],
            [
              72.784375,
              18.927148
            ],
            [
              72.783008,
              18.936719
            ],
            [
              72.777539,
              18.944922
            ],
            [
              72.77207,
              18.949023
            ],
            [
              72.77207,
              18.964062
            ],
            [
              72.767969,
              18.972266
            ],
            [
              72.763867,
              18.975
            ],
            [
              72.757031,
              18.975
            ],
            [
              72.748828,
              18.972266
            ]
          ]
        ]
      }
    },
    {
      "type": "Feature",
      "properties": {
        "spill_id": "palsar_42",
        "confidence": 0.84
      },
      "geometry": {
        "type": "Polygon",
        "coordinates": [
          [
            [
              72.602539,
              18.973633
            ],
            [
              72.594336,
              18.975
            ],
            [
              72.580664,
              18.96543
            ],
            [
              72.572461,
              18.962695
            ],
            [
              72.560156,
              18.964062
            ],
            [
              72.547852,
              18.955859
            ],
            [
              72.525977,
              18.93125
            ],
            [
              72.513672,
              18.925781
            ],
            [
              72.5,
              18.927148
            ],
            [
              72.5,
              18.901172
            ],
            [
              72.50957,
              18.901172
            ],
            [
              72.523242,
              18.908008
            ],
            [
              72.564258,
              18.936719
            ],
            [
              72.579297,
              18.954492
            ],
            [
              72.598438,
              18.961328
            ],
            [
              72.602539,
              18.968164
            ],
            [
              72.602539,
              18.973633
            ]
          ]
        ]
      }
    },
    {
      "type": "Feature",
      "properties": {
        "spill_id": "palsar_42",
        "confidence": 0.84
      },
      "geometry": {
        "type": "Polygon",
        "coordinates": [
          [
            [
              72.517773,
              18.991406
            ],
            [
              72.517773,
              18.988672
            ],
            [
              72.519141,
              18.987305
            ],
            [
              72.530078,
              18.987305
            ],
            [
              72.532812,
              18.990039
            ],
            [
              72.532812,
              18.992773
            ],
            [
              72.531445,
              18.994141
            ],
            [
              72.530078,
              18.994141
            ],
            [
              72.528711,
              18.995508
            ],
            [
              72.523242,
              18.995508
            ],
            [
              72.521875,
              18.994141
            ],
            [
              72.520508,
              18.994141
            ],
            [
              72.517773,
              18.991406
            ]
          ]
        ]
      }
    },
    {
      "type": "Feature",
      "properties": {
        "spill_id": "palsar_42",
        "confidence": 0.84
      },
      "geometry": {
        "type": "Polygon",
        "coordinates": [
          [
            [
              72.795312,
              19.111719
            ],
            [
              72.791211,
              19.104883
            ],
            [
              72.791211,
              19.09668
            ],
            [
              72.778906,
              19.077539
            ],
            [
              72.777539,
              19.059766
            ],
            [
              72.789844,
              19.032422
            ],
            [
              72.799414,
              19.031055
            ],
            [
              72.804883,
              19.033789
            ],
            [
              72.811719,
              19.025586
            ],
            [
              72.819922,
              19.024219
            ],
            [
              72.824023,
              19.029687
            ],
            [
              72.813086,
              19.037891
            ],
            [
              72.811719,
              19.043359
            ],
            [
              72.802148,
              19.051562
            ],
            [
              72.802148,
              19.059766
            ],
            [
              72.807617,
              19.074805
            ],
            [
              72.818555,
              19.084375
            ],
            [
              72.829492,
              19.088477
            ],
            [
              72.833594,
              19.09668
            ],
            [
              72.830859,
              19.103516
            ],
            [
              72.825391,
              19.107617
            ],
            [
              72.810352,
              19.107617
            ],
            [
              72.802148,
              19.111719
            ],
            [
              72.795312,
              19.111719
            ]
          ]
        ]
      }
    },
    {
      "type": "Feature",
      "properties": {
        "spill_id": "palsar_42",
        "confidence": 0.84
      },
      "geometry": {
        "type": "Polygon",
        "coordinates": [
          [
            [
              72.521875,
              19.133594
            ],
            [
              72.519141,
              19.133594
            ],
            [
              72.517773,
              19.134961
            ],
            [
              72.513672,
              19.134961
            ],
            [
              72.512305,
              19.133594
            ],
            [
              72.508203,
              19.133594
            ],
            [
              72.506836,
              19.132227
            ],
            [
              72.505469,
              19.132227
            ],
            [
              72.504102,
              19.130859
            ],
            [
              72.502734,
              19.130859
            ],
            [
              72.501367,
              19.129492
            ],
            [
              72.5,
              19.129492
            ],
            [
              72.5,
              19.114453
            ],
            [
              72.515039,
              19.114453
            ],
            [
              72.516406,
              19.11582
            ],
            [
              72.517773,
              19.11582
            ],
            [
              72.521875,
              19.119922
            ],
            [
              72.521875,
              19.122656
            ],
            [
              72.523242,
              19.124023
            ],
            [
              72.523242,
              19.130859
            ],
            [
              72.521875,
              19.132227
            ],
            [
              72.521875,
              19.133594
            ]
          ]
        ]
      }
    }
  ]
}