{
  "type": "FeatureCollection",
  "features": [
    {
      "type": "Feature",
      "properties": {
        "spill_id": "palsar_417",
        "confidence": 0.81
      },
      "geometry": {
        "type": "Polygon",
        "coordinates": [
          [
            [
              72.647656,
              18.820508
            ],
            [
              72.644922,
              18.817773
            ],
            [
              72.644922,
              18.812305
            ],
            [
              72.646289,
              18.810938
            ],
            [
              72.646289,
              18.80957
            ],
            [
              72.647656,
              18.808203
            ],
            [
              72.651758,
              18.808203
            ],
            [
              72.655859,
              18.812305
            ],
            [
              72.655859,
              18.817773
            ],
            [
              72.654492,
              18.819141
            ],
            [
              72.653125,
              18.819141
            ],
            [
              72.651758,
              18.820508
            ],
            [
              72.647656,
              18.820508
            ]
          ]
        ]
      }
    },
    {
      "type": "Feature",
      "properties": {
        "spill_id": "palsar_417",
        "confidence": 0.81
      },
      "geometry": {
        "type": "Polygon",
        "coordinates": [
          [
            [
              72.716016,
              18.851953
            ],
            [
              72.707812,
              18.857422
            ],
            [
              72.706445,
              18.856055
            ],
            [
              72.702344,
              18.856055
            ],
            [
              72.699609,
              18.85332
            ],
            [
              72.698242,
              18.85332
            ],
            [
              72.696875,
              18.851953
            ],
            [
              72.695508,
              18.851953
            ],
            [
              72.692773,
              18.849219
            ],
            [
              72.691406,
              18.849219
            ],
            [
              72.691406,
              18.847852
            ],
            [
              72.685938,
              18.841016
            ],
            [
              72.685938,
              18.836914
            ],
            [
              72.687305,
              18.836914
            ],
            [
              72.688672,
              18.835547
            ],
            [
              72.691406,
              18.835547
            ],
            [
              72.692773,
              18.83418
            ],
            [
              72.702344,
              18.83418
            ],
            [
              72.703711,
              18.835547
            ],
            [
              72.706445,
              18.835547
            ],
            [
              72.710547,
              18.839648
            ],
            [
              72.711914,
              18.839648
            ],
            [
              72.714648,
              18.842383
            ],
            [
              72.714648,
              18.84375
            ],
            [
              72.716016,
              18.845117
            ],
            [
              72.716016,
              18.851953
            ]
          ]
        ]
      }
    },
    {
      "type": "Feature",
      "properties": {
        "spill_id": "palsar_417",
        "confidence": 0.81
      },
      "geometry": {
        "type": "Polygon",
        "coordinates": [
          [
            [
              72.791211,
              18.841016
            ],
            [
              72.792578,
              18.839648
            ],
            [
              72.798047,
              18.839648
            ],
            [
              72.803516,
              18.842383
            ],
            [
              72.807617,
              18.838281
            ],
            [
              72.818555,
              18.838281
            ],
            [
              72.819922,
              18.836914
            ],
            [
              72.826758,
              18.836914
            ],
            [
              72.828125,
              18.838281
            ],
            [
              72.833594,
              18.838281
            ],
            [
              72.839062,
              18.842383
            ],
            [
              72.84043,
              18.842383
            ],
            [
              72.843164,
              18.846484
            ],
            [
              72.843164,
              18.850586
            ],
            [
              72.837695,
              18.857422
            ],
            [
              72.837695,
              18.858789
            ],
            [
              72.832227,
              18.864258
            ],
            [
              72.829492,
              18.864258
            ],
            [
              72.828125,
              18.865625
            ],
            [
              72.814453,
              18.865625
            ],
            [
              72.811719,
              18.862891
            ],
            [
              72.807617,
              18.85332
            ],
            [
              72.802148,
              18.847852
            ],
            [
              72.792578,
              18.845117
            ],
            [
              72.791211,
              18.841016
            ]
          ]
        ]
      }
    },
    {
      "type": "Feature",
      "properties": {
        "spill_id": "palsar_417",
        "confidence": 0.81
      },
      "geometry": {
        "type": "Polygon",
        "coordinates": [
          [
            [
              72.807617,
              18.980469
            ],
            [
              72.80625,
              18.979102
            ],
            [
              72.804883,
              18.979102
            ],
            [
              72.803516,
              18.977734
            ],
            [
              72.802148,
              18.977734
            ],
            [
              72.798047,
              18.975
            ],
            [
              72.798047,
              18.972266
            ],
            [
              72.79668,
              18.970898
            ],
            [
              72.79668,
              18.968164
            ],
            [
              72.798047,
              18.966797
            ],
            [
              72.798047,
              18.964062
            ],
            [
              72.799414,
              18.962695
            ],
            [
              72.799414,
              18.961328
            ],
            [
              72.802148,
              18.958594
            ],
            [
              72.803516,
              18.954492
            ],
            [
              72.80625,
              18.951758
            ],
            [
              72.80625,
              18.949023
            ],
            [
              72.807617,
              18.947656
            ],
            [
              72.811719,
              18.947656
            ],
            [
              72.81582,
              18.951758
            ],
            [
              72.81582,
              18.953125
            ],
            [
              72.817187,
              18.954492
            ],
            [
              72.817187,
              18.958594
            ],
            [
              72.818555,
              18.959961
            ],
            [
              72.818555,
              18.969531
            ],
            [
              72.817187,
              18.970898
            ],
            [
              72.817187,
              18.973633
            ],
            [
              72.81582,
              18.975
            ],
            [
              72.81582,
              18.976367
            ],
            [
              72.811719,
              18.980469
            ],
            [
              72.807617,
              18.980469
            ]
          ]
        ]
      }
    },
    {
      "type": "Feature",
      "properties": {
        "spill_id": "palsar_417",
        "confidence": 0.81
      },
      "geometry": {
        "type": "Polygon",
        "coordinates": [
          [
            [
              72.729688,
              19.037891
            ],
            [
              72.72832,
              19.040625
            ],
            [
              72.725586,
              19.041992
            ],
            [
              72.711914,
              19.032422
            ],
            [
              72.703711,
              19.032422
            ],
            [
              72.692773,
              19.026953
            ],
            [
              72.690039,
              19.024219
            ],
            [
              72.679102,
              19.026953
            ],
            [
              72.675,
              19.024219
            ],
            [
              72.673633,
              19.017383
            ],
            [
              72.677734,
              19.011914
            ],
            [
              72.680469,
              19.010547
            ],
            [
              72.687305,
              19.010547
            ],
            [
              72.699609,
              18.999609
            ],
            [
              72.707812,
              18.999609
            ],
            [
              72.714648,
              19.007812
            ],
            [
              72.717383,
              19.017383
            ],
            [
              72.724219,
              19.024219
            ],
            [
              72.72832,
              19.025586
            ],
            [
              72.729688,
              19.02832
            ],
            [
              72.729688,
              19.037891
            ]
          ]
        ]
      }
    },
    {
      "type": "Feature",
      "properties": {
        "spill_id": "palsar_417",
        "confidence": 0.81
      },
      "geometry": {
        "type": "Polygon",
        "coordinates": [
          [
            [
              72.839062,
              19.058398
            ],
            [
              72.836328,
              19.058398
            ],
            [
              72.834961,
              19.057031
            ],
            [
              72.833594,
              19.057031
            ],
            [
              72.833594,
              19.055664
            ],
            [
              72.832227,
              19.054297
            ],
            [
              72.830859,
              19.054297
            ],
            [
              72.830859,
              19.05293
            ],
            [
              72.828125,
              19.048828
            ],
            [
              72.828125,
              19.046094
            ],
            [
              72.821289,
              19.037891
            ],
            [
              72.821289,
              19.036523
            ],
            [
              72.818555,
              19.032422
            ],
            [
              72.818555,
              19.024219
            ],
            [
              72.822656,
              19.01875
            ],
            [
              72.830859,
              19.01875
            ],
            [
              72.841797,
              19.029687
            ],
            [
              72.841797,
              19.031055
            ],
            [
              72.844531,
              19.033789
            ],
            [
              72.844531,
              19.041992
            ],
            [
              72.839062,
              19.047461
            ],
            [
              72.839062,
              19.050195
            ],
            [
              72.84043,
              19.051562
            ],
            [
              72.84043,
              19.057031
            ],
            [
              72.839062,
              19.058398
            ]
          ]
        ]
      }
    },
    {
      "type": "Feature",
      "properties": {
        "spill_id": "palsar_417",
        "confidence": 0.81
      },
      "geometry": {
        "type": "Polygon",
        "coordinates": [
          [
            [
              72.599805,
              19.059766
            ],
            [
              72.599805,
              19.058398
            ],
            [
              72.598438,
              19.057031
            ],
            [
              72.598438,
              19.044727
            ],
            [
              72.602539,
              19.040625
            ],
            [
              72.603906,
              19.040625
            ],
            [
              72.605273,
              19.039258
            ],
            [
              72.608008,
              19.039258
            ],
            [
              72.612109,
              19.035156
            ],
            [
              72.612109,
              19.033789
            ],
            [
              72.624414,
              19.033789
            ],
            [
              72.625781,
              19.035156
            ],
            [
              72.629883,
              19.036523
            ],
            [
              72.632617,
              19.039258
            ],
            [
              72.632617,
              19.040625
            ],
            [
              72.633984,
              19.041992
            ],
            [
              72.633984,
              19.051562
            ],
            [
              72.632617,
              19.05293
            ],
            [
              72.632617,
              19.054297
            ],
            [
              72.627148,
              19.059766
            ],
            [
              72.625781,
              19.059766
            ],
            [
              72.624414,
              19.061133
            ],
            [
              72.617578,
              19.061133
            ],
            [
              72.616211,
              19.0625
            ],
            [
              72.614844,
              19.061133
            ],
            [
              72.609375,
              19.061133
            ],
            [
              72.608008,
              19.0625
            ],
            [
              72.603906,
              19.0625
            ],
            [
              72.599805,
              19.059766
            ]
          ]
        ]
      }
    },
    {
      "type": "Feature",
      "properties": {
        "spill_id": "palsar_417",
        "confidence": 0.81
      },
      "geometry": {
        "type": "Polygon",
        "coordinates": [
          [
            [
              72.510938,
              19.15
            ],
            [
              72.508203,
              19.144531
            ],
            [
              72.506836,
              19.128125
            ],
            [
              72.512305,
              19.121289
            ],
            [
              72.512305,
              19.117188
            ],
            [
              72.5,
              19.09668
            ],
            [
              72.5,
              19.073438
            ],
            [
              72.50957,
              19.073438
            ],
            [
              72.521875,
              19.081641
            ],
            [
              72.550586,
              19.078906
            ],
            [
              72.564258,
              19.085742
            ],
            [
              72.565625,
              19.089844
            ],
            [
              72.561523,
              19.102148
            ],
            [
              72.554688,
              19.10625
            ],
            [
              72.539648,
              19.108984
            ],
            [
              72.532812,
              19.114453
            ],
            [
              72.532812,
              19.118555
            ],
            [
              72.54375,
              19.129492
            ],
            [
              72.557422,
              19.128125
            ],
            [
              72.565625,
              19.136328
            ],
            [
              72.569727,
              19.145898
            ],
            [
              72.568359,
              19.15
            ],
            [
              72.510938,
              19.15
            ]
          ]
        ]
      }
    }
  ]
}