{
  "type": "FeatureCollection",
  "features": [
    {
      "type": "Feature",
      "properties": {
        "spill_id": "palsar_602",
        "confidence": 0.89
      },
      "geometry": {
        "type": "Polygon",
        "coordinates": [
          [
            [
              72.642187,
              18.865625
            ],
            [
              72.64082,
              18.864258
            ],
            [
              72.64082,
              18.861523
            ],
            [
              72.639453,
              18.860156
            ],
            [
              72.639453,
              18.857422
            ],
            [
              72.636719,
              18.854688
            ],
            [
              72.636719,
              18.846484
            ],
            [
              72.64082,
              18.84375
            ],
            [
              72.643555,
              18.84375
            ],
            [
              72.644922,
              18.845117
            ],
            [
              72.653125,
              18.845117
            ],
            [
              72.654492,
              18.846484
            ],
            [
              72.655859,
              18.846484
            ],
            [
              72.655859,
              18.847852
            ],
            [
              72.658594,
              18.850586
            ],
            [
              72.658594,
              18.858789
            ],
            [
              72.657227,
              18.860156
            ],
            [
              72.657227,
              18.861523
            ],
            [
              72.655859,
              18.861523
            ],
            [
              72.654492,
              18.862891
            ],
            [
              72.653125,
              18.862891
            ],
            [
              72.649023,
              18.865625
            ],
            [
              72.642187,
              18.865625
            ]
          ]
        ]
      }
    },
    {
      "type": "Feature",
      "properties": {
        "spill_id": "palsar_602",
        "confidence": 0.89
      },
      "geometry": {
        "type": "Polygon",
        "coordinates": [
          [
            [
              72.683203,
              18.955859
            ],
            [
              72.680469,
              18.955859
            ],
            [
              72.677734,
              18.953125
            ],
            [
              72.673633,
              18.953125
            ],
            [
              72.672266,
              18.951758
            ],
            [
              72.672266,
              18.947656
            ],
            [
              72.673633,
              18.946289
            ],
            [
              72.675,
              18.946289
            ],
            [
              72.676367,
              18.944922
            ],
            [
              72.679102,
              18.944922
            ],
            [
              72.681836,
              18.947656
            ],
            [
              72.681836,
              18.949023
            ],
            [
              72.683203,
              18.950391
            ],
            [
              72.683203,
              18.955859
            ]
          ]
        ]
      }
    },
    {
      "type": "Feature",
      "properties": {
        "spill_id": "palsar_602",
        "confidence": 0.89
      },
      "geometry": {
        "type": "Polygon",
        "coordinates": [
          [
            [
              72.696875,
              18.988672
            ],
            [
              72.695508,
              18.990039
            ],
            [
              72.683203,
              18.990039
            ],
            [
              72.681836,
              18.988672
            ],
            [
              72.680469,
              18.988672
            ],
            [
              72.675,
              18.983203
            ],
            [
              72.675,
              18.981836
            ],
            [
              72.669531,
              18.976367
            ],
            [
              72.669531,
              18.975
            ],
            [
              72.670898,
              18.975
            ],
            [
              72.675,
              18.970898
            ],
            [
              72.676367,
              18.972266
            ],
            [
              72.679102,
              18.972266
            ],
            [
              72.680469,
              18.973633
            ],
            [
              72.681836,
              18.973633
            ],
            [
              72.683203,
              18.975
            ],
            [
              72.68457,
              18.975
            ],
            [
              72.687305,
              18.977734
            ],
            [
              72.688672,
              18.977734
            ],
            [
              72.691406,
              18.980469
            ],
            [
              72.692773,
              18.980469
            ],
            [
              72.694141,
              18.981836
            ],
            [
              72.694141,
              18.983203
            ],
            [
              72.695508,
              18.98457
            ],
            [
              72.695508,
              18.985938
            ],
            [
              72.696875,
              18.987305
            ],
            [
              72.696875,
              18.988672
            ]
          ]
        ]
      }
    },
    {
      "type": "Feature",
      "properties": {
        "spill_id": "palsar_602",
        "confidence": 0.89
      },
      "geometry": {
        "type": "Polygon",
        "coordinates": [
          [
            [
              72.848633,
              19.066602
            ],
            [
              72.822656,
              19.058398
            ],
            [
              72.830859,
              19.026953
            ],
            [
              72.811719,
              18.998242
            ],
            [
              72.813086,
              18.96543
            ],
            [
              72.773438,
              18.923047
            ],
            [
              72.711914,
              18.879297
            ],
            [
              72.71875,
              18.871094
            ],
            [
              72.765234,
              18.883398
            ],
            [
              72.77207,
              18.872461
            ],
            [
              72.696875,
              18.821875
            ],
            [
              72.690039,
              18.801367
            ],
            [
              72.721484,
              18.808203
            ],
            [
              72.726953,
              18.801367
            ],
            [
              72.774805,
              18.801367
            ],
            [
              72.802148,
              18.827344
            ],
            [
              72.818555,
              18.813672
            ],
            [
              72.841797,
              18.824609
            ],
            [
              72.830859,
              18.835547
            ],
            [
              72.791211,
              18.838281
            ],
            [
              72.808984,
              18.861523
            ],
            [
              72.848633,
              18.883398
            ],
            [
              72.848633,
              19.066602
            ]
          ]
        ]
      }
    },
    {
      "type": "Feature",
      "properties": {
        "spill_id": "palsar_602",
        "confidence": 0.89
      },
      "geometry": {
        "type": "Polygon",
        "coordinates": [
          [
            [
              72.580664,
              19.15
            ],
            [
              72.592969,
              19.132227
            ],
            [
              72.623047,
              19.134961
            ],
            [
              72.64082,
              19.113086
            ],
            [
              72.688672,
              19.083008
            ],
            [
              72.664062,
              19.07207
            ],
            [
              72.649023,
              19.074805
            ],
            [
              72.644922,
              19.087109
            ],
            [
              72.632617,
              19.085742
            ],
            [
              72.646289,
              19.076172
            ],
            [
              72.64082,
              19.061133
            ],
            [
              72.653125,
              19.048828
            ],
            [
              72.725586,
              19.081641
            ],
            [
              72.733789,
              19.077539
            ],
            [
              72.740625,
              19.061133
            ],
            [
              72.754297,
              19.055664
            ],
            [
              72.7625,
              19.069336
            ],
            [
              72.781641,
              19.073438
            ],
            [
              72.788477,
              19.081641
            ],
            [
              72.785742,
              19.088477
            ],
            [
              72.808984,
              19.084375
            ],
            [
              72.798047,
              19.093945
            ],
            [
              72.808984,
              19.104883
            ],
            [
              72.808984,
              19.117188
            ],
            [
              72.785742,
              19.126758
            ],
            [
              72.787109,
              19.139062
            ],
            [
              72.802148,
              19.15
            ],
            [
              72.580664,
              19.15
            ]
          ]
        ]
      }
    },
    {
      "type": "Feature",
      "properties": {
        "spill_id": "palsar_602",
        "confidence": 0.89
      },
      "geometry": {
        "type": "Polygon",
        "coordinates": [
          [
            [
              72.5,
              19.147266
            ],
            [
              72.5,
              19.099414
            ],
            [
              72.53418,
              19.093945
            ],
            [
              72.558789,
              19.076172
            ],
            [
              72.528711,
              19.076172
            ],
            [
              72.516406,
              19.063867
            ],
            [
              72.549219,
              19.044727
            ],
            [
              72.542383,
              19.003711
            ],
            [
              72.571094,
              18.999609
            ],
            [
              72.560156,
              18.962695
            ],
            [
              72.572461,
              18.947656
            ],
            [
              72.580664,
              18.946289
            ],
            [
              72.598438,
              18.968164
            ],
            [
              72.669531,
              19.00918
            ],
            [
              72.670898,
              19.022852
            ],
            [
              72.653125,
              19.040625
            ],
            [
              72.642187,
              19.037891
            ],
            [
              72.643555,
              19.029687
            ],
            [
              72.625781,
              19.01875
            ],
            [
              72.620312,
              19.003711
            ],
            [
              72.588867,
              18.995508
            ],
            [
              72.608008,
              19.036523
            ],
            [
              72.629883,
              19.051562
            ],
            [
              72.584766,
              19.055664
            ],
            [
              72.560156,
              19.073438
            ],
            [
              72.62168,
              19.093945
            ],
            [
              72.598438,
              19.117188
            ],
            [
              72.569727,
              19.111719
            ],
            [
              72.546484,
              19.130859
            ],
            [
              72.550586,
              19.15
            ],
            [
              72.5,
              19.147266
            ]
          ]
        ]
      }
    }
  ]
}