{
  "type": "FeatureCollection",
  "features": [
    {
      "type": "Feature",
      "properties": {
        "spill_id": "palsar_492",
        "confidence": 0.92
      },
      "geometry": {
        "type": "Polygon",
        "coordinates": [
          [
            [
              72.837695,
              18.939453
            ],
            [
              72.810352,
              18.943555
            ],
            [
              72.789844,
              18.902539
            ],
            [
              72.776172,
              18.890234
            ],
            [
              72.755664,
              18.856055
            ],
            [
              72.746094,
              18.849219
            ],
            [
              72.744727,
              18.825977
            ],
            [
              72.750195,
              18.815039
            ],
            [
              72.766602,
              18.801367
            ],
            [
              72.844531,
              18.801367
            ],
            [
              72.848633,
              18.804102
            ],
            [
              72.848633,
              18.928516
            ],
            [
              72.837695,
              18.939453
            ]
          ]
        ]
      }
    }
  ]
}