{
  "type": "FeatureCollection",
  "features": [
    {
      "type": "Feature",
      "properties": {
        "spill_id": "palsar_182",
        "confidence": 0.86
      },
      "geometry": {
        "type": "Polygon",
        "coordinates": [
          [
            [
              72.5,
              18.808203
            ],
            [
              72.505469,
              18.801367
            ],
            [
              72.519141,
              18.801367
            ],
            [
              72.532812,
              18.816406
            ],
            [
              72.545117,
              18.820508
            ],
            [
              72.592969,
              18.813672
            ],
            [
              72.614844,
              18.801367
            ],
            [
              72.635352,
              18.801367
            ],
            [
              72.662695,
              18.815039
            ],
            [
              72.680469,
              18.817773
            ],
            [
              72.702344,
              18.835547
            ],
            [
              72.659961,
              18.84375
            ],
            [
              72.603906,
              18.841016
            ],
            [
              72.575195,
              18.854688
            ],
            [
              72.565625,
              18.854688
            ],
            [
              72.542383,
              18.84375
            ],
            [
              72.538281,
              18.847852
            ],
            [
              72.538281,
              18.856055
            ],
            [
              72.527344,
              18.858789
            ],
            [
              72.5,
              18.847852
            ],
            [
              72.5,
              18.808203
            ]
          ]
        ]
      }
    },
    {
      "type": "Feature",
      "properties": {
        "spill_id": "palsar_182",
        "confidence": 0.86
      },
      "geometry": {
        "type": "Polygon",
        "coordinates": [
          [
            [
              72.754297,
              19.002344
            ],
            [
              72.751562,
              18.995508
            ],
            [
              72.755664,
              18.98457
            ],
            [
              72.755664,
              18.970898
            ],
            [
              72.759766,
              18.961328
            ],
            [
              72.761133,
              18.961328
            ],
            [
              72.767969,
              18.953125
            ],
            [
              72.780273,
              18.947656
            ],
            [
              72.787109,
              18.947656
            ],
            [
              72.791211,
              18.959961
            ],
            [
              72.793945,
              18.964062
            ],
            [
              72.793945,
              18.970898
            ],
            [
              72.802148,
              18.980469
            ],
            [
              72.802148,
              18.983203
            ],
            [
              72.791211,
              18.987305
            ],
            [
              72.781641,
              18.988672
            ],
            [
              72.777539,
              18.992773
            ],
            [
              72.774805,
              18.999609
            ],
            [
              72.77207,
              19.002344
            ],
            [
              72.767969,
              19.003711
            ],
            [
              72.758398,
              19.003711
            ],
            [
              72.754297,
              19.002344
            ]
          ]
        ]
      }
    },
    {
      "type": "Feature",
      "properties": {
        "spill_id": "palsar_182",
        "confidence": 0.86
      },
      "geometry": {
        "type": "Polygon",
        "coordinates": [
          [
            [
              72.722852,
              19.031055
            ],
            [
              72.721484,
              19.029687
            ],
            [
              72.721484,
              19.026953
            ],
            [
              72.726953,
              19.021484
            ],
            [
              72.729688,
              19.021484
            ],
            [
              72.731055,
              19.022852
            ],
            [
              72.731055,
              19.024219
            ],
            [
              72.72832,
              19.026953
            ],
            [
              72.72832,
              19.02832
            ],
            [
              72.725586,
              19.031055
            ],
            [
              72.722852,
              19.031055
            ]
          ]
        ]
      }
    },
    {
      "type": "Feature",
      "properties": {
        "spill_id": "palsar_182",
        "confidence": 0.86
      },
      "geometry": {
        "type": "Polygon",
        "coordinates": [
          [
            [
              72.583398,
              19.121289
            ],
            [
              72.584766,
              19.114453
            ],
            [
              72.5875,
              19.110352
            ],
            [
              72.590234,
              19.108984
            ],
            [
              72.598438,
              19.108984
            ],
            [
              72.614844,
              19.100781
            ],
            [
              72.625781,
              19.099414
            ],
            [
              72.638086,
              19.093945
            ],
            [
              72.642187,
              19.093945
            ],
            [
              72.647656,
              19.09668
            ],
            [
              72.646289,
              19.100781
            ],
            [
              72.64082,
              19.104883
            ],
            [
              72.638086,
              19.104883
            ],
            [
              72.632617,
              19.107617
            ],
            [
              72.628516,
              19.107617
            ],
            [
              72.624414,
              19.110352
            ],
            [
              72.618945,
              19.11582
            ],
            [
              72.617578,
              19.11582
            ],
            [
              72.606641,
              19.128125
            ],
            [
              72.598438,
              19.129492
            ],
            [
              72.583398,
              19.121289
            ]
          ]
        ]
      }
    },
    {
      "type": "Feature",
      "properties": {
        "spill_id": "palsar_182",
        "confidence": 0.86
      },
      "geometry": {
        "type": "Polygon",
        "coordinates": [
          [
            [
              72.800781,
              19.144531
            ],
            [
              72.800781,
              19.136328
            ],
            [
              72.802148,
              19.134961
            ],
            [
              72.802148,
              19.133594
            ],
            [
              72.803516,
              19.132227
            ],
            [
              72.803516,
              19.130859
            ],
            [
              72.804883,
              19.129492
            ],
            [
              72.804883,
              19.128125
            ],
            [
              72.80625,
              19.126758
            ],
            [
              72.80625,
              19.125391
            ],
            [
              72.807617,
              19.124023
            ],
            [
              72.81582,
              19.132227
            ],
            [
              72.81582,
              19.136328
            ],
            [
              72.814453,
              19.137695
            ],
            [
              72.814453,
              19.139062
            ],
            [
              72.810352,
              19.143164
            ],
            [
              72.808984,
              19.143164
            ],
            [
              72.807617,
              19.144531
            ],
            [
              72.800781,
              19.144531
            ]
          ]
        ]
      }
    }
  ]
}