{
  "type": "FeatureCollection",
  "features": [
    {
      "type": "Feature",
      "properties": {
        "spill_id": "palsar_163",
        "confidence": 0.93
      },
      "geometry": {
        "type": "Polygon",
        "coordinates": [
          [
            [
              72.5,
              19.059766
            ],
            [
              72.5,
              19.032422
            ],
            [
              72.516406,
              18.994141
            ],
            [
              72.515039,
              18.977734
            ],
            [
              72.5,
              18.964062
            ],
            [
              72.5,
              18.914844
            ],
            [
              72.504102,
              18.905273
            ],
            [
              72.520508,
              18.892969
            ],
            [
              72.519141,
              18.87793
            ],
            [
              72.527344,
              18.862891
            ],
            [
              72.54375,
              18.801367
            ],
            [
              72.572461,
              18.801367
            ],
            [
              72.576562,
              18.808203
            ],
            [
              72.575195,
              18.830078
            ],
            [
              72.557422,
              18.884766
            ],
            [
              72.557422,
              18.89707
            ],
            [
              72.549219,
              18.912109
            ],
            [
              72.557422,
              18.966797
            ],
            [
              72.535547,
              18.999609
            ],
            [
              72.527344,
              19.02832
            ],
            [
              72.513672,
              19.05293
            ],
            [
              72.5,
              19.059766
            ]
          ]
        ]
      }
    },
    {
      "type": "Feature",
      "properties": {
        "spill_id": "palsar_163",
        "confidence": 0.93
      },
      "geometry": {
        "type": "Polygon",
        "coordinates": [
          [
            [
              72.848633,
              19.15
            ],
            [
              72.81582,
              19.148633
            ],
            [
              72.807617,
              19.098047
            ],
            [
              72.778906,
              19.067969
            ],
            [
              72.77207,
              19.022852
            ],
            [
              72.75293,
              19.006445
            ],
            [
              72.754297,
              18.936719
            ],
            [
              72.747461,
              18.928516
            ],
            [
              72.733789,
              18.932617
            ],
            [
              72.722852,
              18.912109
            ],
            [
              72.736523,
              18.864258
            ],
            [
              72.737891,
              18.801367
            ],
            [
              72.819922,
              18.801367
            ],
            [
              72.825391,
              18.806836
            ],
            [
              72.848633,
              18.801367
            ],
            [
              72.848633,
              19.15
            ]
          ]
        ]
      }
    },
    {
      "type": "Feature",
      "properties": {
        "spill_id": "palsar_163",
        "confidence": 0.93
      },
      "geometry": {
        "type": "Polygon",
        "coordinates": [
          [
            [
              72.510938,
              19.15
            ],
            [
              72.5,
              19.15
            ],
            [
              72.5,
              19.077539
            ],
            [
              72.502734,
              19.078906
            ],
            [
              72.505469,
              19.076172
            ],
            [
              72.508203,
              19.078906
            ],
            [
              72.510938,
              19.087109
            ],
            [
              72.516406,
              19.095312
            ],
            [
              72.516406,
              19.104883
            ],
            [
              72.517773,
              19.10625
            ],
            [
              72.517773,
              19.117188
            ],
            [
              72.515039,
              19.122656
            ],
            [
              72.515039,
              19.126758
            ],
            [
              72.517773,
              19.133594
            ],
            [
              72.513672,
              19.139062
            ],
            [
              72.513672,
              19.144531
            ],
            [
              72.510938,
              19.15
            ]
          ]
        ]
      }
    }
  ]
}