{
  "type": "FeatureCollection",
  "features": [
    {
      "type": "Feature",
      "properties": {
        "spill_id": "palsar_235",
        "confidence": 0.86
      },
      "geometry": {
        "type": "Polygon",
        "coordinates": [
          [
            [
              72.639453,
              18.812305
            ],
            [
              72.639453,
              18.810938
            ],
            [
              72.643555,
              18.806836
            ],
            [
              72.643555,
              18.805469
            ],
            [
              72.647656,
              18.801367
            ],
            [
              72.666797,
              18.801367
            ],
            [
              72.668164,
              18.802734
            ],
            [
              72.668164,
              18.804102
            ],
            [
              72.666797,
              18.805469
            ],
            [
              72.666797,
              18.806836
            ],
            [
              72.66543,
              18.806836
            ],
            [
              72.664062,
              18.808203
            ],
            [
              72.661328,
              18.808203
            ],
            [
              72.659961,
              18.80957
            ],
            [
              72.657227,
              18.80957
            ],
            [
              72.655859,
              18.810938
            ],
            [
              72.647656,
              18.810938
            ],
            [
              72.646289,
              18.812305
            ],
            [
              72.643555,
              18.812305
            ],
            [
              72.642187,
              18.813672
            ],
            [
              72.64082,
              18.813672
            ],
            [
              72.639453,
              18.812305
            ]
          ]
        ]
      }
    },
    {
      "type": "Feature",
      "properties": {
        "spill_id": "palsar_235",
        "confidence": 0.86
      },
      "geometry": {
        "type": "Polygon",
        "coordinates": [
          [
            [
              72.793945,
              18.845117
            ],
            [
              72.793945,
              18.84375
            ],
            [
              72.795312,
              18.842383
            ],
            [
              72.795312,
              18.841016
            ],
            [
              72.799414,
              18.836914
            ],
            [
              72.804883,
              18.836914
            ],
            [
              72.80625,
              18.838281
            ],
            [
              72.80625,
              18.84375
            ],
            [
              72.804883,
              18.845117
            ],
            [
              72.804883,
              18.846484
            ],
            [
              72.795312,
              18.846484
            ],
            [
              72.793945,
              18.845117
            ]
          ]
        ]
      }
    },
    {
      "type": "Feature",
      "properties": {
        "spill_id": "palsar_235",
        "confidence": 0.86
      },
      "geometry": {
        "type": "Polygon",
        "coordinates": [
          [
            [
              72.54375,
              18.884766
            ],
            [
              72.546484,
              18.876562
            ],
            [
              72.564258,
              18.871094
            ],
            [
              72.571094,
              18.862891
            ],
            [
              72.592969,
              18.85332
            ],
            [
              72.613477,
              18.851953
            ],
            [
              72.616211,
              18.849219
            ],
            [
              72.616211,
              18.839648
            ],
            [
              72.624414,
              18.824609
            ],
            [
              72.636719,
              18.827344
            ],
            [
              72.636719,
              18.83418
            ],
            [
              72.633984,
              18.838281
            ],
            [
              72.633984,
              18.85332
            ],
            [
              72.629883,
              18.860156
            ],
            [
              72.628516,
              18.875195
            ],
            [
              72.618945,
              18.884766
            ],
            [
              72.614844,
              18.894336
            ],
            [
              72.609375,
              18.891602
            ],
            [
              72.608008,
              18.880664
            ],
            [
              72.601172,
              18.873828
            ],
            [
              72.591602,
              18.876562
            ],
            [
              72.566992,
              18.875195
            ],
            [
              72.561523,
              18.882031
            ],
            [
              72.556055,
              18.884766
            ],
            [
              72.54375,
              18.884766
            ]
          ]
        ]
      }
    },
    {
      "type": "Feature",
      "properties": {
        "spill_id": "palsar_235",
        "confidence": 0.86
      },
      "geometry": {
        "type": "Polygon",
        "coordinates": [
          [
            [
              72.744727,
              18.908008
            ],
            [
              72.741992,
              18.905273
            ],
            [
              72.741992,
              18.901172
            ],
            [
              72.743359,
              18.899805
            ],
            [
              72.743359,
              18.898438
            ],
            [
              72.748828,
              18.892969
            ],
            [
              72.755664,
              18.892969
            ],
            [
              72.758398,
              18.895703
            ],
            [
              72.758398,
              18.902539
            ],
            [
              72.755664,
              18.905273
            ],
            [
              72.754297,
              18.905273
            ],
            [
              72.75293,
              18.906641
            ],
            [
              72.751562,
              18.906641
            ],
            [
              72.750195,
              18.908008
            ],
            [
              72.744727,
              18.908008
            ]
          ]
        ]
      }
    },
    {
      "type": "Feature",
      "properties": {
        "spill_id": "palsar_235",
        "confidence": 0.86
      },
      "geometry": {
        "type": "Polygon",
        "coordinates": [
          [
            [
              72.642187,
              18.958594
            ],
            [
              72.642187,
              18.957227
            ],
            [
              72.643555,
              18.955859
            ],
            [
              72.643555,
              18.954492
            ],
            [
              72.644922,
              18.953125
            ],
            [
              72.644922,
              18.950391
            ],
            [
              72.646289,
              18.950391
            ],
            [
              72.647656,
              18.949023
            ],
            [
              72.650391,
              18.949023
            ],
            [
              72.651758,
              18.947656
            ],
            [
              72.658594,
              18.947656
            ],
            [
              72.659961,
              18.949023
            ],
            [
              72.659961,
              18.953125
            ],
            [
              72.655859,
              18.957227
            ],
            [
              72.654492,
              18.957227
            ],
            [
              72.651758,
              18.959961
            ],
            [
              72.650391,
              18.959961
            ],
            [
              72.649023,
              18.961328
            ],
            [
              72.644922,
              18.961328
            ],
            [
              72.642187,
              18.958594
            ]
          ]
        ]
      }
    },
    {
      "type": "Feature",
      "properties": {
        "spill_id": "palsar_235",
        "confidence": 0.86
      },
      "geometry": {
        "type": "Polygon",
        "coordinates": [
          [
            [
              72.5875,
              18.964062
            ],
            [
              72.5875,
              18.961328
            ],
            [
              72.588867,
              18.959961
            ],
            [
              72.588867,
              18.958594
            ],
            [
              72.594336,
              18.953125
            ],
            [
              72.595703,
              18.953125
            ],
            [
              72.598438,
              18.950391
            ],
            [
              72.605273,
              18.950391
            ],
            [
              72.612109,
              18.957227
            ],
            [
              72.612109,
              18.958594
            ],
            [
              72.613477,
              18.959961
            ],
            [
              72.613477,
              18.962695
            ],
            [
              72.612109,
              18.964062
            ],
            [
              72.608008,
              18.964062
            ],
            [
              72.606641,
              18.96543
            ],
            [
              72.603906,
              18.96543
            ],
            [
              72.602539,
              18.964062
            ],
            [
              72.59707,
              18.964062
            ],
            [
              72.595703,
              18.96543
            ],
            [
              72.594336,
              18.96543
            ],
            [
              72.592969,
              18.964062
            ],
            [
              72.591602,
              18.96543
            ],
            [
              72.590234,
              18.96543
            ],
            [
              72.588867,
              18.964062
            ],
            [
              72.5875,
              18.964062
            ]
          ]
        ]
      }
    },
    {
      "type": "Feature",
      "properties": {
        "spill_id": "palsar_235",
        "confidence": 0.86
      },
      "geometry": {
        "type": "Polygon",
        "coordinates": [
          [
            [
              72.629883,
              19.143164
            ],
            [
              72.623047,
              19.11582
            ],
            [
              72.628516,
              19.102148
            ],
            [
              72.625781,
              19.092578
            ],
            [
              72.668164,
              19.083008
            ],
            [
              72.68457,
              19.054297
            ],
            [
              72.703711,
              19.063867
            ],
            [
              72.740625,
              19.01875
            ],
            [
              72.720117,
              19.005078
            ],
            [
              72.722852,
              18.995508
            ],
            [
              72.737891,
              19.002344
            ],
            [
              72.746094,
              18.999609
            ],
            [
              72.747461,
              19.011914
            ],
            [
              72.767969,
              18.994141
            ],
            [
              72.789844,
              18.994141
            ],
            [
              72.832227,
              18.973633
            ],
            [
              72.848633,
              18.972266
            ],
            [
              72.848633,
              18.998242
            ],
            [
              72.785742,
              19.032422
            ],
            [
              72.761133,
              19.029687
            ],
            [
              72.746094,
              19.046094
            ],
            [
              72.720117,
              19.061133
            ],
            [
              72.71875,
              19.084375
            ],
            [
              72.688672,
              19.099414
            ],
            [
              72.676367,
              19.11582
            ],
            [
              72.636719,
              19.144531
            ],
            [
              72.629883,
              19.143164
            ]
          ]
        ]
      }
    },
    {
      "type": "Feature",
      "properties": {
        "spill_id": "palsar_235",
        "confidence": 0.86
      },
      "geometry": {
        "type": "Polygon",
        "coordinates": [
          [
            [
              72.789844,
              19.15
            ],
            [
              72.789844,
              19.143164
            ],
            [
              72.791211,
              19.141797
            ],
            [
              72.800781,
              19.141797
            ],
            [
              72.821289,
              19.121289
            ],
            [
              72.833594,
              19.118555
            ],
            [
              72.833594,
              19.121289
            ],
            [
              72.837695,
              19.126758
            ],
            [
              72.841797,
              19.125391
            ],
            [
              72.844531,
              19.122656
            ],
            [
              72.836328,
              19.117188
            ],
            [
              72.836328,
              19.114453
            ],
            [
              72.84043,
              19.110352
            ],
            [
              72.844531,
              19.108984
            ],
            [
              72.848633,
              19.110352
            ],
            [
              72.848633,
              19.121289
            ],
            [
              72.845898,
              19.122656
            ],
            [
              72.848633,
              19.126758
            ],
            [
              72.848633,
              19.132227
            ],
            [
              72.839062,
              19.133594
            ],
            [
              72.836328,
              19.130859
            ],
            [
              72.833594,
              19.133594
            ],
            [
              72.833594,
              19.143164
            ],
            [
              72.829492,
              19.15
            ],
            [
              72.789844,
              19.15
            ]
          ]
        ]
      }
    },
    {
      "type": "Feature",
      "properties": {
        "spill_id": "palsar_235",
        "confidence": 0.86
      },
      "geometry": {
        "type": "Polygon",
        "coordinates": [
          [
            [
              72.5,
              19.15
            ],
            [
              72.5,
              19.143164
            ],
            [
              72.508203,
              19.139062
            ],
            [
              72.521875,
              19.125391
            ],
            [
              72.545117,
              19.114453
            ],
            [
              72.564258,
              19.095312
            ],
            [
              72.565625,
              19.089844
            ],
            [
              72.576562,
              19.076172
            ],
            [
              72.594336,
              19.069336
            ],
            [
              72.613477,
              19.054297
            ],
            [
              72.618945,
              19.054297
            ],
            [
              72.623047,
              19.058398
            ],
            [
              72.624414,
              19.063867
            ],
            [
              72.616211,
              19.073438
            ],
            [
              72.605273,
              19.077539
            ],
            [
              72.586133,
              19.095312
            ],
            [
              72.571094,
              19.104883
            ],
            [
              72.571094,
              19.117188
            ],
            [
              72.547852,
              19.134961
            ],
            [
              72.54375,
              19.15
            ],
            [
              72.5,
              19.15
            ]
          ]
        ]
      }
    }
  ]
}