{
  "type": "FeatureCollection",
  "features": [
    {
      "type": "Feature",
      "properties": {
        "spill_id": "palsar_213",
        "confidence": 0.86
      },
      "geometry": {
        "type": "Polygon",
        "coordinates": [
          [
            [
              72.822656,
              18.858789
            ],
            [
              72.813086,
              18.858789
            ],
            [
              72.811719,
              18.857422
            ],
            [
              72.811719,
              18.851953
            ],
            [
              72.813086,
              18.850586
            ],
            [
              72.811719,
              18.849219
            ],
            [
              72.811719,
              18.84375
            ],
            [
              72.807617,
              18.841016
            ],
            [
              72.807617,
              18.839648
            ],
            [
              72.80625,
              18.838281
            ],
            [
              72.80625,
              18.835547
            ],
            [
              72.804883,
              18.83418
            ],
            [
              72.804883,
              18.831445
            ],
            [
              72.802148,
              18.828711
            ],
            [
              72.799414,
              18.828711
            ],
            [
              72.798047,
              18.827344
            ],
            [
              72.798047,
              18.824609
            ],
            [
              72.799414,
              18.823242
            ],
            [
              72.799414,
              18.821875
            ],
            [
              72.80625,
              18.817773
            ],
            [
              72.810352,
              18.819141
            ],
            [
              72.811719,
              18.820508
            ],
            [
              72.813086,
              18.824609
            ],
            [
              72.81582,
              18.827344
            ],
            [
              72.817187,
              18.827344
            ],
            [
              72.818555,
              18.825977
            ],
            [
              72.818555,
              18.828711
            ],
            [
              72.819922,
              18.830078
            ],
            [
              72.819922,
              18.836914
            ],
            [
              72.822656,
              18.839648
            ],
            [
              72.822656,
              18.846484
            ],
            [
              72.824023,
              18.847852
            ],
            [
              72.824023,
              18.850586
            ],
            [
              72.825391,
              18.851953
            ],
            [
              72.825391,
              18.856055
            ],
            [
              72.822656,
              18.858789
            ]
          ]
        ]
      }
    },
    {
      "type": "Feature",
      "properties": {
        "spill_id": "palsar_213",
        "confidence": 0.86
      },
      "geometry": {
        "type": "Polygon",
        "coordinates": [
          [
            [
              72.798047,
              18.92168
            ],
            [
              72.799414,
              18.920312
            ],
            [
              72.799414,
              18.918945
            ],
            [
              72.802148,
              18.916211
            ],
            [
              72.814453,
              18.916211
            ],
            [
              72.81582,
              18.917578
            ],
            [
              72.819922,
              18.917578
            ],
            [
              72.821289,
              18.918945
            ],
            [
              72.822656,
              18.918945
            ],
            [
              72.826758,
              18.923047
            ],
            [
              72.828125,
              18.923047
            ],
            [
              72.829492,
              18.924414
            ],
            [
              72.830859,
              18.924414
            ],
            [
              72.832227,
              18.925781
            ],
            [
              72.832227,
              18.928516
            ],
            [
              72.830859,
              18.929883
            ],
            [
              72.813086,
              18.929883
            ],
            [
              72.811719,
              18.928516
            ],
            [
              72.800781,
              18.928516
            ],
            [
              72.798047,
              18.924414
            ],
            [
              72.798047,
              18.92168
            ]
          ]
        ]
      }
    },
    {
      "type": "Feature",
      "properties": {
        "spill_id": "palsar_213",
        "confidence": 0.86
      },
      "geometry": {
        "type": "Polygon",
        "coordinates": [
          [
            [
              72.5,
              19.108984
            ],
            [
              72.5,
              19.054297
            ],
            [
              72.506836,
              19.048828
            ],
            [
              72.515039,
              19.032422
            ],
            [
              72.531445,
              19.020117
            ],
            [
              72.535547,
              19.013281
            ],
            [
              72.535547,
              19.005078
            ],
            [
              72.542383,
              18.995508
            ],
            [
              72.55332,
              18.991406
            ],
            [
              72.569727,
              19.002344
            ],
            [
              72.584766,
              18.975
            ],
            [
              72.591602,
              18.973633
            ],
            [
              72.59707,
              18.983203
            ],
            [
              72.599805,
              19.014648
            ],
            [
              72.5875,
              19.048828
            ],
            [
              72.576562,
              19.05293
            ],
            [
              72.561523,
              19.051562
            ],
            [
              72.541016,
              19.058398
            ],
            [
              72.538281,
              19.070703
            ],
            [
              72.524609,
              19.098047
            ],
            [
              72.506836,
              19.108984
            ],
            [
              72.5,
              19.108984
            ]
          ]
        ]
      }
    }
  ]
}