{
  "type": "FeatureCollection",
  "features": [
    {
      "type": "Feature",
      "properties": {
        "spill_id": "palsar_95",
        "confidence": 0.84
      },
      "geometry": {
        "type": "Polygon",
        "coordinates": [
          [
            [
              72.843164,
              18.858789
            ],
            [
              72.841797,
              18.857422
            ],
            [
              72.841797,
              18.856055
            ],
            [
              72.84043,
              18.854688
            ],
            [
              72.84043,
              18.850586
            ],
            [
              72.839062,
              18.849219
            ],
            [
              72.839062,
              18.845117
            ],
            [
              72.84043,
              18.84375
            ],
            [
              72.84043,
              18.842383
            ],
            [
              72.841797,
              18.842383
            ],
            [
              72.843164,
              18.841016
            ],
            [
              72.848633,
              18.841016
            ],
            [
              72.848633,
              18.858789
            ],
            [
              72.843164,
              18.858789
            ]
          ]
        ]
      }
    },
    {
      "type": "Feature",
      "properties": {
        "spill_id": "palsar_95",
        "confidence": 0.84
      },
      "geometry": {
        "type": "Polygon",
        "coordinates": [
          [
            [
              72.795312,
              18.872461
            ],
            [
              72.793945,
              18.871094
            ],
            [
              72.792578,
              18.866992
            ],
            [
              72.787109,
              18.861523
            ],
            [
              72.787109,
              18.860156
            ],
            [
              72.783008,
              18.856055
            ],
            [
              72.783008,
              18.854688
            ],
            [
              72.781641,
              18.85332
            ],
            [
              72.781641,
              18.849219
            ],
            [
              72.783008,
              18.847852
            ],
            [
              72.783008,
              18.846484
            ],
            [
              72.789844,
              18.841016
            ],
            [
              72.792578,
              18.841016
            ],
            [
              72.793945,
              18.839648
            ],
            [
              72.799414,
              18.839648
            ],
            [
              72.800781,
              18.841016
            ],
            [
              72.802148,
              18.841016
            ],
            [
              72.804883,
              18.84375
            ],
            [
              72.804883,
              18.845117
            ],
            [
              72.80625,
              18.846484
            ],
            [
              72.80625,
              18.849219
            ],
            [
              72.807617,
              18.850586
            ],
            [
              72.80625,
              18.851953
            ],
            [
              72.80625,
              18.856055
            ],
            [
              72.802148,
              18.862891
            ],
            [
              72.802148,
              18.866992
            ],
            [
              72.79668,
              18.872461
            ],
            [
              72.795312,
              18.872461
            ]
          ]
        ]
      }
    },
    {
      "type": "Feature",
      "properties": {
        "spill_id": "palsar_95",
        "confidence": 0.84
      },
      "geometry": {
        "type": "Polygon",
        "coordinates": [
          [
            [
              72.583398,
              18.880664
            ],
            [
              72.583398,
              18.87793
            ],
            [
              72.584766,
              18.876562
            ],
            [
              72.584766,
              18.875195
            ],
            [
              72.586133,
              18.873828
            ],
            [
              72.5875,
              18.869727
            ],
            [
              72.590234,
              18.866992
            ],
            [
              72.591602,
              18.866992
            ],
            [
              72.592969,
              18.865625
            ],
            [
              72.595703,
              18.865625
            ],
            [
              72.59707,
              18.864258
            ],
            [
              72.599805,
              18.864258
            ],
            [
              72.601172,
              18.862891
            ],
            [
              72.609375,
              18.862891
            ],
            [
              72.610742,
              18.861523
            ],
            [
              72.614844,
              18.861523
            ],
            [
              72.616211,
              18.862891
            ],
            [
              72.618945,
              18.862891
            ],
            [
              72.62168,
              18.865625
            ],
            [
              72.62168,
              18.868359
            ],
            [
              72.620312,
              18.869727
            ],
            [
              72.620312,
              18.872461
            ],
            [
              72.618945,
              18.872461
            ],
            [
              72.617578,
              18.873828
            ],
            [
              72.606641,
              18.873828
            ],
            [
              72.602539,
              18.876562
            ],
            [
              72.599805,
              18.876562
            ],
            [
              72.598438,
              18.87793
            ],
            [
              72.595703,
              18.87793
            ],
            [
              72.594336,
              18.879297
            ],
            [
              72.591602,
              18.879297
            ],
            [
              72.590234,
              18.880664
            ],
            [
              72.583398,
              18.880664
            ]
          ]
        ]
      }
    },
    {
      "type": "Feature",
      "properties": {
        "spill_id": "palsar_95",
        "confidence": 0.84
      },
      "geometry": {
        "type": "Polygon",
        "coordinates": [
          [
            [
              72.754297,
              18.977734
            ],
            [
              72.754297,
              18.975
            ],
            [
              72.757031,
              18.972266
            ],
            [
              72.767969,
              18.972266
            ],
            [
              72.767969,
              18.977734
            ],
            [
              72.766602,
              18.977734
            ],
            [
              72.765234,
              18.979102
            ],
            [
              72.759766,
              18.979102
            ],
            [
              72.758398,
              18.977734
            ],
            [
              72.754297,
              18.977734
            ]
          ]
        ]
      }
    },
    {
      "type": "Feature",
      "properties": {
        "spill_id": "palsar_95",
        "confidence": 0.84
      },
      "geometry": {
        "type": "Polygon",
        "coordinates": [
          [
            [
              72.5,
              19.013281
            ],
            [
              72.5,
              19.006445
            ],
            [
              72.501367,
              19.006445
            ],
            [
              72.502734,
              19.005078
            ],
            [
              72.502734,
              19.003711
            ],
            [
              72.504102,
              19.002344
            ],
            [
              72.504102,
              19.000977
            ],
            [
              72.505469,
              18.999609
            ],
            [
              72.505469,
              18.998242
            ],
            [
              72.50957,
              18.994141
            ],
            [
              72.519141,
              18.994141
            ],
            [
              72.521875,
              18.996875
            ],
            [
              72.523242,
              18.996875
            ],
            [
              72.525977,
              18.999609
            ],
            [
              72.525977,
              19.000977
            ],
            [
              72.528711,
              19.003711
            ],
            [
              72.528711,
              19.00918
            ],
            [
              72.527344,
              19.010547
            ],
            [
              72.524609,
              19.010547
            ],
            [
              72.523242,
              19.011914
            ],
            [
              72.515039,
              19.011914
            ],
            [
              72.513672,
              19.010547
            ],
            [
              72.510938,
              19.010547
            ],
            [
              72.50957,
              19.011914
            ],
            [
              72.504102,
              19.011914
            ],
            [
              72.502734,
              19.013281
            ],
            [
              72.5,
              19.013281
            ]
          ]
        ]
      }
    },
    {
      "type": "Feature",
      "properties": {
        "spill_id": "palsar_95",
        "confidence": 0.84
      },
      "geometry": {
        "type": "Polygon",
        "coordinates": [
          [
            [
              72.539648,
              19.024219
            ],
            [
              72.539648,
              19.01875
            ],
            [
              72.541016,
              19.017383
            ],
            [
              72.541016,
              19.016016
            ],
            [
              72.546484,
              19.010547
            ],
            [
              72.547852,
              19.010547
            ],
            [
              72.549219,
              19.00918
            ],
            [
              72.554688,
              19.00918
            ],
            [
              72.556055,
              19.010547
            ],
            [
              72.557422,
              19.010547
            ],
            [
              72.557422,
              19.011914
            ],
            [
              72.558789,
              19.013281
            ],
            [
              72.558789,
              19.017383
            ],
            [
              72.551953,
              19.024219
            ],
            [
              72.550586,
              19.024219
            ],
            [
              72.547852,
              19.026953
            ],
            [
              72.542383,
              19.026953
            ],
            [
              72.539648,
              19.024219
            ]
          ]
        ]
      }
    },
    {
      "type": "Feature",
      "properties": {
        "spill_id": "palsar_95",
        "confidence": 0.84
      },
      "geometry": {
        "type": "Polygon",
        "coordinates": [
          [
            [
              72.629883,
              19.05293
            ],
            [
              72.629883,
              19.047461
            ],
            [
              72.63125,
              19.046094
            ],
            [
              72.63125,
              19.044727
            ],
            [
              72.633984,
              19.041992
            ],
            [
              72.64082,
              19.041992
            ],
            [
              72.642187,
              19.043359
            ],
            [
              72.643555,
              19.043359
            ],
            [
              72.644922,
              19.044727
            ],
            [
              72.644922,
              19.050195
            ],
            [
              72.643555,
              19.051562
            ],
            [
              72.642187,
              19.051562
            ],
            [
              72.64082,
              19.05293
            ],
            [
              72.635352,
              19.05293
            ],
            [
              72.633984,
              19.054297
            ],
            [
              72.63125,
              19.054297
            ],
            [
              72.629883,
              19.05293
            ]
          ]
        ]
      }
    },
    {
      "type": "Feature",
      "properties": {
        "spill_id": "palsar_95",
        "confidence": 0.84
      },
      "geometry": {
        "type": "Polygon",
        "coordinates": [
          [
            [
              72.706445,
              19.15
            ],
            [
              72.691406,
              19.128125
            ],
            [
              72.726953,
              19.069336
            ],
            [
              72.755664,
              19.037891
            ],
            [
              72.763867,
              19.00918
            ],
            [
              72.777539,
              18.996875
            ],
            [
              72.783008,
              18.979102
            ],
            [
              72.780273,
              18.958594
            ],
            [
              72.795312,
              18.957227
            ],
            [
              72.811719,
              18.939453
            ],
            [
              72.829492,
              18.933984
            ],
            [
              72.830859,
              18.949023
            ],
            [
              72.802148,
              18.972266
            ],
            [
              72.80625,
              19.006445
            ],
            [
              72.792578,
              19.020117
            ],
            [
              72.770703,
              19.065234
            ],
            [
              72.732422,
              19.098047
            ],
            [
              72.733789,
              19.107617
            ],
            [
              72.726953,
              19.119922
            ],
            [
              72.721484,
              19.148633
            ],
            [
              72.706445,
              19.15
            ]
          ]
        ]
      }
    }
  ]
}