{
  "type": "FeatureCollection",
  "features": [
    {
      "type": "Feature",
      "properties": {
        "spill_id": "palsar_328",
        "confidence": 0.92
      },
      "geometry": {
        "type": "Polygon",
        "coordinates": [
          [
            [
              72.568359,
              18.905273
            ],
            [
              72.558789,
              18.903906
            ],
            [
              72.554688,
              18.899805
            ],
            [
              72.551953,
              18.892969
            ],
            [
              72.551953,
              18.884766
            ],
            [
              72.554688,
              18.87793
            ],
            [
              72.55332,
              18.865625
            ],
            [
              72.554688,
              18.830078
            ],
            [
              72.551953,
              18.805469
            ],
            [
              72.554688,
              18.802734
            ],
            [
              72.557422,
              18.802734
            ],
            [
              72.564258,
              18.812305
            ],
            [
              72.569727,
              18.813672
            ],
            [
              72.572461,
              18.816406
            ],
            [
              72.57793,
              18.835547
            ],
            [
              72.57793,
              18.849219
            ],
            [
              72.569727,
              18.857422
            ],
            [
              72.572461,
              18.879297
            ],
            [
              72.572461,
              18.901172
            ],
            [
              72.568359,
              18.905273
            ]
          ]
        ]
      }
    },
    {
      "type": "Feature",
      "properties": {
        "spill_id": "palsar_328",
        "confidence": 0.92
      },
      "geometry": {
        "type": "Polygon",
        "coordinates": [
          [
            [
              72.68457,
              19.136328
            ],
            [
              72.677734,
              19.134961
            ],
            [
              72.670898,
              19.121289
            ],
            [
              72.670898,
              19.091211
            ],
            [
              72.676367,
              19.080273
            ],
            [
              72.675,
              19.070703
            ],
            [
              72.677734,
              19.063867
            ],
            [
              72.676367,
              19.059766
            ],
            [
              72.677734,
              19.055664
            ],
            [
              72.681836,
              19.059766
            ],
            [
              72.68457,
              19.067969
            ],
            [
              72.68457,
              19.078906
            ],
            [
              72.688672,
              19.088477
            ],
            [
              72.688672,
              19.09668
            ],
            [
              72.691406,
              19.102148
            ],
            [
              72.691406,
              19.122656
            ],
            [
              72.690039,
              19.124023
            ],
            [
              72.690039,
              19.129492
            ],
            [
              72.687305,
              19.134961
            ],
            [
              72.68457,
              19.136328
            ]
          ]
        ]
      }
    },
    {
      "type": "Feature",
      "properties": {
        "spill_id": "palsar_328",
        "confidence": 0.92
      },
      "geometry": {
        "type": "Polygon",
        "coordinates": [
          [
            [
              72.741992,
              19.15
            ],
            [
              72.744727,
              19.087109
            ],
            [
              72.722852,
              19.044727
            ],
            [
              72.725586,
              19.00918
            ],
            [
              72.705078,
              18.983203
            ],
            [
              72.70918,
              18.912109
            ],
            [
              72.726953,
              18.912109
            ],
            [
              72.754297,
              18.98457
            ],
            [
              72.759766,
              18.913477
            ],
            [
              72.75293,
              18.841016
            ],
            [
              72.71875,
              18.821875
            ],
            [
              72.717383,
              18.804102
            ],
            [
              72.751562,
              18.812305
            ],
            [
              72.770703,
              18.801367
            ],
            [
              72.769336,
              18.861523
            ],
            [
              72.781641,
              18.895703
            ],
            [
              72.800781,
              18.830078
            ],
            [
              72.836328,
              18.827344
            ],
            [
              72.837695,
              18.804102
            ],
            [
              72.848633,
              18.801367
            ],
            [
              72.848633,
              18.916211
            ],
            [
              72.807617,
              18.951758
            ],
            [
              72.808984,
              18.970898
            ],
            [
              72.841797,
              19.002344
            ],
            [
              72.847266,
              19.026953
            ],
            [
              72.822656,
              19.040625
            ],
            [
              72.800781,
              19.037891
            ],
            [
              72.807617,
              19.099414
            ],
            [
              72.834961,
              19.15
            ],
            [
              72.741992,
              19.15
            ]
          ]
        ]
      }
    },
    {
      "type": "Feature",
      "properties": {
        "spill_id": "palsar_328",
        "confidence": 0.92
      },
      "geometry": {
        "type": "Polygon",
        "coordinates": [
          [
            [
              72.624414,
              19.15
            ],
            [
              72.565625,
              19.147266
            ],
            [
              72.569727,
              19.103516
            ],
            [
              72.591602,
              19.081641
            ],
            [
              72.599805,
              19.044727
            ],
            [
              72.576562,
              19.013281
            ],
            [
              72.561523,
              19.011914
            ],
            [
              72.556055,
              19.002344
            ],
            [
              72.572461,
              18.979102
            ],
            [
              72.564258,
              18.955859
            ],
            [
              72.572461,
              18.938086
            ],
            [
              72.583398,
              18.943555
            ],
            [
              72.590234,
              18.994141
            ],
            [
              72.613477,
              19.029687
            ],
            [
              72.643555,
              19.007812
            ],
            [
              72.664062,
              19.007812
            ],
            [
              72.676367,
              18.980469
            ],
            [
              72.683203,
              18.979102
            ],
            [
              72.700977,
              18.999609
            ],
            [
              72.698242,
              19.00918
            ],
            [
              72.68457,
              19.013281
            ],
            [
              72.679102,
              19.048828
            ],
            [
              72.658594,
              19.02832
            ],
            [
              72.642187,
              19.025586
            ],
            [
              72.625781,
              19.032422
            ],
            [
              72.625781,
              19.061133
            ],
            [
              72.609375,
              19.076172
            ],
            [
              72.608008,
              19.092578
            ],
            [
              72.616211,
              19.107617
            ],
            [
              72.635352,
              19.111719
            ],
            [
              72.644922,
              19.136328
            ],
            [
              72.624414,
              19.15
            ]
          ]
        ]
      }
    }
  ]
}