{
  "type": "FeatureCollection",
  "features": [
    {
      "type": "Feature",
      "properties": {
        "spill_id": "palsar_505",
        "confidence": 0.94
      },
      "geometry": {
        "type": "Polygon",
        "coordinates": [
          [
            [
              72.690039,
              19.15
            ],
            [
              72.650391,
              19.15
            ],
            [
              72.653125,
              19.09668
            ],
            [
              72.635352,
              19.074805
            ],
            [
              72.618945,
              19.074805
            ],
            [
              72.590234,
              19.113086
            ],
            [
              72.590234,
              19.15
            ],
            [
              72.54375,
              19.15
            ],
            [
              72.5,
              19.088477
            ],
            [
              72.5,
              18.962695
            ],
            [
              72.508203,
              18.951758
            ],
            [
              72.5,
              18.933984
            ],
            [
              72.5,
              18.801367
            ],
            [
              72.530078,
              18.802734
            ],
            [
              72.53418,
              18.828711
            ],
            [
              72.565625,
              18.868359
            ],
            [
              72.590234,
              18.924414
            ],
            [
              72.595703,
              19.011914
            ],
            [
              72.670898,
              19.102148
            ],
            [
              72.690039,
              19.15
            ]
          ]
        ]
      }
    }
  ]
}