{
  "type": "FeatureCollection",
  "features": [
    {
      "type": "Feature",
      "properties": {
        "spill_id": "palsar_563",
        "confidence": 0.83
      },
      "geometry": {
        "type": "Polygon",
        "coordinates": [
          [
            [
              72.725586,
              18.901172
            ],
            [
              72.725586,
              18.89707
            ],
            [
              72.72832,
              18.891602
            ],
            [
              72.732422,
              18.888867
            ],
            [
              72.733789,
              18.883398
            ],
            [
              72.735156,
              18.882031
            ],
            [
              72.735156,
              18.879297
            ],
            [
              72.737891,
              18.875195
            ],
            [
              72.737891,
              18.871094
            ],
            [
              72.732422,
              18.864258
            ],
            [
              72.732422,
              18.861523
            ],
            [
              72.736523,
              18.857422
            ],
            [
              72.747461,
              18.851953
            ],
            [
              72.751562,
              18.851953
            ],
            [
              72.754297,
              18.85332
            ],
            [
              72.757031,
              18.856055
            ],
            [
              72.758398,
              18.860156
            ],
            [
              72.754297,
              18.865625
            ],
            [
              72.754297,
              18.875195
            ],
            [
              72.75293,
              18.876562
            ],
            [
              72.75293,
              18.880664
            ],
            [
              72.743359,
              18.8875
            ],
            [
              72.737891,
              18.898438
            ],
            [
              72.732422,
              18.901172
            ],
            [
              72.725586,
              18.901172
            ]
          ]
        ]
      }
    },
    {
      "type": "Feature",
      "properties": {
        "spill_id": "palsar_563",
        "confidence": 0.83
      },
      "geometry": {
        "type": "Polygon",
        "coordinates": [
          [
            [
              72.54375,
              18.953125
            ],
            [
              72.54375,
              18.947656
            ],
            [
              72.546484,
              18.944922
            ],
            [
              72.546484,
              18.943555
            ],
            [
              72.549219,
              18.94082
            ],
            [
              72.549219,
              18.939453
            ],
            [
              72.55332,
              18.935352
            ],
            [
              72.55332,
              18.933984
            ],
            [
              72.554688,
              18.932617
            ],
            [
              72.556055,
              18.932617
            ],
            [
              72.560156,
              18.928516
            ],
            [
              72.564258,
              18.928516
            ],
            [
              72.565625,
              18.927148
            ],
            [
              72.569727,
              18.927148
            ],
            [
              72.573828,
              18.929883
            ],
            [
              72.573828,
              18.932617
            ],
            [
              72.575195,
              18.933984
            ],
            [
              72.575195,
              18.938086
            ],
            [
              72.576562,
              18.939453
            ],
            [
              72.576562,
              18.943555
            ],
            [
              72.573828,
              18.946289
            ],
            [
              72.569727,
              18.947656
            ],
            [
              72.564258,
              18.953125
            ],
            [
              72.562891,
              18.953125
            ],
            [
              72.561523,
              18.954492
            ],
            [
              72.554688,
              18.954492
            ],
            [
              72.55332,
              18.955859
            ],
            [
              72.550586,
              18.955859
            ],
            [
              72.549219,
              18.954492
            ],
            [
              72.545117,
              18.954492
            ],
            [
              72.54375,
              18.953125
            ]
          ]
        ]
      }
    },
    {
      "type": "Feature",
      "properties": {
        "spill_id": "palsar_563",
        "confidence": 0.83
      },
      "geometry": {
        "type": "Polygon",
        "coordinates": [
          [
            [
              72.810352,
              18.985938
            ],
            [
              72.810352,
              18.979102
            ],
            [
              72.811719,
              18.977734
            ],
            [
              72.811719,
              18.976367
            ],
            [
              72.813086,
              18.976367
            ],
            [
              72.822656,
              18.966797
            ],
            [
              72.822656,
              18.96543
            ],
            [
              72.825391,
              18.962695
            ],
            [
              72.826758,
              18.962695
            ],
            [
              72.830859,
              18.959961
            ],
            [
              72.833594,
              18.959961
            ],
            [
              72.834961,
              18.958594
            ],
            [
              72.847266,
              18.958594
            ],
            [
              72.848633,
              18.959961
            ],
            [
              72.848633,
              18.980469
            ],
            [
              72.847266,
              18.980469
            ],
            [
              72.845898,
              18.981836
            ],
            [
              72.843164,
              18.981836
            ],
            [
              72.841797,
              18.983203
            ],
            [
              72.832227,
              18.98457
            ],
            [
              72.830859,
              18.985938
            ],
            [
              72.828125,
              18.985938
            ],
            [
              72.826758,
              18.987305
            ],
            [
              72.821289,
              18.987305
            ],
            [
              72.819922,
              18.988672
            ],
            [
              72.813086,
              18.988672
            ],
            [
              72.810352,
              18.985938
            ]
          ]
        ]
      }
    },
    {
      "type": "Feature",
      "properties": {
        "spill_id": "palsar_563",
        "confidence": 0.83
      },
      "geometry": {
        "type": "Polygon",
        "coordinates": [
          [
            [
              72.624414,
              19.016016
            ],
            [
              72.624414,
              19.011914
            ],
            [
              72.627148,
              19.007812
            ],
            [
              72.625781,
              18.999609
            ],
            [
              72.629883,
              18.995508
            ],
            [
              72.657227,
              18.988672
            ],
            [
              72.685938,
              18.972266
            ],
            [
              72.703711,
              18.957227
            ],
            [
              72.713281,
              18.957227
            ],
            [
              72.720117,
              18.961328
            ],
            [
              72.720117,
              18.966797
            ],
            [
              72.714648,
              18.972266
            ],
            [
              72.677734,
              18.991406
            ],
            [
              72.669531,
              18.998242
            ],
            [
              72.658594,
              19.002344
            ],
            [
              72.644922,
              19.013281
            ],
            [
              72.633984,
              19.017383
            ],
            [
              72.624414,
              19.016016
            ]
          ]
        ]
      }
    },
    {
      "type": "Feature",
      "properties": {
        "spill_id": "palsar_563",
        "confidence": 0.83
      },
      "geometry": {
        "type": "Polygon",
        "coordinates": [
          [
            [
              72.5,
              19.067969
            ],
            [
              72.5,
              19.048828
            ],
            [
              72.525977,
              19.043359
            ],
            [
              72.549219,
              19.025586
            ],
            [
              72.558789,
              19.021484
            ],
            [
              72.565625,
              19.011914
            ],
            [
              72.590234,
              18.988672
            ],
            [
              72.602539,
              18.987305
            ],
            [
              72.612109,
              18.992773
            ],
            [
              72.612109,
              18.999609
            ],
            [
              72.602539,
              19.00918
            ],
            [
              72.592969,
              19.013281
            ],
            [
              72.582031,
              19.022852
            ],
            [
              72.545117,
              19.046094
            ],
            [
              72.525977,
              19.054297
            ],
            [
              72.512305,
              19.065234
            ],
            [
              72.5,
              19.067969
            ]
          ]
        ]
      }
    },
    {
      "type": "Feature",
      "properties": {
        "spill_id": "palsar_563",
        "confidence": 0.83
      },
      "geometry": {
        "type": "Polygon",
        "coordinates": [
          [
            [
              72.716016,
              19.089844
            ],
            [
              72.714648,
              19.084375
            ],
            [
              72.725586,
              19.041992
            ],
            [
              72.722852,
              19.039258
            ],
            [
              72.706445,
              19.040625
            ],
            [
              72.687305,
              19.055664
            ],
            [
              72.676367,
              19.05293
            ],
            [
              72.672266,
              19.047461
            ],
            [
              72.673633,
              19.041992
            ],
            [
              72.68457,
              19.035156
            ],
            [
              72.71875,
              19.024219
            ],
            [
              72.746094,
              19.00918
            ],
            [
              72.763867,
              18.980469
            ],
            [
              72.776172,
              18.977734
            ],
            [
              72.783008,
              18.988672
            ],
            [
              72.77207,
              19.010547
            ],
            [
              72.750195,
              19.035156
            ],
            [
              72.733789,
              19.041992
            ],
            [
              72.739258,
              19.048828
            ],
            [
              72.750195,
              19.046094
            ],
            [
              72.758398,
              19.048828
            ],
            [
              72.759766,
              19.067969
            ],
            [
              72.748828,
              19.073438
            ],
            [
              72.739258,
              19.088477
            ],
            [
              72.716016,
              19.089844
            ]
          ]
        ]
      }
    },
    {
      "type": "Feature",
      "properties": {
        "spill_id": "palsar_563",
        "confidence": 0.83
      },
      "geometry": {
        "type": "Polygon",
        "coordinates": [
          [
            [
              72.694141,
              19.092578
            ],
            [
              72.694141,
              19.091211
            ],
            [
              72.698242,
              19.087109
            ],
            [
              72.699609,
              19.087109
            ],
            [
              72.700977,
              19.085742
            ],
            [
              72.707812,
              19.085742
            ],
            [
              72.710547,
              19.088477
            ],
            [
              72.70918,
              19.089844
            ],
            [
              72.70918,
              19.091211
            ],
            [
              72.707812,
              19.091211
            ],
            [
              72.706445,
              19.092578
            ],
            [
              72.703711,
              19.092578
            ],
            [
              72.702344,
              19.093945
            ],
            [
              72.696875,
              19.093945
            ],
            [
              72.695508,
              19.092578
            ],
            [
              72.694141,
              19.092578
            ]
          ]
        ]
      }
    },
    {
      "type": "Feature",
      "properties": {
        "spill_id": "palsar_563",
        "confidence": 0.83
      },
      "geometry": {
        "type": "Polygon",
        "coordinates": [
          [
            [
              72.554688,
              19.10625
            ],
            [
              72.55332,
              19.09668
            ],
            [
              72.556055,
              19.092578
            ],
            [
              72.565625,
              19.089844
            ],
            [
              72.580664,
              19.078906
            ],
            [
              72.592969,
              19.074805
            ],
            [
              72.603906,
              19.065234
            ],
            [
              72.606641,
              19.054297
            ],
            [
              72.613477,
              19.048828
            ],
            [
              72.638086,
              19.043359
            ],
            [
              72.649023,
              19.044727
            ],
            [
              72.649023,
              19.048828
            ],
            [
              72.64082,
              19.057031
            ],
            [
              72.620312,
              19.063867
            ],
            [
              72.610742,
              19.073438
            ],
            [
              72.608008,
              19.078906
            ],
            [
              72.595703,
              19.089844
            ],
            [
              72.564258,
              19.107617
            ],
            [
              72.554688,
              19.10625
            ]
          ]
        ]
      }
    },
    {
      "type": "Feature",
      "properties": {
        "spill_id": "palsar_563",
        "confidence": 0.83
      },
      "geometry": {
        "type": "Polygon",
        "coordinates": [
          [
            [
              72.821289,
              19.129492
            ],
            [
              72.817187,
              19.129492
            ],
            [
              72.814453,
              19.126758
            ],
            [
              72.813086,
              19.126758
            ],
            [
              72.811719,
              19.125391
            ],
            [
              72.811719,
              19.124023
            ],
            [
              72.810352,
              19.122656
            ],
            [
              72.810352,
              19.117188
            ],
            [
              72.811719,
              19.11582
            ],
            [
              72.811719,
              19.113086
            ],
            [
              72.813086,
              19.111719
            ],
            [
              72.813086,
              19.108984
            ],
            [
              72.821289,
              19.108984
            ],
            [
              72.822656,
              19.110352
            ],
            [
              72.824023,
              19.110352
            ],
            [
              72.826758,
              19.113086
            ],
            [
              72.826758,
              19.119922
            ],
            [
              72.825391,
              19.121289
            ],
            [
              72.825391,
              19.124023
            ],
            [
              72.824023,
              19.125391
            ],
            [
              72.824023,
              19.126758
            ],
            [
              72.821289,
              19.129492
            ]
          ]
        ]
      }
    }
  ]
}