{
  "type": "FeatureCollection",
  "features": [
    {
      "type": "Feature",
      "properties": {
        "spill_id": "palsar_193",
        "confidence": 0.61
      },
      "geometry": {
        "type": "Polygon",
        "coordinates": [
          [
            [
              72.75293,
              18.805469
            ],
            [
              72.75293,
              18.802734
            ],
            [
              72.754297,
              18.802734
            ],
            [
              72.755664,
              18.801367
            ],
            [
              72.765234,
              18.801367
            ],
            [
              72.765234,
              18.806836
            ],
            [
              72.763867,
              18.808203
            ],
            [
              72.755664,
              18.808203
            ],
            [
              72.75293,
              18.805469
            ]
          ]
        ]
      }
    },
    {
      "type": "Feature",
      "properties": {
        "spill_id": "palsar_193",
        "confidence": 0.61
      },
      "geometry": {
        "type": "Polygon",
        "coordinates": [
          [
            [
              72.638086,
              18.802734
            ],
            [
              72.639453,
              18.801367
            ],
            [
              72.653125,
              18.801367
            ],
            [
              72.654492,
              18.802734
            ],
            [
              72.655859,
              18.802734
            ],
            [
              72.654492,
              18.802734
            ],
            [
              72.653125,
              18.804102
            ],
            [
              72.654492,
              18.805469
            ],
            [
              72.653125,
              18.806836
            ],
            [
              72.653125,
              18.808203
            ],
            [
              72.646289,
              18.808203
            ],
            [
              72.644922,
              18.806836
            ],
            [
              72.643555,
              18.806836
            ],
            [
              72.642187,
              18.805469
            ],
            [
              72.64082,
              18.805469
            ],
            [
              72.638086,
              18.802734
            ]
          ]
        ]
      }
    },
    {
      "type": "Feature",
      "properties": {
        "spill_id": "palsar_193",
        "confidence": 0.61
      },
      "geometry": {
        "type": "Polygon",
        "coordinates": [
          [
            [
              72.659961,
              18.804102
            ],
            [
              72.659961,
              18.802734
            ],
            [
              72.661328,
              18.802734
            ],
            [
              72.662695,
              18.801367
            ],
            [
              72.680469,
              18.801367
            ],
            [
              72.681836,
              18.802734
            ],
            [
              72.68457,
              18.802734
            ],
            [
              72.685938,
              18.801367
            ],
            [
              72.691406,
              18.801367
            ],
            [
              72.692773,
              18.802734
            ],
            [
              72.694141,
              18.802734
            ],
            [
              72.690039,
              18.802734
            ],
            [
              72.688672,
              18.804102
            ],
            [
              72.685938,
              18.804102
            ],
            [
              72.68457,
              18.802734
            ],
            [
              72.683203,
              18.802734
            ],
            [
              72.681836,
              18.804102
            ],
            [
              72.683203,
              18.805469
            ],
            [
              72.680469,
              18.805469
            ],
            [
              72.679102,
              18.806836
            ],
            [
              72.676367,
              18.806836
            ],
            [
              72.673633,
              18.80957
            ],
            [
              72.669531,
              18.80957
            ],
            [
              72.668164,
              18.808203
            ],
            [
              72.666797,
              18.808203
            ],
            [
              72.66543,
              18.806836
            ],
            [
              72.664062,
              18.806836
            ],
            [
              72.659961,
              18.804102
            ]
          ]
        ]
      }
    },
    {
      "type": "Feature",
      "properties": {
        "spill_id": "palsar_193",
        "confidence": 0.61
      },
      "geometry": {
        "type": "Polygon",
        "coordinates": [
          [
            [
              72.5,
              18.932617
            ],
            [
              72.5,
              18.804102
            ],
            [
              72.614844,
              18.802734
            ],
            [
              72.613477,
              18.80957
            ],
            [
              72.623047,
              18.821875
            ],
            [
              72.62168,
              18.827344
            ],
            [
              72.610742,
              18.827344
            ],
            [
              72.601172,
              18.835547
            ],
            [
              72.592969,
              18.830078
            ],
            [
              72.568359,
              18.831445
            ],
            [
              72.560156,
              18.816406
            ],
            [
              72.547852,
              18.812305
            ],
            [
              72.525977,
              18.815039
            ],
            [
              72.530078,
              18.823242
            ],
            [
              72.524609,
              18.836914
            ],
            [
              72.530078,
              18.847852
            ],
            [
              72.520508,
              18.85332
            ],
            [
              72.512305,
              18.84375
            ],
            [
              72.510938,
              18.85332
            ],
            [
              72.517773,
              18.862891
            ],
            [
              72.512305,
              18.858789
            ],
            [
              72.502734,
              18.864258
            ],
            [
              72.504102,
              18.872461
            ],
            [
              72.521875,
              18.873828
            ],
            [
              72.525977,
              18.879297
            ],
            [
              72.523242,
              18.903906
            ],
            [
              72.512305,
              18.901172
            ],
            [
              72.515039,
              18.92168
            ],
            [
              72.5,
              18.932617
            ]
          ]
        ]
      }
    },
    {
      "type": "Feature",
      "properties": {
        "spill_id": "palsar_193",
        "confidence": 0.61
      },
      "geometry": {
        "type": "Polygon",
        "coordinates": [
          [
            [
              72.606641,
              19.07207
            ],
            [
              72.599805,
              19.07207
            ],
            [
              72.595703,
              19.076172
            ],
            [
              72.595703,
              19.074805
            ],
            [
              72.594336,
              19.073438
            ],
            [
              72.594336,
              19.069336
            ],
            [
              72.590234,
              19.065234
            ],
            [
              72.590234,
              19.063867
            ],
            [
              72.591602,
              19.0625
            ],
            [
              72.598438,
              19.0625
            ],
            [
              72.599805,
              19.063867
            ],
            [
              72.601172,
              19.063867
            ],
            [
              72.601172,
              19.065234
            ],
            [
              72.606641,
              19.070703
            ],
            [
              72.606641,
              19.07207
            ]
          ]
        ]
      }
    },
    {
      "type": "Feature",
      "properties": {
        "spill_id": "palsar_193",
        "confidence": 0.61
      },
      "geometry": {
        "type": "Polygon",
        "coordinates": [
          [
            [
              72.590234,
              19.084375
            ],
            [
              72.588867,
              19.084375
            ],
            [
              72.5875,
              19.085742
            ],
            [
              72.586133,
              19.085742
            ],
            [
              72.584766,
              19.087109
            ],
            [
              72.586133,
              19.085742
            ],
            [
              72.584766,
              19.084375
            ],
            [
              72.584766,
              19.083008
            ],
            [
              72.583398,
              19.081641
            ],
            [
              72.580664,
              19.081641
            ],
            [
              72.57793,
              19.078906
            ],
            [
              72.57793,
              19.076172
            ],
            [
              72.580664,
              19.076172
            ],
            [
              72.582031,
              19.077539
            ],
            [
              72.583398,
              19.077539
            ],
            [
              72.586133,
              19.074805
            ],
            [
              72.5875,
              19.074805
            ],
            [
              72.590234,
              19.077539
            ],
            [
              72.590234,
              19.084375
            ]
          ]
        ]
      }
    },
    {
      "type": "Feature",
      "properties": {
        "spill_id": "palsar_193",
        "confidence": 0.61
      },
      "geometry": {
        "type": "Polygon",
        "coordinates": [
          [
            [
              72.848633,
              19.09668
            ],
            [
              72.844531,
              19.09668
            ],
            [
              72.843164,
              19.095312
            ],
            [
              72.841797,
              19.095312
            ],
            [
              72.839062,
              19.092578
            ],
            [
              72.839062,
              19.088477
            ],
            [
              72.837695,
              19.087109
            ],
            [
              72.837695,
              19.078906
            ],
            [
              72.841797,
              19.078906
            ],
            [
              72.843164,
              19.080273
            ],
            [
              72.844531,
              19.080273
            ],
            [
              72.845898,
              19.081641
            ],
            [
              72.847266,
              19.081641
            ],
            [
              72.848633,
              19.083008
            ],
            [
              72.848633,
              19.09668
            ]
          ]
        ]
      }
    },
    {
      "type": "Feature",
      "properties": {
        "spill_id": "palsar_193",
        "confidence": 0.61
      },
      "geometry": {
        "type": "Polygon",
        "coordinates": [
          [
            [
              72.532812,
              19.103516
            ],
            [
              72.512305,
              19.089844
            ],
            [
              72.506836,
              19.093945
            ],
            [
              72.5,
              19.093945
            ],
            [
              72.505469,
              19.087109
            ],
            [
              72.5,
              19.081641
            ],
            [
              72.5,
              18.962695
            ],
            [
              72.508203,
              18.96543
            ],
            [
              72.513672,
              18.973633
            ],
            [
              72.513672,
              18.979102
            ],
            [
              72.530078,
              18.999609
            ],
            [
              72.525977,
              19.01875
            ],
            [
              72.515039,
              19.01875
            ],
            [
              72.50957,
              19.025586
            ],
            [
              72.508203,
              19.044727
            ],
            [
              72.524609,
              19.050195
            ],
            [
              72.521875,
              19.059766
            ],
            [
              72.530078,
              19.069336
            ],
            [
              72.530078,
              19.073438
            ],
            [
              72.525977,
              19.07207
            ],
            [
              72.524609,
              19.077539
            ],
            [
              72.535547,
              19.095312
            ],
            [
              72.532812,
              19.103516
            ]
          ]
        ]
      }
    },
    {
      "type": "Feature",
      "properties": {
        "spill_id": "palsar_193",
        "confidence": 0.61
      },
      "geometry": {
        "type": "Polygon",
        "coordinates": [
          [
            [
              72.845898,
              19.126758
            ],
            [
              72.844531,
              19.126758
            ],
            [
              72.844531,
              19.125391
            ],
            [
              72.843164,
              19.124023
            ],
            [
              72.841797,
              19.124023
            ],
            [
              72.84043,
              19.122656
            ],
            [
              72.84043,
              19.117188
            ],
            [
              72.841797,
              19.11582
            ],
            [
              72.841797,
              19.114453
            ],
            [
              72.844531,
              19.111719
            ],
            [
              72.848633,
              19.11582
            ],
            [
              72.848633,
              19.125391
            ],
            [
              72.847266,
              19.125391
            ],
            [
              72.845898,
              19.126758
            ]
          ]
        ]
      }
    },
    {
      "type": "Feature",
      "properties": {
        "spill_id": "palsar_193",
        "confidence": 0.61
      },
      "geometry": {
        "type": "Polygon",
        "coordinates": [
          [
            [
              72.841797,
              19.15
            ],
            [
              72.841797,
              19.148633
            ],
            [
              72.84043,
              19.147266
            ],
            [
              72.84043,
              19.136328
            ],
            [
              72.841797,
              19.134961
            ],
            [
              72.843164,
              19.134961
            ],
            [
              72.844531,
              19.133594
            ],
            [
              72.844531,
              19.132227
            ],
            [
              72.845898,
              19.132227
            ],
            [
              72.848633,
              19.134961
            ],
            [
              72.848633,
              19.147266
            ],
            [
              72.845898,
              19.147266
            ],
            [
              72.844531,
              19.148633
            ],
            [
              72.845898,
              19.15
            ],
            [
              72.841797,
              19.15
            ]
          ]
        ]
      }
    },
    {
      "type": "Feature",
      "properties": {
        "spill_id": "palsar_193",
        "confidence": 0.61
      },
      "geometry": {
        "type": "Polygon",
        "coordinates": [
          [
            [
              72.569727,
              19.15
            ],
            [
              72.575195,
              19.144531
            ],
            [
              72.576562,
              19.144531
            ],
            [
              72.57793,
              19.143164
            ],
            [
              72.579297,
              19.144531
            ],
            [
              72.586133,
              19.144531
            ],
            [
              72.5875,
              19.143164
            ],
            [
              72.5875,
              19.144531
            ],
            [
              72.588867,
              19.145898
            ],
            [
              72.5875,
              19.147266
            ],
            [
              72.590234,
              19.15
            ],
            [
              72.594336,
              19.15
            ],
            [
              72.569727,
              19.15
            ]
          ]
        ]
      }
    },
    {
      "type": "Feature",
      "properties": {
        "spill_id": "palsar_193",
        "confidence": 0.61
      },
      "geometry": {
        "type": "Polygon",
        "coordinates": [
          [
            [
              72.50957,
              19.15
            ],
            [
              72.510938,
              19.15
            ],
            [
              72.520508,
              19.139062
            ],
            [
              72.520508,
              19.134961
            ],
            [
              72.523242,
              19.132227
            ],
            [
              72.523242,
              19.128125
            ],
            [
              72.520508,
              19.124023
            ],
            [
              72.520508,
              19.119922
            ],
            [
              72.523242,
              19.119922
            ],
            [
              72.523242,
              19.122656
            ],
            [
              72.524609,
              19.124023
            ],
            [
              72.523242,
              19.125391
            ],
            [
              72.524609,
              19.126758
            ],
            [
              72.531445,
              19.126758
            ],
            [
              72.532812,
              19.128125
            ],
            [
              72.535547,
              19.128125
            ],
            [
              72.538281,
              19.129492
            ],
            [
              72.539648,
              19.132227
            ],
            [
              72.545117,
              19.133594
            ],
            [
              72.547852,
              19.136328
            ],
            [
              72.549219,
              19.136328
            ],
            [
              72.554688,
              19.147266
            ],
            [
              72.554688,
              19.15
            ],
            [
              72.50957,
              19.15
            ]
          ]
        ]
      }
    }
  ]
}