{
  "type": "FeatureCollection",
  "features": [
    {
      "type": "Feature",
      "properties": {
        "spill_id": "palsar_342",
        "confidence": 0.88
      },
      "geometry": {
        "type": "Polygon",
        "coordinates": [
          [
            [
              72.613477,
              19.130859
            ],
            [
              72.603906,
              19.122656
            ],
            [
              72.602539,
              19.118555
            ],
            [
              72.599805,
              19.11582
            ],
            [
              72.599805,
              19.107617
            ],
            [
              72.601172,
              19.10625
            ],
            [
              72.602539,
              19.095312
            ],
            [
              72.609375,
              19.080273
            ],
            [
              72.614844,
              19.074805
            ],
            [
              72.62168,
              19.073438
            ],
            [
              72.623047,
              19.07207
            ],
            [
              72.624414,
              19.073438
            ],
            [
              72.629883,
              19.073438
            ],
            [
              72.636719,
              19.077539
            ],
            [
              72.64082,
              19.083008
            ],
            [
              72.64082,
              19.085742
            ],
            [
              72.642187,
              19.087109
            ],
            [
              72.642187,
              19.093945
            ],
            [
              72.638086,
              19.103516
            ],
            [
              72.635352,
              19.10625
            ],
            [
              72.628516,
              19.128125
            ],
            [
              72.624414,
              19.130859
            ],
            [
              72.613477,
              19.130859
            ]
          ]
        ]
      }
    },
    {
      "type": "Feature",
      "properties": {
        "spill_id": "palsar_342",
        "confidence": 0.88
      },
      "geometry": {
        "type": "Polygon",
        "coordinates": [
          [
            [
              72.777539,
              19.15
            ],
            [
              72.780273,
              19.141797
            ],
            [
              72.780273,
              19.137695
            ],
            [
              72.798047,
              19.129492
            ],
            [
              72.81582,
              19.114453
            ],
            [
              72.824023,
              19.114453
            ],
            [
              72.829492,
              19.119922
            ],
            [
              72.832227,
              19.125391
            ],
            [
              72.832227,
              19.132227
            ],
            [
              72.841797,
              19.144531
            ],
            [
              72.841797,
              19.15
            ],
            [
              72.777539,
              19.15
            ]
          ]
        ]
      }
    },
    {
      "type": "Feature",
      "properties": {
        "spill_id": "palsar_342",
        "confidence": 0.88
      },
      "geometry": {
        "type": "Polygon",
        "coordinates": [
          [
            [
              72.707812,
              19.144531
            ],
            [
              72.705078,
              19.141797
            ],
            [
              72.703711,
              19.132227
            ],
            [
              72.706445,
              19.126758
            ],
            [
              72.736523,
              19.099414
            ],
            [
              72.746094,
              19.084375
            ],
            [
              72.747461,
              19.073438
            ],
            [
              72.759766,
              19.058398
            ],
            [
              72.770703,
              19.061133
            ],
            [
              72.774805,
              19.07207
            ],
            [
              72.769336,
              19.088477
            ],
            [
              72.770703,
              19.093945
            ],
            [
              72.766602,
              19.107617
            ],
            [
              72.766602,
              19.117188
            ],
            [
              72.754297,
              19.137695
            ],
            [
              72.75293,
              19.148633
            ],
            [
              72.732422,
              19.15
            ],
            [
              72.725586,
              19.144531
            ],
            [
              72.707812,
              19.144531
            ]
          ]
        ]
      }
    }
  ]
}