{
  "type": "FeatureCollection",
  "features": [
    {
      "type": "Feature",
      "properties": {
        "spill_id": "palsar_671",
        "confidence": 0.77
      },
      "geometry": {
        "type": "Polygon",
        "coordinates": [
          [
            [
              72.579297,
              18.813672
            ],
            [
              72.579297,
              18.80957
            ],
            [
              72.582031,
              18.806836
            ],
            [
              72.582031,
              18.805469
            ],
            [
              72.584766,
              18.802734
            ],
            [
              72.586133,
              18.802734
            ],
            [
              72.5875,
              18.801367
            ],
            [
              72.590234,
              18.801367
            ],
            [
              72.595703,
              18.806836
            ],
            [
              72.595703,
              18.808203
            ],
            [
              72.59707,
              18.80957
            ],
            [
              72.59707,
              18.810938
            ],
            [
              72.592969,
              18.815039
            ],
            [
              72.582031,
              18.815039
            ],
            [
              72.580664,
              18.813672
            ],
            [
              72.579297,
              18.813672
            ]
          ]
        ]
      }
    },
    {
      "type": "Feature",
      "properties": {
        "spill_id": "palsar_671",
        "confidence": 0.77
      },
      "geometry": {
        "type": "Polygon",
        "coordinates": [
          [
            [
              72.532812,
              18.924414
            ],
            [
              72.531445,
              18.923047
            ],
            [
              72.531445,
              18.912109
            ],
            [
              72.53418,
              18.908008
            ],
            [
              72.53418,
              18.902539
            ],
            [
              72.538281,
              18.89707
            ],
            [
              72.539648,
              18.884766
            ],
            [
              72.546484,
              18.879297
            ],
            [
              72.549219,
              18.872461
            ],
            [
              72.564258,
              18.85332
            ],
            [
              72.565625,
              18.849219
            ],
            [
              72.573828,
              18.842383
            ],
            [
              72.582031,
              18.839648
            ],
            [
              72.575195,
              18.866992
            ],
            [
              72.568359,
              18.875195
            ],
            [
              72.564258,
              18.883398
            ],
            [
              72.55332,
              18.895703
            ],
            [
              72.546484,
              18.916211
            ],
            [
              72.539648,
              18.923047
            ],
            [
              72.532812,
              18.924414
            ]
          ]
        ]
      }
    },
    {
      "type": "Feature",
      "properties": {
        "spill_id": "palsar_671",
        "confidence": 0.77
      },
      "geometry": {
        "type": "Polygon",
        "coordinates": [
          [
            [
              72.549219,
              18.955859
            ],
            [
              72.551953,
              18.946289
            ],
            [
              72.560156,
              18.935352
            ],
            [
              72.560156,
              18.93125
            ],
            [
              72.562891,
              18.925781
            ],
            [
              72.576562,
              18.914844
            ],
            [
              72.5875,
              18.903906
            ],
            [
              72.591602,
              18.89707
            ],
            [
              72.598438,
              18.894336
            ],
            [
              72.605273,
              18.888867
            ],
            [
              72.618945,
              18.890234
            ],
            [
              72.620312,
              18.895703
            ],
            [
              72.613477,
              18.903906
            ],
            [
              72.586133,
              18.918945
            ],
            [
              72.582031,
              18.932617
            ],
            [
              72.564258,
              18.953125
            ],
            [
              72.556055,
              18.958594
            ],
            [
              72.551953,
              18.958594
            ],
            [
              72.549219,
              18.955859
            ]
          ]
        ]
      }
    },
    {
      "type": "Feature",
      "properties": {
        "spill_id": "palsar_671",
        "confidence": 0.77
      },
      "geometry": {
        "type": "Polygon",
        "coordinates": [
          [
            [
              72.845898,
              18.977734
            ],
            [
              72.843164,
              18.983203
            ],
            [
              72.837695,
              18.985938
            ],
            [
              72.830859,
              18.98457
            ],
            [
              72.826758,
              18.980469
            ],
            [
              72.822656,
              18.979102
            ],
            [
              72.81582,
              18.973633
            ],
            [
              72.814453,
              18.973633
            ],
            [
              72.810352,
              18.979102
            ],
            [
              72.804883,
              18.981836
            ],
            [
              72.793945,
              18.981836
            ],
            [
              72.792578,
              18.983203
            ],
            [
              72.789844,
              18.981836
            ],
            [
              72.789844,
              18.969531
            ],
            [
              72.795312,
              18.964062
            ],
            [
              72.804883,
              18.961328
            ],
            [
              72.807617,
              18.957227
            ],
            [
              72.807617,
              18.953125
            ],
            [
              72.810352,
              18.951758
            ],
            [
              72.81582,
              18.951758
            ],
            [
              72.834961,
              18.958594
            ],
            [
              72.843164,
              18.966797
            ],
            [
              72.845898,
              18.972266
            ],
            [
              72.845898,
              18.977734
            ]
          ]
        ]
      }
    },
    {
      "type": "Feature",
      "properties": {
        "spill_id": "palsar_671",
        "confidence": 0.77
      },
      "geometry": {
        "type": "Polygon",
        "coordinates": [
          [
            [
              72.776172,
              19.011914
            ],
            [
              72.77207,
              19.007812
            ],
            [
              72.770703,
              19.007812
            ],
            [
              72.770703,
              19.006445
            ],
            [
              72.769336,
              19.005078
            ],
            [
              72.769336,
              19.000977
            ],
            [
              72.770703,
              18.999609
            ],
            [
              72.770703,
              18.996875
            ],
            [
              72.778906,
              18.988672
            ],
            [
              72.780273,
              18.988672
            ],
            [
              72.781641,
              18.987305
            ],
            [
              72.788477,
              18.987305
            ],
            [
              72.788477,
              18.995508
            ],
            [
              72.785742,
              18.998242
            ],
            [
              72.785742,
              19.002344
            ],
            [
              72.784375,
              19.003711
            ],
            [
              72.784375,
              19.007812
            ],
            [
              72.783008,
              19.00918
            ],
            [
              72.783008,
              19.010547
            ],
            [
              72.781641,
              19.011914
            ],
            [
              72.776172,
              19.011914
            ]
          ]
        ]
      }
    },
    {
      "type": "Feature",
      "properties": {
        "spill_id": "palsar_671",
        "confidence": 0.77
      },
      "geometry": {
        "type": "Polygon",
        "coordinates": [
          [
            [
              72.811719,
              19.0625
            ],
            [
              72.811719,
              19.058398
            ],
            [
              72.813086,
              19.058398
            ],
            [
              72.814453,
              19.057031
            ],
            [
              72.81582,
              19.058398
            ],
            [
              72.826758,
              19.058398
            ],
            [
              72.828125,
              19.057031
            ],
            [
              72.829492,
              19.057031
            ],
            [
              72.834961,
              19.051562
            ],
            [
              72.836328,
              19.051562
            ],
            [
              72.839062,
              19.048828
            ],
            [
              72.845898,
              19.048828
            ],
            [
              72.847266,
              19.050195
            ],
            [
              72.848633,
              19.050195
            ],
            [
              72.848633,
              19.07207
            ],
            [
              72.847266,
              19.07207
            ],
            [
              72.843164,
              19.074805
            ],
            [
              72.84043,
              19.074805
            ],
            [
              72.836328,
              19.077539
            ],
            [
              72.826758,
              19.077539
            ],
            [
              72.822656,
              19.073438
            ],
            [
              72.819922,
              19.066602
            ],
            [
              72.818555,
              19.065234
            ],
            [
              72.811719,
              19.0625
            ]
          ]
        ]
      }
    },
    {
      "type": "Feature",
      "properties": {
        "spill_id": "palsar_671",
        "confidence": 0.77
      },
      "geometry": {
        "type": "Polygon",
        "coordinates": [
          [
            [
              72.538281,
              19.092578
            ],
            [
              72.535547,
              19.089844
            ],
            [
              72.535547,
              19.087109
            ],
            [
              72.538281,
              19.083008
            ],
            [
              72.538281,
              19.080273
            ],
            [
              72.539648,
              19.078906
            ],
            [
              72.539648,
              19.076172
            ],
            [
              72.541016,
              19.074805
            ],
            [
              72.541016,
              19.073438
            ],
            [
              72.547852,
              19.066602
            ],
            [
              72.549219,
              19.066602
            ],
            [
              72.550586,
              19.065234
            ],
            [
              72.556055,
              19.065234
            ],
            [
              72.556055,
              19.066602
            ],
            [
              72.557422,
              19.067969
            ],
            [
              72.557422,
              19.070703
            ],
            [
              72.556055,
              19.07207
            ],
            [
              72.556055,
              19.073438
            ],
            [
              72.554688,
              19.074805
            ],
            [
              72.554688,
              19.076172
            ],
            [
              72.55332,
              19.077539
            ],
            [
              72.55332,
              19.078906
            ],
            [
              72.550586,
              19.081641
            ],
            [
              72.550586,
              19.083008
            ],
            [
              72.547852,
              19.085742
            ],
            [
              72.547852,
              19.087109
            ],
            [
              72.545117,
              19.089844
            ],
            [
              72.545117,
              19.091211
            ],
            [
              72.54375,
              19.091211
            ],
            [
              72.542383,
              19.092578
            ],
            [
              72.538281,
              19.092578
            ]
          ]
        ]
      }
    }
  ]
}