{
  "type": "FeatureCollection",
  "features": [
    {
      "type": "Feature",
      "properties": {
        "spill_id": "palsar_673",
        "confidence": 0.83
      },
      "geometry": {
        "type": "Polygon",
        "coordinates": [
          [
            [
              72.644922,
              18.899805
            ],
            [
              72.63125,
              18.87793
            ],
            [
              72.629883,
              18.868359
            ],
            [
              72.629883,
              18.85332
            ],
            [
              72.632617,
              18.847852
            ],
            [
              72.632617,
              18.842383
            ],
            [
              72.627148,
              18.83418
            ],
            [
              72.628516,
              18.824609
            ],
            [
              72.625781,
              18.815039
            ],
            [
              72.627148,
              18.806836
            ],
            [
              72.63125,
              18.801367
            ],
            [
              72.639453,
              18.801367
            ],
            [
              72.643555,
              18.805469
            ],
            [
              72.646289,
              18.813672
            ],
            [
              72.653125,
              18.820508
            ],
            [
              72.649023,
              18.839648
            ],
            [
              72.639453,
              18.861523
            ],
            [
              72.64082,
              18.869727
            ],
            [
              72.649023,
              18.886133
            ],
            [
              72.649023,
              18.892969
            ],
            [
              72.644922,
              18.899805
            ]
          ]
        ]
      }
    },
    {
      "type": "Feature",
      "properties": {
        "spill_id": "palsar_673",
        "confidence": 0.83
      },
      "geometry": {
        "type": "Polygon",
        "coordinates": [
          [
            [
              72.525977,
              18.902539
            ],
            [
              72.524609,
              18.903906
            ],
            [
              72.520508,
              18.903906
            ],
            [
              72.519141,
              18.905273
            ],
            [
              72.517773,
              18.905273
            ],
            [
              72.516406,
              18.903906
            ],
            [
              72.513672,
              18.903906
            ],
            [
              72.510938,
              18.901172
            ],
            [
              72.510938,
              18.89707
            ],
            [
              72.512305,
              18.895703
            ],
            [
              72.512305,
              18.894336
            ],
            [
              72.513672,
              18.892969
            ],
            [
              72.513672,
              18.891602
            ],
            [
              72.519141,
              18.891602
            ],
            [
              72.521875,
              18.894336
            ],
            [
              72.523242,
              18.894336
            ],
            [
              72.523242,
              18.895703
            ],
            [
              72.525977,
              18.898438
            ],
            [
              72.525977,
              18.902539
            ]
          ]
        ]
      }
    },
    {
      "type": "Feature",
      "properties": {
        "spill_id": "palsar_673",
        "confidence": 0.83
      },
      "geometry": {
        "type": "Polygon",
        "coordinates": [
          [
            [
              72.602539,
              18.914844
            ],
            [
              72.601172,
              18.913477
            ],
            [
              72.599805,
              18.913477
            ],
            [
              72.599805,
              18.909375
            ],
            [
              72.601172,
              18.908008
            ],
            [
              72.601172,
              18.903906
            ],
            [
              72.602539,
              18.902539
            ],
            [
              72.602539,
              18.899805
            ],
            [
              72.603906,
              18.898438
            ],
            [
              72.603906,
              18.89707
            ],
            [
              72.606641,
              18.894336
            ],
            [
              72.606641,
              18.892969
            ],
            [
              72.609375,
              18.892969
            ],
            [
              72.610742,
              18.894336
            ],
            [
              72.612109,
              18.894336
            ],
            [
              72.613477,
              18.895703
            ],
            [
              72.614844,
              18.895703
            ],
            [
              72.618945,
              18.899805
            ],
            [
              72.618945,
              18.908008
            ],
            [
              72.616211,
              18.910742
            ],
            [
              72.616211,
              18.912109
            ],
            [
              72.614844,
              18.913477
            ],
            [
              72.613477,
              18.913477
            ],
            [
              72.612109,
              18.914844
            ],
            [
              72.602539,
              18.914844
            ]
          ]
        ]
      }
    },
    {
      "type": "Feature",
      "properties": {
        "spill_id": "palsar_673",
        "confidence": 0.83
      },
      "geometry": {
        "type": "Polygon",
        "coordinates": [
          [
            [
              72.722852,
              18.998242
            ],
            [
              72.722852,
              18.990039
            ],
            [
              72.725586,
              18.987305
            ],
            [
              72.725586,
              18.985938
            ],
            [
              72.726953,
              18.98457
            ],
            [
              72.726953,
              18.983203
            ],
            [
              72.72832,
              18.983203
            ],
            [
              72.731055,
              18.980469
            ],
            [
              72.737891,
              18.980469
            ],
            [
              72.739258,
              18.981836
            ],
            [
              72.740625,
              18.981836
            ],
            [
              72.741992,
              18.983203
            ],
            [
              72.743359,
              18.983203
            ],
            [
              72.744727,
              18.98457
            ],
            [
              72.744727,
              18.987305
            ],
            [
              72.741992,
              18.990039
            ],
            [
              72.741992,
              18.991406
            ],
            [
              72.740625,
              18.992773
            ],
            [
              72.740625,
              18.994141
            ],
            [
              72.736523,
              18.998242
            ],
            [
              72.735156,
              18.998242
            ],
            [
              72.733789,
              18.999609
            ],
            [
              72.732422,
              18.999609
            ],
            [
              72.731055,
              19.000977
            ],
            [
              72.726953,
              19.000977
            ],
            [
              72.725586,
              18.999609
            ],
            [
              72.724219,
              18.999609
            ],
            [
              72.722852,
              18.998242
            ]
          ]
        ]
      }
    },
    {
      "type": "Feature",
      "properties": {
        "spill_id": "palsar_673",
        "confidence": 0.83
      },
      "geometry": {
        "type": "Polygon",
        "coordinates": [
          [
            [
              72.799414,
              19.15
            ],
            [
              72.799414,
              19.143164
            ],
            [
              72.811719,
              19.119922
            ],
            [
              72.81582,
              19.102148
            ],
            [
              72.828125,
              19.07207
            ],
            [
              72.833594,
              19.051562
            ],
            [
              72.839062,
              19.040625
            ],
            [
              72.847266,
              19.036523
            ],
            [
              72.848633,
              19.095312
            ],
            [
              72.845898,
              19.09668
            ],
            [
              72.844531,
              19.108984
            ],
            [
              72.837695,
              19.121289
            ],
            [
              72.830859,
              19.145898
            ],
            [
              72.828125,
              19.15
            ],
            [
              72.799414,
              19.15
            ]
          ]
        ]
      }
    }
  ]
}