{
  "type": "FeatureCollection",
  "features": [
    {
      "type": "Feature",
      "properties": {
        "spill_id": "palsar_280",
        "confidence": 0.86
      },
      "geometry": {
        "type": "Polygon",
        "coordinates": [
          [
            [
              72.584766,
              18.910742
            ],
            [
              72.584766,
              18.908008
            ],
            [
              72.588867,
              18.903906
            ],
            [
              72.594336,
              18.903906
            ],
            [
              72.595703,
              18.905273
            ],
            [
              72.595703,
              18.908008
            ],
            [
              72.594336,
              18.909375
            ],
            [
              72.594336,
              18.910742
            ],
            [
              72.592969,
              18.912109
            ],
            [
              72.591602,
              18.910742
            ],
            [
              72.588867,
              18.910742
            ],
            [
              72.5875,
              18.912109
            ],
            [
              72.586133,
              18.912109
            ],
            [
              72.584766,
              18.910742
            ]
          ]
        ]
      }
    },
    {
      "type": "Feature",
      "properties": {
        "spill_id": "palsar_280",
        "confidence": 0.86
      },
      "geometry": {
        "type": "Polygon",
        "coordinates": [
          [
            [
              72.5,
              19.000977
            ],
            [
              72.5,
              18.962695
            ],
            [
              72.512305,
              18.951758
            ],
            [
              72.527344,
              18.944922
            ],
            [
              72.539648,
              18.933984
            ],
            [
              72.550586,
              18.935352
            ],
            [
              72.554688,
              18.932617
            ],
            [
              72.560156,
              18.932617
            ],
            [
              72.560156,
              18.935352
            ],
            [
              72.55332,
              18.939453
            ],
            [
              72.554688,
              18.959961
            ],
            [
              72.557422,
              18.966797
            ],
            [
              72.549219,
              18.96543
            ],
            [
              72.546484,
              18.968164
            ],
            [
              72.545117,
              18.976367
            ],
            [
              72.531445,
              18.985938
            ],
            [
              72.520508,
              18.996875
            ],
            [
              72.506836,
              19.000977
            ],
            [
              72.5,
              19.000977
            ]
          ]
        ]
      }
    }
  ]
}