{
  "type": "FeatureCollection",
  "features": [
    {
      "type": "Feature",
      "properties": {
        "spill_id": "palsar_192",
        "confidence": 0.82
      },
      "geometry": {
        "type": "Polygon",
        "coordinates": [
          [
            [
              72.62168,
              18.816406
            ],
            [
              72.620312,
              18.815039
            ],
            [
              72.620312,
              18.806836
            ],
            [
              72.62168,
              18.805469
            ],
            [
              72.62168,
              18.804102
            ],
            [
              72.623047,
              18.804102
            ],
            [
              72.625781,
              18.801367
            ],
            [
              72.627148,
              18.801367
            ],
            [
              72.63125,
              18.805469
            ],
            [
              72.63125,
              18.810938
            ],
            [
              72.627148,
              18.815039
            ],
            [
              72.625781,
              18.815039
            ],
            [
              72.624414,
              18.816406
            ],
            [
              72.62168,
              18.816406
            ]
          ]
        ]
      }
    },
    {
      "type": "Feature",
      "properties": {
        "spill_id": "palsar_192",
        "confidence": 0.82
      },
      "geometry": {
        "type": "Polygon",
        "coordinates": [
          [
            [
              72.5,
              18.825977
            ],
            [
              72.5,
              18.813672
            ],
            [
              72.512305,
              18.810938
            ],
            [
              72.525977,
              18.804102
            ],
            [
              72.541016,
              18.804102
            ],
            [
              72.547852,
              18.806836
            ],
            [
              72.55332,
              18.806836
            ],
            [
              72.557422,
              18.804102
            ],
            [
              72.561523,
              18.804102
            ],
            [
              72.562891,
              18.802734
            ],
            [
              72.565625,
              18.806836
            ],
            [
              72.564258,
              18.80957
            ],
            [
              72.564258,
              18.815039
            ],
            [
              72.562891,
              18.816406
            ],
            [
              72.562891,
              18.824609
            ],
            [
              72.557422,
              18.827344
            ],
            [
              72.545117,
              18.827344
            ],
            [
              72.54375,
              18.825977
            ],
            [
              72.541016,
              18.827344
            ],
            [
              72.521875,
              18.827344
            ],
            [
              72.520508,
              18.825977
            ],
            [
              72.515039,
              18.825977
            ],
            [
              72.513672,
              18.827344
            ],
            [
              72.501367,
              18.827344
            ],
            [
              72.5,
              18.825977
            ]
          ]
        ]
      }
    },
    {
      "type": "Feature",
      "properties": {
        "spill_id": "palsar_192",
        "confidence": 0.82
      },
      "geometry": {
        "type": "Polygon",
        "coordinates": [
          [
            [
              72.579297,
              18.890234
            ],
            [
              72.576562,
              18.8875
            ],
            [
              72.575195,
              18.87793
            ],
            [
              72.572461,
              18.872461
            ],
            [
              72.568359,
              18.868359
            ],
            [
              72.568359,
              18.856055
            ],
            [
              72.571094,
              18.851953
            ],
            [
              72.576562,
              18.846484
            ],
            [
              72.580664,
              18.845117
            ],
            [
              72.582031,
              18.842383
            ],
            [
              72.591602,
              18.842383
            ],
            [
              72.592969,
              18.84375
            ],
            [
              72.59707,
              18.84375
            ],
            [
              72.605273,
              18.838281
            ],
            [
              72.610742,
              18.838281
            ],
            [
              72.608008,
              18.858789
            ],
            [
              72.605273,
              18.862891
            ],
            [
              72.605273,
              18.865625
            ],
            [
              72.602539,
              18.868359
            ],
            [
              72.602539,
              18.871094
            ],
            [
              72.599805,
              18.876562
            ],
            [
              72.5875,
              18.888867
            ],
            [
              72.584766,
              18.890234
            ],
            [
              72.579297,
              18.890234
            ]
          ]
        ]
      }
    },
    {
      "type": "Feature",
      "properties": {
        "spill_id": "palsar_192",
        "confidence": 0.82
      },
      "geometry": {
        "type": "Polygon",
        "coordinates": [
          [
            [
              72.565625,
              19.024219
            ],
            [
              72.556055,
              19.024219
            ],
            [
              72.551953,
              19.020117
            ],
            [
              72.551953,
              19.011914
            ],
            [
              72.554688,
              19.00918
            ],
            [
              72.560156,
              19.00918
            ],
            [
              72.565625,
              19.014648
            ],
            [
              72.566992,
              19.014648
            ],
            [
              72.568359,
              19.016016
            ],
            [
              72.568359,
              19.017383
            ],
            [
              72.569727,
              19.01875
            ],
            [
              72.569727,
              19.021484
            ],
            [
              72.568359,
              19.022852
            ],
            [
              72.566992,
              19.022852
            ],
            [
              72.565625,
              19.024219
            ]
          ]
        ]
      }
    },
    {
      "type": "Feature",
      "properties": {
        "spill_id": "palsar_192",
        "confidence": 0.82
      },
      "geometry": {
        "type": "Polygon",
        "coordinates": [
          [
            [
              72.688672,
              19.059766
            ],
            [
              72.680469,
              19.050195
            ],
            [
              72.681836,
              19.040625
            ],
            [
              72.68457,
              19.037891
            ],
            [
              72.688672,
              19.02832
            ],
            [
              72.688672,
              19.020117
            ],
            [
              72.687305,
              19.01875
            ],
            [
              72.685938,
              19.007812
            ],
            [
              72.687305,
              19.003711
            ],
            [
              72.692773,
              18.999609
            ],
            [
              72.702344,
              18.996875
            ],
            [
              72.714648,
              19.002344
            ],
            [
              72.717383,
              19.005078
            ],
            [
              72.716016,
              19.024219
            ],
            [
              72.724219,
              19.032422
            ],
            [
              72.725586,
              19.037891
            ],
            [
              72.720117,
              19.043359
            ],
            [
              72.716016,
              19.050195
            ],
            [
              72.703711,
              19.05293
            ],
            [
              72.694141,
              19.059766
            ],
            [
              72.688672,
              19.059766
            ]
          ]
        ]
      }
    },
    {
      "type": "Feature",
      "properties": {
        "spill_id": "palsar_192",
        "confidence": 0.82
      },
      "geometry": {
        "type": "Polygon",
        "coordinates": [
          [
            [
              72.582031,
              19.083008
            ],
            [
              72.579297,
              19.083008
            ],
            [
              72.57793,
              19.084375
            ],
            [
              72.575195,
              19.084375
            ],
            [
              72.573828,
              19.083008
            ],
            [
              72.572461,
              19.083008
            ],
            [
              72.571094,
              19.081641
            ],
            [
              72.569727,
              19.081641
            ],
            [
              72.565625,
              19.078906
            ],
            [
              72.561523,
              19.078906
            ],
            [
              72.560156,
              19.077539
            ],
            [
              72.556055,
              19.076172
            ],
            [
              72.554688,
              19.074805
            ],
            [
              72.554688,
              19.073438
            ],
            [
              72.556055,
              19.07207
            ],
            [
              72.556055,
              19.070703
            ],
            [
              72.558789,
              19.067969
            ],
            [
              72.558789,
              19.066602
            ],
            [
              72.566992,
              19.058398
            ],
            [
              72.572461,
              19.058398
            ],
            [
              72.573828,
              19.059766
            ],
            [
              72.575195,
              19.059766
            ],
            [
              72.575195,
              19.061133
            ],
            [
              72.579297,
              19.065234
            ],
            [
              72.579297,
              19.066602
            ],
            [
              72.582031,
              19.070703
            ],
            [
              72.582031,
              19.074805
            ],
            [
              72.583398,
              19.076172
            ],
            [
              72.583398,
              19.080273
            ],
            [
              72.582031,
              19.081641
            ],
            [
              72.582031,
              19.083008
            ]
          ]
        ]
      }
    },
    {
      "type": "Feature",
      "properties": {
        "spill_id": "palsar_192",
        "confidence": 0.82
      },
      "geometry": {
        "type": "Polygon",
        "coordinates": [
          [
            [
              72.605273,
              19.145898
            ],
            [
              72.603906,
              19.141797
            ],
            [
              72.606641,
              19.132227
            ],
            [
              72.614844,
              19.11582
            ],
            [
              72.613477,
              19.108984
            ],
            [
              72.606641,
              19.09668
            ],
            [
              72.609375,
              19.084375
            ],
            [
              72.616211,
              19.080273
            ],
            [
              72.633984,
              19.083008
            ],
            [
              72.647656,
              19.073438
            ],
            [
              72.651758,
              19.0625
            ],
            [
              72.659961,
              19.063867
            ],
            [
              72.662695,
              19.069336
            ],
            [
              72.662695,
              19.076172
            ],
            [
              72.658594,
              19.083008
            ],
            [
              72.657227,
              19.091211
            ],
            [
              72.647656,
              19.103516
            ],
            [
              72.644922,
              19.113086
            ],
            [
              72.635352,
              19.124023
            ],
            [
              72.628516,
              19.126758
            ],
            [
              72.609375,
              19.145898
            ],
            [
              72.605273,
              19.145898
            ]
          ]
        ]
      }
    },
    {
      "type": "Feature",
      "properties": {
        "spill_id": "palsar_192",
        "confidence": 0.82
      },
      "geometry": {
        "type": "Polygon",
        "coordinates": [
          [
            [
              72.79668,
              19.15
            ],
            [
              72.79668,
              19.144531
            ],
            [
              72.810352,
              19.130859
            ],
            [
              72.810352,
              19.122656
            ],
            [
              72.81582,
              19.111719
            ],
            [
              72.822656,
              19.110352
            ],
            [
              72.826758,
              19.107617
            ],
            [
              72.848633,
              19.10625
            ],
            [
              72.848633,
              19.126758
            ],
            [
              72.845898,
              19.126758
            ],
            [
              72.843164,
              19.129492
            ],
            [
              72.84043,
              19.129492
            ],
            [
              72.836328,
              19.132227
            ],
            [
              72.830859,
              19.133594
            ],
            [
              72.818555,
              19.143164
            ],
            [
              72.814453,
              19.144531
            ],
            [
              72.808984,
              19.15
            ],
            [
              72.79668,
              19.15
            ]
          ]
        ]
      }
    }
  ]
}