{
  "type": "FeatureCollection",
  "features": [
    {
      "type": "Feature",
      "properties": {
        "spill_id": "palsar_2",
        "confidence": 0.92
      },
      "geometry": {
        "type": "Polygon",
        "coordinates": [
          [
            [
              72.848633,
              19.15
            ],
            [
              72.793945,
              19.147266
            ],
            [
              72.795312,
              19.110352
            ],
            [
              72.766602,
              19.048828
            ],
            [
              72.774805,
              18.964062
            ],
            [
              72.7625,
              18.94082
            ],
            [
              72.739258,
              18.958594
            ],
            [
              72.731055,
              18.955859
            ],
            [
              72.71875,
              18.890234
            ],
            [
              72.696875,
              18.857422
            ],
            [
              72.691406,
              18.801367
            ],
            [
              72.761133,
              18.801367
            ],
            [
              72.770703,
              18.869727
            ],
            [
              72.763867,
              18.923047
            ],
            [
              72.780273,
              18.92168
            ],
            [
              72.793945,
              18.903906
            ],
            [
              72.807617,
              18.909375
            ],
            [
              72.819922,
              18.925781
            ],
            [
              72.825391,
              18.954492
            ],
            [
              72.848633,
              18.972266
            ],
            [
              72.848633,
              19.15
            ]
          ]
        ]
      }
    },
    {
      "type": "Feature",
      "properties": {
        "spill_id": "palsar_2",
        "confidence": 0.92
      },
      "geometry": {
        "type": "Polygon",
        "coordinates": [
          [
            [
              72.767969,
              19.15
            ],
            [
              72.679102,
              19.15
            ],
            [
              72.672266,
              19.125391
            ],
            [
              72.673633,
              19.104883
            ],
            [
              72.687305,
              19.078906
            ],
            [
              72.687305,
              19.07207
            ],
            [
              72.698242,
              19.061133
            ],
            [
              72.691406,
              19.020117
            ],
            [
              72.696875,
              18.990039
            ],
            [
              72.706445,
              18.981836
            ],
            [
              72.722852,
              18.98457
            ],
            [
              72.711914,
              19.013281
            ],
            [
              72.717383,
              19.046094
            ],
            [
              72.751562,
              19.102148
            ],
            [
              72.765234,
              19.110352
            ],
            [
              72.773438,
              19.122656
            ],
            [
              72.767969,
              19.15
            ]
          ]
        ]
      }
    },
    {
      "type": "Feature",
      "properties": {
        "spill_id": "palsar_2",
        "confidence": 0.92
      },
      "geometry": {
        "type": "Polygon",
        "coordinates": [
          [
            [
              72.557422,
              19.15
            ],
            [
              72.505469,
              19.15
            ],
            [
              72.5,
              19.144531
            ],
            [
              72.5,
              18.98457
            ],
            [
              72.50957,
              18.977734
            ],
            [
              72.527344,
              18.999609
            ],
            [
              72.524609,
              19.014648
            ],
            [
              72.530078,
              19.024219
            ],
            [
              72.53418,
              19.048828
            ],
            [
              72.541016,
              19.058398
            ],
            [
              72.542383,
              19.076172
            ],
            [
              72.551953,
              19.088477
            ],
            [
              72.557422,
              19.103516
            ],
            [
              72.557422,
              19.11582
            ],
            [
              72.562891,
              19.130859
            ],
            [
              72.557422,
              19.15
            ]
          ]
        ]
      }
    }
  ]
}