{
  "type": "FeatureCollection",
  "features": [
    {
      "type": "Feature",
      "properties": {
        "spill_id": "palsar_275",
        "confidence": 0.85
      },
      "geometry": {
        "type": "Polygon",
        "coordinates": [
          [
            [
              72.643555,
              18.87793
            ],
            [
              72.639453,
              18.872461
            ],
            [
              72.643555,
              18.861523
            ],
            [
              72.643555,
              18.85332
            ],
            [
              72.658594,
              18.845117
            ],
            [
              72.66543,
              18.838281
            ],
            [
              72.670898,
              18.828711
            ],
            [
              72.683203,
              18.817773
            ],
            [
              72.687305,
              18.806836
            ],
            [
              72.692773,
              18.802734
            ],
            [
              72.714648,
              18.801367
            ],
            [
              72.716016,
              18.805469
            ],
            [
              72.714648,
              18.810938
            ],
            [
              72.707812,
              18.819141
            ],
            [
              72.702344,
              18.83418
            ],
            [
              72.702344,
              18.846484
            ],
            [
              72.695508,
              18.856055
            ],
            [
              72.655859,
              18.87793
            ],
            [
              72.643555,
              18.87793
            ]
          ]
        ]
      }
    },
    {
      "type": "Feature",
      "properties": {
        "spill_id": "palsar_275",
        "confidence": 0.85
      },
      "geometry": {
        "type": "Polygon",
        "coordinates": [
          [
            [
              72.5,
              19.007812
            ],
            [
              72.5,
              18.979102
            ],
            [
              72.530078,
              18.942188
            ],
            [
              72.536914,
              18.927148
            ],
            [
              72.539648,
              18.914844
            ],
            [
              72.547852,
              18.909375
            ],
            [
              72.551953,
              18.909375
            ],
            [
              72.560156,
              18.918945
            ],
            [
              72.557422,
              18.932617
            ],
            [
              72.560156,
              18.962695
            ],
            [
              72.55332,
              18.972266
            ],
            [
              72.54375,
              18.975
            ],
            [
              72.538281,
              18.980469
            ],
            [
              72.524609,
              19.006445
            ],
            [
              72.510938,
              19.010547
            ],
            [
              72.5,
              19.007812
            ]
          ]
        ]
      }
    },
    {
      "type": "Feature",
      "properties": {
        "spill_id": "palsar_275",
        "confidence": 0.85
      },
      "geometry": {
        "type": "Polygon",
        "coordinates": [
          [
            [
              72.650391,
              19.006445
            ],
            [
              72.647656,
              19.010547
            ],
            [
              72.639453,
              19.011914
            ],
            [
              72.63125,
              19.01875
            ],
            [
              72.624414,
              19.020117
            ],
            [
              72.62168,
              19.022852
            ],
            [
              72.62168,
              19.02832
            ],
            [
              72.618945,
              19.032422
            ],
            [
              72.606641,
              19.032422
            ],
            [
              72.598438,
              19.026953
            ],
            [
              72.591602,
              19.010547
            ],
            [
              72.579297,
              19.003711
            ],
            [
              72.572461,
              18.996875
            ],
            [
              72.573828,
              18.985938
            ],
            [
              72.572461,
              18.98457
            ],
            [
              72.579297,
              18.985938
            ],
            [
              72.595703,
              19.00918
            ],
            [
              72.603906,
              19.011914
            ],
            [
              72.608008,
              19.016016
            ],
            [
              72.616211,
              19.016016
            ],
            [
              72.624414,
              19.007812
            ],
            [
              72.620312,
              18.991406
            ],
            [
              72.627148,
              18.983203
            ],
            [
              72.636719,
              18.985938
            ],
            [
              72.644922,
              18.994141
            ],
            [
              72.650391,
              19.006445
            ]
          ]
        ]
      }
    },
    {
      "type": "Feature",
      "properties": {
        "spill_id": "palsar_275",
        "confidence": 0.85
      },
      "geometry": {
        "type": "Polygon",
        "coordinates": [
          [
            [
              72.830859,
              19.065234
            ],
            [
              72.821289,
              19.065234
            ],
            [
              72.81582,
              19.059766
            ],
            [
              72.81582,
              19.057031
            ],
            [
              72.818555,
              19.054297
            ],
            [
              72.822656,
              19.054297
            ],
            [
              72.824023,
              19.055664
            ],
            [
              72.825391,
              19.055664
            ],
            [
              72.828125,
              19.058398
            ],
            [
              72.828125,
              19.059766
            ],
            [
              72.829492,
              19.061133
            ],
            [
              72.829492,
              19.0625
            ],
            [
              72.830859,
              19.063867
            ],
            [
              72.830859,
              19.065234
            ]
          ]
        ]
      }
    },
    {
      "type": "Feature",
      "properties": {
        "spill_id": "palsar_275",
        "confidence": 0.85
      },
      "geometry": {
        "type": "Polygon",
        "coordinates": [
          [
            [
              72.599805,
              19.099414
            ],
            [
              72.623047,
              19.100781
            ],
            [
              72.627148,
              19.077539
            ],
            [
              72.636719,
              19.073438
            ],
            [
              72.685938,
              19.108984
            ],
            [
              72.703711,
              19.099414
            ],
            [
              72.691406,
              19.070703
            ],
            [
              72.699609,
              19.0625
            ],
            [
              72.721484,
              19.07207
            ],
            [
              72.731055,
              19.099414
            ],
            [
              72.763867,
              19.128125
            ],
            [
              72.774805,
              19.124023
            ],
            [
              72.781641,
              19.133594
            ],
            [
              72.791211,
              19.121289
            ],
            [
              72.822656,
              19.111719
            ],
            [
              72.848633,
              19.129492
            ],
            [
              72.848633,
              19.147266
            ],
            [
              72.84043,
              19.15
            ],
            [
              72.832227,
              19.136328
            ],
            [
              72.818555,
              19.139062
            ],
            [
              72.81582,
              19.15
            ],
            [
              72.683203,
              19.15
            ],
            [
              72.670898,
              19.137695
            ],
            [
              72.658594,
              19.134961
            ],
            [
              72.650391,
              19.15
            ],
            [
              72.633984,
              19.15
            ],
            [
              72.599805,
              19.10625
            ],
            [
              72.599805,
              19.099414
            ]
          ]
        ]
      }
    },
    {
      "type": "Feature",
      "properties": {
        "spill_id": "palsar_275",
        "confidence": 0.85
      },
      "geometry": {
        "type": "Polygon",
        "coordinates": [
          [
            [
              72.603906,
              19.15
            ],
            [
              72.524609,
              19.15
            ],
            [
              72.505469,
              19.136328
            ],
            [
              72.5,
              19.129492
            ],
            [
              72.5,
              19.044727
            ],
            [
              72.519141,
              19.033789
            ],
            [
              72.535547,
              19.033789
            ],
            [
              72.538281,
              19.036523
            ],
            [
              72.539648,
              19.046094
            ],
            [
              72.530078,
              19.059766
            ],
            [
              72.536914,
              19.069336
            ],
            [
              72.551953,
              19.066602
            ],
            [
              72.573828,
              19.084375
            ],
            [
              72.582031,
              19.100781
            ],
            [
              72.595703,
              19.10625
            ],
            [
              72.584766,
              19.114453
            ],
            [
              72.584766,
              19.119922
            ],
            [
              72.590234,
              19.130859
            ],
            [
              72.602539,
              19.143164
            ],
            [
              72.603906,
              19.15
            ]
          ]
        ]
      }
    }
  ]
}