{
  "type": "FeatureCollection",
  "features": [
    {
      "type": "Feature",
      "properties": {
        "spill_id": "palsar_259",
        "confidence": 0.85
      },
      "geometry": {
        "type": "Polygon",
        "coordinates": [
          [
            [
              72.582031,
              18.866992
            ],
            [
              72.583398,
              18.854688
            ],
            [
              72.586133,
              18.849219
            ],
            [
              72.594336,
              18.841016
            ],
            [
              72.59707,
              18.830078
            ],
            [
              72.599805,
              18.824609
            ],
            [
              72.605273,
              18.819141
            ],
            [
              72.610742,
              18.819141
            ],
            [
              72.617578,
              18.823242
            ],
            [
              72.618945,
              18.832812
            ],
            [
              72.62168,
              18.836914
            ],
            [
              72.638086,
              18.828711
            ],
            [
              72.647656,
              18.828711
            ],
            [
              72.650391,
              18.832812
            ],
            [
              72.643555,
              18.841016
            ],
            [
              72.636719,
              18.84375
            ],
            [
              72.620312,
              18.860156
            ],
            [
              72.612109,
              18.862891
            ],
            [
              72.605273,
              18.868359
            ],
            [
              72.594336,
              18.871094
            ],
            [
              72.592969,
              18.869727
            ],
            [
              72.586133,
              18.869727
            ],
            [
              72.582031,
              18.866992
            ]
          ]
        ]
      }
    },
    {
      "type": "Feature",
      "properties": {
        "spill_id": "palsar_259",
        "confidence": 0.85
      },
      "geometry": {
        "type": "Polygon",
        "coordinates": [
          [
            [
              72.54375,
              18.944922
            ],
            [
              72.54375,
              18.942188
            ],
            [
              72.546484,
              18.938086
            ],
            [
              72.546484,
              18.933984
            ],
            [
              72.547852,
              18.932617
            ],
            [
              72.547852,
              18.923047
            ],
            [
              72.550586,
              18.920312
            ],
            [
              72.550586,
              18.908008
            ],
            [
              72.547852,
              18.902539
            ],
            [
              72.549219,
              18.899805
            ],
            [
              72.549219,
              18.894336
            ],
            [
              72.554688,
              18.888867
            ],
            [
              72.565625,
              18.890234
            ],
            [
              72.568359,
              18.891602
            ],
            [
              72.569727,
              18.901172
            ],
            [
              72.582031,
              18.914844
            ],
            [
              72.582031,
              18.918945
            ],
            [
              72.57793,
              18.923047
            ],
            [
              72.57793,
              18.924414
            ],
            [
              72.560156,
              18.94082
            ],
            [
              72.550586,
              18.944922
            ],
            [
              72.54375,
              18.944922
            ]
          ]
        ]
      }
    },
    {
      "type": "Feature",
      "properties": {
        "spill_id": "palsar_259",
        "confidence": 0.85
      },
      "geometry": {
        "type": "Polygon",
        "coordinates": [
          [
            [
              72.841797,
              18.968164
            ],
            [
              72.84043,
              18.966797
            ],
            [
              72.84043,
              18.96543
            ],
            [
              72.839062,
              18.964062
            ],
            [
              72.839062,
              18.961328
            ],
            [
              72.84043,
              18.959961
            ],
            [
              72.843164,
              18.959961
            ],
            [
              72.844531,
              18.958594
            ],
            [
              72.847266,
              18.961328
            ],
            [
              72.848633,
              18.961328
            ],
            [
              72.848633,
              18.966797
            ],
            [
              72.847266,
              18.966797
            ],
            [
              72.845898,
              18.968164
            ],
            [
              72.841797,
              18.968164
            ]
          ]
        ]
      }
    },
    {
      "type": "Feature",
      "properties": {
        "spill_id": "palsar_259",
        "confidence": 0.85
      },
      "geometry": {
        "type": "Polygon",
        "coordinates": [
          [
            [
              72.848633,
              19.031055
            ],
            [
              72.848633,
              19.054297
            ],
            [
              72.832227,
              19.058398
            ],
            [
              72.817187,
              19.058398
            ],
            [
              72.807617,
              19.055664
            ],
            [
              72.798047,
              19.050195
            ],
            [
              72.787109,
              19.050195
            ],
            [
              72.777539,
              19.054297
            ],
            [
              72.767969,
              19.054297
            ],
            [
              72.763867,
              19.05293
            ],
            [
              72.758398,
              19.047461
            ],
            [
              72.758398,
              19.043359
            ],
            [
              72.763867,
              19.039258
            ],
            [
              72.780273,
              19.033789
            ],
            [
              72.789844,
              19.033789
            ],
            [
              72.799414,
              19.036523
            ],
            [
              72.819922,
              19.026953
            ],
            [
              72.829492,
              19.029687
            ],
            [
              72.848633,
              19.031055
            ]
          ]
        ]
      }
    },
    {
      "type": "Feature",
      "properties": {
        "spill_id": "palsar_259",
        "confidence": 0.85
      },
      "geometry": {
        "type": "Polygon",
        "coordinates": [
          [
            [
              72.5,
              19.083008
            ],
            [
              72.502734,
              19.055664
            ],
            [
              72.521875,
              19.02832
            ],
            [
              72.549219,
              19.029687
            ],
            [
              72.558789,
              19.020117
            ],
            [
              72.55332,
              19.002344
            ],
            [
              72.528711,
              19.003711
            ],
            [
              72.517773,
              18.988672
            ],
            [
              72.603906,
              18.947656
            ],
            [
              72.625781,
              18.950391
            ],
            [
              72.766602,
              18.901172
            ],
            [
              72.803516,
              18.902539
            ],
            [
              72.830859,
              18.880664
            ],
            [
              72.848633,
              18.886133
            ],
            [
              72.848633,
              18.89707
            ],
            [
              72.798047,
              18.954492
            ],
            [
              72.758398,
              18.959961
            ],
            [
              72.743359,
              18.973633
            ],
            [
              72.767969,
              18.987305
            ],
            [
              72.813086,
              18.980469
            ],
            [
              72.814453,
              18.990039
            ],
            [
              72.75293,
              19.005078
            ],
            [
              72.717383,
              19.048828
            ],
            [
              72.683203,
              19.039258
            ],
            [
              72.650391,
              19.058398
            ],
            [
              72.644922,
              19.093945
            ],
            [
              72.632617,
              19.098047
            ],
            [
              72.62168,
              19.087109
            ],
            [
              72.617578,
              19.058398
            ],
            [
              72.606641,
              19.048828
            ],
            [
              72.5,
              19.083008
            ]
          ]
        ]
      }
    },
    {
      "type": "Feature",
      "properties": {
        "spill_id": "palsar_259",
        "confidence": 0.85
      },
      "geometry": {
        "type": "Polygon",
        "coordinates": [
          [
            [
              72.770703,
              19.134961
            ],
            [
              72.769336,
              19.133594
            ],
            [
              72.767969,
              19.133594
            ],
            [
              72.765234,
              19.130859
            ],
            [
              72.765234,
              19.125391
            ],
            [
              72.767969,
              19.122656
            ],
            [
              72.767969,
              19.121289
            ],
            [
              72.769336,
              19.119922
            ],
            [
              72.769336,
              19.118555
            ],
            [
              72.77207,
              19.11582
            ],
            [
              72.77207,
              19.114453
            ],
            [
              72.776172,
              19.110352
            ],
            [
              72.780273,
              19.110352
            ],
            [
              72.784375,
              19.114453
            ],
            [
              72.784375,
              19.122656
            ],
            [
              72.781641,
              19.125391
            ],
            [
              72.780273,
              19.125391
            ],
            [
              72.777539,
              19.128125
            ],
            [
              72.777539,
              19.129492
            ],
            [
              72.776172,
              19.130859
            ],
            [
              72.776172,
              19.132227
            ],
            [
              72.774805,
              19.132227
            ],
            [
              72.773438,
              19.133594
            ],
            [
              72.773438,
              19.134961
            ],
            [
              72.770703,
              19.134961
            ]
          ]
        ]
      }
    },
    {
      "type": "Feature",
      "properties": {
        "spill_id": "palsar_259",
        "confidence": 0.85
      },
      "geometry": {
        "type": "Polygon",
        "coordinates": [
          [
            [
              72.668164,
              19.15
            ],
            [
              72.661328,
              19.133594
            ],
            [
              72.662695,
              19.128125
            ],
            [
              72.670898,
              19.114453
            ],
            [
              72.679102,
              19.107617
            ],
            [
              72.696875,
              19.081641
            ],
            [
              72.700977,
              19.073438
            ],
            [
              72.700977,
              19.063867
            ],
            [
              72.703711,
              19.058398
            ],
            [
              72.707812,
              19.055664
            ],
            [
              72.713281,
              19.058398
            ],
            [
              72.717383,
              19.065234
            ],
            [
              72.726953,
              19.067969
            ],
            [
              72.729688,
              19.070703
            ],
            [
              72.729688,
              19.077539
            ],
            [
              72.721484,
              19.088477
            ],
            [
              72.707812,
              19.099414
            ],
            [
              72.705078,
              19.10625
            ],
            [
              72.691406,
              19.122656
            ],
            [
              72.690039,
              19.126758
            ],
            [
              72.691406,
              19.134961
            ],
            [
              72.688672,
              19.14043
            ],
            [
              72.680469,
              19.15
            ],
            [
              72.668164,
              19.15
            ]
          ]
        ]
      }
    },
    {
      "type": "Feature",
      "properties": {
        "spill_id": "palsar_259",
        "confidence": 0.85
      },
      "geometry": {
        "type": "Polygon",
        "coordinates": [
          [
            [
              72.530078,
              19.15
            ],
            [
              72.53418,
              19.147266
            ],
            [
              72.545117,
              19.145898
            ],
            [
              72.558789,
              19.147266
            ],
            [
              72.569727,
              19.141797
            ],
            [
              72.576562,
              19.133594
            ],
            [
              72.586133,
              19.128125
            ],
            [
              72.624414,
              19.129492
            ],
            [
              72.628516,
              19.132227
            ],
            [
              72.636719,
              19.143164
            ],
            [
              72.635352,
              19.15
            ],
            [
              72.530078,
              19.15
            ]
          ]
        ]
      }
    }
  ]
}