{
  "type": "FeatureCollection",
  "features": [
    {
      "type": "Feature",
      "properties": {
        "spill_id": "palsar_374",
        "confidence": 0.82
      },
      "geometry": {
        "type": "Polygon",
        "coordinates": [
          [
            [
              72.609375,
              18.861523
            ],
            [
              72.606641,
              18.860156
            ],
            [
              72.605273,
              18.851953
            ],
            [
              72.601172,
              18.845117
            ],
            [
              72.602539,
              18.84375
            ],
            [
              72.602539,
              18.841016
            ],
            [
              72.609375,
              18.83418
            ],
            [
              72.613477,
              18.825977
            ],
            [
              72.614844,
              18.819141
            ],
            [
              72.617578,
              18.815039
            ],
            [
              72.617578,
              18.810938
            ],
            [
              72.618945,
              18.80957
            ],
            [
              72.624414,
              18.80957
            ],
            [
              72.628516,
              18.813672
            ],
            [
              72.628516,
              18.821875
            ],
            [
              72.627148,
              18.823242
            ],
            [
              72.627148,
              18.827344
            ],
            [
              72.628516,
              18.828711
            ],
            [
              72.628516,
              18.831445
            ],
            [
              72.63125,
              18.836914
            ],
            [
              72.63125,
              18.84375
            ],
            [
              72.629883,
              18.846484
            ],
            [
              72.625781,
              18.847852
            ],
            [
              72.620312,
              18.85332
            ],
            [
              72.618945,
              18.857422
            ],
            [
              72.616211,
              18.860156
            ],
            [
              72.612109,
              18.860156
            ],
            [
              72.609375,
              18.861523
            ]
          ]
        ]
      }
    },
    {
      "type": "Feature",
      "properties": {
        "spill_id": "palsar_374",
        "confidence": 0.82
      },
      "geometry": {
        "type": "Polygon",
        "coordinates": [
          [
            [
              72.530078,
              18.866992
            ],
            [
              72.530078,
              18.865625
            ],
            [
              72.528711,
              18.864258
            ],
            [
              72.528711,
              18.861523
            ],
            [
              72.530078,
              18.860156
            ],
            [
              72.530078,
              18.857422
            ],
            [
              72.53418,
              18.850586
            ],
            [
              72.53418,
              18.847852
            ],
            [
              72.535547,
              18.846484
            ],
            [
              72.535547,
              18.841016
            ],
            [
              72.539648,
              18.836914
            ],
            [
              72.539648,
              18.835547
            ],
            [
              72.541016,
              18.83418
            ],
            [
              72.542383,
              18.83418
            ],
            [
              72.546484,
              18.831445
            ],
            [
              72.551953,
              18.831445
            ],
            [
              72.55332,
              18.832812
            ],
            [
              72.554688,
              18.832812
            ],
            [
              72.554688,
              18.839648
            ],
            [
              72.55332,
              18.841016
            ],
            [
              72.55332,
              18.845117
            ],
            [
              72.551953,
              18.846484
            ],
            [
              72.550586,
              18.850586
            ],
            [
              72.547852,
              18.85332
            ],
            [
              72.546484,
              18.85332
            ],
            [
              72.541016,
              18.858789
            ],
            [
              72.538281,
              18.865625
            ],
            [
              72.536914,
              18.865625
            ],
            [
              72.535547,
              18.866992
            ],
            [
              72.530078,
              18.866992
            ]
          ]
        ]
      }
    },
    {
      "type": "Feature",
      "properties": {
        "spill_id": "palsar_374",
        "confidence": 0.82
      },
      "geometry": {
        "type": "Polygon",
        "coordinates": [
          [
            [
              72.5,
              18.910742
            ],
            [
              72.5,
              18.892969
            ],
            [
              72.502734,
              18.890234
            ],
            [
              72.504102,
              18.890234
            ],
            [
              72.505469,
              18.888867
            ],
            [
              72.510938,
              18.888867
            ],
            [
              72.512305,
              18.890234
            ],
            [
              72.513672,
              18.890234
            ],
            [
              72.513672,
              18.891602
            ],
            [
              72.515039,
              18.892969
            ],
            [
              72.515039,
              18.894336
            ],
            [
              72.513672,
              18.895703
            ],
            [
              72.513672,
              18.89707
            ],
            [
              72.512305,
              18.898438
            ],
            [
              72.512305,
              18.901172
            ],
            [
              72.510938,
              18.902539
            ],
            [
              72.510938,
              18.903906
            ],
            [
              72.50957,
              18.905273
            ],
            [
              72.50957,
              18.906641
            ],
            [
              72.506836,
              18.909375
            ],
            [
              72.502734,
              18.909375
            ],
            [
              72.501367,
              18.910742
            ],
            [
              72.5,
              18.910742
            ]
          ]
        ]
      }
    },
    {
      "type": "Feature",
      "properties": {
        "spill_id": "palsar_374",
        "confidence": 0.82
      },
      "geometry": {
        "type": "Polygon",
        "coordinates": [
          [
            [
              72.557422,
              18.990039
            ],
            [
              72.554688,
              18.990039
            ],
            [
              72.55332,
              18.988672
            ],
            [
              72.551953,
              18.988672
            ],
            [
              72.549219,
              18.985938
            ],
            [
              72.547852,
              18.985938
            ],
            [
              72.546484,
              18.98457
            ],
            [
              72.546484,
              18.983203
            ],
            [
              72.545117,
              18.981836
            ],
            [
              72.545117,
              18.973633
            ],
            [
              72.549219,
              18.969531
            ],
            [
              72.551953,
              18.969531
            ],
            [
              72.55332,
              18.970898
            ],
            [
              72.554688,
              18.970898
            ],
            [
              72.556055,
              18.972266
            ],
            [
              72.557422,
              18.972266
            ],
            [
              72.561523,
              18.976367
            ],
            [
              72.561523,
              18.979102
            ],
            [
              72.562891,
              18.980469
            ],
            [
              72.562891,
              18.985938
            ],
            [
              72.560156,
              18.988672
            ],
            [
              72.558789,
              18.988672
            ],
            [
              72.557422,
              18.990039
            ]
          ]
        ]
      }
    },
    {
      "type": "Feature",
      "properties": {
        "spill_id": "palsar_374",
        "confidence": 0.82
      },
      "geometry": {
        "type": "Polygon",
        "coordinates": [
          [
            [
              72.505469,
              18.999609
            ],
            [
              72.5,
              18.991406
            ],
            [
              72.5,
              18.975
            ],
            [
              72.506836,
              18.955859
            ],
            [
              72.523242,
              18.933984
            ],
            [
              72.527344,
              18.92168
            ],
            [
              72.53418,
              18.916211
            ],
            [
              72.542383,
              18.917578
            ],
            [
              72.550586,
              18.892969
            ],
            [
              72.541016,
              18.886133
            ],
            [
              72.541016,
              18.876562
            ],
            [
              72.549219,
              18.879297
            ],
            [
              72.551953,
              18.888867
            ],
            [
              72.560156,
              18.883398
            ],
            [
              72.572461,
              18.884766
            ],
            [
              72.579297,
              18.890234
            ],
            [
              72.580664,
              18.89707
            ],
            [
              72.564258,
              18.923047
            ],
            [
              72.549219,
              18.933984
            ],
            [
              72.545117,
              18.94082
            ],
            [
              72.545117,
              18.944922
            ],
            [
              72.55332,
              18.951758
            ],
            [
              72.55332,
              18.955859
            ],
            [
              72.550586,
              18.958594
            ],
            [
              72.536914,
              18.957227
            ],
            [
              72.532812,
              18.964062
            ],
            [
              72.532812,
              18.977734
            ],
            [
              72.523242,
              18.987305
            ],
            [
              72.521875,
              18.992773
            ],
            [
              72.512305,
              18.999609
            ],
            [
              72.505469,
              18.999609
            ]
          ]
        ]
      }
    },
    {
      "type": "Feature",
      "properties": {
        "spill_id": "palsar_374",
        "confidence": 0.82
      },
      "geometry": {
        "type": "Polygon",
        "coordinates": [
          [
            [
              72.755664,
              19.029687
            ],
            [
              72.755664,
              19.026953
            ],
            [
              72.754297,
              19.025586
            ],
            [
              72.754297,
              19.022852
            ],
            [
              72.757031,
              19.020117
            ],
            [
              72.758398,
              19.020117
            ],
            [
              72.759766,
              19.01875
            ],
            [
              72.769336,
              19.01875
            ],
            [
              72.770703,
              19.020117
            ],
            [
              72.77207,
              19.020117
            ],
            [
              72.774805,
              19.022852
            ],
            [
              72.774805,
              19.024219
            ],
            [
              72.773438,
              19.025586
            ],
            [
              72.773438,
              19.026953
            ],
            [
              72.769336,
              19.031055
            ],
            [
              72.767969,
              19.031055
            ],
            [
              72.766602,
              19.032422
            ],
            [
              72.763867,
              19.032422
            ],
            [
              72.7625,
              19.033789
            ],
            [
              72.761133,
              19.033789
            ],
            [
              72.759766,
              19.032422
            ],
            [
              72.758398,
              19.032422
            ],
            [
              72.755664,
              19.029687
            ]
          ]
        ]
      }
    },
    {
      "type": "Feature",
      "properties": {
        "spill_id": "palsar_374",
        "confidence": 0.82
      },
      "geometry": {
        "type": "Polygon",
        "coordinates": [
          [
            [
              72.5,
              19.043359
            ],
            [
              72.5,
              19.02832
            ],
            [
              72.502734,
              19.025586
            ],
            [
              72.504102,
              19.021484
            ],
            [
              72.506836,
              19.01875
            ],
            [
              72.512305,
              19.01875
            ],
            [
              72.513672,
              19.017383
            ],
            [
              72.516406,
              19.017383
            ],
            [
              72.517773,
              19.016016
            ],
            [
              72.523242,
              19.016016
            ],
            [
              72.524609,
              19.017383
            ],
            [
              72.524609,
              19.01875
            ],
            [
              72.523242,
              19.020117
            ],
            [
              72.523242,
              19.021484
            ],
            [
              72.520508,
              19.025586
            ],
            [
              72.520508,
              19.02832
            ],
            [
              72.519141,
              19.029687
            ],
            [
              72.519141,
              19.031055
            ],
            [
              72.515039,
              19.032422
            ],
            [
              72.50957,
              19.037891
            ],
            [
              72.50957,
              19.039258
            ],
            [
              72.506836,
              19.041992
            ],
            [
              72.505469,
              19.041992
            ],
            [
              72.504102,
              19.043359
            ],
            [
              72.5,
              19.043359
            ]
          ]
        ]
      }
    },
    {
      "type": "Feature",
      "properties": {
        "spill_id": "palsar_374",
        "confidence": 0.82
      },
      "geometry": {
        "type": "Polygon",
        "coordinates": [
          [
            [
              72.5,
              19.129492
            ],
            [
              72.5,
              19.081641
            ],
            [
              72.502734,
              19.081641
            ],
            [
              72.504102,
              19.080273
            ],
            [
              72.508203,
              19.080273
            ],
            [
              72.50957,
              19.078906
            ],
            [
              72.519141,
              19.078906
            ],
            [
              72.520508,
              19.080273
            ],
            [
              72.523242,
              19.080273
            ],
            [
              72.524609,
              19.084375
            ],
            [
              72.520508,
              19.091211
            ],
            [
              72.520508,
              19.098047
            ],
            [
              72.517773,
              19.102148
            ],
            [
              72.516406,
              19.108984
            ],
            [
              72.512305,
              19.117188
            ],
            [
              72.506836,
              19.122656
            ],
            [
              72.505469,
              19.126758
            ],
            [
              72.5,
              19.129492
            ]
          ]
        ]
      }
    }
  ]
}