{
  "type": "FeatureCollection",
  "features": [
    {
      "type": "Feature",
      "properties": {
        "spill_id": "palsar_409",
        "confidence": 0.62
      },
      "geometry": {
        "type": "Polygon",
        "coordinates": [
          [
            [
              72.657227,
              18.871094
            ],
            [
              72.657227,
              18.869727
            ],
            [
              72.655859,
              18.868359
            ],
            [
              72.655859,
              18.865625
            ],
            [
              72.659961,
              18.861523
            ],
            [
              72.661328,
              18.861523
            ],
            [
              72.669531,
              18.85332
            ],
            [
              72.673633,
              18.85332
            ],
            [
              72.675,
              18.851953
            ],
            [
              72.680469,
              18.851953
            ],
            [
              72.681836,
              18.850586
            ],
            [
              72.683203,
              18.850586
            ],
            [
              72.685938,
              18.847852
            ],
            [
              72.687305,
              18.847852
            ],
            [
              72.688672,
              18.849219
            ],
            [
              72.688672,
              18.850586
            ],
            [
              72.690039,
              18.851953
            ],
            [
              72.688672,
              18.85332
            ],
            [
              72.687305,
              18.857422
            ],
            [
              72.685938,
              18.857422
            ],
            [
              72.683203,
              18.860156
            ],
            [
              72.681836,
              18.860156
            ],
            [
              72.680469,
              18.861523
            ],
            [
              72.676367,
              18.862891
            ],
            [
              72.673633,
              18.865625
            ],
            [
              72.669531,
              18.866992
            ],
            [
              72.66543,
              18.871094
            ],
            [
              72.664062,
              18.871094
            ],
            [
              72.659961,
              18.873828
            ],
            [
              72.657227,
              18.871094
            ]
          ]
        ]
      }
    },
    {
      "type": "Feature",
      "properties": {
        "spill_id": "palsar_409",
        "confidence": 0.62
      },
      "geometry": {
        "type": "Polygon",
        "coordinates": [
          [
            [
              72.504102,
              18.943555
            ],
            [
              72.504102,
              18.939453
            ],
            [
              72.505469,
              18.938086
            ],
            [
              72.505469,
              18.935352
            ],
            [
              72.506836,
              18.933984
            ],
            [
              72.506836,
              18.932617
            ],
            [
              72.508203,
              18.932617
            ],
            [
              72.50957,
              18.93125
            ],
            [
              72.519141,
              18.93125
            ],
            [
              72.521875,
              18.928516
            ],
            [
              72.525977,
              18.928516
            ],
            [
              72.527344,
              18.927148
            ],
            [
              72.531445,
              18.927148
            ],
            [
              72.532812,
              18.925781
            ],
            [
              72.536914,
              18.925781
            ],
            [
              72.538281,
              18.924414
            ],
            [
              72.542383,
              18.924414
            ],
            [
              72.54375,
              18.925781
            ],
            [
              72.54375,
              18.929883
            ],
            [
              72.542383,
              18.93125
            ],
            [
              72.541016,
              18.93125
            ],
            [
              72.539648,
              18.932617
            ],
            [
              72.535547,
              18.932617
            ],
            [
              72.530078,
              18.938086
            ],
            [
              72.528711,
              18.938086
            ],
            [
              72.524609,
              18.94082
            ],
            [
              72.520508,
              18.94082
            ],
            [
              72.515039,
              18.946289
            ],
            [
              72.512305,
              18.946289
            ],
            [
              72.510938,
              18.947656
            ],
            [
              72.508203,
              18.947656
            ],
            [
              72.506836,
              18.946289
            ],
            [
              72.505469,
              18.946289
            ],
            [
              72.505469,
              18.944922
            ],
            [
              72.504102,
              18.943555
            ]
          ]
        ]
      }
    },
    {
      "type": "Feature",
      "properties": {
        "spill_id": "palsar_409",
        "confidence": 0.62
      },
      "geometry": {
        "type": "Polygon",
        "coordinates": [
          [
            [
              72.721484,
              19.059766
            ],
            [
              72.721484,
              19.058398
            ],
            [
              72.720117,
              19.057031
            ],
            [
              72.720117,
              19.051562
            ],
            [
              72.724219,
              19.051562
            ],
            [
              72.725586,
              19.050195
            ],
            [
              72.72832,
              19.050195
            ],
            [
              72.731055,
              19.047461
            ],
            [
              72.731055,
              19.046094
            ],
            [
              72.729688,
              19.044727
            ],
            [
              72.729688,
              19.041992
            ],
            [
              72.731055,
              19.041992
            ],
            [
              72.732422,
              19.040625
            ],
            [
              72.736523,
              19.040625
            ],
            [
              72.737891,
              19.041992
            ],
            [
              72.739258,
              19.041992
            ],
            [
              72.739258,
              19.046094
            ],
            [
              72.736523,
              19.048828
            ],
            [
              72.735156,
              19.048828
            ],
            [
              72.733789,
              19.050195
            ],
            [
              72.733789,
              19.05293
            ],
            [
              72.732422,
              19.054297
            ],
            [
              72.732422,
              19.055664
            ],
            [
              72.731055,
              19.057031
            ],
            [
              72.731055,
              19.061133
            ],
            [
              72.729688,
              19.0625
            ],
            [
              72.726953,
              19.0625
            ],
            [
              72.725586,
              19.061133
            ],
            [
              72.724219,
              19.061133
            ],
            [
              72.722852,
              19.059766
            ],
            [
              72.721484,
              19.059766
            ]
          ]
        ]
      }
    },
    {
      "type": "Feature",
      "properties": {
        "spill_id": "palsar_409",
        "confidence": 0.62
      },
      "geometry": {
        "type": "Polygon",
        "coordinates": [
          [
            [
              72.691406,
              19.107617
            ],
            [
              72.691406,
              19.103516
            ],
            [
              72.695508,
              19.099414
            ],
            [
              72.702344,
              19.099414
            ],
            [
              72.703711,
              19.100781
            ],
            [
              72.705078,
              19.100781
            ],
            [
              72.707812,
              19.103516
            ],
            [
              72.707812,
              19.107617
            ],
            [
              72.705078,
              19.110352
            ],
            [
              72.702344,
              19.110352
            ],
            [
              72.700977,
              19.111719
            ],
            [
              72.695508,
              19.111719
            ],
            [
              72.694141,
              19.110352
            ],
            [
              72.692773,
              19.110352
            ],
            [
              72.692773,
              19.108984
            ],
            [
              72.691406,
              19.107617
            ]
          ]
        ]
      }
    }
  ]
}