{
  "type": "FeatureCollection",
  "features": [
    {
      "type": "Feature",
      "properties": {
        "spill_id": "palsar_556",
        "confidence": 0.79
      },
      "geometry": {
        "type": "Polygon",
        "coordinates": [
          [
            [
              72.519141,
              18.913477
            ],
            [
              72.512305,
              18.913477
            ],
            [
              72.510938,
              18.912109
            ],
            [
              72.508203,
              18.912109
            ],
            [
              72.505469,
              18.909375
            ],
            [
              72.505469,
              18.89707
            ],
            [
              72.506836,
              18.895703
            ],
            [
              72.508203,
              18.895703
            ],
            [
              72.50957,
              18.89707
            ],
            [
              72.510938,
              18.89707
            ],
            [
              72.513672,
              18.899805
            ],
            [
              72.515039,
              18.899805
            ],
            [
              72.515039,
              18.901172
            ],
            [
              72.519141,
              18.905273
            ],
            [
              72.519141,
              18.906641
            ],
            [
              72.520508,
              18.908008
            ],
            [
              72.520508,
              18.912109
            ],
            [
              72.519141,
              18.913477
            ]
          ]
        ]
      }
    },
    {
      "type": "Feature",
      "properties": {
        "spill_id": "palsar_556",
        "confidence": 0.79
      },
      "geometry": {
        "type": "Polygon",
        "coordinates": [
          [
            [
              72.644922,
              18.928516
            ],
            [
              72.639453,
              18.928516
            ],
            [
              72.635352,
              18.924414
            ],
            [
              72.635352,
              18.923047
            ],
            [
              72.633984,
              18.92168
            ],
            [
              72.633984,
              18.917578
            ],
            [
              72.625781,
              18.909375
            ],
            [
              72.625781,
              18.908008
            ],
            [
              72.624414,
              18.906641
            ],
            [
              72.624414,
              18.903906
            ],
            [
              72.623047,
              18.902539
            ],
            [
              72.625781,
              18.898438
            ],
            [
              72.628516,
              18.898438
            ],
            [
              72.632617,
              18.902539
            ],
            [
              72.633984,
              18.902539
            ],
            [
              72.638086,
              18.905273
            ],
            [
              72.638086,
              18.906641
            ],
            [
              72.64082,
              18.910742
            ],
            [
              72.64082,
              18.913477
            ],
            [
              72.646289,
              18.92168
            ],
            [
              72.646289,
              18.927148
            ],
            [
              72.644922,
              18.928516
            ]
          ]
        ]
      }
    },
    {
      "type": "Feature",
      "properties": {
        "spill_id": "palsar_556",
        "confidence": 0.79
      },
      "geometry": {
        "type": "Polygon",
        "coordinates": [
          [
            [
              72.560156,
              18.947656
            ],
            [
              72.560156,
              18.946289
            ],
            [
              72.561523,
              18.944922
            ],
            [
              72.561523,
              18.943555
            ],
            [
              72.562891,
              18.943555
            ],
            [
              72.564258,
              18.942188
            ],
            [
              72.572461,
              18.942188
            ],
            [
              72.575195,
              18.944922
            ],
            [
              72.573828,
              18.946289
            ],
            [
              72.573828,
              18.947656
            ],
            [
              72.572461,
              18.949023
            ],
            [
              72.569727,
              18.949023
            ],
            [
              72.568359,
              18.950391
            ],
            [
              72.564258,
              18.950391
            ],
            [
              72.562891,
              18.949023
            ],
            [
              72.561523,
              18.949023
            ],
            [
              72.560156,
              18.947656
            ]
          ]
        ]
      }
    },
    {
      "type": "Feature",
      "properties": {
        "spill_id": "palsar_556",
        "confidence": 0.79
      },
      "geometry": {
        "type": "Polygon",
        "coordinates": [
          [
            [
              72.698242,
              18.980469
            ],
            [
              72.696875,
              18.981836
            ],
            [
              72.690039,
              18.981836
            ],
            [
              72.688672,
              18.980469
            ],
            [
              72.687305,
              18.980469
            ],
            [
              72.68457,
              18.977734
            ],
            [
              72.68457,
              18.973633
            ],
            [
              72.685938,
              18.972266
            ],
            [
              72.685938,
              18.970898
            ],
            [
              72.688672,
              18.970898
            ],
            [
              72.690039,
              18.972266
            ],
            [
              72.691406,
              18.972266
            ],
            [
              72.692773,
              18.973633
            ],
            [
              72.694141,
              18.973633
            ],
            [
              72.696875,
              18.976367
            ],
            [
              72.696875,
              18.977734
            ],
            [
              72.698242,
              18.979102
            ],
            [
              72.698242,
              18.980469
            ]
          ]
        ]
      }
    },
    {
      "type": "Feature",
      "properties": {
        "spill_id": "palsar_556",
        "confidence": 0.79
      },
      "geometry": {
        "type": "Polygon",
        "coordinates": [
          [
            [
              72.647656,
              18.980469
            ],
            [
              72.644922,
              18.981836
            ],
            [
              72.639453,
              18.980469
            ],
            [
              72.62168,
              18.962695
            ],
            [
              72.618945,
              18.962695
            ],
            [
              72.614844,
              18.959961
            ],
            [
              72.606641,
              18.959961
            ],
            [
              72.603906,
              18.958594
            ],
            [
              72.594336,
              18.947656
            ],
            [
              72.590234,
              18.936719
            ],
            [
              72.594336,
              18.93125
            ],
            [
              72.598438,
              18.93125
            ],
            [
              72.601172,
              18.932617
            ],
            [
              72.618945,
              18.951758
            ],
            [
              72.64082,
              18.955859
            ],
            [
              72.650391,
              18.96543
            ],
            [
              72.650391,
              18.975
            ],
            [
              72.647656,
              18.980469
            ]
          ]
        ]
      }
    },
    {
      "type": "Feature",
      "properties": {
        "spill_id": "palsar_556",
        "confidence": 0.79
      },
      "geometry": {
        "type": "Polygon",
        "coordinates": [
          [
            [
              72.75293,
              19.059766
            ],
            [
              72.748828,
              19.059766
            ],
            [
              72.743359,
              19.050195
            ],
            [
              72.744727,
              19.039258
            ],
            [
              72.741992,
              19.036523
            ],
            [
              72.725586,
              19.035156
            ],
            [
              72.720117,
              19.032422
            ],
            [
              72.710547,
              19.032422
            ],
            [
              72.703711,
              19.02832
            ],
            [
              72.699609,
              19.022852
            ],
            [
              72.699609,
              19.014648
            ],
            [
              72.703711,
              19.00918
            ],
            [
              72.713281,
              19.00918
            ],
            [
              72.720117,
              19.011914
            ],
            [
              72.736523,
              19.014648
            ],
            [
              72.746094,
              19.01875
            ],
            [
              72.751562,
              19.035156
            ],
            [
              72.750195,
              19.036523
            ],
            [
              72.755664,
              19.043359
            ],
            [
              72.755664,
              19.055664
            ],
            [
              72.75293,
              19.059766
            ]
          ]
        ]
      }
    },
    {
      "type": "Feature",
      "properties": {
        "spill_id": "palsar_556",
        "confidence": 0.79
      },
      "geometry": {
        "type": "Polygon",
        "coordinates": [
          [
            [
              72.828125,
              19.092578
            ],
            [
              72.825391,
              19.093945
            ],
            [
              72.819922,
              19.093945
            ],
            [
              72.817187,
              19.092578
            ],
            [
              72.814453,
              19.089844
            ],
            [
              72.813086,
              19.087109
            ],
            [
              72.813086,
              19.084375
            ],
            [
              72.803516,
              19.076172
            ],
            [
              72.803516,
              19.073438
            ],
            [
              72.800781,
              19.070703
            ],
            [
              72.798047,
              19.070703
            ],
            [
              72.792578,
              19.067969
            ],
            [
              72.791211,
              19.058398
            ],
            [
              72.793945,
              19.055664
            ],
            [
              72.79668,
              19.055664
            ],
            [
              72.802148,
              19.058398
            ],
            [
              72.804883,
              19.061133
            ],
            [
              72.807617,
              19.066602
            ],
            [
              72.814453,
              19.069336
            ],
            [
              72.817187,
              19.073438
            ],
            [
              72.817187,
              19.076172
            ],
            [
              72.818555,
              19.078906
            ],
            [
              72.825391,
              19.084375
            ],
            [
              72.828125,
              19.089844
            ],
            [
              72.828125,
              19.092578
            ]
          ]
        ]
      }
    },
    {
      "type": "Feature",
      "properties": {
        "spill_id": "palsar_556",
        "confidence": 0.79
      },
      "geometry": {
        "type": "Polygon",
        "coordinates": [
          [
            [
              72.80625,
              19.103516
            ],
            [
              72.804883,
              19.104883
            ],
            [
              72.800781,
              19.104883
            ],
            [
              72.799414,
              19.103516
            ],
            [
              72.785742,
              19.103516
            ],
            [
              72.783008,
              19.10625
            ],
            [
              72.781641,
              19.110352
            ],
            [
              72.777539,
              19.113086
            ],
            [
              72.773438,
              19.113086
            ],
            [
              72.766602,
              19.108984
            ],
            [
              72.763867,
              19.104883
            ],
            [
              72.763867,
              19.081641
            ],
            [
              72.765234,
              19.080273
            ],
            [
              72.766602,
              19.074805
            ],
            [
              72.767969,
              19.073438
            ],
            [
              72.776172,
              19.073438
            ],
            [
              72.784375,
              19.077539
            ],
            [
              72.784375,
              19.078906
            ],
            [
              72.787109,
              19.081641
            ],
            [
              72.788477,
              19.081641
            ],
            [
              72.800781,
              19.095312
            ],
            [
              72.804883,
              19.09668
            ],
            [
              72.807617,
              19.099414
            ],
            [
              72.80625,
              19.103516
            ]
          ]
        ]
      }
    },
    {
      "type": "Feature",
      "properties": {
        "spill_id": "palsar_556",
        "confidence": 0.79
      },
      "geometry": {
        "type": "Polygon",
        "coordinates": [
          [
            [
              72.821289,
              19.145898
            ],
            [
              72.818555,
              19.148633
            ],
            [
              72.817187,
              19.148633
            ],
            [
              72.81582,
              19.15
            ],
            [
              72.811719,
              19.15
            ],
            [
              72.808984,
              19.147266
            ],
            [
              72.80625,
              19.147266
            ],
            [
              72.804883,
              19.145898
            ],
            [
              72.802148,
              19.145898
            ],
            [
              72.800781,
              19.144531
            ],
            [
              72.795312,
              19.144531
            ],
            [
              72.793945,
              19.143164
            ],
            [
              72.792578,
              19.143164
            ],
            [
              72.789844,
              19.14043
            ],
            [
              72.789844,
              19.139062
            ],
            [
              72.784375,
              19.133594
            ],
            [
              72.784375,
              19.130859
            ],
            [
              72.783008,
              19.129492
            ],
            [
              72.783008,
              19.124023
            ],
            [
              72.785742,
              19.121289
            ],
            [
              72.788477,
              19.121289
            ],
            [
              72.789844,
              19.122656
            ],
            [
              72.79668,
              19.125391
            ],
            [
              72.799414,
              19.128125
            ],
            [
              72.803516,
              19.129492
            ],
            [
              72.80625,
              19.132227
            ],
            [
              72.807617,
              19.132227
            ],
            [
              72.814453,
              19.137695
            ],
            [
              72.818555,
              19.139062
            ],
            [
              72.821289,
              19.141797
            ],
            [
              72.821289,
              19.145898
            ]
          ]
        ]
      }
    }
  ]
}