{
  "type": "FeatureCollection",
  "features": [
    {
      "type": "Feature",
      "properties": {
        "spill_id": "palsar_689",
        "confidence": 0.97
      },
      "geometry": {
        "type": "Polygon",
        "coordinates": [
          [
            [
              72.848633,
              19.122656
            ],
            [
              72.824023,
              19.11582
            ],
            [
              72.777539,
              19.074805
            ],
            [
              72.770703,
              19.031055
            ],
            [
              72.739258,
              19.044727
            ],
            [
              72.717383,
              19.031055
            ],
            [
              72.716016,
              18.985938
            ],
            [
              72.687305,
              18.942188
            ],
            [
              72.681836,
              18.916211
            ],
            [
              72.655859,
              18.908008
            ],
            [
              72.623047,
              18.879297
            ],
            [
              72.591602,
              18.883398
            ],
            [
              72.569727,
              18.858789
            ],
            [
              72.560156,
              18.828711
            ],
            [
              72.521875,
              18.838281
            ],
            [
              72.5,
              18.832812
            ],
            [
              72.5,
              18.801367
            ],
            [
              72.848633,
              18.805469
            ],
            [
              72.848633,
              19.122656
            ]
          ]
        ]
      }
    }
  ]
}