{
  "type": "FeatureCollection",
  "features": [
    {
      "type": "Feature",
      "properties": {
        "spill_id": "palsar_227",
        "confidence": 0.9
      },
      "geometry": {
        "type": "Polygon",
        "coordinates": [
          [
            [
              72.837695,
              18.879297
            ],
            [
              72.825391,
              18.87793
            ],
            [
              72.821289,
              18.873828
            ],
            [
              72.818555,
              18.861523
            ],
            [
              72.814453,
              18.858789
            ],
            [
              72.808984,
              18.850586
            ],
            [
              72.802148,
              18.851953
            ],
            [
              72.795312,
              18.856055
            ],
            [
              72.79668,
              18.864258
            ],
            [
              72.787109,
              18.862891
            ],
            [
              72.785742,
              18.846484
            ],
            [
              72.792578,
              18.845117
            ],
            [
              72.798047,
              18.847852
            ],
            [
              72.803516,
              18.84375
            ],
            [
              72.802148,
              18.823242
            ],
            [
              72.80625,
              18.816406
            ],
            [
              72.817187,
              18.815039
            ],
            [
              72.825391,
              18.817773
            ],
            [
              72.828125,
              18.821875
            ],
            [
              72.832227,
              18.835547
            ],
            [
              72.832227,
              18.84375
            ],
            [
              72.828125,
              18.850586
            ],
            [
              72.839062,
              18.864258
            ],
            [
              72.841797,
              18.864258
            ],
            [
              72.844531,
              18.868359
            ],
            [
              72.843164,
              18.873828
            ],
            [
              72.837695,
              18.879297
            ]
          ]
        ]
      }
    },
    {
      "type": "Feature",
      "properties": {
        "spill_id": "palsar_227",
        "confidence": 0.9
      },
      "geometry": {
        "type": "Polygon",
        "coordinates": [
          [
            [
              72.845898,
              19.021484
            ],
            [
              72.844531,
              19.021484
            ],
            [
              72.844531,
              19.01875
            ],
            [
              72.841797,
              19.016016
            ],
            [
              72.841797,
              19.00918
            ],
            [
              72.84043,
              19.007812
            ],
            [
              72.839062,
              19.007812
            ],
            [
              72.839062,
              19.006445
            ],
            [
              72.837695,
              19.005078
            ],
            [
              72.836328,
              19.005078
            ],
            [
              72.836328,
              18.988672
            ],
            [
              72.837695,
              18.987305
            ],
            [
              72.837695,
              18.985938
            ],
            [
              72.839062,
              18.985938
            ],
            [
              72.843164,
              18.990039
            ],
            [
              72.843164,
              18.991406
            ],
            [
              72.845898,
              18.995508
            ],
            [
              72.845898,
              18.998242
            ],
            [
              72.844531,
              18.999609
            ],
            [
              72.844531,
              19.003711
            ],
            [
              72.843164,
              19.005078
            ],
            [
              72.843164,
              19.007812
            ],
            [
              72.845898,
              19.010547
            ],
            [
              72.845898,
              19.011914
            ],
            [
              72.847266,
              19.013281
            ],
            [
              72.848633,
              19.013281
            ],
            [
              72.848633,
              19.01875
            ],
            [
              72.845898,
              19.021484
            ]
          ]
        ]
      }
    },
    {
      "type": "Feature",
      "properties": {
        "spill_id": "palsar_227",
        "confidence": 0.9
      },
      "geometry": {
        "type": "Polygon",
        "coordinates": [
          [
            [
              72.844531,
              19.0625
            ],
            [
              72.843164,
              19.061133
            ],
            [
              72.843164,
              19.058398
            ],
            [
              72.844531,
              19.057031
            ],
            [
              72.844531,
              19.050195
            ],
            [
              72.848633,
              19.050195
            ],
            [
              72.848633,
              19.0625
            ],
            [
              72.844531,
              19.0625
            ]
          ]
        ]
      }
    },
    {
      "type": "Feature",
      "properties": {
        "spill_id": "palsar_227",
        "confidence": 0.9
      },
      "geometry": {
        "type": "Polygon",
        "coordinates": [
          [
            [
              72.80625,
              19.091211
            ],
            [
              72.800781,
              19.091211
            ],
            [
              72.79668,
              19.087109
            ],
            [
              72.79668,
              19.085742
            ],
            [
              72.787109,
              19.076172
            ],
            [
              72.788477,
              19.074805
            ],
            [
              72.788477,
              19.07207
            ],
            [
              72.791211,
              19.069336
            ],
            [
              72.791211,
              19.067969
            ],
            [
              72.795312,
              19.063867
            ],
            [
              72.802148,
              19.063867
            ],
            [
              72.803516,
              19.065234
            ],
            [
              72.804883,
              19.065234
            ],
            [
              72.808984,
              19.069336
            ],
            [
              72.808984,
              19.07207
            ],
            [
              72.810352,
              19.073438
            ],
            [
              72.810352,
              19.088477
            ],
            [
              72.80625,
              19.091211
            ]
          ]
        ]
      }
    },
    {
      "type": "Feature",
      "properties": {
        "spill_id": "palsar_227",
        "confidence": 0.9
      },
      "geometry": {
        "type": "Polygon",
        "coordinates": [
          [
            [
              72.848633,
              19.107617
            ],
            [
              72.84043,
              19.107617
            ],
            [
              72.836328,
              19.103516
            ],
            [
              72.836328,
              19.100781
            ],
            [
              72.834961,
              19.099414
            ],
            [
              72.836328,
              19.098047
            ],
            [
              72.836328,
              19.09668
            ],
            [
              72.841797,
              19.09668
            ],
            [
              72.843164,
              19.098047
            ],
            [
              72.844531,
              19.098047
            ],
            [
              72.847266,
              19.100781
            ],
            [
              72.848633,
              19.100781
            ],
            [
              72.848633,
              19.107617
            ]
          ]
        ]
      }
    },
    {
      "type": "Feature",
      "properties": {
        "spill_id": "palsar_227",
        "confidence": 0.9
      },
      "geometry": {
        "type": "Polygon",
        "coordinates": [
          [
            [
              72.588867,
              19.129492
            ],
            [
              72.562891,
              19.110352
            ],
            [
              72.551953,
              19.111719
            ],
            [
              72.542383,
              19.095312
            ],
            [
              72.538281,
              19.055664
            ],
            [
              72.53418,
              19.046094
            ],
            [
              72.525977,
              19.039258
            ],
            [
              72.508203,
              19.040625
            ],
            [
              72.5,
              19.032422
            ],
            [
              72.5,
              18.954492
            ],
            [
              72.506836,
              18.957227
            ],
            [
              72.520508,
              18.991406
            ],
            [
              72.541016,
              19.022852
            ],
            [
              72.554688,
              19.033789
            ],
            [
              72.564258,
              19.048828
            ],
            [
              72.565625,
              19.063867
            ],
            [
              72.580664,
              19.081641
            ],
            [
              72.579297,
              19.095312
            ],
            [
              72.5875,
              19.111719
            ],
            [
              72.588867,
              19.129492
            ]
          ]
        ]
      }
    },
    {
      "type": "Feature",
      "properties": {
        "spill_id": "palsar_227",
        "confidence": 0.9
      },
      "geometry": {
        "type": "Polygon",
        "coordinates": [
          [
            [
              72.726953,
              19.145898
            ],
            [
              72.726953,
              19.144531
            ],
            [
              72.725586,
              19.143164
            ],
            [
              72.725586,
              19.125391
            ],
            [
              72.729688,
              19.119922
            ],
            [
              72.740625,
              19.119922
            ],
            [
              72.741992,
              19.121289
            ],
            [
              72.748828,
              19.122656
            ],
            [
              72.751562,
              19.125391
            ],
            [
              72.75293,
              19.125391
            ],
            [
              72.75293,
              19.126758
            ],
            [
              72.757031,
              19.130859
            ],
            [
              72.757031,
              19.132227
            ],
            [
              72.759766,
              19.136328
            ],
            [
              72.759766,
              19.144531
            ],
            [
              72.758398,
              19.145898
            ],
            [
              72.75293,
              19.145898
            ],
            [
              72.751562,
              19.147266
            ],
            [
              72.747461,
              19.147266
            ],
            [
              72.746094,
              19.145898
            ],
            [
              72.740625,
              19.145898
            ],
            [
              72.737891,
              19.148633
            ],
            [
              72.737891,
              19.15
            ],
            [
              72.731055,
              19.15
            ],
            [
              72.726953,
              19.145898
            ]
          ]
        ]
      }
    },
    {
      "type": "Feature",
      "properties": {
        "spill_id": "palsar_227",
        "confidence": 0.9
      },
      "geometry": {
        "type": "Polygon",
        "coordinates": [
          [
            [
              72.675,
              19.132227
            ],
            [
              72.679102,
              19.129492
            ],
            [
              72.683203,
              19.129492
            ],
            [
              72.694141,
              19.14043
            ],
            [
              72.694141,
              19.141797
            ],
            [
              72.696875,
              19.145898
            ],
            [
              72.696875,
              19.15
            ],
            [
              72.675,
              19.15
            ],
            [
              72.675,
              19.148633
            ],
            [
              72.673633,
              19.147266
            ],
            [
              72.673633,
              19.143164
            ],
            [
              72.672266,
              19.141797
            ],
            [
              72.672266,
              19.14043
            ],
            [
              72.673633,
              19.139062
            ],
            [
              72.673633,
              19.134961
            ],
            [
              72.675,
              19.133594
            ],
            [
              72.675,
              19.132227
            ]
          ]
        ]
      }
    },
    {
      "type": "Feature",
      "properties": {
        "spill_id": "palsar_227",
        "confidence": 0.9
      },
      "geometry": {
        "type": "Polygon",
        "coordinates": [
          [
            [
              72.655859,
              19.15
            ],
            [
              72.638086,
              19.15
            ],
            [
              72.629883,
              19.141797
            ],
            [
              72.627148,
              19.11582
            ],
            [
              72.609375,
              19.093945
            ],
            [
              72.614844,
              19.077539
            ],
            [
              72.638086,
              19.057031
            ],
            [
              72.638086,
              19.046094
            ],
            [
              72.586133,
              19.024219
            ],
            [
              72.565625,
              19.007812
            ],
            [
              72.531445,
              18.916211
            ],
            [
              72.515039,
              18.918945
            ],
            [
              72.515039,
              18.94082
            ],
            [
              72.5,
              18.939453
            ],
            [
              72.5,
              18.847852
            ],
            [
              72.50957,
              18.851953
            ],
            [
              72.517773,
              18.871094
            ],
            [
              72.545117,
              18.884766
            ],
            [
              72.564258,
              18.927148
            ],
            [
              72.584766,
              18.944922
            ],
            [
              72.588867,
              18.968164
            ],
            [
              72.599805,
              18.964062
            ],
            [
              72.614844,
              18.975
            ],
            [
              72.616211,
              19.010547
            ],
            [
              72.653125,
              19.039258
            ],
            [
              72.651758,
              19.083008
            ],
            [
              72.668164,
              19.114453
            ],
            [
              72.654492,
              19.130859
            ],
            [
              72.655859,
              19.15
            ]
          ]
        ]
      }
    },
    {
      "type": "Feature",
      "properties": {
        "spill_id": "palsar_227",
        "confidence": 0.9
      },
      "geometry": {
        "type": "Polygon",
        "coordinates": [
          [
            [
              72.557422,
              19.15
            ],
            [
              72.549219,
              19.15
            ],
            [
              72.519141,
              19.119922
            ],
            [
              72.516406,
              19.110352
            ],
            [
              72.510938,
              19.100781
            ],
            [
              72.508203,
              19.085742
            ],
            [
              72.504102,
              19.078906
            ],
            [
              72.504102,
              19.0625
            ],
            [
              72.50957,
              19.061133
            ],
            [
              72.520508,
              19.070703
            ],
            [
              72.53418,
              19.107617
            ],
            [
              72.541016,
              19.113086
            ],
            [
              72.546484,
              19.121289
            ],
            [
              72.550586,
              19.132227
            ],
            [
              72.557422,
              19.143164
            ],
            [
              72.557422,
              19.15
            ]
          ]
        ]
      }
    }
  ]
}