{
  "type": "FeatureCollection",
  "features": [
    {
      "type": "Feature",
      "properties": {
        "spill_id": "palsar_581",
        "confidence": 0.86
      },
      "geometry": {
        "type": "Polygon",
        "coordinates": [
          [
            [
              72.722852,
              19.15
            ],
            [
              72.722852,
              19.144531
            ],
            [
              72.733789,
              19.137695
            ],
            [
              72.804883,
              19.114453
            ],
            [
              72.825391,
              19.102148
            ],
            [
              72.834961,
              19.092578
            ],
            [
              72.841797,
              19.089844
            ],
            [
              72.848633,
              19.091211
            ],
            [
              72.848633,
              19.145898
            ],
            [
              72.845898,
              19.15
            ],
            [
              72.722852,
              19.15
            ]
          ]
        ]
      }
    }
  ]
}