{
  "type": "FeatureCollection",
  "features": [
    {
      "type": "Feature",
      "properties": {
        "spill_id": "palsar_461",
        "confidence": 0.91
      },
      "geometry": {
        "type": "Polygon",
        "coordinates": [
          [
            [
              72.848633,
              18.98457
            ],
            [
              72.839062,
              18.983203
            ],
            [
              72.824023,
              18.964062
            ],
            [
              72.804883,
              18.950391
            ],
            [
              72.79668,
              18.936719
            ],
            [
              72.79668,
              18.92168
            ],
            [
              72.802148,
              18.910742
            ],
            [
              72.811719,
              18.901172
            ],
            [
              72.819922,
              18.901172
            ],
            [
              72.825391,
              18.905273
            ],
            [
              72.844531,
              18.942188
            ],
            [
              72.845898,
              18.947656
            ],
            [
              72.848633,
              18.950391
            ],
            [
              72.848633,
              18.98457
            ]
          ]
        ]
      }
    }
  ]
}