{
  "type": "FeatureCollection",
  "features": [
    {
      "type": "Feature",
      "properties": {
        "spill_id": "palsar_90",
        "confidence": 0.81
      },
      "geometry": {
        "type": "Polygon",
        "coordinates": [
          [
            [
              72.558789,
              18.836914
            ],
            [
              72.557422,
              18.838281
            ],
            [
              72.55332,
              18.839648
            ],
            [
              72.547852,
              18.845117
            ],
            [
              72.547852,
              18.847852
            ],
            [
              72.546484,
              18.849219
            ],
            [
              72.542383,
              18.850586
            ],
            [
              72.538281,
              18.846484
            ],
            [
              72.538281,
              18.84375
            ],
            [
              72.536914,
              18.842383
            ],
            [
              72.536914,
              18.841016
            ],
            [
              72.527344,
              18.830078
            ],
            [
              72.527344,
              18.828711
            ],
            [
              72.525977,
              18.827344
            ],
            [
              72.525977,
              18.824609
            ],
            [
              72.524609,
              18.823242
            ],
            [
              72.525977,
              18.821875
            ],
            [
              72.525977,
              18.819141
            ],
            [
              72.527344,
              18.817773
            ],
            [
              72.53418,
              18.817773
            ],
            [
              72.538281,
              18.821875
            ],
            [
              72.539648,
              18.821875
            ],
            [
              72.54375,
              18.824609
            ],
            [
              72.556055,
              18.824609
            ],
            [
              72.560156,
              18.828711
            ],
            [
              72.560156,
              18.83418
            ],
            [
              72.558789,
              18.835547
            ],
            [
              72.558789,
              18.836914
            ]
          ]
        ]
      }
    },
    {
      "type": "Feature",
      "properties": {
        "spill_id": "palsar_90",
        "confidence": 0.81
      },
      "geometry": {
        "type": "Polygon",
        "coordinates": [
          [
            [
              72.5,
              18.998242
            ],
            [
              72.5,
              18.979102
            ],
            [
              72.515039,
              18.958594
            ],
            [
              72.549219,
              18.928516
            ],
            [
              72.564258,
              18.92168
            ],
            [
              72.583398,
              18.89707
            ],
            [
              72.588867,
              18.871094
            ],
            [
              72.605273,
              18.838281
            ],
            [
              72.609375,
              18.810938
            ],
            [
              72.614844,
              18.804102
            ],
            [
              72.62168,
              18.802734
            ],
            [
              72.625781,
              18.808203
            ],
            [
              72.623047,
              18.850586
            ],
            [
              72.610742,
              18.861523
            ],
            [
              72.606641,
              18.894336
            ],
            [
              72.59707,
              18.916211
            ],
            [
              72.5875,
              18.92168
            ],
            [
              72.569727,
              18.943555
            ],
            [
              72.557422,
              18.949023
            ],
            [
              72.512305,
              18.996875
            ],
            [
              72.5,
              18.998242
            ]
          ]
        ]
      }
    },
    {
      "type": "Feature",
      "properties": {
        "spill_id": "palsar_90",
        "confidence": 0.81
      },
      "geometry": {
        "type": "Polygon",
        "coordinates": [
          [
            [
              72.833594,
              19.15
            ],
            [
              72.830859,
              19.144531
            ],
            [
              72.829492,
              19.137695
            ],
            [
              72.828125,
              19.136328
            ],
            [
              72.828125,
              19.132227
            ],
            [
              72.818555,
              19.122656
            ],
            [
              72.818555,
              19.119922
            ],
            [
              72.821289,
              19.114453
            ],
            [
              72.822656,
              19.114453
            ],
            [
              72.826758,
              19.110352
            ],
            [
              72.832227,
              19.107617
            ],
            [
              72.834961,
              19.107617
            ],
            [
              72.836328,
              19.10625
            ],
            [
              72.841797,
              19.10625
            ],
            [
              72.843164,
              19.107617
            ],
            [
              72.841797,
              19.110352
            ],
            [
              72.841797,
              19.114453
            ],
            [
              72.844531,
              19.117188
            ],
            [
              72.844531,
              19.118555
            ],
            [
              72.847266,
              19.121289
            ],
            [
              72.848633,
              19.121289
            ],
            [
              72.848633,
              19.143164
            ],
            [
              72.841797,
              19.15
            ],
            [
              72.833594,
              19.15
            ]
          ]
        ]
      }
    }
  ]
}