{
  "type": "FeatureCollection",
  "features": [
    {
      "type": "Feature",
      "properties": {
        "spill_id": "palsar_485",
        "confidence": 0.9
      },
      "geometry": {
        "type": "Polygon",
        "coordinates": [
          [
            [
              72.844531,
              19.057031
            ],
            [
              72.836328,
              19.054297
            ],
            [
              72.819922,
              18.992773
            ],
            [
              72.784375,
              18.918945
            ],
            [
              72.785742,
              18.902539
            ],
            [
              72.7625,
              18.880664
            ],
            [
              72.780273,
              18.876562
            ],
            [
              72.722852,
              18.815039
            ],
            [
              72.722852,
              18.801367
            ],
            [
              72.769336,
              18.801367
            ],
            [
              72.774805,
              18.805469
            ],
            [
              72.824023,
              18.801367
            ],
            [
              72.844531,
              18.823242
            ],
            [
              72.848633,
              18.836914
            ],
            [
              72.848633,
              18.875195
            ],
            [
              72.841797,
              18.880664
            ],
            [
              72.848633,
              18.899805
            ],
            [
              72.848633,
              19.051562
            ],
            [
              72.844531,
              19.057031
            ]
          ]
        ]
      }
    },
    {
      "type": "Feature",
      "properties": {
        "spill_id": "palsar_485",
        "confidence": 0.9
      },
      "geometry": {
        "type": "Polygon",
        "coordinates": [
          [
            [
              72.848633,
              19.144531
            ],
            [
              72.836328,
              19.144531
            ],
            [
              72.829492,
              19.141797
            ],
            [
              72.825391,
              19.136328
            ],
            [
              72.825391,
              19.130859
            ],
            [
              72.821289,
              19.122656
            ],
            [
              72.808984,
              19.113086
            ],
            [
              72.808984,
              19.108984
            ],
            [
              72.79668,
              19.083008
            ],
            [
              72.795312,
              19.069336
            ],
            [
              72.798047,
              19.066602
            ],
            [
              72.802148,
              19.066602
            ],
            [
              72.811719,
              19.074805
            ],
            [
              72.825391,
              19.080273
            ],
            [
              72.841797,
              19.092578
            ],
            [
              72.845898,
              19.107617
            ],
            [
              72.845898,
              19.111719
            ],
            [
              72.843164,
              19.11582
            ],
            [
              72.843164,
              19.122656
            ],
            [
              72.845898,
              19.133594
            ],
            [
              72.848633,
              19.136328
            ],
            [
              72.848633,
              19.144531
            ]
          ]
        ]
      }
    },
    {
      "type": "Feature",
      "properties": {
        "spill_id": "palsar_485",
        "confidence": 0.9
      },
      "geometry": {
        "type": "Polygon",
        "coordinates": [
          [
            [
              72.657227,
              19.15
            ],
            [
              72.638086,
              19.15
            ],
            [
              72.595703,
              19.046094
            ],
            [
              72.5875,
              18.988672
            ],
            [
              72.549219,
              18.908008
            ],
            [
              72.551953,
              18.891602
            ],
            [
              72.564258,
              18.888867
            ],
            [
              72.610742,
              18.98457
            ],
            [
              72.62168,
              19.026953
            ],
            [
              72.635352,
              19.037891
            ],
            [
              72.642187,
              19.017383
            ],
            [
              72.629883,
              18.992773
            ],
            [
              72.628516,
              18.943555
            ],
            [
              72.602539,
              18.908008
            ],
            [
              72.57793,
              18.906641
            ],
            [
              72.592969,
              18.888867
            ],
            [
              72.594336,
              18.872461
            ],
            [
              72.609375,
              18.860156
            ],
            [
              72.620312,
              18.865625
            ],
            [
              72.63125,
              18.89707
            ],
            [
              72.629883,
              18.936719
            ],
            [
              72.650391,
              18.962695
            ],
            [
              72.655859,
              19.037891
            ],
            [
              72.638086,
              19.065234
            ],
            [
              72.647656,
              19.078906
            ],
            [
              72.657227,
              19.15
            ]
          ]
        ]
      }
    }
  ]
}