{
  "type": "FeatureCollection",
  "features": [
    {
      "type": "Feature",
      "properties": {
        "spill_id": "palsar_297",
        "confidence": 0.86
      },
      "geometry": {
        "type": "Polygon",
        "coordinates": [
          [
            [
              72.788477,
              18.888867
            ],
            [
              72.781641,
              18.888867
            ],
            [
              72.773438,
              18.883398
            ],
            [
              72.767969,
              18.875195
            ],
            [
              72.766602,
              18.854688
            ],
            [
              72.763867,
              18.849219
            ],
            [
              72.766602,
              18.832812
            ],
            [
              72.767969,
              18.831445
            ],
            [
              72.767969,
              18.825977
            ],
            [
              72.766602,
              18.824609
            ],
            [
              72.766602,
              18.812305
            ],
            [
              72.767969,
              18.810938
            ],
            [
              72.774805,
              18.812305
            ],
            [
              72.780273,
              18.819141
            ],
            [
              72.780273,
              18.821875
            ],
            [
              72.783008,
              18.825977
            ],
            [
              72.783008,
              18.831445
            ],
            [
              72.787109,
              18.845117
            ],
            [
              72.785742,
              18.847852
            ],
            [
              72.785742,
              18.862891
            ],
            [
              72.792578,
              18.876562
            ],
            [
              72.792578,
              18.886133
            ],
            [
              72.788477,
              18.888867
            ]
          ]
        ]
      }
    },
    {
      "type": "Feature",
      "properties": {
        "spill_id": "palsar_297",
        "confidence": 0.86
      },
      "geometry": {
        "type": "Polygon",
        "coordinates": [
          [
            [
              72.844531,
              18.944922
            ],
            [
              72.837695,
              18.944922
            ],
            [
              72.833594,
              18.94082
            ],
            [
              72.830859,
              18.935352
            ],
            [
              72.832227,
              18.933984
            ],
            [
              72.830859,
              18.932617
            ],
            [
              72.832227,
              18.916211
            ],
            [
              72.829492,
              18.912109
            ],
            [
              72.822656,
              18.910742
            ],
            [
              72.817187,
              18.905273
            ],
            [
              72.814453,
              18.888867
            ],
            [
              72.822656,
              18.888867
            ],
            [
              72.828125,
              18.894336
            ],
            [
              72.832227,
              18.901172
            ],
            [
              72.833594,
              18.901172
            ],
            [
              72.836328,
              18.89707
            ],
            [
              72.841797,
              18.892969
            ],
            [
              72.84043,
              18.902539
            ],
            [
              72.848633,
              18.908008
            ],
            [
              72.848633,
              18.942188
            ],
            [
              72.844531,
              18.944922
            ]
          ]
        ]
      }
    },
    {
      "type": "Feature",
      "properties": {
        "spill_id": "palsar_297",
        "confidence": 0.86
      },
      "geometry": {
        "type": "Polygon",
        "coordinates": [
          [
            [
              72.5,
              19.15
            ],
            [
              72.591602,
              19.095312
            ],
            [
              72.610742,
              19.067969
            ],
            [
              72.639453,
              19.063867
            ],
            [
              72.654492,
              19.044727
            ],
            [
              72.647656,
              19.02832
            ],
            [
              72.664062,
              18.981836
            ],
            [
              72.676367,
              19.011914
            ],
            [
              72.707812,
              18.972266
            ],
            [
              72.717383,
              18.990039
            ],
            [
              72.706445,
              19.032422
            ],
            [
              72.661328,
              19.074805
            ],
            [
              72.668164,
              19.089844
            ],
            [
              72.72832,
              19.058398
            ],
            [
              72.819922,
              18.961328
            ],
            [
              72.830859,
              18.961328
            ],
            [
              72.793945,
              19.021484
            ],
            [
              72.72832,
              19.073438
            ],
            [
              72.706445,
              19.15
            ],
            [
              72.68457,
              19.15
            ],
            [
              72.670898,
              19.117188
            ],
            [
              72.653125,
              19.118555
            ],
            [
              72.644922,
              19.137695
            ],
            [
              72.63125,
              19.139062
            ],
            [
              72.639453,
              19.070703
            ],
            [
              72.592969,
              19.126758
            ],
            [
              72.588867,
              19.15
            ],
            [
              72.5,
              19.15
            ]
          ]
        ]
      }
    }
  ]
}