{
  "type": "FeatureCollection",
  "features": [
    {
      "type": "Feature",
      "properties": {
        "spill_id": "palsar_576",
        "confidence": 0.87
      },
      "geometry": {
        "type": "Polygon",
        "coordinates": [
          [
            [
              72.748828,
              18.805469
            ],
            [
              72.748828,
              18.801367
            ],
            [
              72.780273,
              18.801367
            ],
            [
              72.780273,
              18.802734
            ],
            [
              72.777539,
              18.805469
            ],
            [
              72.773438,
              18.805469
            ],
            [
              72.77207,
              18.806836
            ],
            [
              72.751562,
              18.806836
            ],
            [
              72.750195,
              18.805469
            ],
            [
              72.748828,
              18.805469
            ]
          ]
        ]
      }
    },
    {
      "type": "Feature",
      "properties": {
        "spill_id": "palsar_576",
        "confidence": 0.87
      },
      "geometry": {
        "type": "Polygon",
        "coordinates": [
          [
            [
              72.803516,
              18.827344
            ],
            [
              72.803516,
              18.825977
            ],
            [
              72.802148,
              18.824609
            ],
            [
              72.802148,
              18.817773
            ],
            [
              72.80625,
              18.813672
            ],
            [
              72.807617,
              18.813672
            ],
            [
              72.808984,
              18.812305
            ],
            [
              72.810352,
              18.812305
            ],
            [
              72.811719,
              18.810938
            ],
            [
              72.817187,
              18.810938
            ],
            [
              72.819922,
              18.813672
            ],
            [
              72.819922,
              18.815039
            ],
            [
              72.822656,
              18.817773
            ],
            [
              72.822656,
              18.823242
            ],
            [
              72.821289,
              18.824609
            ],
            [
              72.821289,
              18.825977
            ],
            [
              72.819922,
              18.827344
            ],
            [
              72.817187,
              18.827344
            ],
            [
              72.81582,
              18.828711
            ],
            [
              72.80625,
              18.828711
            ],
            [
              72.804883,
              18.827344
            ],
            [
              72.803516,
              18.827344
            ]
          ]
        ]
      }
    },
    {
      "type": "Feature",
      "properties": {
        "spill_id": "palsar_576",
        "confidence": 0.87
      },
      "geometry": {
        "type": "Polygon",
        "coordinates": [
          [
            [
              72.568359,
              18.913477
            ],
            [
              72.564258,
              18.894336
            ],
            [
              72.569727,
              18.886133
            ],
            [
              72.582031,
              18.879297
            ],
            [
              72.584766,
              18.850586
            ],
            [
              72.594336,
              18.835547
            ],
            [
              72.616211,
              18.839648
            ],
            [
              72.659961,
              18.816406
            ],
            [
              72.669531,
              18.816406
            ],
            [
              72.680469,
              18.823242
            ],
            [
              72.695508,
              18.841016
            ],
            [
              72.696875,
              18.847852
            ],
            [
              72.694141,
              18.850586
            ],
            [
              72.672266,
              18.851953
            ],
            [
              72.653125,
              18.858789
            ],
            [
              72.636719,
              18.857422
            ],
            [
              72.620312,
              18.865625
            ],
            [
              72.608008,
              18.884766
            ],
            [
              72.608008,
              18.89707
            ],
            [
              72.625781,
              18.909375
            ],
            [
              72.623047,
              18.916211
            ],
            [
              72.605273,
              18.92168
            ],
            [
              72.598438,
              18.916211
            ],
            [
              72.594336,
              18.906641
            ],
            [
              72.576562,
              18.914844
            ],
            [
              72.568359,
              18.913477
            ]
          ]
        ]
      }
    },
    {
      "type": "Feature",
      "properties": {
        "spill_id": "palsar_576",
        "confidence": 0.87
      },
      "geometry": {
        "type": "Polygon",
        "coordinates": [
          [
            [
              72.825391,
              18.973633
            ],
            [
              72.808984,
              18.976367
            ],
            [
              72.783008,
              18.966797
            ],
            [
              72.7625,
              18.946289
            ],
            [
              72.747461,
              18.951758
            ],
            [
              72.724219,
              18.946289
            ],
            [
              72.710547,
              18.923047
            ],
            [
              72.688672,
              18.912109
            ],
            [
              72.690039,
              18.903906
            ],
            [
              72.710547,
              18.906641
            ],
            [
              72.729688,
              18.898438
            ],
            [
              72.713281,
              18.858789
            ],
            [
              72.741992,
              18.827344
            ],
            [
              72.767969,
              18.830078
            ],
            [
              72.787109,
              18.857422
            ],
            [
              72.811719,
              18.868359
            ],
            [
              72.848633,
              18.856055
            ],
            [
              72.848633,
              18.873828
            ],
            [
              72.81582,
              18.895703
            ],
            [
              72.848633,
              18.902539
            ],
            [
              72.848633,
              18.920312
            ],
            [
              72.813086,
              18.923047
            ],
            [
              72.803516,
              18.933984
            ],
            [
              72.80625,
              18.951758
            ],
            [
              72.822656,
              18.964062
            ],
            [
              72.825391,
              18.973633
            ]
          ]
        ]
      }
    },
    {
      "type": "Feature",
      "properties": {
        "spill_id": "palsar_576",
        "confidence": 0.87
      },
      "geometry": {
        "type": "Polygon",
        "coordinates": [
          [
            [
              72.579297,
              19.006445
            ],
            [
              72.571094,
              19.006445
            ],
            [
              72.560156,
              18.998242
            ],
            [
              72.55332,
              18.98457
            ],
            [
              72.541016,
              18.975
            ],
            [
              72.538281,
              18.96543
            ],
            [
              72.520508,
              18.950391
            ],
            [
              72.521875,
              18.927148
            ],
            [
              72.50957,
              18.914844
            ],
            [
              72.5,
              18.912109
            ],
            [
              72.5,
              18.871094
            ],
            [
              72.527344,
              18.854688
            ],
            [
              72.541016,
              18.836914
            ],
            [
              72.542383,
              18.821875
            ],
            [
              72.558789,
              18.810938
            ],
            [
              72.565625,
              18.815039
            ],
            [
              72.562891,
              18.841016
            ],
            [
              72.547852,
              18.85332
            ],
            [
              72.53418,
              18.875195
            ],
            [
              72.516406,
              18.884766
            ],
            [
              72.515039,
              18.892969
            ],
            [
              72.539648,
              18.917578
            ],
            [
              72.547852,
              18.949023
            ],
            [
              72.546484,
              18.959961
            ],
            [
              72.580664,
              18.994141
            ],
            [
              72.579297,
              19.006445
            ]
          ]
        ]
      }
    },
    {
      "type": "Feature",
      "properties": {
        "spill_id": "palsar_576",
        "confidence": 0.87
      },
      "geometry": {
        "type": "Polygon",
        "coordinates": [
          [
            [
              72.535547,
              19.15
            ],
            [
              72.542383,
              19.143164
            ],
            [
              72.569727,
              19.143164
            ],
            [
              72.59707,
              19.134961
            ],
            [
              72.670898,
              19.133594
            ],
            [
              72.70918,
              19.117188
            ],
            [
              72.755664,
              19.108984
            ],
            [
              72.788477,
              19.095312
            ],
            [
              72.813086,
              19.095312
            ],
            [
              72.839062,
              19.076172
            ],
            [
              72.848633,
              19.074805
            ],
            [
              72.848633,
              19.093945
            ],
            [
              72.813086,
              19.118555
            ],
            [
              72.776172,
              19.11582
            ],
            [
              72.750195,
              19.128125
            ],
            [
              72.706445,
              19.130859
            ],
            [
              72.657227,
              19.15
            ],
            [
              72.592969,
              19.15
            ],
            [
              72.5875,
              19.145898
            ],
            [
              72.535547,
              19.15
            ]
          ]
        ]
      }
    }
  ]
}