{
  "type": "FeatureCollection",
  "features": [
    {
      "type": "Feature",
      "properties": {
        "spill_id": "palsar_641",
        "confidence": 0.88
      },
      "geometry": {
        "type": "Polygon",
        "coordinates": [
          [
            [
              72.670898,
              18.810938
            ],
            [
              72.670898,
              18.804102
            ],
            [
              72.673633,
              18.801367
            ],
            [
              72.690039,
              18.801367
            ],
            [
              72.691406,
              18.802734
            ],
            [
              72.691406,
              18.805469
            ],
            [
              72.690039,
              18.806836
            ],
            [
              72.688672,
              18.806836
            ],
            [
              72.687305,
              18.808203
            ],
            [
              72.685938,
              18.808203
            ],
            [
              72.68457,
              18.80957
            ],
            [
              72.679102,
              18.80957
            ],
            [
              72.677734,
              18.810938
            ],
            [
              72.670898,
              18.810938
            ]
          ]
        ]
      }
    },
    {
      "type": "Feature",
      "properties": {
        "spill_id": "palsar_641",
        "confidence": 0.88
      },
      "geometry": {
        "type": "Polygon",
        "coordinates": [
          [
            [
              72.5,
              18.902539
            ],
            [
              72.5,
              18.895703
            ],
            [
              72.568359,
              18.858789
            ],
            [
              72.539648,
              18.854688
            ],
            [
              72.5,
              18.865625
            ],
            [
              72.5,
              18.801367
            ],
            [
              72.623047,
              18.801367
            ],
            [
              72.62168,
              18.813672
            ],
            [
              72.635352,
              18.823242
            ],
            [
              72.680469,
              18.827344
            ],
            [
              72.75293,
              18.815039
            ],
            [
              72.766602,
              18.801367
            ],
            [
              72.848633,
              18.804102
            ],
            [
              72.844531,
              18.825977
            ],
            [
              72.799414,
              18.861523
            ],
            [
              72.783008,
              18.861523
            ],
            [
              72.77207,
              18.849219
            ],
            [
              72.735156,
              18.865625
            ],
            [
              72.731055,
              18.860156
            ],
            [
              72.739258,
              18.851953
            ],
            [
              72.724219,
              18.850586
            ],
            [
              72.618945,
              18.876562
            ],
            [
              72.579297,
              18.876562
            ],
            [
              72.531445,
              18.899805
            ],
            [
              72.5,
              18.902539
            ]
          ]
        ]
      }
    },
    {
      "type": "Feature",
      "properties": {
        "spill_id": "palsar_641",
        "confidence": 0.88
      },
      "geometry": {
        "type": "Polygon",
        "coordinates": [
          [
            [
              72.837695,
              18.932617
            ],
            [
              72.833594,
              18.935352
            ],
            [
              72.826758,
              18.935352
            ],
            [
              72.825391,
              18.936719
            ],
            [
              72.822656,
              18.936719
            ],
            [
              72.821289,
              18.935352
            ],
            [
              72.819922,
              18.936719
            ],
            [
              72.81582,
              18.936719
            ],
            [
              72.814453,
              18.935352
            ],
            [
              72.80625,
              18.935352
            ],
            [
              72.799414,
              18.932617
            ],
            [
              72.79668,
              18.929883
            ],
            [
              72.79668,
              18.927148
            ],
            [
              72.792578,
              18.923047
            ],
            [
              72.789844,
              18.92168
            ],
            [
              72.785742,
              18.92168
            ],
            [
              72.784375,
              18.920312
            ],
            [
              72.784375,
              18.916211
            ],
            [
              72.785742,
              18.914844
            ],
            [
              72.791211,
              18.914844
            ],
            [
              72.792578,
              18.913477
            ],
            [
              72.795312,
              18.913477
            ],
            [
              72.799414,
              18.910742
            ],
            [
              72.807617,
              18.910742
            ],
            [
              72.808984,
              18.909375
            ],
            [
              72.826758,
              18.909375
            ],
            [
              72.828125,
              18.910742
            ],
            [
              72.837695,
              18.910742
            ],
            [
              72.839062,
              18.913477
            ],
            [
              72.836328,
              18.914844
            ],
            [
              72.832227,
              18.920312
            ],
            [
              72.832227,
              18.923047
            ],
            [
              72.837695,
              18.929883
            ],
            [
              72.837695,
              18.932617
            ]
          ]
        ]
      }
    },
    {
      "type": "Feature",
      "properties": {
        "spill_id": "palsar_641",
        "confidence": 0.88
      },
      "geometry": {
        "type": "Polygon",
        "coordinates": [
          [
            [
              72.676367,
              19.15
            ],
            [
              72.676367,
              19.143164
            ],
            [
              72.677734,
              19.14043
            ],
            [
              72.687305,
              19.132227
            ],
            [
              72.692773,
              19.130859
            ],
            [
              72.694141,
              19.129492
            ],
            [
              72.696875,
              19.129492
            ],
            [
              72.698242,
              19.128125
            ],
            [
              72.703711,
              19.128125
            ],
            [
              72.705078,
              19.126758
            ],
            [
              72.70918,
              19.126758
            ],
            [
              72.710547,
              19.128125
            ],
            [
              72.729688,
              19.128125
            ],
            [
              72.735156,
              19.130859
            ],
            [
              72.735156,
              19.134961
            ],
            [
              72.724219,
              19.144531
            ],
            [
              72.720117,
              19.144531
            ],
            [
              72.71875,
              19.145898
            ],
            [
              72.703711,
              19.145898
            ],
            [
              72.698242,
              19.15
            ],
            [
              72.676367,
              19.15
            ]
          ]
        ]
      }
    },
    {
      "type": "Feature",
      "properties": {
        "spill_id": "palsar_641",
        "confidence": 0.88
      },
      "geometry": {
        "type": "Polygon",
        "coordinates": [
          [
            [
              72.592969,
              19.15
            ],
            [
              72.594336,
              19.144531
            ],
            [
              72.598438,
              19.139062
            ],
            [
              72.599805,
              19.139062
            ],
            [
              72.612109,
              19.126758
            ],
            [
              72.612109,
              19.125391
            ],
            [
              72.617578,
              19.121289
            ],
            [
              72.625781,
              19.119922
            ],
            [
              72.63125,
              19.117188
            ],
            [
              72.644922,
              19.11582
            ],
            [
              72.646289,
              19.117188
            ],
            [
              72.650391,
              19.117188
            ],
            [
              72.650391,
              19.118555
            ],
            [
              72.658594,
              19.126758
            ],
            [
              72.658594,
              19.129492
            ],
            [
              72.650391,
              19.136328
            ],
            [
              72.643555,
              19.137695
            ],
            [
              72.628516,
              19.130859
            ],
            [
              72.623047,
              19.133594
            ],
            [
              72.62168,
              19.136328
            ],
            [
              72.620312,
              19.136328
            ],
            [
              72.612109,
              19.144531
            ],
            [
              72.609375,
              19.15
            ],
            [
              72.592969,
              19.15
            ]
          ]
        ]
      }
    },
    {
      "type": "Feature",
      "properties": {
        "spill_id": "palsar_641",
        "confidence": 0.88
      },
      "geometry": {
        "type": "Polygon",
        "coordinates": [
          [
            [
              72.562891,
              19.15
            ],
            [
              72.562891,
              19.147266
            ],
            [
              72.569727,
              19.14043
            ],
            [
              72.571094,
              19.14043
            ],
            [
              72.572461,
              19.141797
            ],
            [
              72.573828,
              19.141797
            ],
            [
              72.575195,
              19.143164
            ],
            [
              72.576562,
              19.143164
            ],
            [
              72.579297,
              19.145898
            ],
            [
              72.579297,
              19.15
            ],
            [
              72.562891,
              19.15
            ]
          ]
        ]
      }
    }
  ]
}