{
  "type": "FeatureCollection",
  "features": [
    {
      "type": "Feature",
      "properties": {
        "spill_id": "palsar_744",
        "confidence": 0.85
      },
      "geometry": {
        "type": "Polygon",
        "coordinates": [
          [
            [
              72.731055,
              18.845117
            ],
            [
              72.72832,
              18.841016
            ],
            [
              72.72832,
              18.83418
            ],
            [
              72.721484,
              18.821875
            ],
            [
              72.724219,
              18.815039
            ],
            [
              72.726953,
              18.815039
            ],
            [
              72.735156,
              18.819141
            ],
            [
              72.739258,
              18.823242
            ],
            [
              72.747461,
              18.823242
            ],
            [
              72.748828,
              18.821875
            ],
            [
              72.747461,
              18.820508
            ],
            [
              72.747461,
              18.812305
            ],
            [
              72.751562,
              18.804102
            ],
            [
              72.754297,
              18.801367
            ],
            [
              72.758398,
              18.801367
            ],
            [
              72.7625,
              18.808203
            ],
            [
              72.761133,
              18.817773
            ],
            [
              72.757031,
              18.820508
            ],
            [
              72.750195,
              18.820508
            ],
            [
              72.748828,
              18.821875
            ],
            [
              72.748828,
              18.827344
            ],
            [
              72.755664,
              18.832812
            ],
            [
              72.759766,
              18.83418
            ],
            [
              72.763867,
              18.838281
            ],
            [
              72.763867,
              18.841016
            ],
            [
              72.758398,
              18.846484
            ],
            [
              72.75293,
              18.849219
            ],
            [
              72.744727,
              18.849219
            ],
            [
              72.731055,
              18.845117
            ]
          ]
        ]
      }
    },
    {
      "type": "Feature",
      "properties": {
        "spill_id": "palsar_744",
        "confidence": 0.85
      },
      "geometry": {
        "type": "Polygon",
        "coordinates": [
          [
            [
              72.848633,
              18.888867
            ],
            [
              72.847266,
              18.888867
            ],
            [
              72.845898,
              18.8875
            ],
            [
              72.844531,
              18.888867
            ],
            [
              72.843164,
              18.8875
            ],
            [
              72.839062,
              18.8875
            ],
            [
              72.834961,
              18.883398
            ],
            [
              72.834961,
              18.882031
            ],
            [
              72.833594,
              18.880664
            ],
            [
              72.833594,
              18.879297
            ],
            [
              72.836328,
              18.876562
            ],
            [
              72.845898,
              18.876562
            ],
            [
              72.847266,
              18.87793
            ],
            [
              72.848633,
              18.87793
            ],
            [
              72.848633,
              18.888867
            ]
          ]
        ]
      }
    },
    {
      "type": "Feature",
      "properties": {
        "spill_id": "palsar_744",
        "confidence": 0.85
      },
      "geometry": {
        "type": "Polygon",
        "coordinates": [
          [
            [
              72.590234,
              18.918945
            ],
            [
              72.586133,
              18.920312
            ],
            [
              72.584766,
              18.918945
            ],
            [
              72.582031,
              18.918945
            ],
            [
              72.580664,
              18.917578
            ],
            [
              72.57793,
              18.917578
            ],
            [
              72.573828,
              18.914844
            ],
            [
              72.568359,
              18.914844
            ],
            [
              72.566992,
              18.913477
            ],
            [
              72.562891,
              18.913477
            ],
            [
              72.560156,
              18.910742
            ],
            [
              72.560156,
              18.906641
            ],
            [
              72.568359,
              18.898438
            ],
            [
              72.571094,
              18.898438
            ],
            [
              72.572461,
              18.89707
            ],
            [
              72.573828,
              18.89707
            ],
            [
              72.575195,
              18.898438
            ],
            [
              72.576562,
              18.898438
            ],
            [
              72.580664,
              18.902539
            ],
            [
              72.582031,
              18.902539
            ],
            [
              72.5875,
              18.908008
            ],
            [
              72.5875,
              18.909375
            ],
            [
              72.590234,
              18.913477
            ],
            [
              72.590234,
              18.918945
            ]
          ]
        ]
      }
    },
    {
      "type": "Feature",
      "properties": {
        "spill_id": "palsar_744",
        "confidence": 0.85
      },
      "geometry": {
        "type": "Polygon",
        "coordinates": [
          [
            [
              72.748828,
              18.933984
            ],
            [
              72.741992,
              18.933984
            ],
            [
              72.740625,
              18.932617
            ],
            [
              72.739258,
              18.932617
            ],
            [
              72.737891,
              18.93125
            ],
            [
              72.737891,
              18.929883
            ],
            [
              72.735156,
              18.925781
            ],
            [
              72.735156,
              18.92168
            ],
            [
              72.733789,
              18.920312
            ],
            [
              72.733789,
              18.914844
            ],
            [
              72.735156,
              18.913477
            ],
            [
              72.735156,
              18.902539
            ],
            [
              72.737891,
              18.899805
            ],
            [
              72.741992,
              18.899805
            ],
            [
              72.746094,
              18.903906
            ],
            [
              72.746094,
              18.905273
            ],
            [
              72.750195,
              18.909375
            ],
            [
              72.750195,
              18.910742
            ],
            [
              72.751562,
              18.912109
            ],
            [
              72.751562,
              18.93125
            ],
            [
              72.748828,
              18.933984
            ]
          ]
        ]
      }
    },
    {
      "type": "Feature",
      "properties": {
        "spill_id": "palsar_744",
        "confidence": 0.85
      },
      "geometry": {
        "type": "Polygon",
        "coordinates": [
          [
            [
              72.677734,
              19.035156
            ],
            [
              72.677734,
              19.033789
            ],
            [
              72.676367,
              19.032422
            ],
            [
              72.676367,
              19.029687
            ],
            [
              72.675,
              19.02832
            ],
            [
              72.675,
              19.014648
            ],
            [
              72.676367,
              19.013281
            ],
            [
              72.676367,
              19.011914
            ],
            [
              72.681836,
              19.011914
            ],
            [
              72.690039,
              19.020117
            ],
            [
              72.690039,
              19.022852
            ],
            [
              72.691406,
              19.024219
            ],
            [
              72.691406,
              19.031055
            ],
            [
              72.690039,
              19.032422
            ],
            [
              72.687305,
              19.032422
            ],
            [
              72.68457,
              19.035156
            ],
            [
              72.677734,
              19.035156
            ]
          ]
        ]
      }
    },
    {
      "type": "Feature",
      "properties": {
        "spill_id": "palsar_744",
        "confidence": 0.85
      },
      "geometry": {
        "type": "Polygon",
        "coordinates": [
          [
            [
              72.584766,
              19.046094
            ],
            [
              72.573828,
              19.046094
            ],
            [
              72.568359,
              19.040625
            ],
            [
              72.564258,
              19.026953
            ],
            [
              72.545117,
              19.007812
            ],
            [
              72.542383,
              19.002344
            ],
            [
              72.535547,
              18.995508
            ],
            [
              72.521875,
              18.992773
            ],
            [
              72.510938,
              18.975
            ],
            [
              72.5,
              18.969531
            ],
            [
              72.5,
              18.939453
            ],
            [
              72.510938,
              18.94082
            ],
            [
              72.521875,
              18.953125
            ],
            [
              72.527344,
              18.968164
            ],
            [
              72.535547,
              18.977734
            ],
            [
              72.564258,
              18.999609
            ],
            [
              72.571094,
              19.010547
            ],
            [
              72.572461,
              19.01875
            ],
            [
              72.5875,
              19.037891
            ],
            [
              72.5875,
              19.043359
            ],
            [
              72.584766,
              19.046094
            ]
          ]
        ]
      }
    },
    {
      "type": "Feature",
      "properties": {
        "spill_id": "palsar_744",
        "confidence": 0.85
      },
      "geometry": {
        "type": "Polygon",
        "coordinates": [
          [
            [
              72.818555,
              19.059766
            ],
            [
              72.811719,
              19.061133
            ],
            [
              72.803516,
              19.057031
            ],
            [
              72.788477,
              19.057031
            ],
            [
              72.784375,
              19.054297
            ],
            [
              72.770703,
              19.05293
            ],
            [
              72.747461,
              19.037891
            ],
            [
              72.750195,
              19.033789
            ],
            [
              72.761133,
              19.032422
            ],
            [
              72.767969,
              19.024219
            ],
            [
              72.763867,
              19.013281
            ],
            [
              72.765234,
              18.991406
            ],
            [
              72.755664,
              18.979102
            ],
            [
              72.75293,
              18.970898
            ],
            [
              72.754297,
              18.962695
            ],
            [
              72.7625,
              18.962695
            ],
            [
              72.770703,
              18.976367
            ],
            [
              72.773438,
              18.987305
            ],
            [
              72.788477,
              19.014648
            ],
            [
              72.791211,
              19.037891
            ],
            [
              72.81582,
              19.047461
            ],
            [
              72.819922,
              19.054297
            ],
            [
              72.818555,
              19.059766
            ]
          ]
        ]
      }
    },
    {
      "type": "Feature",
      "properties": {
        "spill_id": "palsar_744",
        "confidence": 0.85
      },
      "geometry": {
        "type": "Polygon",
        "coordinates": [
          [
            [
              72.692773,
              19.080273
            ],
            [
              72.688672,
              19.080273
            ],
            [
              72.685938,
              19.077539
            ],
            [
              72.685938,
              19.076172
            ],
            [
              72.68457,
              19.074805
            ],
            [
              72.683203,
              19.074805
            ],
            [
              72.683203,
              19.07207
            ],
            [
              72.68457,
              19.070703
            ],
            [
              72.683203,
              19.069336
            ],
            [
              72.683203,
              19.066602
            ],
            [
              72.685938,
              19.066602
            ],
            [
              72.688672,
              19.069336
            ],
            [
              72.688672,
              19.070703
            ],
            [
              72.690039,
              19.07207
            ],
            [
              72.690039,
              19.073438
            ],
            [
              72.692773,
              19.076172
            ],
            [
              72.692773,
              19.080273
            ]
          ]
        ]
      }
    },
    {
      "type": "Feature",
      "properties": {
        "spill_id": "palsar_744",
        "confidence": 0.85
      },
      "geometry": {
        "type": "Polygon",
        "coordinates": [
          [
            [
              72.844531,
              19.093945
            ],
            [
              72.837695,
              19.093945
            ],
            [
              72.833594,
              19.089844
            ],
            [
              72.833594,
              19.088477
            ],
            [
              72.830859,
              19.084375
            ],
            [
              72.830859,
              19.081641
            ],
            [
              72.829492,
              19.080273
            ],
            [
              72.829492,
              19.074805
            ],
            [
              72.828125,
              19.073438
            ],
            [
              72.828125,
              19.070703
            ],
            [
              72.826758,
              19.069336
            ],
            [
              72.826758,
              19.066602
            ],
            [
              72.825391,
              19.065234
            ],
            [
              72.826758,
              19.063867
            ],
            [
              72.828125,
              19.063867
            ],
            [
              72.829492,
              19.0625
            ],
            [
              72.830859,
              19.0625
            ],
            [
              72.839062,
              19.070703
            ],
            [
              72.84043,
              19.070703
            ],
            [
              72.843164,
              19.073438
            ],
            [
              72.843164,
              19.074805
            ],
            [
              72.844531,
              19.076172
            ],
            [
              72.844531,
              19.084375
            ],
            [
              72.845898,
              19.085742
            ],
            [
              72.845898,
              19.091211
            ],
            [
              72.844531,
              19.092578
            ],
            [
              72.844531,
              19.093945
            ]
          ]
        ]
      }
    },
    {
      "type": "Feature",
      "properties": {
        "spill_id": "palsar_744",
        "confidence": 0.85
      },
      "geometry": {
        "type": "Polygon",
        "coordinates": [
          [
            [
              72.59707,
              19.15
            ],
            [
              72.584766,
              19.15
            ],
            [
              72.580664,
              19.145898
            ],
            [
              72.568359,
              19.15
            ],
            [
              72.556055,
              19.141797
            ],
            [
              72.542383,
              19.111719
            ],
            [
              72.525977,
              19.100781
            ],
            [
              72.515039,
              19.081641
            ],
            [
              72.508203,
              19.074805
            ],
            [
              72.504102,
              19.063867
            ],
            [
              72.506836,
              19.055664
            ],
            [
              72.520508,
              19.048828
            ],
            [
              72.531445,
              19.048828
            ],
            [
              72.539648,
              19.05293
            ],
            [
              72.547852,
              19.050195
            ],
            [
              72.551953,
              19.051562
            ],
            [
              72.551953,
              19.069336
            ],
            [
              72.557422,
              19.088477
            ],
            [
              72.573828,
              19.102148
            ],
            [
              72.5875,
              19.104883
            ],
            [
              72.588867,
              19.113086
            ],
            [
              72.579297,
              19.119922
            ],
            [
              72.57793,
              19.126758
            ],
            [
              72.590234,
              19.134961
            ],
            [
              72.59707,
              19.15
            ]
          ]
        ]
      }
    }
  ]
}