{
  "type": "FeatureCollection",
  "features": [
    {
      "type": "Feature",
      "properties": {
        "spill_id": "palsar_426",
        "confidence": 0.86
      },
      "geometry": {
        "type": "Polygon",
        "coordinates": [
          [
            [
              72.733789,
              18.876562
            ],
            [
              72.70918,
              18.883398
            ],
            [
              72.705078,
              18.883398
            ],
            [
              72.702344,
              18.880664
            ],
            [
              72.698242,
              18.866992
            ],
            [
              72.698242,
              18.860156
            ],
            [
              72.703711,
              18.85332
            ],
            [
              72.705078,
              18.846484
            ],
            [
              72.700977,
              18.838281
            ],
            [
              72.691406,
              18.835547
            ],
            [
              72.685938,
              18.828711
            ],
            [
              72.683203,
              18.810938
            ],
            [
              72.688672,
              18.801367
            ],
            [
              72.716016,
              18.801367
            ],
            [
              72.721484,
              18.830078
            ],
            [
              72.732422,
              18.849219
            ],
            [
              72.731055,
              18.861523
            ],
            [
              72.733789,
              18.868359
            ],
            [
              72.733789,
              18.876562
            ]
          ]
        ]
      }
    },
    {
      "type": "Feature",
      "properties": {
        "spill_id": "palsar_426",
        "confidence": 0.86
      },
      "geometry": {
        "type": "Polygon",
        "coordinates": [
          [
            [
              72.780273,
              18.969531
            ],
            [
              72.767969,
              18.968164
            ],
            [
              72.765234,
              18.962695
            ],
            [
              72.7625,
              18.917578
            ],
            [
              72.757031,
              18.890234
            ],
            [
              72.754297,
              18.858789
            ],
            [
              72.763867,
              18.836914
            ],
            [
              72.759766,
              18.810938
            ],
            [
              72.7625,
              18.801367
            ],
            [
              72.777539,
              18.802734
            ],
            [
              72.783008,
              18.823242
            ],
            [
              72.783008,
              18.862891
            ],
            [
              72.778906,
              18.89707
            ],
            [
              72.784375,
              18.910742
            ],
            [
              72.785742,
              18.936719
            ],
            [
              72.777539,
              18.947656
            ],
            [
              72.781641,
              18.959961
            ],
            [
              72.780273,
              18.969531
            ]
          ]
        ]
      }
    },
    {
      "type": "Feature",
      "properties": {
        "spill_id": "palsar_426",
        "confidence": 0.86
      },
      "geometry": {
        "type": "Polygon",
        "coordinates": [
          [
            [
              72.583398,
              18.980469
            ],
            [
              72.575195,
              18.980469
            ],
            [
              72.572461,
              18.977734
            ],
            [
              72.572461,
              18.976367
            ],
            [
              72.571094,
              18.975
            ],
            [
              72.571094,
              18.972266
            ],
            [
              72.568359,
              18.968164
            ],
            [
              72.568359,
              18.961328
            ],
            [
              72.566992,
              18.959961
            ],
            [
              72.566992,
              18.953125
            ],
            [
              72.565625,
              18.951758
            ],
            [
              72.565625,
              18.947656
            ],
            [
              72.568359,
              18.944922
            ],
            [
              72.571094,
              18.944922
            ],
            [
              72.572461,
              18.946289
            ],
            [
              72.573828,
              18.946289
            ],
            [
              72.573828,
              18.947656
            ],
            [
              72.576562,
              18.950391
            ],
            [
              72.576562,
              18.951758
            ],
            [
              72.579297,
              18.955859
            ],
            [
              72.579297,
              18.958594
            ],
            [
              72.580664,
              18.959961
            ],
            [
              72.580664,
              18.961328
            ],
            [
              72.582031,
              18.962695
            ],
            [
              72.582031,
              18.964062
            ],
            [
              72.586133,
              18.970898
            ],
            [
              72.586133,
              18.977734
            ],
            [
              72.583398,
              18.980469
            ]
          ]
        ]
      }
    },
    {
      "type": "Feature",
      "properties": {
        "spill_id": "palsar_426",
        "confidence": 0.86
      },
      "geometry": {
        "type": "Polygon",
        "coordinates": [
          [
            [
              72.716016,
              18.987305
            ],
            [
              72.713281,
              18.985938
            ],
            [
              72.710547,
              18.981836
            ],
            [
              72.710547,
              18.977734
            ],
            [
              72.70918,
              18.976367
            ],
            [
              72.70918,
              18.955859
            ],
            [
              72.705078,
              18.946289
            ],
            [
              72.705078,
              18.929883
            ],
            [
              72.706445,
              18.928516
            ],
            [
              72.706445,
              18.923047
            ],
            [
              72.710547,
              18.914844
            ],
            [
              72.713281,
              18.913477
            ],
            [
              72.717383,
              18.916211
            ],
            [
              72.725586,
              18.929883
            ],
            [
              72.725586,
              18.932617
            ],
            [
              72.726953,
              18.933984
            ],
            [
              72.726953,
              18.954492
            ],
            [
              72.72832,
              18.955859
            ],
            [
              72.726953,
              18.966797
            ],
            [
              72.720117,
              18.975
            ],
            [
              72.71875,
              18.981836
            ],
            [
              72.716016,
              18.987305
            ]
          ]
        ]
      }
    },
    {
      "type": "Feature",
      "properties": {
        "spill_id": "palsar_426",
        "confidence": 0.86
      },
      "geometry": {
        "type": "Polygon",
        "coordinates": [
          [
            [
              72.653125,
              18.994141
            ],
            [
              72.651758,
              18.994141
            ],
            [
              72.650391,
              18.995508
            ],
            [
              72.647656,
              18.995508
            ],
            [
              72.647656,
              18.994141
            ],
            [
              72.644922,
              18.991406
            ],
            [
              72.644922,
              18.990039
            ],
            [
              72.643555,
              18.988672
            ],
            [
              72.633984,
              18.988672
            ],
            [
              72.629883,
              18.985938
            ],
            [
              72.629883,
              18.98457
            ],
            [
              72.628516,
              18.983203
            ],
            [
              72.628516,
              18.96543
            ],
            [
              72.627148,
              18.964062
            ],
            [
              72.627148,
              18.961328
            ],
            [
              72.628516,
              18.959961
            ],
            [
              72.629883,
              18.959961
            ],
            [
              72.635352,
              18.96543
            ],
            [
              72.635352,
              18.966797
            ],
            [
              72.638086,
              18.969531
            ],
            [
              72.638086,
              18.970898
            ],
            [
              72.644922,
              18.977734
            ],
            [
              72.644922,
              18.979102
            ],
            [
              72.647656,
              18.981836
            ],
            [
              72.647656,
              18.983203
            ],
            [
              72.651758,
              18.987305
            ],
            [
              72.651758,
              18.988672
            ],
            [
              72.654492,
              18.992773
            ],
            [
              72.653125,
              18.994141
            ]
          ]
        ]
      }
    },
    {
      "type": "Feature",
      "properties": {
        "spill_id": "palsar_426",
        "confidence": 0.86
      },
      "geometry": {
        "type": "Polygon",
        "coordinates": [
          [
            [
              72.724219,
              19.041992
            ],
            [
              72.720117,
              19.040625
            ],
            [
              72.717383,
              19.037891
            ],
            [
              72.714648,
              19.037891
            ],
            [
              72.711914,
              19.035156
            ],
            [
              72.711914,
              19.033789
            ],
            [
              72.710547,
              19.032422
            ],
            [
              72.710547,
              19.01875
            ],
            [
              72.70918,
              19.017383
            ],
            [
              72.707812,
              19.017383
            ],
            [
              72.707812,
              19.014648
            ],
            [
              72.706445,
              19.013281
            ],
            [
              72.706445,
              19.00918
            ],
            [
              72.707812,
              19.007812
            ],
            [
              72.707812,
              19.006445
            ],
            [
              72.710547,
              19.003711
            ],
            [
              72.711914,
              19.003711
            ],
            [
              72.713281,
              19.002344
            ],
            [
              72.714648,
              19.002344
            ],
            [
              72.717383,
              19.005078
            ],
            [
              72.717383,
              19.006445
            ],
            [
              72.71875,
              19.007812
            ],
            [
              72.71875,
              19.014648
            ],
            [
              72.717383,
              19.016016
            ],
            [
              72.717383,
              19.01875
            ],
            [
              72.724219,
              19.025586
            ],
            [
              72.724219,
              19.026953
            ],
            [
              72.726953,
              19.031055
            ],
            [
              72.726953,
              19.037891
            ],
            [
              72.724219,
              19.041992
            ]
          ]
        ]
      }
    },
    {
      "type": "Feature",
      "properties": {
        "spill_id": "palsar_426",
        "confidence": 0.86
      },
      "geometry": {
        "type": "Polygon",
        "coordinates": [
          [
            [
              72.825391,
              19.083008
            ],
            [
              72.811719,
              19.063867
            ],
            [
              72.795312,
              19.067969
            ],
            [
              72.789844,
              19.0625
            ],
            [
              72.784375,
              19.048828
            ],
            [
              72.784375,
              19.039258
            ],
            [
              72.791211,
              19.037891
            ],
            [
              72.799414,
              19.043359
            ],
            [
              72.804883,
              19.043359
            ],
            [
              72.81582,
              19.035156
            ],
            [
              72.817187,
              18.999609
            ],
            [
              72.814453,
              18.975
            ],
            [
              72.822656,
              18.96543
            ],
            [
              72.829492,
              18.96543
            ],
            [
              72.836328,
              18.969531
            ],
            [
              72.839062,
              18.975
            ],
            [
              72.833594,
              18.988672
            ],
            [
              72.833594,
              19.002344
            ],
            [
              72.829492,
              19.011914
            ],
            [
              72.829492,
              19.025586
            ],
            [
              72.839062,
              19.050195
            ],
            [
              72.839062,
              19.066602
            ],
            [
              72.834961,
              19.081641
            ],
            [
              72.825391,
              19.083008
            ]
          ]
        ]
      }
    },
    {
      "type": "Feature",
      "properties": {
        "spill_id": "palsar_426",
        "confidence": 0.86
      },
      "geometry": {
        "type": "Polygon",
        "coordinates": [
          [
            [
              72.800781,
              19.092578
            ],
            [
              72.799414,
              19.092578
            ],
            [
              72.798047,
              19.091211
            ],
            [
              72.798047,
              19.089844
            ],
            [
              72.79668,
              19.088477
            ],
            [
              72.79668,
              19.080273
            ],
            [
              72.799414,
              19.080273
            ],
            [
              72.803516,
              19.084375
            ],
            [
              72.803516,
              19.085742
            ],
            [
              72.804883,
              19.087109
            ],
            [
              72.804883,
              19.088477
            ],
            [
              72.803516,
              19.089844
            ],
            [
              72.803516,
              19.091211
            ],
            [
              72.802148,
              19.091211
            ],
            [
              72.800781,
              19.092578
            ]
          ]
        ]
      }
    },
    {
      "type": "Feature",
      "properties": {
        "spill_id": "palsar_426",
        "confidence": 0.86
      },
      "geometry": {
        "type": "Polygon",
        "coordinates": [
          [
            [
              72.826758,
              19.110352
            ],
            [
              72.822656,
              19.110352
            ],
            [
              72.822656,
              19.108984
            ],
            [
              72.821289,
              19.107617
            ],
            [
              72.821289,
              19.10625
            ],
            [
              72.819922,
              19.104883
            ],
            [
              72.819922,
              19.099414
            ],
            [
              72.822656,
              19.09668
            ],
            [
              72.824023,
              19.09668
            ],
            [
              72.825391,
              19.098047
            ],
            [
              72.826758,
              19.098047
            ],
            [
              72.826758,
              19.099414
            ],
            [
              72.828125,
              19.100781
            ],
            [
              72.828125,
              19.107617
            ],
            [
              72.826758,
              19.108984
            ],
            [
              72.826758,
              19.110352
            ]
          ]
        ]
      }
    },
    {
      "type": "Feature",
      "properties": {
        "spill_id": "palsar_426",
        "confidence": 0.86
      },
      "geometry": {
        "type": "Polygon",
        "coordinates": [
          [
            [
              72.580664,
              19.147266
            ],
            [
              72.579297,
              19.147266
            ],
            [
              72.57793,
              19.145898
            ],
            [
              72.576562,
              19.145898
            ],
            [
              72.575195,
              19.144531
            ],
            [
              72.575195,
              19.141797
            ],
            [
              72.573828,
              19.14043
            ],
            [
              72.573828,
              19.137695
            ],
            [
              72.575195,
              19.136328
            ],
            [
              72.575195,
              19.133594
            ],
            [
              72.576562,
              19.132227
            ],
            [
              72.576562,
              19.130859
            ],
            [
              72.582031,
              19.130859
            ],
            [
              72.582031,
              19.132227
            ],
            [
              72.583398,
              19.133594
            ],
            [
              72.583398,
              19.139062
            ],
            [
              72.584766,
              19.14043
            ],
            [
              72.584766,
              19.141797
            ],
            [
              72.583398,
              19.143164
            ],
            [
              72.583398,
              19.145898
            ],
            [
              72.582031,
              19.145898
            ],
            [
              72.580664,
              19.147266
            ]
          ]
        ]
      }
    },
    {
      "type": "Feature",
      "properties": {
        "spill_id": "palsar_426",
        "confidence": 0.86
      },
      "geometry": {
        "type": "Polygon",
        "coordinates": [
          [
            [
              72.632617,
              19.15
            ],
            [
              72.625781,
              19.136328
            ],
            [
              72.625781,
              19.126758
            ],
            [
              72.638086,
              19.118555
            ],
            [
              72.638086,
              19.113086
            ],
            [
              72.629883,
              19.099414
            ],
            [
              72.629883,
              19.092578
            ],
            [
              72.64082,
              19.067969
            ],
            [
              72.643555,
              19.040625
            ],
            [
              72.650391,
              19.025586
            ],
            [
              72.651758,
              19.00918
            ],
            [
              72.659961,
              19.005078
            ],
            [
              72.666797,
              19.011914
            ],
            [
              72.668164,
              19.020117
            ],
            [
              72.661328,
              19.041992
            ],
            [
              72.658594,
              19.081641
            ],
            [
              72.672266,
              19.102148
            ],
            [
              72.679102,
              19.09668
            ],
            [
              72.685938,
              19.09668
            ],
            [
              72.690039,
              19.100781
            ],
            [
              72.690039,
              19.10625
            ],
            [
              72.675,
              19.125391
            ],
            [
              72.658594,
              19.139062
            ],
            [
              72.655859,
              19.15
            ],
            [
              72.632617,
              19.15
            ]
          ]
        ]
      }
    }
  ]
}