{
  "type": "FeatureCollection",
  "features": [
    {
      "type": "Feature",
      "properties": {
        "spill_id": "palsar_364",
        "confidence": 0.91
      },
      "geometry": {
        "type": "Polygon",
        "coordinates": [
          [
            [
              72.612109,
              18.83418
            ],
            [
              72.608008,
              18.83418
            ],
            [
              72.606641,
              18.832812
            ],
            [
              72.603906,
              18.832812
            ],
            [
              72.598438,
              18.825977
            ],
            [
              72.598438,
              18.824609
            ],
            [
              72.595703,
              18.820508
            ],
            [
              72.595703,
              18.817773
            ],
            [
              72.592969,
              18.813672
            ],
            [
              72.592969,
              18.805469
            ],
            [
              72.594336,
              18.804102
            ],
            [
              72.594336,
              18.801367
            ],
            [
              72.614844,
              18.801367
            ],
            [
              72.614844,
              18.804102
            ],
            [
              72.616211,
              18.805469
            ],
            [
              72.616211,
              18.808203
            ],
            [
              72.614844,
              18.80957
            ],
            [
              72.614844,
              18.820508
            ],
            [
              72.613477,
              18.821875
            ],
            [
              72.613477,
              18.831445
            ],
            [
              72.612109,
              18.832812
            ],
            [
              72.612109,
              18.83418
            ]
          ]
        ]
      }
    },
    {
      "type": "Feature",
      "properties": {
        "spill_id": "palsar_364",
        "confidence": 0.91
      },
      "geometry": {
        "type": "Polygon",
        "coordinates": [
          [
            [
              72.770703,
              19.148633
            ],
            [
              72.770703,
              19.145898
            ],
            [
              72.767969,
              19.14043
            ],
            [
              72.770703,
              19.129492
            ],
            [
              72.774805,
              19.126758
            ],
            [
              72.781641,
              19.125391
            ],
            [
              72.785742,
              19.121289
            ],
            [
              72.789844,
              19.113086
            ],
            [
              72.793945,
              19.108984
            ],
            [
              72.79668,
              19.108984
            ],
            [
              72.798047,
              19.107617
            ],
            [
              72.813086,
              19.108984
            ],
            [
              72.817187,
              19.113086
            ],
            [
              72.817187,
              19.11582
            ],
            [
              72.818555,
              19.117188
            ],
            [
              72.818555,
              19.125391
            ],
            [
              72.814453,
              19.132227
            ],
            [
              72.810352,
              19.15
            ],
            [
              72.77207,
              19.15
            ],
            [
              72.770703,
              19.148633
            ]
          ]
        ]
      }
    },
    {
      "type": "Feature",
      "properties": {
        "spill_id": "palsar_364",
        "confidence": 0.91
      },
      "geometry": {
        "type": "Polygon",
        "coordinates": [
          [
            [
              72.584766,
              19.145898
            ],
            [
              72.591602,
              19.122656
            ],
            [
              72.565625,
              19.107617
            ],
            [
              72.584766,
              19.081641
            ],
            [
              72.572461,
              19.059766
            ],
            [
              72.606641,
              19.051562
            ],
            [
              72.627148,
              19.02832
            ],
            [
              72.653125,
              18.950391
            ],
            [
              72.614844,
              18.83418
            ],
            [
              72.635352,
              18.830078
            ],
            [
              72.666797,
              18.871094
            ],
            [
              72.720117,
              18.8875
            ],
            [
              72.71875,
              18.856055
            ],
            [
              72.751562,
              18.821875
            ],
            [
              72.770703,
              18.880664
            ],
            [
              72.789844,
              18.89707
            ],
            [
              72.819922,
              18.880664
            ],
            [
              72.848633,
              18.923047
            ],
            [
              72.848633,
              19.0625
            ],
            [
              72.829492,
              19.081641
            ],
            [
              72.792578,
              19.084375
            ],
            [
              72.785742,
              19.033789
            ],
            [
              72.735156,
              19.055664
            ],
            [
              72.711914,
              19.017383
            ],
            [
              72.714648,
              18.983203
            ],
            [
              72.696875,
              18.94082
            ],
            [
              72.677734,
              19.01875
            ],
            [
              72.705078,
              19.044727
            ],
            [
              72.702344,
              19.15
            ],
            [
              72.584766,
              19.145898
            ]
          ]
        ]
      }
    },
    {
      "type": "Feature",
      "properties": {
        "spill_id": "palsar_364",
        "confidence": 0.91
      },
      "geometry": {
        "type": "Polygon",
        "coordinates": [
          [
            [
              72.506836,
              19.15
            ],
            [
              72.506836,
              19.143164
            ],
            [
              72.50957,
              19.14043
            ],
            [
              72.510938,
              19.14043
            ],
            [
              72.512305,
              19.139062
            ],
            [
              72.513672,
              19.139062
            ],
            [
              72.516406,
              19.136328
            ],
            [
              72.517773,
              19.136328
            ],
            [
              72.521875,
              19.133594
            ],
            [
              72.530078,
              19.133594
            ],
            [
              72.53418,
              19.137695
            ],
            [
              72.53418,
              19.14043
            ],
            [
              72.535547,
              19.141797
            ],
            [
              72.535547,
              19.15
            ],
            [
              72.506836,
              19.15
            ]
          ]
        ]
      }
    }
  ]
}