{
  "type": "FeatureCollection",
  "features": [
    {
      "type": "Feature",
      "properties": {
        "spill_id": "palsar_37",
        "confidence": 0.94
      },
      "geometry": {
        "type": "Polygon",
        "coordinates": [
          [
            [
              72.556055,
              18.861523
            ],
            [
              72.554688,
              18.860156
            ],
            [
              72.554688,
              18.851953
            ],
            [
              72.556055,
              18.850586
            ],
            [
              72.556055,
              18.847852
            ],
            [
              72.560156,
              18.84375
            ],
            [
              72.560156,
              18.842383
            ],
            [
              72.562891,
              18.839648
            ],
            [
              72.562891,
              18.838281
            ],
            [
              72.565625,
              18.835547
            ],
            [
              72.568359,
              18.835547
            ],
            [
              72.571094,
              18.838281
            ],
            [
              72.571094,
              18.839648
            ],
            [
              72.572461,
              18.841016
            ],
            [
              72.572461,
              18.845117
            ],
            [
              72.571094,
              18.846484
            ],
            [
              72.571094,
              18.847852
            ],
            [
              72.569727,
              18.849219
            ],
            [
              72.569727,
              18.850586
            ],
            [
              72.566992,
              18.85332
            ],
            [
              72.566992,
              18.854688
            ],
            [
              72.564258,
              18.857422
            ],
            [
              72.564258,
              18.858789
            ],
            [
              72.562891,
              18.858789
            ],
            [
              72.561523,
              18.860156
            ],
            [
              72.560156,
              18.860156
            ],
            [
              72.558789,
              18.861523
            ],
            [
              72.556055,
              18.861523
            ]
          ]
        ]
      }
    },
    {
      "type": "Feature",
      "properties": {
        "spill_id": "palsar_37",
        "confidence": 0.94
      },
      "geometry": {
        "type": "Polygon",
        "coordinates": [
          [
            [
              72.505469,
              18.901172
            ],
            [
              72.505469,
              18.899805
            ],
            [
              72.504102,
              18.898438
            ],
            [
              72.504102,
              18.895703
            ],
            [
              72.505469,
              18.894336
            ],
            [
              72.505469,
              18.890234
            ],
            [
              72.508203,
              18.8875
            ],
            [
              72.50957,
              18.8875
            ],
            [
              72.510938,
              18.886133
            ],
            [
              72.512305,
              18.8875
            ],
            [
              72.513672,
              18.8875
            ],
            [
              72.513672,
              18.888867
            ],
            [
              72.515039,
              18.890234
            ],
            [
              72.515039,
              18.892969
            ],
            [
              72.513672,
              18.894336
            ],
            [
              72.513672,
              18.895703
            ],
            [
              72.512305,
              18.89707
            ],
            [
              72.512305,
              18.898438
            ],
            [
              72.510938,
              18.899805
            ],
            [
              72.50957,
              18.899805
            ],
            [
              72.508203,
              18.901172
            ],
            [
              72.505469,
              18.901172
            ]
          ]
        ]
      }
    },
    {
      "type": "Feature",
      "properties": {
        "spill_id": "palsar_37",
        "confidence": 0.94
      },
      "geometry": {
        "type": "Polygon",
        "coordinates": [
          [
            [
              72.717383,
              18.905273
            ],
            [
              72.714648,
              18.902539
            ],
            [
              72.714648,
              18.89707
            ],
            [
              72.716016,
              18.895703
            ],
            [
              72.716016,
              18.892969
            ],
            [
              72.721484,
              18.8875
            ],
            [
              72.729688,
              18.8875
            ],
            [
              72.732422,
              18.890234
            ],
            [
              72.732422,
              18.891602
            ],
            [
              72.733789,
              18.892969
            ],
            [
              72.733789,
              18.894336
            ],
            [
              72.732422,
              18.895703
            ],
            [
              72.732422,
              18.898438
            ],
            [
              72.72832,
              18.902539
            ],
            [
              72.726953,
              18.902539
            ],
            [
              72.724219,
              18.905273
            ],
            [
              72.717383,
              18.905273
            ]
          ]
        ]
      }
    },
    {
      "type": "Feature",
      "properties": {
        "spill_id": "palsar_37",
        "confidence": 0.94
      },
      "geometry": {
        "type": "Polygon",
        "coordinates": [
          [
            [
              72.763867,
              19.007812
            ],
            [
              72.758398,
              18.972266
            ],
            [
              72.767969,
              18.949023
            ],
            [
              72.7625,
              18.94082
            ],
            [
              72.755664,
              18.939453
            ],
            [
              72.748828,
              18.944922
            ],
            [
              72.748828,
              18.958594
            ],
            [
              72.726953,
              18.979102
            ],
            [
              72.71875,
              18.980469
            ],
            [
              72.713281,
              18.96543
            ],
            [
              72.744727,
              18.908008
            ],
            [
              72.783008,
              18.865625
            ],
            [
              72.819922,
              18.839648
            ],
            [
              72.839062,
              18.806836
            ],
            [
              72.848633,
              18.802734
            ],
            [
              72.848633,
              18.883398
            ],
            [
              72.834961,
              18.909375
            ],
            [
              72.795312,
              18.933984
            ],
            [
              72.792578,
              18.949023
            ],
            [
              72.781641,
              18.959961
            ],
            [
              72.783008,
              18.995508
            ],
            [
              72.773438,
              19.007812
            ],
            [
              72.763867,
              19.007812
            ]
          ]
        ]
      }
    },
    {
      "type": "Feature",
      "properties": {
        "spill_id": "palsar_37",
        "confidence": 0.94
      },
      "geometry": {
        "type": "Polygon",
        "coordinates": [
          [
            [
              72.5,
              19.114453
            ],
            [
              72.5,
              19.088477
            ],
            [
              72.55332,
              19.087109
            ],
            [
              72.566992,
              19.036523
            ],
            [
              72.618945,
              19.025586
            ],
            [
              72.63125,
              19.041992
            ],
            [
              72.647656,
              19.040625
            ],
            [
              72.688672,
              18.988672
            ],
            [
              72.702344,
              18.995508
            ],
            [
              72.680469,
              19.025586
            ],
            [
              72.680469,
              19.058398
            ],
            [
              72.692773,
              19.061133
            ],
            [
              72.755664,
              19.022852
            ],
            [
              72.758398,
              19.046094
            ],
            [
              72.783008,
              19.054297
            ],
            [
              72.807617,
              19.078906
            ],
            [
              72.818555,
              19.047461
            ],
            [
              72.800781,
              19.005078
            ],
            [
              72.821289,
              18.958594
            ],
            [
              72.837695,
              18.955859
            ],
            [
              72.829492,
              19.011914
            ],
            [
              72.848633,
              19.039258
            ],
            [
              72.848633,
              19.15
            ],
            [
              72.698242,
              19.15
            ],
            [
              72.673633,
              19.132227
            ],
            [
              72.659961,
              19.136328
            ],
            [
              72.661328,
              19.15
            ],
            [
              72.583398,
              19.15
            ],
            [
              72.5,
              19.114453
            ]
          ]
        ]
      }
    }
  ]
}