{
  "type": "FeatureCollection",
  "features": [
    {
      "type": "Feature",
      "properties": {
        "spill_id": "palsar_772",
        "confidence": 0.87
      },
      "geometry": {
        "type": "Polygon",
        "coordinates": [
          [
            [
              72.766602,
              18.847852
            ],
            [
              72.766602,
              18.846484
            ],
            [
              72.776172,
              18.838281
            ],
            [
              72.776172,
              18.835547
            ],
            [
              72.780273,
              18.831445
            ],
            [
              72.784375,
              18.831445
            ],
            [
              72.785742,
              18.830078
            ],
            [
              72.789844,
              18.830078
            ],
            [
              72.791211,
              18.828711
            ],
            [
              72.795312,
              18.828711
            ],
            [
              72.79668,
              18.827344
            ],
            [
              72.807617,
              18.824609
            ],
            [
              72.819922,
              18.816406
            ],
            [
              72.826758,
              18.816406
            ],
            [
              72.828125,
              18.815039
            ],
            [
              72.829492,
              18.816406
            ],
            [
              72.832227,
              18.816406
            ],
            [
              72.832227,
              18.819141
            ],
            [
              72.825391,
              18.825977
            ],
            [
              72.81582,
              18.832812
            ],
            [
              72.813086,
              18.832812
            ],
            [
              72.804883,
              18.838281
            ],
            [
              72.802148,
              18.838281
            ],
            [
              72.793945,
              18.842383
            ],
            [
              72.780273,
              18.842383
            ],
            [
              72.778906,
              18.84375
            ],
            [
              72.773438,
              18.84375
            ],
            [
              72.770703,
              18.846484
            ],
            [
              72.767969,
              18.846484
            ],
            [
              72.766602,
              18.847852
            ]
          ]
        ]
      }
    },
    {
      "type": "Feature",
      "properties": {
        "spill_id": "palsar_772",
        "confidence": 0.87
      },
      "geometry": {
        "type": "Polygon",
        "coordinates": [
          [
            [
              72.568359,
              18.868359
            ],
            [
              72.568359,
              18.864258
            ],
            [
              72.571094,
              18.861523
            ],
            [
              72.573828,
              18.861523
            ],
            [
              72.57793,
              18.857422
            ],
            [
              72.57793,
              18.856055
            ],
            [
              72.583398,
              18.851953
            ],
            [
              72.586133,
              18.851953
            ],
            [
              72.5875,
              18.850586
            ],
            [
              72.590234,
              18.850586
            ],
            [
              72.591602,
              18.849219
            ],
            [
              72.594336,
              18.849219
            ],
            [
              72.595703,
              18.847852
            ],
            [
              72.606641,
              18.847852
            ],
            [
              72.608008,
              18.849219
            ],
            [
              72.610742,
              18.849219
            ],
            [
              72.613477,
              18.851953
            ],
            [
              72.613477,
              18.854688
            ],
            [
              72.610742,
              18.857422
            ],
            [
              72.606641,
              18.857422
            ],
            [
              72.602539,
              18.860156
            ],
            [
              72.599805,
              18.860156
            ],
            [
              72.598438,
              18.861523
            ],
            [
              72.594336,
              18.862891
            ],
            [
              72.584766,
              18.873828
            ],
            [
              72.579297,
              18.873828
            ],
            [
              72.57793,
              18.872461
            ],
            [
              72.576562,
              18.872461
            ],
            [
              72.575195,
              18.871094
            ],
            [
              72.572461,
              18.871094
            ],
            [
              72.569727,
              18.868359
            ],
            [
              72.568359,
              18.868359
            ]
          ]
        ]
      }
    },
    {
      "type": "Feature",
      "properties": {
        "spill_id": "palsar_772",
        "confidence": 0.87
      },
      "geometry": {
        "type": "Polygon",
        "coordinates": [
          [
            [
              72.710547,
              18.8875
            ],
            [
              72.710547,
              18.879297
            ],
            [
              72.711914,
              18.876562
            ],
            [
              72.717383,
              18.871094
            ],
            [
              72.72832,
              18.865625
            ],
            [
              72.732422,
              18.861523
            ],
            [
              72.733789,
              18.861523
            ],
            [
              72.737891,
              18.857422
            ],
            [
              72.739258,
              18.857422
            ],
            [
              72.746094,
              18.851953
            ],
            [
              72.748828,
              18.851953
            ],
            [
              72.750195,
              18.850586
            ],
            [
              72.755664,
              18.854688
            ],
            [
              72.755664,
              18.858789
            ],
            [
              72.75293,
              18.861523
            ],
            [
              72.751562,
              18.861523
            ],
            [
              72.746094,
              18.866992
            ],
            [
              72.746094,
              18.868359
            ],
            [
              72.736523,
              18.876562
            ],
            [
              72.733789,
              18.882031
            ],
            [
              72.720117,
              18.888867
            ],
            [
              72.717383,
              18.888867
            ],
            [
              72.716016,
              18.890234
            ],
            [
              72.710547,
              18.8875
            ]
          ]
        ]
      }
    },
    {
      "type": "Feature",
      "properties": {
        "spill_id": "palsar_772",
        "confidence": 0.87
      },
      "geometry": {
        "type": "Polygon",
        "coordinates": [
          [
            [
              72.5,
              18.903906
            ],
            [
              72.5,
              18.884766
            ],
            [
              72.501367,
              18.883398
            ],
            [
              72.504102,
              18.883398
            ],
            [
              72.505469,
              18.882031
            ],
            [
              72.519141,
              18.882031
            ],
            [
              72.519141,
              18.883398
            ],
            [
              72.520508,
              18.884766
            ],
            [
              72.520508,
              18.8875
            ],
            [
              72.519141,
              18.888867
            ],
            [
              72.519141,
              18.89707
            ],
            [
              72.520508,
              18.898438
            ],
            [
              72.520508,
              18.899805
            ],
            [
              72.519141,
              18.901172
            ],
            [
              72.519141,
              18.902539
            ],
            [
              72.517773,
              18.903906
            ],
            [
              72.515039,
              18.903906
            ],
            [
              72.513672,
              18.905273
            ],
            [
              72.50957,
              18.905273
            ],
            [
              72.508203,
              18.906641
            ],
            [
              72.506836,
              18.906641
            ],
            [
              72.505469,
              18.905273
            ],
            [
              72.502734,
              18.905273
            ],
            [
              72.501367,
              18.903906
            ],
            [
              72.5,
              18.903906
            ]
          ]
        ]
      }
    },
    {
      "type": "Feature",
      "properties": {
        "spill_id": "palsar_772",
        "confidence": 0.87
      },
      "geometry": {
        "type": "Polygon",
        "coordinates": [
          [
            [
              72.5875,
              18.908008
            ],
            [
              72.5875,
              18.903906
            ],
            [
              72.590234,
              18.901172
            ],
            [
              72.592969,
              18.901172
            ],
            [
              72.594336,
              18.899805
            ],
            [
              72.598438,
              18.899805
            ],
            [
              72.599805,
              18.898438
            ],
            [
              72.601172,
              18.898438
            ],
            [
              72.606641,
              18.892969
            ],
            [
              72.608008,
              18.892969
            ],
            [
              72.614844,
              18.888867
            ],
            [
              72.62168,
              18.888867
            ],
            [
              72.623047,
              18.890234
            ],
            [
              72.624414,
              18.890234
            ],
            [
              72.628516,
              18.894336
            ],
            [
              72.628516,
              18.899805
            ],
            [
              72.625781,
              18.902539
            ],
            [
              72.624414,
              18.902539
            ],
            [
              72.623047,
              18.903906
            ],
            [
              72.620312,
              18.903906
            ],
            [
              72.618945,
              18.905273
            ],
            [
              72.616211,
              18.905273
            ],
            [
              72.614844,
              18.906641
            ],
            [
              72.612109,
              18.906641
            ],
            [
              72.602539,
              18.912109
            ],
            [
              72.592969,
              18.912109
            ],
            [
              72.591602,
              18.910742
            ],
            [
              72.590234,
              18.910742
            ],
            [
              72.5875,
              18.908008
            ]
          ]
        ]
      }
    },
    {
      "type": "Feature",
      "properties": {
        "spill_id": "palsar_772",
        "confidence": 0.87
      },
      "geometry": {
        "type": "Polygon",
        "coordinates": [
          [
            [
              72.635352,
              18.992773
            ],
            [
              72.636719,
              18.988672
            ],
            [
              72.644922,
              18.985938
            ],
            [
              72.661328,
              18.973633
            ],
            [
              72.695508,
              18.975
            ],
            [
              72.720117,
              18.953125
            ],
            [
              72.75293,
              18.935352
            ],
            [
              72.769336,
              18.935352
            ],
            [
              72.780273,
              18.947656
            ],
            [
              72.777539,
              18.953125
            ],
            [
              72.757031,
              18.958594
            ],
            [
              72.743359,
              18.973633
            ],
            [
              72.731055,
              18.976367
            ],
            [
              72.724219,
              18.981836
            ],
            [
              72.716016,
              18.981836
            ],
            [
              72.710547,
              18.976367
            ],
            [
              72.703711,
              18.976367
            ],
            [
              72.691406,
              18.985938
            ],
            [
              72.659961,
              19.000977
            ],
            [
              72.647656,
              19.000977
            ],
            [
              72.635352,
              18.992773
            ]
          ]
        ]
      }
    },
    {
      "type": "Feature",
      "properties": {
        "spill_id": "palsar_772",
        "confidence": 0.87
      },
      "geometry": {
        "type": "Polygon",
        "coordinates": [
          [
            [
              72.538281,
              19.036523
            ],
            [
              72.538281,
              19.026953
            ],
            [
              72.54375,
              19.022852
            ],
            [
              72.557422,
              19.022852
            ],
            [
              72.561523,
              19.01875
            ],
            [
              72.558789,
              19.013281
            ],
            [
              72.566992,
              19.011914
            ],
            [
              72.571094,
              19.014648
            ],
            [
              72.580664,
              19.014648
            ],
            [
              72.588867,
              19.010547
            ],
            [
              72.59707,
              19.010547
            ],
            [
              72.599805,
              19.011914
            ],
            [
              72.602539,
              19.016016
            ],
            [
              72.599805,
              19.021484
            ],
            [
              72.588867,
              19.025586
            ],
            [
              72.584766,
              19.029687
            ],
            [
              72.582031,
              19.029687
            ],
            [
              72.57793,
              19.032422
            ],
            [
              72.573828,
              19.032422
            ],
            [
              72.566992,
              19.036523
            ],
            [
              72.562891,
              19.036523
            ],
            [
              72.554688,
              19.040625
            ],
            [
              72.549219,
              19.040625
            ],
            [
              72.546484,
              19.041992
            ],
            [
              72.545117,
              19.040625
            ],
            [
              72.542383,
              19.040625
            ],
            [
              72.538281,
              19.036523
            ]
          ]
        ]
      }
    },
    {
      "type": "Feature",
      "properties": {
        "spill_id": "palsar_772",
        "confidence": 0.87
      },
      "geometry": {
        "type": "Polygon",
        "coordinates": [
          [
            [
              72.5,
              19.144531
            ],
            [
              72.5,
              19.134961
            ],
            [
              72.510938,
              19.130859
            ],
            [
              72.528711,
              19.11582
            ],
            [
              72.560156,
              19.11582
            ],
            [
              72.576562,
              19.110352
            ],
            [
              72.588867,
              19.103516
            ],
            [
              72.603906,
              19.103516
            ],
            [
              72.617578,
              19.107617
            ],
            [
              72.617578,
              19.110352
            ],
            [
              72.613477,
              19.113086
            ],
            [
              72.584766,
              19.119922
            ],
            [
              72.568359,
              19.130859
            ],
            [
              72.550586,
              19.133594
            ],
            [
              72.532812,
              19.143164
            ],
            [
              72.521875,
              19.145898
            ],
            [
              72.5,
              19.144531
            ]
          ]
        ]
      }
    },
    {
      "type": "Feature",
      "properties": {
        "spill_id": "palsar_772",
        "confidence": 0.87
      },
      "geometry": {
        "type": "Polygon",
        "coordinates": [
          [
            [
              72.63125,
              19.104883
            ],
            [
              72.633984,
              19.092578
            ],
            [
              72.664062,
              19.085742
            ],
            [
              72.679102,
              19.066602
            ],
            [
              72.729688,
              19.067969
            ],
            [
              72.743359,
              19.059766
            ],
            [
              72.757031,
              19.037891
            ],
            [
              72.75293,
              19.010547
            ],
            [
              72.799414,
              19.005078
            ],
            [
              72.837695,
              18.977734
            ],
            [
              72.848633,
              18.979102
            ],
            [
              72.814453,
              19.01875
            ],
            [
              72.848633,
              19.010547
            ],
            [
              72.841797,
              19.046094
            ],
            [
              72.824023,
              19.061133
            ],
            [
              72.769336,
              19.076172
            ],
            [
              72.740625,
              19.10625
            ],
            [
              72.792578,
              19.089844
            ],
            [
              72.836328,
              19.088477
            ],
            [
              72.837695,
              19.103516
            ],
            [
              72.848633,
              19.107617
            ],
            [
              72.848633,
              19.129492
            ],
            [
              72.821289,
              19.126758
            ],
            [
              72.799414,
              19.136328
            ],
            [
              72.795312,
              19.15
            ],
            [
              72.681836,
              19.15
            ],
            [
              72.725586,
              19.114453
            ],
            [
              72.71875,
              19.110352
            ],
            [
              72.724219,
              19.092578
            ],
            [
              72.661328,
              19.110352
            ],
            [
              72.63125,
              19.104883
            ]
          ]
        ]
      }
    },
    {
      "type": "Feature",
      "properties": {
        "spill_id": "palsar_772",
        "confidence": 0.87
      },
      "geometry": {
        "type": "Polygon",
        "coordinates": [
          [
            [
              72.594336,
              19.15
            ],
            [
              72.595703,
              19.145898
            ],
            [
              72.601172,
              19.141797
            ],
            [
              72.610742,
              19.141797
            ],
            [
              72.617578,
              19.139062
            ],
            [
              72.629883,
              19.137695
            ],
            [
              72.651758,
              19.122656
            ],
            [
              72.658594,
              19.122656
            ],
            [
              72.662695,
              19.126758
            ],
            [
              72.664062,
              19.132227
            ],
            [
              72.668164,
              19.136328
            ],
            [
              72.672266,
              19.137695
            ],
            [
              72.673633,
              19.143164
            ],
            [
              72.668164,
              19.15
            ],
            [
              72.594336,
              19.15
            ]
          ]
        ]
      }
    }
  ]
}