{
  "type": "FeatureCollection",
  "features": [
    {
      "type": "Feature",
      "properties": {
        "spill_id": "palsar_736",
        "confidence": 0.91
      },
      "geometry": {
        "type": "Polygon",
        "coordinates": [
          [
            [
              72.605273,
              18.825977
            ],
            [
              72.605273,
              18.824609
            ],
            [
              72.603906,
              18.823242
            ],
            [
              72.603906,
              18.819141
            ],
            [
              72.605273,
              18.817773
            ],
            [
              72.605273,
              18.816406
            ],
            [
              72.608008,
              18.813672
            ],
            [
              72.609375,
              18.80957
            ],
            [
              72.610742,
              18.808203
            ],
            [
              72.612109,
              18.808203
            ],
            [
              72.614844,
              18.805469
            ],
            [
              72.616211,
              18.805469
            ],
            [
              72.617578,
              18.804102
            ],
            [
              72.620312,
              18.804102
            ],
            [
              72.623047,
              18.801367
            ],
            [
              72.632617,
              18.801367
            ],
            [
              72.636719,
              18.805469
            ],
            [
              72.636719,
              18.80957
            ],
            [
              72.632617,
              18.810938
            ],
            [
              72.628516,
              18.815039
            ],
            [
              72.627148,
              18.815039
            ],
            [
              72.62168,
              18.820508
            ],
            [
              72.620312,
              18.820508
            ],
            [
              72.617578,
              18.823242
            ],
            [
              72.616211,
              18.823242
            ],
            [
              72.614844,
              18.824609
            ],
            [
              72.610742,
              18.824609
            ],
            [
              72.609375,
              18.825977
            ],
            [
              72.605273,
              18.825977
            ]
          ]
        ]
      }
    },
    {
      "type": "Feature",
      "properties": {
        "spill_id": "palsar_736",
        "confidence": 0.91
      },
      "geometry": {
        "type": "Polygon",
        "coordinates": [
          [
            [
              72.5,
              18.924414
            ],
            [
              72.5,
              18.908008
            ],
            [
              72.530078,
              18.895703
            ],
            [
              72.561523,
              18.888867
            ],
            [
              72.582031,
              18.866992
            ],
            [
              72.592969,
              18.860156
            ],
            [
              72.633984,
              18.846484
            ],
            [
              72.649023,
              18.850586
            ],
            [
              72.639453,
              18.861523
            ],
            [
              72.603906,
              18.875195
            ],
            [
              72.590234,
              18.8875
            ],
            [
              72.575195,
              18.892969
            ],
            [
              72.557422,
              18.908008
            ],
            [
              72.542383,
              18.909375
            ],
            [
              72.524609,
              18.918945
            ],
            [
              72.5,
              18.924414
            ]
          ]
        ]
      }
    },
    {
      "type": "Feature",
      "properties": {
        "spill_id": "palsar_736",
        "confidence": 0.91
      },
      "geometry": {
        "type": "Polygon",
        "coordinates": [
          [
            [
              72.5,
              18.980469
            ],
            [
              72.5,
              18.96543
            ],
            [
              72.501367,
              18.96543
            ],
            [
              72.502734,
              18.964062
            ],
            [
              72.50957,
              18.964062
            ],
            [
              72.510938,
              18.96543
            ],
            [
              72.512305,
              18.96543
            ],
            [
              72.513672,
              18.964062
            ],
            [
              72.519141,
              18.964062
            ],
            [
              72.520508,
              18.96543
            ],
            [
              72.521875,
              18.96543
            ],
            [
              72.523242,
              18.966797
            ],
            [
              72.524609,
              18.966797
            ],
            [
              72.524609,
              18.968164
            ],
            [
              72.523242,
              18.969531
            ],
            [
              72.523242,
              18.970898
            ],
            [
              72.520508,
              18.973633
            ],
            [
              72.519141,
              18.973633
            ],
            [
              72.517773,
              18.975
            ],
            [
              72.515039,
              18.975
            ],
            [
              72.513672,
              18.976367
            ],
            [
              72.512305,
              18.976367
            ],
            [
              72.510938,
              18.977734
            ],
            [
              72.50957,
              18.977734
            ],
            [
              72.508203,
              18.979102
            ],
            [
              72.505469,
              18.979102
            ],
            [
              72.504102,
              18.980469
            ],
            [
              72.5,
              18.980469
            ]
          ]
        ]
      }
    },
    {
      "type": "Feature",
      "properties": {
        "spill_id": "palsar_736",
        "confidence": 0.91
      },
      "geometry": {
        "type": "Polygon",
        "coordinates": [
          [
            [
              72.557422,
              18.992773
            ],
            [
              72.564258,
              18.975
            ],
            [
              72.617578,
              18.951758
            ],
            [
              72.659961,
              18.981836
            ],
            [
              72.699609,
              18.909375
            ],
            [
              72.79668,
              18.868359
            ],
            [
              72.757031,
              18.846484
            ],
            [
              72.629883,
              18.920312
            ],
            [
              72.584766,
              18.929883
            ],
            [
              72.599805,
              18.891602
            ],
            [
              72.668164,
              18.871094
            ],
            [
              72.669531,
              18.83418
            ],
            [
              72.722852,
              18.801367
            ],
            [
              72.750195,
              18.802734
            ],
            [
              72.731055,
              18.825977
            ],
            [
              72.758398,
              18.824609
            ],
            [
              72.783008,
              18.801367
            ],
            [
              72.848633,
              18.801367
            ],
            [
              72.848633,
              18.851953
            ],
            [
              72.829492,
              18.883398
            ],
            [
              72.763867,
              18.927148
            ],
            [
              72.740625,
              18.928516
            ],
            [
              72.736523,
              18.955859
            ],
            [
              72.696875,
              18.958594
            ],
            [
              72.662695,
              18.998242
            ],
            [
              72.625781,
              18.994141
            ],
            [
              72.592969,
              19.007812
            ],
            [
              72.557422,
              18.992773
            ]
          ]
        ]
      }
    },
    {
      "type": "Feature",
      "properties": {
        "spill_id": "palsar_736",
        "confidence": 0.91
      },
      "geometry": {
        "type": "Polygon",
        "coordinates": [
          [
            [
              72.523242,
              19.046094
            ],
            [
              72.523242,
              19.039258
            ],
            [
              72.530078,
              19.033789
            ],
            [
              72.535547,
              19.033789
            ],
            [
              72.538281,
              19.032422
            ],
            [
              72.545117,
              19.022852
            ],
            [
              72.546484,
              19.01875
            ],
            [
              72.551953,
              19.016016
            ],
            [
              72.572461,
              19.016016
            ],
            [
              72.575195,
              19.01875
            ],
            [
              72.576562,
              19.01875
            ],
            [
              72.576562,
              19.021484
            ],
            [
              72.57793,
              19.022852
            ],
            [
              72.576562,
              19.02832
            ],
            [
              72.566992,
              19.037891
            ],
            [
              72.565625,
              19.037891
            ],
            [
              72.558789,
              19.043359
            ],
            [
              72.554688,
              19.044727
            ],
            [
              72.551953,
              19.047461
            ],
            [
              72.546484,
              19.050195
            ],
            [
              72.542383,
              19.050195
            ],
            [
              72.539648,
              19.051562
            ],
            [
              72.538281,
              19.050195
            ],
            [
              72.530078,
              19.050195
            ],
            [
              72.528711,
              19.048828
            ],
            [
              72.525977,
              19.048828
            ],
            [
              72.523242,
              19.046094
            ]
          ]
        ]
      }
    },
    {
      "type": "Feature",
      "properties": {
        "spill_id": "palsar_736",
        "confidence": 0.91
      },
      "geometry": {
        "type": "Polygon",
        "coordinates": [
          [
            [
              72.5,
              19.080273
            ],
            [
              72.5,
              19.059766
            ],
            [
              72.501367,
              19.058398
            ],
            [
              72.502734,
              19.058398
            ],
            [
              72.504102,
              19.057031
            ],
            [
              72.513672,
              19.057031
            ],
            [
              72.515039,
              19.058398
            ],
            [
              72.519141,
              19.058398
            ],
            [
              72.520508,
              19.059766
            ],
            [
              72.527344,
              19.059766
            ],
            [
              72.528711,
              19.061133
            ],
            [
              72.530078,
              19.061133
            ],
            [
              72.532812,
              19.063867
            ],
            [
              72.532812,
              19.069336
            ],
            [
              72.525977,
              19.074805
            ],
            [
              72.523242,
              19.074805
            ],
            [
              72.521875,
              19.076172
            ],
            [
              72.519141,
              19.076172
            ],
            [
              72.517773,
              19.077539
            ],
            [
              72.515039,
              19.077539
            ],
            [
              72.513672,
              19.078906
            ],
            [
              72.508203,
              19.078906
            ],
            [
              72.506836,
              19.080273
            ],
            [
              72.5,
              19.080273
            ]
          ]
        ]
      }
    },
    {
      "type": "Feature",
      "properties": {
        "spill_id": "palsar_736",
        "confidence": 0.91
      },
      "geometry": {
        "type": "Polygon",
        "coordinates": [
          [
            [
              72.516406,
              19.117188
            ],
            [
              72.520508,
              19.111719
            ],
            [
              72.530078,
              19.107617
            ],
            [
              72.539648,
              19.10625
            ],
            [
              72.560156,
              19.095312
            ],
            [
              72.561523,
              19.083008
            ],
            [
              72.551953,
              19.077539
            ],
            [
              72.556055,
              19.070703
            ],
            [
              72.565625,
              19.067969
            ],
            [
              72.579297,
              19.067969
            ],
            [
              72.584766,
              19.069336
            ],
            [
              72.590234,
              19.076172
            ],
            [
              72.588867,
              19.085742
            ],
            [
              72.584766,
              19.093945
            ],
            [
              72.57793,
              19.099414
            ],
            [
              72.558789,
              19.10625
            ],
            [
              72.547852,
              19.117188
            ],
            [
              72.541016,
              19.119922
            ],
            [
              72.521875,
              19.121289
            ],
            [
              72.516406,
              19.117188
            ]
          ]
        ]
      }
    },
    {
      "type": "Feature",
      "properties": {
        "spill_id": "palsar_736",
        "confidence": 0.91
      },
      "geometry": {
        "type": "Polygon",
        "coordinates": [
          [
            [
              72.620312,
              19.15
            ],
            [
              72.620312,
              19.143164
            ],
            [
              72.625781,
              19.137695
            ],
            [
              72.625781,
              19.136328
            ],
            [
              72.629883,
              19.132227
            ],
            [
              72.636719,
              19.132227
            ],
            [
              72.638086,
              19.133594
            ],
            [
              72.639453,
              19.133594
            ],
            [
              72.642187,
              19.136328
            ],
            [
              72.642187,
              19.137695
            ],
            [
              72.643555,
              19.139062
            ],
            [
              72.643555,
              19.14043
            ],
            [
              72.644922,
              19.141797
            ],
            [
              72.644922,
              19.145898
            ],
            [
              72.643555,
              19.147266
            ],
            [
              72.643555,
              19.15
            ],
            [
              72.620312,
              19.15
            ]
          ]
        ]
      }
    }
  ]
}