{
  "type": "FeatureCollection",
  "features": [
    {
      "type": "Feature",
      "properties": {
        "spill_id": "palsar_430",
        "confidence": 0.92
      },
      "geometry": {
        "type": "Polygon",
        "coordinates": [
          [
            [
              72.558789,
              18.854688
            ],
            [
              72.549219,
              18.854688
            ],
            [
              72.546484,
              18.851953
            ],
            [
              72.546484,
              18.849219
            ],
            [
              72.545117,
              18.847852
            ],
            [
              72.545117,
              18.846484
            ],
            [
              72.54375,
              18.845117
            ],
            [
              72.54375,
              18.842383
            ],
            [
              72.546484,
              18.842383
            ],
            [
              72.547852,
              18.84375
            ],
            [
              72.549219,
              18.84375
            ],
            [
              72.550586,
              18.845117
            ],
            [
              72.551953,
              18.845117
            ],
            [
              72.554688,
              18.847852
            ],
            [
              72.556055,
              18.847852
            ],
            [
              72.557422,
              18.849219
            ],
            [
              72.557422,
              18.850586
            ],
            [
              72.558789,
              18.851953
            ],
            [
              72.558789,
              18.854688
            ]
          ]
        ]
      }
    },
    {
      "type": "Feature",
      "properties": {
        "spill_id": "palsar_430",
        "confidence": 0.92
      },
      "geometry": {
        "type": "Polygon",
        "coordinates": [
          [
            [
              72.773438,
              18.909375
            ],
            [
              72.751562,
              18.894336
            ],
            [
              72.721484,
              18.866992
            ],
            [
              72.694141,
              18.819141
            ],
            [
              72.691406,
              18.810938
            ],
            [
              72.694141,
              18.801367
            ],
            [
              72.716016,
              18.802734
            ],
            [
              72.725586,
              18.839648
            ],
            [
              72.747461,
              18.858789
            ],
            [
              72.761133,
              18.87793
            ],
            [
              72.780273,
              18.895703
            ],
            [
              72.780273,
              18.902539
            ],
            [
              72.773438,
              18.909375
            ]
          ]
        ]
      }
    },
    {
      "type": "Feature",
      "properties": {
        "spill_id": "palsar_430",
        "confidence": 0.92
      },
      "geometry": {
        "type": "Polygon",
        "coordinates": [
          [
            [
              72.803516,
              18.962695
            ],
            [
              72.799414,
              18.962695
            ],
            [
              72.798047,
              18.961328
            ],
            [
              72.79668,
              18.961328
            ],
            [
              72.793945,
              18.958594
            ],
            [
              72.793945,
              18.957227
            ],
            [
              72.792578,
              18.955859
            ],
            [
              72.792578,
              18.953125
            ],
            [
              72.789844,
              18.950391
            ],
            [
              72.789844,
              18.947656
            ],
            [
              72.788477,
              18.946289
            ],
            [
              72.788477,
              18.943555
            ],
            [
              72.789844,
              18.942188
            ],
            [
              72.792578,
              18.942188
            ],
            [
              72.793945,
              18.943555
            ],
            [
              72.795312,
              18.943555
            ],
            [
              72.802148,
              18.950391
            ],
            [
              72.802148,
              18.953125
            ],
            [
              72.803516,
              18.954492
            ],
            [
              72.803516,
              18.962695
            ]
          ]
        ]
      }
    },
    {
      "type": "Feature",
      "properties": {
        "spill_id": "palsar_430",
        "confidence": 0.92
      },
      "geometry": {
        "type": "Polygon",
        "coordinates": [
          [
            [
              72.763867,
              19.15
            ],
            [
              72.688672,
              19.15
            ],
            [
              72.673633,
              19.14043
            ],
            [
              72.633984,
              19.15
            ],
            [
              72.601172,
              19.126758
            ],
            [
              72.598438,
              19.107617
            ],
            [
              72.562891,
              19.114453
            ],
            [
              72.549219,
              19.080273
            ],
            [
              72.517773,
              19.095312
            ],
            [
              72.5,
              19.095312
            ],
            [
              72.5,
              19.058398
            ],
            [
              72.517773,
              19.061133
            ],
            [
              72.539648,
              19.051562
            ],
            [
              72.5,
              19.003711
            ],
            [
              72.5,
              18.977734
            ],
            [
              72.572461,
              18.958594
            ],
            [
              72.583398,
              18.985938
            ],
            [
              72.517773,
              18.994141
            ],
            [
              72.547852,
              19.036523
            ],
            [
              72.580664,
              19.043359
            ],
            [
              72.625781,
              19.074805
            ],
            [
              72.699609,
              19.084375
            ],
            [
              72.751562,
              19.117188
            ],
            [
              72.763867,
              19.15
            ]
          ]
        ]
      }
    }
  ]
}