{
  "type": "FeatureCollection",
  "features": [
    {
      "type": "Feature",
      "properties": {
        "spill_id": "palsar_155",
        "confidence": 0.86
      },
      "geometry": {
        "type": "Polygon",
        "coordinates": [
          [
            [
              72.825391,
              18.949023
            ],
            [
              72.821289,
              18.950391
            ],
            [
              72.81582,
              18.955859
            ],
            [
              72.810352,
              18.958594
            ],
            [
              72.800781,
              18.958594
            ],
            [
              72.799414,
              18.959961
            ],
            [
              72.798047,
              18.958594
            ],
            [
              72.795312,
              18.958594
            ],
            [
              72.795312,
              18.951758
            ],
            [
              72.79668,
              18.950391
            ],
            [
              72.79668,
              18.947656
            ],
            [
              72.793945,
              18.944922
            ],
            [
              72.788477,
              18.943555
            ],
            [
              72.785742,
              18.94082
            ],
            [
              72.783008,
              18.935352
            ],
            [
              72.783008,
              18.928516
            ],
            [
              72.787109,
              18.924414
            ],
            [
              72.792578,
              18.924414
            ],
            [
              72.793945,
              18.923047
            ],
            [
              72.79668,
              18.923047
            ],
            [
              72.799414,
              18.924414
            ],
            [
              72.808984,
              18.933984
            ],
            [
              72.810352,
              18.939453
            ],
            [
              72.813086,
              18.942188
            ],
            [
              72.824023,
              18.94082
            ],
            [
              72.825391,
              18.942188
            ],
            [
              72.825391,
              18.949023
            ]
          ]
        ]
      }
    },
    {
      "type": "Feature",
      "properties": {
        "spill_id": "palsar_155",
        "confidence": 0.86
      },
      "geometry": {
        "type": "Polygon",
        "coordinates": [
          [
            [
              72.590234,
              19.014648
            ],
            [
              72.591602,
              19.003711
            ],
            [
              72.632617,
              18.976367
            ],
            [
              72.654492,
              18.949023
            ],
            [
              72.677734,
              18.93125
            ],
            [
              72.664062,
              18.924414
            ],
            [
              72.664062,
              18.914844
            ],
            [
              72.673633,
              18.908008
            ],
            [
              72.688672,
              18.913477
            ],
            [
              72.700977,
              18.910742
            ],
            [
              72.722852,
              18.875195
            ],
            [
              72.739258,
              18.864258
            ],
            [
              72.763867,
              18.828711
            ],
            [
              72.781641,
              18.830078
            ],
            [
              72.811719,
              18.805469
            ],
            [
              72.848633,
              18.804102
            ],
            [
              72.84043,
              18.821875
            ],
            [
              72.807617,
              18.838281
            ],
            [
              72.795312,
              18.857422
            ],
            [
              72.731055,
              18.910742
            ],
            [
              72.70918,
              18.950391
            ],
            [
              72.679102,
              18.966797
            ],
            [
              72.633984,
              19.003711
            ],
            [
              72.590234,
              19.014648
            ]
          ]
        ]
      }
    },
    {
      "type": "Feature",
      "properties": {
        "spill_id": "palsar_155",
        "confidence": 0.86
      },
      "geometry": {
        "type": "Polygon",
        "coordinates": [
          [
            [
              72.803516,
              19.016016
            ],
            [
              72.804883,
              19.014648
            ],
            [
              72.802148,
              19.010547
            ],
            [
              72.802148,
              19.003711
            ],
            [
              72.80625,
              18.998242
            ],
            [
              72.813086,
              18.98457
            ],
            [
              72.821289,
              18.976367
            ],
            [
              72.829492,
              18.970898
            ],
            [
              72.841797,
              18.970898
            ],
            [
              72.843164,
              18.972266
            ],
            [
              72.848633,
              18.972266
            ],
            [
              72.848633,
              18.987305
            ],
            [
              72.834961,
              18.987305
            ],
            [
              72.828125,
              18.995508
            ],
            [
              72.825391,
              19.000977
            ],
            [
              72.819922,
              19.006445
            ],
            [
              72.818555,
              19.006445
            ],
            [
              72.811719,
              19.013281
            ],
            [
              72.80625,
              19.016016
            ],
            [
              72.803516,
              19.016016
            ]
          ]
        ]
      }
    },
    {
      "type": "Feature",
      "properties": {
        "spill_id": "palsar_155",
        "confidence": 0.86
      },
      "geometry": {
        "type": "Polygon",
        "coordinates": [
          [
            [
              72.575195,
              19.085742
            ],
            [
              72.572461,
              19.083008
            ],
            [
              72.572461,
              19.080273
            ],
            [
              72.57793,
              19.073438
            ],
            [
              72.582031,
              19.057031
            ],
            [
              72.601172,
              19.043359
            ],
            [
              72.606641,
              19.032422
            ],
            [
              72.613477,
              19.025586
            ],
            [
              72.617578,
              19.01875
            ],
            [
              72.627148,
              19.014648
            ],
            [
              72.633984,
              19.014648
            ],
            [
              72.636719,
              19.017383
            ],
            [
              72.636719,
              19.025586
            ],
            [
              72.623047,
              19.040625
            ],
            [
              72.613477,
              19.047461
            ],
            [
              72.603906,
              19.058398
            ],
            [
              72.601172,
              19.065234
            ],
            [
              72.59707,
              19.069336
            ],
            [
              72.588867,
              19.073438
            ],
            [
              72.580664,
              19.084375
            ],
            [
              72.575195,
              19.085742
            ]
          ]
        ]
      }
    },
    {
      "type": "Feature",
      "properties": {
        "spill_id": "palsar_155",
        "confidence": 0.86
      },
      "geometry": {
        "type": "Polygon",
        "coordinates": [
          [
            [
              72.675,
              19.10625
            ],
            [
              72.673633,
              19.102148
            ],
            [
              72.681836,
              19.083008
            ],
            [
              72.680469,
              19.076172
            ],
            [
              72.685938,
              19.069336
            ],
            [
              72.724219,
              19.059766
            ],
            [
              72.735156,
              19.051562
            ],
            [
              72.766602,
              19.041992
            ],
            [
              72.79668,
              19.016016
            ],
            [
              72.804883,
              19.020117
            ],
            [
              72.803516,
              19.032422
            ],
            [
              72.795312,
              19.047461
            ],
            [
              72.792578,
              19.066602
            ],
            [
              72.774805,
              19.07207
            ],
            [
              72.755664,
              19.069336
            ],
            [
              72.741992,
              19.074805
            ],
            [
              72.722852,
              19.095312
            ],
            [
              72.72832,
              19.104883
            ],
            [
              72.726953,
              19.113086
            ],
            [
              72.714648,
              19.11582
            ],
            [
              72.707812,
              19.100781
            ],
            [
              72.691406,
              19.107617
            ],
            [
              72.675,
              19.10625
            ]
          ]
        ]
      }
    },
    {
      "type": "Feature",
      "properties": {
        "spill_id": "palsar_155",
        "confidence": 0.86
      },
      "geometry": {
        "type": "Polygon",
        "coordinates": [
          [
            [
              72.5,
              19.137695
            ],
            [
              72.5,
              19.113086
            ],
            [
              72.502734,
              19.111719
            ],
            [
              72.516406,
              19.111719
            ],
            [
              72.517773,
              19.113086
            ],
            [
              72.521875,
              19.113086
            ],
            [
              72.523242,
              19.111719
            ],
            [
              72.536914,
              19.111719
            ],
            [
              72.539648,
              19.113086
            ],
            [
              72.546484,
              19.119922
            ],
            [
              72.547852,
              19.122656
            ],
            [
              72.547852,
              19.126758
            ],
            [
              72.545117,
              19.129492
            ],
            [
              72.524609,
              19.129492
            ],
            [
              72.523242,
              19.130859
            ],
            [
              72.516406,
              19.130859
            ],
            [
              72.515039,
              19.132227
            ],
            [
              72.512305,
              19.132227
            ],
            [
              72.508203,
              19.136328
            ],
            [
              72.5,
              19.137695
            ]
          ]
        ]
      }
    }
  ]
}