{
  "type": "FeatureCollection",
  "features": [
    {
      "type": "Feature",
      "properties": {
        "spill_id": "palsar_613",
        "confidence": 0.87
      },
      "geometry": {
        "type": "Polygon",
        "coordinates": [
          [
            [
              72.739258,
              18.810938
            ],
            [
              72.740625,
              18.80957
            ],
            [
              72.740625,
              18.808203
            ],
            [
              72.744727,
              18.804102
            ],
            [
              72.746094,
              18.804102
            ],
            [
              72.747461,
              18.802734
            ],
            [
              72.747461,
              18.801367
            ],
            [
              72.781641,
              18.801367
            ],
            [
              72.781641,
              18.805469
            ],
            [
              72.778906,
              18.808203
            ],
            [
              72.776172,
              18.808203
            ],
            [
              72.774805,
              18.80957
            ],
            [
              72.770703,
              18.80957
            ],
            [
              72.769336,
              18.810938
            ],
            [
              72.765234,
              18.810938
            ],
            [
              72.763867,
              18.812305
            ],
            [
              72.759766,
              18.812305
            ],
            [
              72.758398,
              18.813672
            ],
            [
              72.754297,
              18.813672
            ],
            [
              72.75293,
              18.815039
            ],
            [
              72.743359,
              18.815039
            ],
            [
              72.741992,
              18.813672
            ],
            [
              72.740625,
              18.813672
            ],
            [
              72.740625,
              18.812305
            ],
            [
              72.739258,
              18.810938
            ]
          ]
        ]
      }
    },
    {
      "type": "Feature",
      "properties": {
        "spill_id": "palsar_613",
        "confidence": 0.87
      },
      "geometry": {
        "type": "Polygon",
        "coordinates": [
          [
            [
              72.558789,
              18.886133
            ],
            [
              72.560156,
              18.884766
            ],
            [
              72.560156,
              18.883398
            ],
            [
              72.564258,
              18.879297
            ],
            [
              72.565625,
              18.879297
            ],
            [
              72.568359,
              18.876562
            ],
            [
              72.575195,
              18.876562
            ],
            [
              72.576562,
              18.87793
            ],
            [
              72.57793,
              18.87793
            ],
            [
              72.57793,
              18.883398
            ],
            [
              72.575195,
              18.886133
            ],
            [
              72.573828,
              18.886133
            ],
            [
              72.572461,
              18.8875
            ],
            [
              72.568359,
              18.8875
            ],
            [
              72.566992,
              18.888867
            ],
            [
              72.561523,
              18.888867
            ],
            [
              72.558789,
              18.886133
            ]
          ]
        ]
      }
    },
    {
      "type": "Feature",
      "properties": {
        "spill_id": "palsar_613",
        "confidence": 0.87
      },
      "geometry": {
        "type": "Polygon",
        "coordinates": [
          [
            [
              72.5,
              18.801367
            ],
            [
              72.551953,
              18.801367
            ],
            [
              72.561523,
              18.816406
            ],
            [
              72.575195,
              18.801367
            ],
            [
              72.650391,
              18.801367
            ],
            [
              72.62168,
              18.823242
            ],
            [
              72.629883,
              18.835547
            ],
            [
              72.707812,
              18.856055
            ],
            [
              72.736523,
              18.850586
            ],
            [
              72.733789,
              18.835547
            ],
            [
              72.747461,
              18.828711
            ],
            [
              72.739258,
              18.850586
            ],
            [
              72.746094,
              18.868359
            ],
            [
              72.781641,
              18.850586
            ],
            [
              72.810352,
              18.854688
            ],
            [
              72.818555,
              18.862891
            ],
            [
              72.80625,
              18.872461
            ],
            [
              72.791211,
              18.869727
            ],
            [
              72.7625,
              18.879297
            ],
            [
              72.746094,
              18.873828
            ],
            [
              72.680469,
              18.882031
            ],
            [
              72.650391,
              18.854688
            ],
            [
              72.572461,
              18.850586
            ],
            [
              72.5,
              18.899805
            ],
            [
              72.5,
              18.801367
            ]
          ]
        ]
      }
    },
    {
      "type": "Feature",
      "properties": {
        "spill_id": "palsar_613",
        "confidence": 0.87
      },
      "geometry": {
        "type": "Polygon",
        "coordinates": [
          [
            [
              72.787109,
              18.917578
            ],
            [
              72.787109,
              18.913477
            ],
            [
              72.788477,
              18.913477
            ],
            [
              72.792578,
              18.910742
            ],
            [
              72.795312,
              18.910742
            ],
            [
              72.79668,
              18.912109
            ],
            [
              72.800781,
              18.912109
            ],
            [
              72.802148,
              18.913477
            ],
            [
              72.803516,
              18.912109
            ],
            [
              72.80625,
              18.912109
            ],
            [
              72.807617,
              18.910742
            ],
            [
              72.808984,
              18.910742
            ],
            [
              72.810352,
              18.909375
            ],
            [
              72.813086,
              18.909375
            ],
            [
              72.814453,
              18.908008
            ],
            [
              72.817187,
              18.908008
            ],
            [
              72.821289,
              18.910742
            ],
            [
              72.821289,
              18.913477
            ],
            [
              72.817187,
              18.917578
            ],
            [
              72.81582,
              18.917578
            ],
            [
              72.813086,
              18.920312
            ],
            [
              72.813086,
              18.92168
            ],
            [
              72.807617,
              18.927148
            ],
            [
              72.80625,
              18.927148
            ],
            [
              72.804883,
              18.928516
            ],
            [
              72.798047,
              18.928516
            ],
            [
              72.79668,
              18.927148
            ],
            [
              72.79668,
              18.923047
            ],
            [
              72.793945,
              18.920312
            ],
            [
              72.792578,
              18.920312
            ],
            [
              72.791211,
              18.918945
            ],
            [
              72.787109,
              18.917578
            ]
          ]
        ]
      }
    },
    {
      "type": "Feature",
      "properties": {
        "spill_id": "palsar_613",
        "confidence": 0.87
      },
      "geometry": {
        "type": "Polygon",
        "coordinates": [
          [
            [
              72.755664,
              18.93125
            ],
            [
              72.754297,
              18.93125
            ],
            [
              72.75293,
              18.929883
            ],
            [
              72.751562,
              18.929883
            ],
            [
              72.750195,
              18.928516
            ],
            [
              72.748828,
              18.928516
            ],
            [
              72.747461,
              18.927148
            ],
            [
              72.746094,
              18.927148
            ],
            [
              72.744727,
              18.925781
            ],
            [
              72.737891,
              18.925781
            ],
            [
              72.736523,
              18.924414
            ],
            [
              72.736523,
              18.92168
            ],
            [
              72.740625,
              18.917578
            ],
            [
              72.743359,
              18.917578
            ],
            [
              72.744727,
              18.916211
            ],
            [
              72.747461,
              18.916211
            ],
            [
              72.748828,
              18.917578
            ],
            [
              72.751562,
              18.917578
            ],
            [
              72.755664,
              18.92168
            ],
            [
              72.755664,
              18.923047
            ],
            [
              72.754297,
              18.924414
            ],
            [
              72.755664,
              18.925781
            ],
            [
              72.755664,
              18.93125
            ]
          ]
        ]
      }
    },
    {
      "type": "Feature",
      "properties": {
        "spill_id": "palsar_613",
        "confidence": 0.87
      },
      "geometry": {
        "type": "Polygon",
        "coordinates": [
          [
            [
              72.643555,
              18.951758
            ],
            [
              72.643555,
              18.949023
            ],
            [
              72.644922,
              18.947656
            ],
            [
              72.646289,
              18.947656
            ],
            [
              72.647656,
              18.946289
            ],
            [
              72.655859,
              18.946289
            ],
            [
              72.659961,
              18.950391
            ],
            [
              72.659961,
              18.953125
            ],
            [
              72.657227,
              18.955859
            ],
            [
              72.655859,
              18.955859
            ],
            [
              72.654492,
              18.957227
            ],
            [
              72.650391,
              18.957227
            ],
            [
              72.649023,
              18.955859
            ],
            [
              72.647656,
              18.955859
            ],
            [
              72.643555,
              18.951758
            ]
          ]
        ]
      }
    },
    {
      "type": "Feature",
      "properties": {
        "spill_id": "palsar_613",
        "confidence": 0.87
      },
      "geometry": {
        "type": "Polygon",
        "coordinates": [
          [
            [
              72.71875,
              19.063867
            ],
            [
              72.713281,
              19.065234
            ],
            [
              72.70918,
              19.067969
            ],
            [
              72.705078,
              19.067969
            ],
            [
              72.703711,
              19.066602
            ],
            [
              72.699609,
              19.066602
            ],
            [
              72.694141,
              19.0625
            ],
            [
              72.691406,
              19.057031
            ],
            [
              72.691406,
              19.054297
            ],
            [
              72.680469,
              19.044727
            ],
            [
              72.679102,
              19.040625
            ],
            [
              72.675,
              19.036523
            ],
            [
              72.673633,
              19.033789
            ],
            [
              72.673633,
              19.029687
            ],
            [
              72.68457,
              19.01875
            ],
            [
              72.691406,
              19.01875
            ],
            [
              72.699609,
              19.024219
            ],
            [
              72.706445,
              19.025586
            ],
            [
              72.70918,
              19.02832
            ],
            [
              72.70918,
              19.031055
            ],
            [
              72.710547,
              19.032422
            ],
            [
              72.70918,
              19.040625
            ],
            [
              72.71875,
              19.050195
            ],
            [
              72.71875,
              19.05293
            ],
            [
              72.720117,
              19.054297
            ],
            [
              72.720117,
              19.0625
            ],
            [
              72.71875,
              19.063867
            ]
          ]
        ]
      }
    },
    {
      "type": "Feature",
      "properties": {
        "spill_id": "palsar_613",
        "confidence": 0.87
      },
      "geometry": {
        "type": "Polygon",
        "coordinates": [
          [
            [
              72.811719,
              19.091211
            ],
            [
              72.811719,
              19.089844
            ],
            [
              72.813086,
              19.088477
            ],
            [
              72.813086,
              19.087109
            ],
            [
              72.81582,
              19.084375
            ],
            [
              72.817187,
              19.080273
            ],
            [
              72.819922,
              19.077539
            ],
            [
              72.821289,
              19.077539
            ],
            [
              72.822656,
              19.076172
            ],
            [
              72.836328,
              19.076172
            ],
            [
              72.837695,
              19.074805
            ],
            [
              72.844531,
              19.074805
            ],
            [
              72.845898,
              19.076172
            ],
            [
              72.845898,
              19.085742
            ],
            [
              72.844531,
              19.087109
            ],
            [
              72.844531,
              19.088477
            ],
            [
              72.843164,
              19.089844
            ],
            [
              72.841797,
              19.089844
            ],
            [
              72.84043,
              19.091211
            ],
            [
              72.839062,
              19.091211
            ],
            [
              72.832227,
              19.095312
            ],
            [
              72.81582,
              19.095312
            ],
            [
              72.814453,
              19.093945
            ],
            [
              72.813086,
              19.093945
            ],
            [
              72.813086,
              19.092578
            ],
            [
              72.811719,
              19.091211
            ]
          ]
        ]
      }
    },
    {
      "type": "Feature",
      "properties": {
        "spill_id": "palsar_613",
        "confidence": 0.87
      },
      "geometry": {
        "type": "Polygon",
        "coordinates": [
          [
            [
              72.737891,
              19.107617
            ],
            [
              72.737891,
              19.102148
            ],
            [
              72.744727,
              19.095312
            ],
            [
              72.744727,
              19.093945
            ],
            [
              72.747461,
              19.091211
            ],
            [
              72.747461,
              19.089844
            ],
            [
              72.748828,
              19.088477
            ],
            [
              72.75293,
              19.088477
            ],
            [
              72.754297,
              19.089844
            ],
            [
              72.754297,
              19.091211
            ],
            [
              72.755664,
              19.092578
            ],
            [
              72.757031,
              19.092578
            ],
            [
              72.755664,
              19.093945
            ],
            [
              72.755664,
              19.099414
            ],
            [
              72.75293,
              19.102148
            ],
            [
              72.751562,
              19.102148
            ],
            [
              72.750195,
              19.103516
            ],
            [
              72.748828,
              19.103516
            ],
            [
              72.746094,
              19.10625
            ],
            [
              72.743359,
              19.10625
            ],
            [
              72.741992,
              19.107617
            ],
            [
              72.737891,
              19.107617
            ]
          ]
        ]
      }
    }
  ]
}