{
  "type": "FeatureCollection",
  "features": [
    {
      "type": "Feature",
      "properties": {
        "spill_id": "palsar_632",
        "confidence": 0.88
      },
      "geometry": {
        "type": "Polygon",
        "coordinates": [
          [
            [
              72.72832,
              18.842383
            ],
            [
              72.726953,
              18.84375
            ],
            [
              72.721484,
              18.84375
            ],
            [
              72.720117,
              18.845117
            ],
            [
              72.71875,
              18.84375
            ],
            [
              72.714648,
              18.84375
            ],
            [
              72.710547,
              18.839648
            ],
            [
              72.710547,
              18.838281
            ],
            [
              72.70918,
              18.836914
            ],
            [
              72.70918,
              18.828711
            ],
            [
              72.711914,
              18.828711
            ],
            [
              72.716016,
              18.832812
            ],
            [
              72.717383,
              18.832812
            ],
            [
              72.71875,
              18.83418
            ],
            [
              72.721484,
              18.83418
            ],
            [
              72.726953,
              18.839648
            ],
            [
              72.726953,
              18.841016
            ],
            [
              72.72832,
              18.842383
            ]
          ]
        ]
      }
    },
    {
      "type": "Feature",
      "properties": {
        "spill_id": "palsar_632",
        "confidence": 0.88
      },
      "geometry": {
        "type": "Polygon",
        "coordinates": [
          [
            [
              72.655859,
              18.866992
            ],
            [
              72.644922,
              18.866992
            ],
            [
              72.636719,
              18.864258
            ],
            [
              72.627148,
              18.854688
            ],
            [
              72.623047,
              18.845117
            ],
            [
              72.623047,
              18.838281
            ],
            [
              72.618945,
              18.828711
            ],
            [
              72.617578,
              18.817773
            ],
            [
              72.609375,
              18.806836
            ],
            [
              72.610742,
              18.801367
            ],
            [
              72.625781,
              18.801367
            ],
            [
              72.625781,
              18.804102
            ],
            [
              72.63125,
              18.80957
            ],
            [
              72.632617,
              18.815039
            ],
            [
              72.638086,
              18.823242
            ],
            [
              72.646289,
              18.847852
            ],
            [
              72.655859,
              18.858789
            ],
            [
              72.655859,
              18.866992
            ]
          ]
        ]
      }
    },
    {
      "type": "Feature",
      "properties": {
        "spill_id": "palsar_632",
        "confidence": 0.88
      },
      "geometry": {
        "type": "Polygon",
        "coordinates": [
          [
            [
              72.558789,
              18.932617
            ],
            [
              72.55332,
              18.932617
            ],
            [
              72.54375,
              18.936719
            ],
            [
              72.532812,
              18.938086
            ],
            [
              72.527344,
              18.933984
            ],
            [
              72.517773,
              18.932617
            ],
            [
              72.504102,
              18.917578
            ],
            [
              72.5,
              18.916211
            ],
            [
              72.5,
              18.866992
            ],
            [
              72.502734,
              18.864258
            ],
            [
              72.513672,
              18.865625
            ],
            [
              72.519141,
              18.876562
            ],
            [
              72.519141,
              18.886133
            ],
            [
              72.524609,
              18.895703
            ],
            [
              72.531445,
              18.902539
            ],
            [
              72.541016,
              18.906641
            ],
            [
              72.558789,
              18.927148
            ],
            [
              72.558789,
              18.932617
            ]
          ]
        ]
      }
    },
    {
      "type": "Feature",
      "properties": {
        "spill_id": "palsar_632",
        "confidence": 0.88
      },
      "geometry": {
        "type": "Polygon",
        "coordinates": [
          [
            [
              72.795312,
              18.946289
            ],
            [
              72.785742,
              18.946289
            ],
            [
              72.77207,
              18.936719
            ],
            [
              72.770703,
              18.929883
            ],
            [
              72.774805,
              18.923047
            ],
            [
              72.774805,
              18.909375
            ],
            [
              72.770703,
              18.898438
            ],
            [
              72.770703,
              18.888867
            ],
            [
              72.755664,
              18.869727
            ],
            [
              72.757031,
              18.862891
            ],
            [
              72.766602,
              18.862891
            ],
            [
              72.783008,
              18.875195
            ],
            [
              72.792578,
              18.875195
            ],
            [
              72.800781,
              18.879297
            ],
            [
              72.802148,
              18.884766
            ],
            [
              72.800781,
              18.894336
            ],
            [
              72.804883,
              18.903906
            ],
            [
              72.803516,
              18.909375
            ],
            [
              72.804883,
              18.925781
            ],
            [
              72.795312,
              18.946289
            ]
          ]
        ]
      }
    },
    {
      "type": "Feature",
      "properties": {
        "spill_id": "palsar_632",
        "confidence": 0.88
      },
      "geometry": {
        "type": "Polygon",
        "coordinates": [
          [
            [
              72.679102,
              18.957227
            ],
            [
              72.676367,
              18.957227
            ],
            [
              72.675,
              18.955859
            ],
            [
              72.673633,
              18.955859
            ],
            [
              72.673633,
              18.954492
            ],
            [
              72.670898,
              18.951758
            ],
            [
              72.670898,
              18.950391
            ],
            [
              72.669531,
              18.949023
            ],
            [
              72.668164,
              18.949023
            ],
            [
              72.668164,
              18.947656
            ],
            [
              72.66543,
              18.944922
            ],
            [
              72.669531,
              18.944922
            ],
            [
              72.679102,
              18.954492
            ],
            [
              72.679102,
              18.957227
            ]
          ]
        ]
      }
    },
    {
      "type": "Feature",
      "properties": {
        "spill_id": "palsar_632",
        "confidence": 0.88
      },
      "geometry": {
        "type": "Polygon",
        "coordinates": [
          [
            [
              72.808984,
              18.981836
            ],
            [
              72.803516,
              18.981836
            ],
            [
              72.802148,
              18.983203
            ],
            [
              72.799414,
              18.983203
            ],
            [
              72.798047,
              18.981836
            ],
            [
              72.79668,
              18.981836
            ],
            [
              72.795312,
              18.980469
            ],
            [
              72.795312,
              18.979102
            ],
            [
              72.792578,
              18.976367
            ],
            [
              72.791211,
              18.976367
            ],
            [
              72.788477,
              18.973633
            ],
            [
              72.787109,
              18.973633
            ],
            [
              72.783008,
              18.969531
            ],
            [
              72.783008,
              18.964062
            ],
            [
              72.784375,
              18.962695
            ],
            [
              72.784375,
              18.961328
            ],
            [
              72.787109,
              18.958594
            ],
            [
              72.787109,
              18.957227
            ],
            [
              72.795312,
              18.957227
            ],
            [
              72.79668,
              18.958594
            ],
            [
              72.799414,
              18.958594
            ],
            [
              72.800781,
              18.959961
            ],
            [
              72.802148,
              18.959961
            ],
            [
              72.808984,
              18.966797
            ],
            [
              72.808984,
              18.968164
            ],
            [
              72.810352,
              18.969531
            ],
            [
              72.810352,
              18.972266
            ],
            [
              72.811719,
              18.973633
            ],
            [
              72.811719,
              18.976367
            ],
            [
              72.810352,
              18.977734
            ],
            [
              72.810352,
              18.980469
            ],
            [
              72.808984,
              18.981836
            ]
          ]
        ]
      }
    },
    {
      "type": "Feature",
      "properties": {
        "spill_id": "palsar_632",
        "confidence": 0.88
      },
      "geometry": {
        "type": "Polygon",
        "coordinates": [
          [
            [
              72.501367,
              19.02832
            ],
            [
              72.5,
              19.026953
            ],
            [
              72.5,
              19.014648
            ],
            [
              72.501367,
              19.014648
            ],
            [
              72.502734,
              19.013281
            ],
            [
              72.508203,
              19.013281
            ],
            [
              72.50957,
              19.014648
            ],
            [
              72.510938,
              19.014648
            ],
            [
              72.515039,
              19.01875
            ],
            [
              72.515039,
              19.020117
            ],
            [
              72.516406,
              19.021484
            ],
            [
              72.516406,
              19.025586
            ],
            [
              72.515039,
              19.026953
            ],
            [
              72.504102,
              19.026953
            ],
            [
              72.502734,
              19.02832
            ],
            [
              72.501367,
              19.02832
            ]
          ]
        ]
      }
    },
    {
      "type": "Feature",
      "properties": {
        "spill_id": "palsar_632",
        "confidence": 0.88
      },
      "geometry": {
        "type": "Polygon",
        "coordinates": [
          [
            [
              72.720117,
              19.039258
            ],
            [
              72.714648,
              19.037891
            ],
            [
              72.70918,
              19.041992
            ],
            [
              72.706445,
              19.041992
            ],
            [
              72.681836,
              19.022852
            ],
            [
              72.672266,
              19.010547
            ],
            [
              72.672266,
              19.007812
            ],
            [
              72.680469,
              19.000977
            ],
            [
              72.681836,
              18.994141
            ],
            [
              72.691406,
              18.985938
            ],
            [
              72.694141,
              18.969531
            ],
            [
              72.688672,
              18.964062
            ],
            [
              72.685938,
              18.957227
            ],
            [
              72.687305,
              18.955859
            ],
            [
              72.694141,
              18.955859
            ],
            [
              72.705078,
              18.964062
            ],
            [
              72.710547,
              18.96543
            ],
            [
              72.71875,
              18.977734
            ],
            [
              72.721484,
              18.990039
            ],
            [
              72.721484,
              19.011914
            ],
            [
              72.722852,
              19.013281
            ],
            [
              72.722852,
              19.032422
            ],
            [
              72.720117,
              19.039258
            ]
          ]
        ]
      }
    },
    {
      "type": "Feature",
      "properties": {
        "spill_id": "palsar_632",
        "confidence": 0.88
      },
      "geometry": {
        "type": "Polygon",
        "coordinates": [
          [
            [
              72.560156,
              19.077539
            ],
            [
              72.564258,
              19.07207
            ],
            [
              72.565625,
              19.07207
            ],
            [
              72.566992,
              19.070703
            ],
            [
              72.571094,
              19.070703
            ],
            [
              72.572461,
              19.069336
            ],
            [
              72.575195,
              19.069336
            ],
            [
              72.576562,
              19.070703
            ],
            [
              72.580664,
              19.07207
            ],
            [
              72.586133,
              19.076172
            ],
            [
              72.598438,
              19.076172
            ],
            [
              72.599805,
              19.077539
            ],
            [
              72.603906,
              19.078906
            ],
            [
              72.605273,
              19.080273
            ],
            [
              72.605273,
              19.081641
            ],
            [
              72.592969,
              19.088477
            ],
            [
              72.5875,
              19.088477
            ],
            [
              72.586133,
              19.089844
            ],
            [
              72.580664,
              19.089844
            ],
            [
              72.579297,
              19.088477
            ],
            [
              72.573828,
              19.088477
            ],
            [
              72.572461,
              19.087109
            ],
            [
              72.565625,
              19.087109
            ],
            [
              72.562891,
              19.084375
            ],
            [
              72.561523,
              19.084375
            ],
            [
              72.561523,
              19.083008
            ],
            [
              72.560156,
              19.081641
            ],
            [
              72.560156,
              19.077539
            ]
          ]
        ]
      }
    },
    {
      "type": "Feature",
      "properties": {
        "spill_id": "palsar_632",
        "confidence": 0.88
      },
      "geometry": {
        "type": "Polygon",
        "coordinates": [
          [
            [
              72.54375,
              19.089844
            ],
            [
              72.539648,
              19.092578
            ],
            [
              72.524609,
              19.092578
            ],
            [
              72.523242,
              19.091211
            ],
            [
              72.517773,
              19.091211
            ],
            [
              72.516406,
              19.089844
            ],
            [
              72.513672,
              19.089844
            ],
            [
              72.512305,
              19.088477
            ],
            [
              72.5,
              19.088477
            ],
            [
              72.5,
              19.070703
            ],
            [
              72.501367,
              19.070703
            ],
            [
              72.502734,
              19.069336
            ],
            [
              72.506836,
              19.069336
            ],
            [
              72.508203,
              19.070703
            ],
            [
              72.510938,
              19.070703
            ],
            [
              72.512305,
              19.07207
            ],
            [
              72.515039,
              19.07207
            ],
            [
              72.516406,
              19.073438
            ],
            [
              72.519141,
              19.073438
            ],
            [
              72.520508,
              19.074805
            ],
            [
              72.524609,
              19.074805
            ],
            [
              72.525977,
              19.076172
            ],
            [
              72.531445,
              19.076172
            ],
            [
              72.532812,
              19.077539
            ],
            [
              72.535547,
              19.077539
            ],
            [
              72.542383,
              19.081641
            ],
            [
              72.542383,
              19.083008
            ],
            [
              72.54375,
              19.084375
            ],
            [
              72.54375,
              19.089844
            ]
          ]
        ]
      }
    },
    {
      "type": "Feature",
      "properties": {
        "spill_id": "palsar_632",
        "confidence": 0.88
      },
      "geometry": {
        "type": "Polygon",
        "coordinates": [
          [
            [
              72.632617,
              19.099414
            ],
            [
              72.62168,
              19.093945
            ],
            [
              72.608008,
              19.080273
            ],
            [
              72.627148,
              19.058398
            ],
            [
              72.639453,
              19.055664
            ],
            [
              72.647656,
              19.048828
            ],
            [
              72.644922,
              19.040625
            ],
            [
              72.629883,
              19.037891
            ],
            [
              72.625781,
              19.033789
            ],
            [
              72.627148,
              19.026953
            ],
            [
              72.635352,
              19.01875
            ],
            [
              72.633984,
              19.00918
            ],
            [
              72.638086,
              19.005078
            ],
            [
              72.63125,
              18.999609
            ],
            [
              72.633984,
              18.985938
            ],
            [
              72.638086,
              18.981836
            ],
            [
              72.669531,
              18.979102
            ],
            [
              72.675,
              18.983203
            ],
            [
              72.669531,
              19.007812
            ],
            [
              72.654492,
              19.024219
            ],
            [
              72.677734,
              19.043359
            ],
            [
              72.687305,
              19.0625
            ],
            [
              72.699609,
              19.07207
            ],
            [
              72.700977,
              19.080273
            ],
            [
              72.691406,
              19.081641
            ],
            [
              72.676367,
              19.07207
            ],
            [
              72.655859,
              19.083008
            ],
            [
              72.646289,
              19.09668
            ],
            [
              72.632617,
              19.099414
            ]
          ]
        ]
      }
    },
    {
      "type": "Feature",
      "properties": {
        "spill_id": "palsar_632",
        "confidence": 0.88
      },
      "geometry": {
        "type": "Polygon",
        "coordinates": [
          [
            [
              72.848633,
              19.15
            ],
            [
              72.822656,
              19.15
            ],
            [
              72.821289,
              19.147266
            ],
            [
              72.818555,
              19.15
            ],
            [
              72.788477,
              19.15
            ],
            [
              72.781641,
              19.125391
            ],
            [
              72.769336,
              19.114453
            ],
            [
              72.75293,
              19.107617
            ],
            [
              72.755664,
              19.091211
            ],
            [
              72.750195,
              19.074805
            ],
            [
              72.77207,
              19.069336
            ],
            [
              72.774805,
              19.065234
            ],
            [
              72.77207,
              19.059766
            ],
            [
              72.761133,
              19.059766
            ],
            [
              72.75293,
              19.051562
            ],
            [
              72.763867,
              19.026953
            ],
            [
              72.758398,
              19.01875
            ],
            [
              72.7625,
              19.013281
            ],
            [
              72.778906,
              19.017383
            ],
            [
              72.785742,
              19.026953
            ],
            [
              72.800781,
              19.035156
            ],
            [
              72.821289,
              19.024219
            ],
            [
              72.832227,
              19.02832
            ],
            [
              72.832227,
              19.040625
            ],
            [
              72.821289,
              19.058398
            ],
            [
              72.822656,
              19.080273
            ],
            [
              72.836328,
              19.100781
            ],
            [
              72.837695,
              19.125391
            ],
            [
              72.848633,
              19.141797
            ],
            [
              72.848633,
              19.15
            ]
          ]
        ]
      }
    }
  ]
}