{
  "type": "FeatureCollection",
  "features": [
    {
      "type": "Feature",
      "properties": {
        "spill_id": "palsar_347",
        "confidence": 0.86
      },
      "geometry": {
        "type": "Polygon",
        "coordinates": [
          [
            [
              72.64082,
              18.815039
            ],
            [
              72.633984,
              18.815039
            ],
            [
              72.632617,
              18.813672
            ],
            [
              72.632617,
              18.812305
            ],
            [
              72.63125,
              18.810938
            ],
            [
              72.63125,
              18.808203
            ],
            [
              72.629883,
              18.806836
            ],
            [
              72.629883,
              18.804102
            ],
            [
              72.63125,
              18.802734
            ],
            [
              72.63125,
              18.801367
            ],
            [
              72.636719,
              18.801367
            ],
            [
              72.638086,
              18.802734
            ],
            [
              72.638086,
              18.804102
            ],
            [
              72.639453,
              18.805469
            ],
            [
              72.639453,
              18.806836
            ],
            [
              72.64082,
              18.808203
            ],
            [
              72.64082,
              18.80957
            ],
            [
              72.642187,
              18.810938
            ],
            [
              72.642187,
              18.813672
            ],
            [
              72.64082,
              18.815039
            ]
          ]
        ]
      }
    },
    {
      "type": "Feature",
      "properties": {
        "spill_id": "palsar_347",
        "confidence": 0.86
      },
      "geometry": {
        "type": "Polygon",
        "coordinates": [
          [
            [
              72.612109,
              18.835547
            ],
            [
              72.610742,
              18.83418
            ],
            [
              72.609375,
              18.83418
            ],
            [
              72.610742,
              18.832812
            ],
            [
              72.606641,
              18.828711
            ],
            [
              72.605273,
              18.830078
            ],
            [
              72.603906,
              18.828711
            ],
            [
              72.602539,
              18.828711
            ],
            [
              72.599805,
              18.824609
            ],
            [
              72.599805,
              18.821875
            ],
            [
              72.598438,
              18.820508
            ],
            [
              72.598438,
              18.817773
            ],
            [
              72.59707,
              18.816406
            ],
            [
              72.59707,
              18.813672
            ],
            [
              72.594336,
              18.80957
            ],
            [
              72.594336,
              18.802734
            ],
            [
              72.595703,
              18.801367
            ],
            [
              72.606641,
              18.801367
            ],
            [
              72.609375,
              18.804102
            ],
            [
              72.609375,
              18.805469
            ],
            [
              72.610742,
              18.806836
            ],
            [
              72.610742,
              18.812305
            ],
            [
              72.612109,
              18.813672
            ],
            [
              72.612109,
              18.825977
            ],
            [
              72.610742,
              18.827344
            ],
            [
              72.610742,
              18.828711
            ],
            [
              72.612109,
              18.830078
            ],
            [
              72.612109,
              18.835547
            ]
          ]
        ]
      }
    },
    {
      "type": "Feature",
      "properties": {
        "spill_id": "palsar_347",
        "confidence": 0.86
      },
      "geometry": {
        "type": "Polygon",
        "coordinates": [
          [
            [
              72.676367,
              18.864258
            ],
            [
              72.675,
              18.862891
            ],
            [
              72.669531,
              18.862891
            ],
            [
              72.666797,
              18.860156
            ],
            [
              72.66543,
              18.860156
            ],
            [
              72.66543,
              18.858789
            ],
            [
              72.664062,
              18.857422
            ],
            [
              72.664062,
              18.849219
            ],
            [
              72.655859,
              18.841016
            ],
            [
              72.655859,
              18.839648
            ],
            [
              72.653125,
              18.836914
            ],
            [
              72.653125,
              18.825977
            ],
            [
              72.654492,
              18.824609
            ],
            [
              72.659961,
              18.824609
            ],
            [
              72.668164,
              18.830078
            ],
            [
              72.668164,
              18.831445
            ],
            [
              72.670898,
              18.835547
            ],
            [
              72.670898,
              18.838281
            ],
            [
              72.672266,
              18.839648
            ],
            [
              72.672266,
              18.842383
            ],
            [
              72.673633,
              18.84375
            ],
            [
              72.673633,
              18.846484
            ],
            [
              72.675,
              18.847852
            ],
            [
              72.676367,
              18.854688
            ],
            [
              72.677734,
              18.856055
            ],
            [
              72.677734,
              18.861523
            ],
            [
              72.676367,
              18.862891
            ],
            [
              72.676367,
              18.864258
            ]
          ]
        ]
      }
    },
    {
      "type": "Feature",
      "properties": {
        "spill_id": "palsar_347",
        "confidence": 0.86
      },
      "geometry": {
        "type": "Polygon",
        "coordinates": [
          [
            [
              72.661328,
              18.928516
            ],
            [
              72.655859,
              18.928516
            ],
            [
              72.651758,
              18.925781
            ],
            [
              72.644922,
              18.924414
            ],
            [
              72.639453,
              18.914844
            ],
            [
              72.639453,
              18.903906
            ],
            [
              72.638086,
              18.902539
            ],
            [
              72.636719,
              18.890234
            ],
            [
              72.633984,
              18.884766
            ],
            [
              72.628516,
              18.861523
            ],
            [
              72.628516,
              18.849219
            ],
            [
              72.629883,
              18.847852
            ],
            [
              72.638086,
              18.847852
            ],
            [
              72.653125,
              18.856055
            ],
            [
              72.658594,
              18.861523
            ],
            [
              72.661328,
              18.868359
            ],
            [
              72.662695,
              18.884766
            ],
            [
              72.661328,
              18.886133
            ],
            [
              72.661328,
              18.909375
            ],
            [
              72.659961,
              18.910742
            ],
            [
              72.664062,
              18.918945
            ],
            [
              72.664062,
              18.925781
            ],
            [
              72.661328,
              18.928516
            ]
          ]
        ]
      }
    },
    {
      "type": "Feature",
      "properties": {
        "spill_id": "palsar_347",
        "confidence": 0.86
      },
      "geometry": {
        "type": "Polygon",
        "coordinates": [
          [
            [
              72.5,
              18.954492
            ],
            [
              72.5,
              18.943555
            ],
            [
              72.505469,
              18.943555
            ],
            [
              72.505469,
              18.946289
            ],
            [
              72.506836,
              18.947656
            ],
            [
              72.506836,
              18.951758
            ],
            [
              72.505469,
              18.953125
            ],
            [
              72.501367,
              18.953125
            ],
            [
              72.5,
              18.954492
            ]
          ]
        ]
      }
    },
    {
      "type": "Feature",
      "properties": {
        "spill_id": "palsar_347",
        "confidence": 0.86
      },
      "geometry": {
        "type": "Polygon",
        "coordinates": [
          [
            [
              72.547852,
              19.031055
            ],
            [
              72.538281,
              19.021484
            ],
            [
              72.53418,
              18.999609
            ],
            [
              72.538281,
              18.980469
            ],
            [
              72.528711,
              18.961328
            ],
            [
              72.527344,
              18.94082
            ],
            [
              72.505469,
              18.909375
            ],
            [
              72.505469,
              18.902539
            ],
            [
              72.515039,
              18.898438
            ],
            [
              72.517773,
              18.891602
            ],
            [
              72.512305,
              18.875195
            ],
            [
              72.5,
              18.869727
            ],
            [
              72.5,
              18.801367
            ],
            [
              72.524609,
              18.801367
            ],
            [
              72.546484,
              18.836914
            ],
            [
              72.546484,
              18.847852
            ],
            [
              72.541016,
              18.856055
            ],
            [
              72.557422,
              18.894336
            ],
            [
              72.547852,
              18.898438
            ],
            [
              72.541016,
              18.891602
            ],
            [
              72.538281,
              18.906641
            ],
            [
              72.564258,
              18.987305
            ],
            [
              72.564258,
              19.00918
            ],
            [
              72.557422,
              19.013281
            ],
            [
              72.547852,
              19.031055
            ]
          ]
        ]
      }
    },
    {
      "type": "Feature",
      "properties": {
        "spill_id": "palsar_347",
        "confidence": 0.86
      },
      "geometry": {
        "type": "Polygon",
        "coordinates": [
          [
            [
              72.804883,
              19.098047
            ],
            [
              72.789844,
              19.089844
            ],
            [
              72.783008,
              19.063867
            ],
            [
              72.780273,
              19.000977
            ],
            [
              72.767969,
              18.928516
            ],
            [
              72.737891,
              18.875195
            ],
            [
              72.732422,
              18.839648
            ],
            [
              72.71875,
              18.828711
            ],
            [
              72.71875,
              18.815039
            ],
            [
              72.739258,
              18.820508
            ],
            [
              72.75293,
              18.801367
            ],
            [
              72.77207,
              18.801367
            ],
            [
              72.789844,
              18.821875
            ],
            [
              72.785742,
              18.83418
            ],
            [
              72.755664,
              18.828711
            ],
            [
              72.748828,
              18.851953
            ],
            [
              72.755664,
              18.87793
            ],
            [
              72.774805,
              18.908008
            ],
            [
              72.774805,
              18.935352
            ],
            [
              72.800781,
              19.020117
            ],
            [
              72.808984,
              19.087109
            ],
            [
              72.804883,
              19.098047
            ]
          ]
        ]
      }
    },
    {
      "type": "Feature",
      "properties": {
        "spill_id": "palsar_347",
        "confidence": 0.86
      },
      "geometry": {
        "type": "Polygon",
        "coordinates": [
          [
            [
              72.703711,
              19.144531
            ],
            [
              72.700977,
              19.144531
            ],
            [
              72.698242,
              19.141797
            ],
            [
              72.696875,
              19.141797
            ],
            [
              72.696875,
              19.137695
            ],
            [
              72.695508,
              19.136328
            ],
            [
              72.695508,
              19.130859
            ],
            [
              72.696875,
              19.129492
            ],
            [
              72.696875,
              19.128125
            ],
            [
              72.698242,
              19.128125
            ],
            [
              72.702344,
              19.132227
            ],
            [
              72.702344,
              19.14043
            ],
            [
              72.703711,
              19.141797
            ],
            [
              72.703711,
              19.144531
            ]
          ]
        ]
      }
    },
    {
      "type": "Feature",
      "properties": {
        "spill_id": "palsar_347",
        "confidence": 0.86
      },
      "geometry": {
        "type": "Polygon",
        "coordinates": [
          [
            [
              72.725586,
              19.15
            ],
            [
              72.720117,
              19.15
            ],
            [
              72.71875,
              19.148633
            ],
            [
              72.71875,
              19.147266
            ],
            [
              72.717383,
              19.145898
            ],
            [
              72.717383,
              19.144531
            ],
            [
              72.716016,
              19.143164
            ],
            [
              72.716016,
              19.137695
            ],
            [
              72.714648,
              19.136328
            ],
            [
              72.714648,
              19.132227
            ],
            [
              72.717383,
              19.129492
            ],
            [
              72.71875,
              19.130859
            ],
            [
              72.720117,
              19.130859
            ],
            [
              72.722852,
              19.133594
            ],
            [
              72.722852,
              19.134961
            ],
            [
              72.725586,
              19.137695
            ],
            [
              72.725586,
              19.139062
            ],
            [
              72.726953,
              19.14043
            ],
            [
              72.726953,
              19.147266
            ],
            [
              72.725586,
              19.148633
            ],
            [
              72.725586,
              19.15
            ]
          ]
        ]
      }
    },
    {
      "type": "Feature",
      "properties": {
        "spill_id": "palsar_347",
        "confidence": 0.86
      },
      "geometry": {
        "type": "Polygon",
        "coordinates": [
          [
            [
              72.64082,
              19.15
            ],
            [
              72.632617,
              19.15
            ],
            [
              72.63125,
              19.148633
            ],
            [
              72.63125,
              19.145898
            ],
            [
              72.629883,
              19.144531
            ],
            [
              72.629883,
              19.139062
            ],
            [
              72.63125,
              19.137695
            ],
            [
              72.63125,
              19.134961
            ],
            [
              72.632617,
              19.134961
            ],
            [
              72.633984,
              19.133594
            ],
            [
              72.636719,
              19.133594
            ],
            [
              72.636719,
              19.134961
            ],
            [
              72.638086,
              19.136328
            ],
            [
              72.638086,
              19.137695
            ],
            [
              72.639453,
              19.139062
            ],
            [
              72.639453,
              19.143164
            ],
            [
              72.64082,
              19.144531
            ],
            [
              72.64082,
              19.15
            ]
          ]
        ]
      }
    },
    {
      "type": "Feature",
      "properties": {
        "spill_id": "palsar_347",
        "confidence": 0.86
      },
      "geometry": {
        "type": "Polygon",
        "coordinates": [
          [
            [
              72.528711,
              19.15
            ],
            [
              72.50957,
              19.15
            ],
            [
              72.506836,
              19.144531
            ],
            [
              72.5,
              19.139062
            ],
            [
              72.5,
              19.117188
            ],
            [
              72.502734,
              19.113086
            ],
            [
              72.502734,
              19.110352
            ],
            [
              72.50957,
              19.104883
            ],
            [
              72.515039,
              19.09668
            ],
            [
              72.513672,
              19.085742
            ],
            [
              72.515039,
              19.083008
            ],
            [
              72.517773,
              19.083008
            ],
            [
              72.519141,
              19.080273
            ],
            [
              72.519141,
              19.081641
            ],
            [
              72.521875,
              19.083008
            ],
            [
              72.521875,
              19.088477
            ],
            [
              72.519141,
              19.091211
            ],
            [
              72.520508,
              19.093945
            ],
            [
              72.519141,
              19.09668
            ],
            [
              72.521875,
              19.098047
            ],
            [
              72.521875,
              19.099414
            ],
            [
              72.516406,
              19.104883
            ],
            [
              72.516406,
              19.108984
            ],
            [
              72.523242,
              19.122656
            ],
            [
              72.524609,
              19.134961
            ],
            [
              72.527344,
              19.14043
            ],
            [
              72.528711,
              19.15
            ]
          ]
        ]
      }
    }
  ]
}