{
  "type": "FeatureCollection",
  "features": [
    {
      "type": "Feature",
      "properties": {
        "spill_id": "palsar_683",
        "confidence": 0.89
      },
      "geometry": {
        "type": "Polygon",
        "coordinates": [
          [
            [
              72.81582,
              19.15
            ],
            [
              72.803516,
              19.15
            ],
            [
              72.800781,
              19.130859
            ],
            [
              72.791211,
              19.110352
            ],
            [
              72.789844,
              19.099414
            ],
            [
              72.773438,
              19.081641
            ],
            [
              72.769336,
              19.059766
            ],
            [
              72.770703,
              19.044727
            ],
            [
              72.780273,
              19.036523
            ],
            [
              72.802148,
              19.006445
            ],
            [
              72.807617,
              19.003711
            ],
            [
              72.818555,
              19.010547
            ],
            [
              72.826758,
              19.02832
            ],
            [
              72.826758,
              19.036523
            ],
            [
              72.818555,
              19.055664
            ],
            [
              72.800781,
              19.061133
            ],
            [
              72.793945,
              19.066602
            ],
            [
              72.799414,
              19.095312
            ],
            [
              72.819922,
              19.111719
            ],
            [
              72.828125,
              19.124023
            ],
            [
              72.81582,
              19.15
            ]
          ]
        ]
      }
    }
  ]
}