{
  "type": "FeatureCollection",
  "features": [
    {
      "type": "Feature",
      "properties": {
        "spill_id": "palsar_258",
        "confidence": 0.83
      },
      "geometry": {
        "type": "Polygon",
        "coordinates": [
          [
            [
              72.807617,
              18.914844
            ],
            [
              72.807617,
              18.909375
            ],
            [
              72.808984,
              18.908008
            ],
            [
              72.810352,
              18.903906
            ],
            [
              72.811719,
              18.903906
            ],
            [
              72.814453,
              18.901172
            ],
            [
              72.81582,
              18.901172
            ],
            [
              72.819922,
              18.898438
            ],
            [
              72.822656,
              18.898438
            ],
            [
              72.824023,
              18.89707
            ],
            [
              72.833594,
              18.89707
            ],
            [
              72.834961,
              18.898438
            ],
            [
              72.84043,
              18.898438
            ],
            [
              72.841797,
              18.899805
            ],
            [
              72.848633,
              18.902539
            ],
            [
              72.848633,
              18.916211
            ],
            [
              72.847266,
              18.916211
            ],
            [
              72.844531,
              18.918945
            ],
            [
              72.836328,
              18.918945
            ],
            [
              72.834961,
              18.917578
            ],
            [
              72.828125,
              18.917578
            ],
            [
              72.821289,
              18.92168
            ],
            [
              72.814453,
              18.92168
            ],
            [
              72.813086,
              18.920312
            ],
            [
              72.811719,
              18.920312
            ],
            [
              72.807617,
              18.914844
            ]
          ]
        ]
      }
    },
    {
      "type": "Feature",
      "properties": {
        "spill_id": "palsar_258",
        "confidence": 0.83
      },
      "geometry": {
        "type": "Polygon",
        "coordinates": [
          [
            [
              72.545117,
              18.928516
            ],
            [
              72.54375,
              18.92168
            ],
            [
              72.546484,
              18.914844
            ],
            [
              72.558789,
              18.902539
            ],
            [
              72.571094,
              18.89707
            ],
            [
              72.575195,
              18.892969
            ],
            [
              72.582031,
              18.882031
            ],
            [
              72.582031,
              18.876562
            ],
            [
              72.586133,
              18.866992
            ],
            [
              72.592969,
              18.862891
            ],
            [
              72.598438,
              18.862891
            ],
            [
              72.605273,
              18.865625
            ],
            [
              72.608008,
              18.868359
            ],
            [
              72.608008,
              18.875195
            ],
            [
              72.601172,
              18.883398
            ],
            [
              72.599805,
              18.902539
            ],
            [
              72.573828,
              18.916211
            ],
            [
              72.569727,
              18.920312
            ],
            [
              72.568359,
              18.924414
            ],
            [
              72.561523,
              18.929883
            ],
            [
              72.550586,
              18.93125
            ],
            [
              72.545117,
              18.928516
            ]
          ]
        ]
      }
    },
    {
      "type": "Feature",
      "properties": {
        "spill_id": "palsar_258",
        "confidence": 0.83
      },
      "geometry": {
        "type": "Polygon",
        "coordinates": [
          [
            [
              72.580664,
              18.946289
            ],
            [
              72.580664,
              18.936719
            ],
            [
              72.5875,
              18.932617
            ],
            [
              72.592969,
              18.93125
            ],
            [
              72.602539,
              18.923047
            ],
            [
              72.605273,
              18.917578
            ],
            [
              72.606641,
              18.909375
            ],
            [
              72.613477,
              18.909375
            ],
            [
              72.618945,
              18.912109
            ],
            [
              72.623047,
              18.912109
            ],
            [
              72.627148,
              18.914844
            ],
            [
              72.625781,
              18.920312
            ],
            [
              72.623047,
              18.923047
            ],
            [
              72.623047,
              18.924414
            ],
            [
              72.618945,
              18.927148
            ],
            [
              72.613477,
              18.94082
            ],
            [
              72.612109,
              18.94082
            ],
            [
              72.601172,
              18.953125
            ],
            [
              72.590234,
              18.953125
            ],
            [
              72.584766,
              18.950391
            ],
            [
              72.580664,
              18.946289
            ]
          ]
        ]
      }
    },
    {
      "type": "Feature",
      "properties": {
        "spill_id": "palsar_258",
        "confidence": 0.83
      },
      "geometry": {
        "type": "Polygon",
        "coordinates": [
          [
            [
              72.814453,
              19.061133
            ],
            [
              72.822656,
              19.05293
            ],
            [
              72.825391,
              19.05293
            ],
            [
              72.826758,
              19.051562
            ],
            [
              72.828125,
              19.051562
            ],
            [
              72.829492,
              19.05293
            ],
            [
              72.833594,
              19.05293
            ],
            [
              72.834961,
              19.054297
            ],
            [
              72.836328,
              19.054297
            ],
            [
              72.834961,
              19.055664
            ],
            [
              72.834961,
              19.058398
            ],
            [
              72.830859,
              19.0625
            ],
            [
              72.826758,
              19.0625
            ],
            [
              72.825391,
              19.063867
            ],
            [
              72.817187,
              19.063867
            ],
            [
              72.814453,
              19.061133
            ]
          ]
        ]
      }
    },
    {
      "type": "Feature",
      "properties": {
        "spill_id": "palsar_258",
        "confidence": 0.83
      },
      "geometry": {
        "type": "Polygon",
        "coordinates": [
          [
            [
              72.784375,
              19.098047
            ],
            [
              72.784375,
              19.09668
            ],
            [
              72.785742,
              19.09668
            ],
            [
              72.787109,
              19.095312
            ],
            [
              72.788477,
              19.095312
            ],
            [
              72.789844,
              19.093945
            ],
            [
              72.793945,
              19.093945
            ],
            [
              72.79668,
              19.09668
            ],
            [
              72.79668,
              19.098047
            ],
            [
              72.795312,
              19.098047
            ],
            [
              72.793945,
              19.099414
            ],
            [
              72.792578,
              19.099414
            ],
            [
              72.791211,
              19.100781
            ],
            [
              72.787109,
              19.100781
            ],
            [
              72.784375,
              19.098047
            ]
          ]
        ]
      }
    },
    {
      "type": "Feature",
      "properties": {
        "spill_id": "palsar_258",
        "confidence": 0.83
      },
      "geometry": {
        "type": "Polygon",
        "coordinates": [
          [
            [
              72.830859,
              19.100781
            ],
            [
              72.829492,
              19.102148
            ],
            [
              72.822656,
              19.102148
            ],
            [
              72.821289,
              19.100781
            ],
            [
              72.811719,
              19.100781
            ],
            [
              72.808984,
              19.098047
            ],
            [
              72.810352,
              19.09668
            ],
            [
              72.811719,
              19.09668
            ],
            [
              72.813086,
              19.095312
            ],
            [
              72.824023,
              19.095312
            ],
            [
              72.825391,
              19.09668
            ],
            [
              72.828125,
              19.09668
            ],
            [
              72.830859,
              19.099414
            ],
            [
              72.830859,
              19.100781
            ]
          ]
        ]
      }
    },
    {
      "type": "Feature",
      "properties": {
        "spill_id": "palsar_258",
        "confidence": 0.83
      },
      "geometry": {
        "type": "Polygon",
        "coordinates": [
          [
            [
              72.5,
              19.10625
            ],
            [
              72.506836,
              19.09668
            ],
            [
              72.547852,
              19.088477
            ],
            [
              72.542383,
              19.077539
            ],
            [
              72.506836,
              19.076172
            ],
            [
              72.506836,
              19.066602
            ],
            [
              72.560156,
              19.069336
            ],
            [
              72.605273,
              19.046094
            ],
            [
              72.592969,
              19.020117
            ],
            [
              72.560156,
              19.006445
            ],
            [
              72.561523,
              18.995508
            ],
            [
              72.594336,
              18.969531
            ],
            [
              72.591602,
              19.000977
            ],
            [
              72.628516,
              19.011914
            ],
            [
              72.770703,
              18.957227
            ],
            [
              72.800781,
              18.959961
            ],
            [
              72.799414,
              18.975
            ],
            [
              72.77207,
              18.973633
            ],
            [
              72.720117,
              19.007812
            ],
            [
              72.699609,
              19.005078
            ],
            [
              72.692773,
              19.020117
            ],
            [
              72.666797,
              19.017383
            ],
            [
              72.662695,
              19.035156
            ],
            [
              72.670898,
              19.041992
            ],
            [
              72.698242,
              19.033789
            ],
            [
              72.706445,
              19.041992
            ],
            [
              72.644922,
              19.074805
            ],
            [
              72.627148,
              19.074805
            ],
            [
              72.639453,
              19.085742
            ],
            [
              72.632617,
              19.099414
            ],
            [
              72.539648,
              19.110352
            ],
            [
              72.5,
              19.10625
            ]
          ]
        ]
      }
    },
    {
      "type": "Feature",
      "properties": {
        "spill_id": "palsar_258",
        "confidence": 0.83
      },
      "geometry": {
        "type": "Polygon",
        "coordinates": [
          [
            [
              72.610742,
              19.14043
            ],
            [
              72.613477,
              19.136328
            ],
            [
              72.62168,
              19.133594
            ],
            [
              72.62168,
              19.11582
            ],
            [
              72.628516,
              19.111719
            ],
            [
              72.638086,
              19.114453
            ],
            [
              72.644922,
              19.113086
            ],
            [
              72.653125,
              19.10625
            ],
            [
              72.676367,
              19.107617
            ],
            [
              72.683203,
              19.102148
            ],
            [
              72.705078,
              19.107617
            ],
            [
              72.740625,
              19.102148
            ],
            [
              72.754297,
              19.103516
            ],
            [
              72.75293,
              19.108984
            ],
            [
              72.733789,
              19.114453
            ],
            [
              72.716016,
              19.125391
            ],
            [
              72.683203,
              19.124023
            ],
            [
              72.654492,
              19.136328
            ],
            [
              72.620312,
              19.137695
            ],
            [
              72.614844,
              19.141797
            ],
            [
              72.610742,
              19.14043
            ]
          ]
        ]
      }
    }
  ]
}