{
  "type": "FeatureCollection",
  "features": [
    {
      "type": "Feature",
      "properties": {
        "spill_id": "palsar_285",
        "confidence": 0.82
      },
      "geometry": {
        "type": "Polygon",
        "coordinates": [
          [
            [
              72.528711,
              18.851953
            ],
            [
              72.527344,
              18.851953
            ],
            [
              72.525977,
              18.850586
            ],
            [
              72.517773,
              18.850586
            ],
            [
              72.512305,
              18.845117
            ],
            [
              72.512305,
              18.84375
            ],
            [
              72.50957,
              18.841016
            ],
            [
              72.50957,
              18.839648
            ],
            [
              72.505469,
              18.835547
            ],
            [
              72.505469,
              18.828711
            ],
            [
              72.50957,
              18.824609
            ],
            [
              72.510938,
              18.824609
            ],
            [
              72.516406,
              18.819141
            ],
            [
              72.519141,
              18.819141
            ],
            [
              72.520508,
              18.820508
            ],
            [
              72.521875,
              18.820508
            ],
            [
              72.527344,
              18.825977
            ],
            [
              72.527344,
              18.827344
            ],
            [
              72.530078,
              18.830078
            ],
            [
              72.530078,
              18.831445
            ],
            [
              72.532812,
              18.835547
            ],
            [
              72.532812,
              18.847852
            ],
            [
              72.531445,
              18.849219
            ],
            [
              72.531445,
              18.850586
            ],
            [
              72.530078,
              18.850586
            ],
            [
              72.528711,
              18.851953
            ]
          ]
        ]
      }
    },
    {
      "type": "Feature",
      "properties": {
        "spill_id": "palsar_285",
        "confidence": 0.82
      },
      "geometry": {
        "type": "Polygon",
        "coordinates": [
          [
            [
              72.594336,
              18.929883
            ],
            [
              72.590234,
              18.93125
            ],
            [
              72.568359,
              18.910742
            ],
            [
              72.560156,
              18.89707
            ],
            [
              72.55332,
              18.890234
            ],
            [
              72.549219,
              18.880664
            ],
            [
              72.550586,
              18.87793
            ],
            [
              72.55332,
              18.876562
            ],
            [
              72.557422,
              18.876562
            ],
            [
              72.566992,
              18.880664
            ],
            [
              72.582031,
              18.894336
            ],
            [
              72.594336,
              18.917578
            ],
            [
              72.594336,
              18.92168
            ],
            [
              72.595703,
              18.923047
            ],
            [
              72.595703,
              18.927148
            ],
            [
              72.594336,
              18.929883
            ]
          ]
        ]
      }
    },
    {
      "type": "Feature",
      "properties": {
        "spill_id": "palsar_285",
        "confidence": 0.82
      },
      "geometry": {
        "type": "Polygon",
        "coordinates": [
          [
            [
              72.556055,
              18.949023
            ],
            [
              72.547852,
              18.949023
            ],
            [
              72.54375,
              18.943555
            ],
            [
              72.541016,
              18.936719
            ],
            [
              72.536914,
              18.932617
            ],
            [
              72.530078,
              18.932617
            ],
            [
              72.524609,
              18.935352
            ],
            [
              72.519141,
              18.935352
            ],
            [
              72.516406,
              18.933984
            ],
            [
              72.516406,
              18.929883
            ],
            [
              72.521875,
              18.925781
            ],
            [
              72.525977,
              18.925781
            ],
            [
              72.530078,
              18.92168
            ],
            [
              72.530078,
              18.914844
            ],
            [
              72.53418,
              18.914844
            ],
            [
              72.539648,
              18.918945
            ],
            [
              72.539648,
              18.920312
            ],
            [
              72.551953,
              18.933984
            ],
            [
              72.557422,
              18.944922
            ],
            [
              72.557422,
              18.947656
            ],
            [
              72.556055,
              18.949023
            ]
          ]
        ]
      }
    },
    {
      "type": "Feature",
      "properties": {
        "spill_id": "palsar_285",
        "confidence": 0.82
      },
      "geometry": {
        "type": "Polygon",
        "coordinates": [
          [
            [
              72.569727,
              19.095312
            ],
            [
              72.564258,
              19.093945
            ],
            [
              72.562891,
              19.081641
            ],
            [
              72.557422,
              19.074805
            ],
            [
              72.545117,
              19.066602
            ],
            [
              72.542383,
              19.059766
            ],
            [
              72.528711,
              19.046094
            ],
            [
              72.528711,
              19.011914
            ],
            [
              72.508203,
              18.981836
            ],
            [
              72.506836,
              18.968164
            ],
            [
              72.5,
              18.962695
            ],
            [
              72.5,
              18.944922
            ],
            [
              72.50957,
              18.942188
            ],
            [
              72.519141,
              18.946289
            ],
            [
              72.527344,
              18.957227
            ],
            [
              72.530078,
              18.979102
            ],
            [
              72.541016,
              18.996875
            ],
            [
              72.55332,
              18.999609
            ],
            [
              72.564258,
              19.01875
            ],
            [
              72.562891,
              19.025586
            ],
            [
              72.551953,
              19.02832
            ],
            [
              72.54375,
              19.025586
            ],
            [
              72.538281,
              19.032422
            ],
            [
              72.560156,
              19.054297
            ],
            [
              72.571094,
              19.089844
            ],
            [
              72.569727,
              19.095312
            ]
          ]
        ]
      }
    },
    {
      "type": "Feature",
      "properties": {
        "spill_id": "palsar_285",
        "confidence": 0.82
      },
      "geometry": {
        "type": "Polygon",
        "coordinates": [
          [
            [
              72.594336,
              19.15
            ],
            [
              72.590234,
              19.143164
            ],
            [
              72.590234,
              19.136328
            ],
            [
              72.584766,
              19.126758
            ],
            [
              72.584766,
              19.124023
            ],
            [
              72.582031,
              19.121289
            ],
            [
              72.580664,
              19.113086
            ],
            [
              72.583398,
              19.110352
            ],
            [
              72.586133,
              19.110352
            ],
            [
              72.595703,
              19.117188
            ],
            [
              72.601172,
              19.118555
            ],
            [
              72.602539,
              19.117188
            ],
            [
              72.599805,
              19.113086
            ],
            [
              72.599805,
              19.09668
            ],
            [
              72.601172,
              19.095312
            ],
            [
              72.610742,
              19.095312
            ],
            [
              72.62168,
              19.10625
            ],
            [
              72.625781,
              19.114453
            ],
            [
              72.625781,
              19.119922
            ],
            [
              72.616211,
              19.125391
            ],
            [
              72.612109,
              19.125391
            ],
            [
              72.606641,
              19.121289
            ],
            [
              72.603906,
              19.122656
            ],
            [
              72.606641,
              19.125391
            ],
            [
              72.608008,
              19.130859
            ],
            [
              72.614844,
              19.139062
            ],
            [
              72.616211,
              19.15
            ],
            [
              72.594336,
              19.15
            ]
          ]
        ]
      }
    },
    {
      "type": "Feature",
      "properties": {
        "spill_id": "palsar_285",
        "confidence": 0.82
      },
      "geometry": {
        "type": "Polygon",
        "coordinates": [
          [
            [
              72.566992,
              19.15
            ],
            [
              72.558789,
              19.15
            ],
            [
              72.558789,
              19.148633
            ],
            [
              72.554688,
              19.144531
            ],
            [
              72.554688,
              19.141797
            ],
            [
              72.551953,
              19.139062
            ],
            [
              72.551953,
              19.137695
            ],
            [
              72.549219,
              19.133594
            ],
            [
              72.549219,
              19.125391
            ],
            [
              72.550586,
              19.124023
            ],
            [
              72.551953,
              19.124023
            ],
            [
              72.556055,
              19.121289
            ],
            [
              72.561523,
              19.121289
            ],
            [
              72.562891,
              19.122656
            ],
            [
              72.562891,
              19.124023
            ],
            [
              72.565625,
              19.126758
            ],
            [
              72.565625,
              19.128125
            ],
            [
              72.568359,
              19.132227
            ],
            [
              72.568359,
              19.134961
            ],
            [
              72.569727,
              19.136328
            ],
            [
              72.569727,
              19.139062
            ],
            [
              72.568359,
              19.14043
            ],
            [
              72.568359,
              19.147266
            ],
            [
              72.566992,
              19.148633
            ],
            [
              72.566992,
              19.15
            ]
          ]
        ]
      }
    }
  ]
}