{
  "type": "FeatureCollection",
  "features": [
    {
      "type": "Feature",
      "properties": {
        "spill_id": "palsar_24",
        "confidence": 0.81
      },
      "geometry": {
        "type": "Polygon",
        "coordinates": [
          [
            [
              72.766602,
              18.973633
            ],
            [
              72.759766,
              18.969531
            ],
            [
              72.759766,
              18.961328
            ],
            [
              72.773438,
              18.928516
            ],
            [
              72.770703,
              18.917578
            ],
            [
              72.778906,
              18.898438
            ],
            [
              72.781641,
              18.845117
            ],
            [
              72.777539,
              18.831445
            ],
            [
              72.784375,
              18.821875
            ],
            [
              72.798047,
              18.816406
            ],
            [
              72.807617,
              18.804102
            ],
            [
              72.811719,
              18.804102
            ],
            [
              72.829492,
              18.819141
            ],
            [
              72.841797,
              18.819141
            ],
            [
              72.848633,
              18.841016
            ],
            [
              72.843164,
              18.845117
            ],
            [
              72.830859,
              18.84375
            ],
            [
              72.822656,
              18.851953
            ],
            [
              72.807617,
              18.854688
            ],
            [
              72.800781,
              18.860156
            ],
            [
              72.799414,
              18.873828
            ],
            [
              72.804883,
              18.894336
            ],
            [
              72.777539,
              18.925781
            ],
            [
              72.783008,
              18.958594
            ],
            [
              72.776172,
              18.962695
            ],
            [
              72.774805,
              18.973633
            ],
            [
              72.766602,
              18.973633
            ]
          ]
        ]
      }
    },
    {
      "type": "Feature",
      "properties": {
        "spill_id": "palsar_24",
        "confidence": 0.81
      },
      "geometry": {
        "type": "Polygon",
        "coordinates": [
          [
            [
              72.601172,
              19.000977
            ],
            [
              72.601172,
              18.992773
            ],
            [
              72.602539,
              18.991406
            ],
            [
              72.602539,
              18.987305
            ],
            [
              72.603906,
              18.985938
            ],
            [
              72.603906,
              18.983203
            ],
            [
              72.605273,
              18.981836
            ],
            [
              72.605273,
              18.980469
            ],
            [
              72.612109,
              18.973633
            ],
            [
              72.620312,
              18.973633
            ],
            [
              72.62168,
              18.975
            ],
            [
              72.623047,
              18.975
            ],
            [
              72.628516,
              18.981836
            ],
            [
              72.628516,
              18.983203
            ],
            [
              72.63125,
              18.987305
            ],
            [
              72.63125,
              18.991406
            ],
            [
              72.627148,
              18.995508
            ],
            [
              72.625781,
              18.995508
            ],
            [
              72.624414,
              18.996875
            ],
            [
              72.62168,
              18.996875
            ],
            [
              72.620312,
              18.998242
            ],
            [
              72.617578,
              18.998242
            ],
            [
              72.616211,
              18.999609
            ],
            [
              72.609375,
              18.999609
            ],
            [
              72.608008,
              19.000977
            ],
            [
              72.601172,
              19.000977
            ]
          ]
        ]
      }
    },
    {
      "type": "Feature",
      "properties": {
        "spill_id": "palsar_24",
        "confidence": 0.81
      },
      "geometry": {
        "type": "Polygon",
        "coordinates": [
          [
            [
              72.848633,
              19.073438
            ],
            [
              72.845898,
              19.076172
            ],
            [
              72.841797,
              19.076172
            ],
            [
              72.84043,
              19.077539
            ],
            [
              72.833594,
              19.077539
            ],
            [
              72.832227,
              19.076172
            ],
            [
              72.830859,
              19.076172
            ],
            [
              72.828125,
              19.073438
            ],
            [
              72.821289,
              19.073438
            ],
            [
              72.819922,
              19.07207
            ],
            [
              72.817187,
              19.07207
            ],
            [
              72.813086,
              19.067969
            ],
            [
              72.813086,
              19.066602
            ],
            [
              72.811719,
              19.065234
            ],
            [
              72.811719,
              19.059766
            ],
            [
              72.81582,
              19.055664
            ],
            [
              72.819922,
              19.055664
            ],
            [
              72.821289,
              19.057031
            ],
            [
              72.825391,
              19.057031
            ],
            [
              72.826758,
              19.058398
            ],
            [
              72.836328,
              19.058398
            ],
            [
              72.837695,
              19.059766
            ],
            [
              72.839062,
              19.059766
            ],
            [
              72.848633,
              19.069336
            ],
            [
              72.848633,
              19.073438
            ]
          ]
        ]
      }
    },
    {
      "type": "Feature",
      "properties": {
        "spill_id": "palsar_24",
        "confidence": 0.81
      },
      "geometry": {
        "type": "Polygon",
        "coordinates": [
          [
            [
              72.584766,
              19.098047
            ],
            [
              72.584766,
              19.091211
            ],
            [
              72.583398,
              19.089844
            ],
            [
              72.583398,
              19.085742
            ],
            [
              72.582031,
              19.084375
            ],
            [
              72.582031,
              19.077539
            ],
            [
              72.583398,
              19.076172
            ],
            [
              72.583398,
              19.074805
            ],
            [
              72.5875,
              19.070703
            ],
            [
              72.5875,
              19.069336
            ],
            [
              72.583398,
              19.065234
            ],
            [
              72.582031,
              19.065234
            ],
            [
              72.582031,
              19.059766
            ],
            [
              72.584766,
              19.057031
            ],
            [
              72.584766,
              19.055664
            ],
            [
              72.586133,
              19.055664
            ],
            [
              72.5875,
              19.054297
            ],
            [
              72.591602,
              19.054297
            ],
            [
              72.591602,
              19.055664
            ],
            [
              72.592969,
              19.057031
            ],
            [
              72.591602,
              19.058398
            ],
            [
              72.590234,
              19.065234
            ],
            [
              72.592969,
              19.069336
            ],
            [
              72.594336,
              19.069336
            ],
            [
              72.598438,
              19.07207
            ],
            [
              72.598438,
              19.073438
            ],
            [
              72.599805,
              19.074805
            ],
            [
              72.599805,
              19.083008
            ],
            [
              72.594336,
              19.088477
            ],
            [
              72.594336,
              19.089844
            ],
            [
              72.591602,
              19.092578
            ],
            [
              72.591602,
              19.093945
            ],
            [
              72.588867,
              19.09668
            ],
            [
              72.586133,
              19.09668
            ],
            [
              72.584766,
              19.098047
            ]
          ]
        ]
      }
    },
    {
      "type": "Feature",
      "properties": {
        "spill_id": "palsar_24",
        "confidence": 0.81
      },
      "geometry": {
        "type": "Polygon",
        "coordinates": [
          [
            [
              72.642187,
              19.145898
            ],
            [
              72.647656,
              19.129492
            ],
            [
              72.692773,
              19.084375
            ],
            [
              72.71875,
              19.043359
            ],
            [
              72.714648,
              19.022852
            ],
            [
              72.729688,
              19.021484
            ],
            [
              72.737891,
              19.011914
            ],
            [
              72.746094,
              19.010547
            ],
            [
              72.750195,
              19.016016
            ],
            [
              72.750195,
              19.02832
            ],
            [
              72.740625,
              19.036523
            ],
            [
              72.744727,
              19.044727
            ],
            [
              72.754297,
              19.044727
            ],
            [
              72.761133,
              19.035156
            ],
            [
              72.799414,
              19.044727
            ],
            [
              72.799414,
              19.058398
            ],
            [
              72.795312,
              19.061133
            ],
            [
              72.781641,
              19.051562
            ],
            [
              72.765234,
              19.057031
            ],
            [
              72.736523,
              19.05293
            ],
            [
              72.698242,
              19.102148
            ],
            [
              72.677734,
              19.11582
            ],
            [
              72.675,
              19.128125
            ],
            [
              72.66543,
              19.14043
            ],
            [
              72.642187,
              19.145898
            ]
          ]
        ]
      }
    }
  ]
}