{
  "type": "FeatureCollection",
  "features": [
    {
      "type": "Feature",
      "properties": {
        "spill_id": "palsar_550",
        "confidence": 0.86
      },
      "geometry": {
        "type": "Polygon",
        "coordinates": [
          [
            [
              72.625781,
              18.805469
            ],
            [
              72.625781,
              18.802734
            ],
            [
              72.627148,
              18.801367
            ],
            [
              72.639453,
              18.801367
            ],
            [
              72.639453,
              18.804102
            ],
            [
              72.64082,
              18.805469
            ],
            [
              72.64082,
              18.806836
            ],
            [
              72.639453,
              18.808203
            ],
            [
              72.639453,
              18.80957
            ],
            [
              72.638086,
              18.810938
            ],
            [
              72.629883,
              18.810938
            ],
            [
              72.627148,
              18.808203
            ],
            [
              72.627148,
              18.806836
            ],
            [
              72.625781,
              18.805469
            ]
          ]
        ]
      }
    },
    {
      "type": "Feature",
      "properties": {
        "spill_id": "palsar_550",
        "confidence": 0.86
      },
      "geometry": {
        "type": "Polygon",
        "coordinates": [
          [
            [
              72.848633,
              18.932617
            ],
            [
              72.839062,
              18.932617
            ],
            [
              72.830859,
              18.910742
            ],
            [
              72.818555,
              18.898438
            ],
            [
              72.803516,
              18.890234
            ],
            [
              72.802148,
              18.883398
            ],
            [
              72.80625,
              18.862891
            ],
            [
              72.798047,
              18.836914
            ],
            [
              72.788477,
              18.828711
            ],
            [
              72.77207,
              18.828711
            ],
            [
              72.751562,
              18.808203
            ],
            [
              72.750195,
              18.804102
            ],
            [
              72.75293,
              18.801367
            ],
            [
              72.813086,
              18.801367
            ],
            [
              72.822656,
              18.816406
            ],
            [
              72.839062,
              18.860156
            ],
            [
              72.848633,
              18.869727
            ],
            [
              72.845898,
              18.87793
            ],
            [
              72.848633,
              18.884766
            ],
            [
              72.848633,
              18.932617
            ]
          ]
        ]
      }
    },
    {
      "type": "Feature",
      "properties": {
        "spill_id": "palsar_550",
        "confidence": 0.86
      },
      "geometry": {
        "type": "Polygon",
        "coordinates": [
          [
            [
              72.588867,
              18.932617
            ],
            [
              72.584766,
              18.932617
            ],
            [
              72.579297,
              18.935352
            ],
            [
              72.572461,
              18.935352
            ],
            [
              72.571094,
              18.933984
            ],
            [
              72.566992,
              18.933984
            ],
            [
              72.565625,
              18.932617
            ],
            [
              72.558789,
              18.932617
            ],
            [
              72.556055,
              18.93125
            ],
            [
              72.547852,
              18.916211
            ],
            [
              72.547852,
              18.909375
            ],
            [
              72.551953,
              18.901172
            ],
            [
              72.557422,
              18.895703
            ],
            [
              72.565625,
              18.895703
            ],
            [
              72.572461,
              18.901172
            ],
            [
              72.573828,
              18.901172
            ],
            [
              72.580664,
              18.908008
            ],
            [
              72.584766,
              18.918945
            ],
            [
              72.590234,
              18.925781
            ],
            [
              72.590234,
              18.93125
            ],
            [
              72.588867,
              18.932617
            ]
          ]
        ]
      }
    },
    {
      "type": "Feature",
      "properties": {
        "spill_id": "palsar_550",
        "confidence": 0.86
      },
      "geometry": {
        "type": "Polygon",
        "coordinates": [
          [
            [
              72.721484,
              18.955859
            ],
            [
              72.698242,
              18.957227
            ],
            [
              72.68457,
              18.933984
            ],
            [
              72.657227,
              18.916211
            ],
            [
              72.650391,
              18.906641
            ],
            [
              72.651758,
              18.898438
            ],
            [
              72.659961,
              18.886133
            ],
            [
              72.657227,
              18.869727
            ],
            [
              72.647656,
              18.862891
            ],
            [
              72.609375,
              18.854688
            ],
            [
              72.608008,
              18.845117
            ],
            [
              72.612109,
              18.839648
            ],
            [
              72.62168,
              18.839648
            ],
            [
              72.629883,
              18.832812
            ],
            [
              72.650391,
              18.832812
            ],
            [
              72.657227,
              18.836914
            ],
            [
              72.666797,
              18.850586
            ],
            [
              72.683203,
              18.860156
            ],
            [
              72.681836,
              18.875195
            ],
            [
              72.685938,
              18.882031
            ],
            [
              72.683203,
              18.901172
            ],
            [
              72.685938,
              18.910742
            ],
            [
              72.694141,
              18.923047
            ],
            [
              72.71875,
              18.928516
            ],
            [
              72.725586,
              18.944922
            ],
            [
              72.721484,
              18.955859
            ]
          ]
        ]
      }
    },
    {
      "type": "Feature",
      "properties": {
        "spill_id": "palsar_550",
        "confidence": 0.86
      },
      "geometry": {
        "type": "Polygon",
        "coordinates": [
          [
            [
              72.784375,
              19.031055
            ],
            [
              72.783008,
              19.032422
            ],
            [
              72.781641,
              19.032422
            ],
            [
              72.780273,
              19.033789
            ],
            [
              72.77207,
              19.033789
            ],
            [
              72.770703,
              19.032422
            ],
            [
              72.769336,
              19.032422
            ],
            [
              72.767969,
              19.031055
            ],
            [
              72.766602,
              19.031055
            ],
            [
              72.765234,
              19.029687
            ],
            [
              72.763867,
              19.029687
            ],
            [
              72.761133,
              19.026953
            ],
            [
              72.761133,
              19.025586
            ],
            [
              72.759766,
              19.024219
            ],
            [
              72.759766,
              19.022852
            ],
            [
              72.761133,
              19.021484
            ],
            [
              72.761133,
              19.01875
            ],
            [
              72.7625,
              19.01875
            ],
            [
              72.763867,
              19.017383
            ],
            [
              72.767969,
              19.017383
            ],
            [
              72.769336,
              19.01875
            ],
            [
              72.77207,
              19.01875
            ],
            [
              72.773438,
              19.020117
            ],
            [
              72.774805,
              19.020117
            ],
            [
              72.777539,
              19.022852
            ],
            [
              72.778906,
              19.022852
            ],
            [
              72.783008,
              19.026953
            ],
            [
              72.784375,
              19.026953
            ],
            [
              72.784375,
              19.031055
            ]
          ]
        ]
      }
    },
    {
      "type": "Feature",
      "properties": {
        "spill_id": "palsar_550",
        "confidence": 0.86
      },
      "geometry": {
        "type": "Polygon",
        "coordinates": [
          [
            [
              72.70918,
              19.043359
            ],
            [
              72.696875,
              19.035156
            ],
            [
              72.696875,
              19.029687
            ],
            [
              72.702344,
              19.024219
            ],
            [
              72.70918,
              19.006445
            ],
            [
              72.702344,
              18.996875
            ],
            [
              72.702344,
              18.990039
            ],
            [
              72.706445,
              18.985938
            ],
            [
              72.717383,
              18.985938
            ],
            [
              72.721484,
              18.987305
            ],
            [
              72.726953,
              18.994141
            ],
            [
              72.729688,
              19.003711
            ],
            [
              72.725586,
              19.016016
            ],
            [
              72.725586,
              19.021484
            ],
            [
              72.733789,
              19.032422
            ],
            [
              72.735156,
              19.036523
            ],
            [
              72.731055,
              19.039258
            ],
            [
              72.726953,
              19.039258
            ],
            [
              72.717383,
              19.043359
            ],
            [
              72.70918,
              19.043359
            ]
          ]
        ]
      }
    },
    {
      "type": "Feature",
      "properties": {
        "spill_id": "palsar_550",
        "confidence": 0.86
      },
      "geometry": {
        "type": "Polygon",
        "coordinates": [
          [
            [
              72.754297,
              19.066602
            ],
            [
              72.75293,
              19.065234
            ],
            [
              72.75293,
              19.058398
            ],
            [
              72.757031,
              19.054297
            ],
            [
              72.761133,
              19.054297
            ],
            [
              72.7625,
              19.055664
            ],
            [
              72.763867,
              19.055664
            ],
            [
              72.765234,
              19.057031
            ],
            [
              72.765234,
              19.061133
            ],
            [
              72.763867,
              19.0625
            ],
            [
              72.763867,
              19.063867
            ],
            [
              72.7625,
              19.065234
            ],
            [
              72.761133,
              19.065234
            ],
            [
              72.759766,
              19.066602
            ],
            [
              72.754297,
              19.066602
            ]
          ]
        ]
      }
    },
    {
      "type": "Feature",
      "properties": {
        "spill_id": "palsar_550",
        "confidence": 0.86
      },
      "geometry": {
        "type": "Polygon",
        "coordinates": [
          [
            [
              72.848633,
              19.091211
            ],
            [
              72.847266,
              19.091211
            ],
            [
              72.845898,
              19.089844
            ],
            [
              72.843164,
              19.089844
            ],
            [
              72.84043,
              19.087109
            ],
            [
              72.84043,
              19.084375
            ],
            [
              72.839062,
              19.083008
            ],
            [
              72.84043,
              19.081641
            ],
            [
              72.84043,
              19.078906
            ],
            [
              72.841797,
              19.078906
            ],
            [
              72.843164,
              19.077539
            ],
            [
              72.847266,
              19.077539
            ],
            [
              72.848633,
              19.078906
            ],
            [
              72.848633,
              19.091211
            ]
          ]
        ]
      }
    },
    {
      "type": "Feature",
      "properties": {
        "spill_id": "palsar_550",
        "confidence": 0.86
      },
      "geometry": {
        "type": "Polygon",
        "coordinates": [
          [
            [
              72.724219,
              19.095312
            ],
            [
              72.722852,
              19.09668
            ],
            [
              72.720117,
              19.09668
            ],
            [
              72.71875,
              19.098047
            ],
            [
              72.716016,
              19.098047
            ],
            [
              72.714648,
              19.09668
            ],
            [
              72.713281,
              19.09668
            ],
            [
              72.710547,
              19.093945
            ],
            [
              72.710547,
              19.092578
            ],
            [
              72.711914,
              19.091211
            ],
            [
              72.711914,
              19.089844
            ],
            [
              72.710547,
              19.088477
            ],
            [
              72.711914,
              19.087109
            ],
            [
              72.711914,
              19.085742
            ],
            [
              72.716016,
              19.085742
            ],
            [
              72.722852,
              19.092578
            ],
            [
              72.722852,
              19.093945
            ],
            [
              72.724219,
              19.095312
            ]
          ]
        ]
      }
    },
    {
      "type": "Feature",
      "properties": {
        "spill_id": "palsar_550",
        "confidence": 0.86
      },
      "geometry": {
        "type": "Polygon",
        "coordinates": [
          [
            [
              72.571094,
              19.110352
            ],
            [
              72.571094,
              19.104883
            ],
            [
              72.572461,
              19.103516
            ],
            [
              72.572461,
              19.098047
            ],
            [
              72.571094,
              19.09668
            ],
            [
              72.571094,
              19.089844
            ],
            [
              72.575195,
              19.085742
            ],
            [
              72.57793,
              19.085742
            ],
            [
              72.580664,
              19.088477
            ],
            [
              72.582031,
              19.088477
            ],
            [
              72.583398,
              19.089844
            ],
            [
              72.583398,
              19.091211
            ],
            [
              72.584766,
              19.092578
            ],
            [
              72.584766,
              19.095312
            ],
            [
              72.586133,
              19.09668
            ],
            [
              72.586133,
              19.103516
            ],
            [
              72.584766,
              19.104883
            ],
            [
              72.584766,
              19.107617
            ],
            [
              72.583398,
              19.108984
            ],
            [
              72.579297,
              19.108984
            ],
            [
              72.57793,
              19.110352
            ],
            [
              72.571094,
              19.110352
            ]
          ]
        ]
      }
    },
    {
      "type": "Feature",
      "properties": {
        "spill_id": "palsar_550",
        "confidence": 0.86
      },
      "geometry": {
        "type": "Polygon",
        "coordinates": [
          [
            [
              72.658594,
              19.122656
            ],
            [
              72.657227,
              19.122656
            ],
            [
              72.655859,
              19.124023
            ],
            [
              72.649023,
              19.124023
            ],
            [
              72.647656,
              19.122656
            ],
            [
              72.644922,
              19.122656
            ],
            [
              72.64082,
              19.119922
            ],
            [
              72.64082,
              19.118555
            ],
            [
              72.639453,
              19.117188
            ],
            [
              72.639453,
              19.113086
            ],
            [
              72.638086,
              19.111719
            ],
            [
              72.638086,
              19.108984
            ],
            [
              72.636719,
              19.107617
            ],
            [
              72.636719,
              19.104883
            ],
            [
              72.639453,
              19.100781
            ],
            [
              72.64082,
              19.100781
            ],
            [
              72.642187,
              19.099414
            ],
            [
              72.644922,
              19.099414
            ],
            [
              72.646289,
              19.100781
            ],
            [
              72.653125,
              19.100781
            ],
            [
              72.654492,
              19.102148
            ],
            [
              72.657227,
              19.102148
            ],
            [
              72.661328,
              19.10625
            ],
            [
              72.661328,
              19.107617
            ],
            [
              72.664062,
              19.111719
            ],
            [
              72.664062,
              19.11582
            ],
            [
              72.662695,
              19.117188
            ],
            [
              72.662695,
              19.118555
            ],
            [
              72.658594,
              19.122656
            ]
          ]
        ]
      }
    },
    {
      "type": "Feature",
      "properties": {
        "spill_id": "palsar_550",
        "confidence": 0.86
      },
      "geometry": {
        "type": "Polygon",
        "coordinates": [
          [
            [
              72.545117,
              19.143164
            ],
            [
              72.535547,
              19.144531
            ],
            [
              72.524609,
              19.134961
            ],
            [
              72.513672,
              19.132227
            ],
            [
              72.506836,
              19.122656
            ],
            [
              72.504102,
              19.102148
            ],
            [
              72.508203,
              19.093945
            ],
            [
              72.508203,
              19.080273
            ],
            [
              72.510938,
              19.073438
            ],
            [
              72.516406,
              19.069336
            ],
            [
              72.531445,
              19.070703
            ],
            [
              72.54375,
              19.078906
            ],
            [
              72.545117,
              19.084375
            ],
            [
              72.542383,
              19.087109
            ],
            [
              72.536914,
              19.088477
            ],
            [
              72.525977,
              19.102148
            ],
            [
              72.525977,
              19.104883
            ],
            [
              72.532812,
              19.11582
            ],
            [
              72.54375,
              19.124023
            ],
            [
              72.546484,
              19.132227
            ],
            [
              72.545117,
              19.143164
            ]
          ]
        ]
      }
    },
    {
      "type": "Feature",
      "properties": {
        "spill_id": "palsar_550",
        "confidence": 0.86
      },
      "geometry": {
        "type": "Polygon",
        "coordinates": [
          [
            [
              72.748828,
              19.15
            ],
            [
              72.740625,
              19.133594
            ],
            [
              72.732422,
              19.125391
            ],
            [
              72.732422,
              19.118555
            ],
            [
              72.737891,
              19.114453
            ],
            [
              72.744727,
              19.11582
            ],
            [
              72.754297,
              19.108984
            ],
            [
              72.761133,
              19.108984
            ],
            [
              72.788477,
              19.128125
            ],
            [
              72.793945,
              19.122656
            ],
            [
              72.792578,
              19.100781
            ],
            [
              72.798047,
              19.087109
            ],
            [
              72.803516,
              19.081641
            ],
            [
              72.813086,
              19.084375
            ],
            [
              72.819922,
              19.095312
            ],
            [
              72.825391,
              19.117188
            ],
            [
              72.822656,
              19.15
            ],
            [
              72.810352,
              19.15
            ],
            [
              72.804883,
              19.139062
            ],
            [
              72.798047,
              19.134961
            ],
            [
              72.789844,
              19.136328
            ],
            [
              72.783008,
              19.143164
            ],
            [
              72.77207,
              19.144531
            ],
            [
              72.765234,
              19.15
            ],
            [
              72.748828,
              19.15
            ]
          ]
        ]
      }
    }
  ]
}