{
  "type": "FeatureCollection",
  "features": [
    {
      "type": "Feature",
      "properties": {
        "spill_id": "palsar_538",
        "confidence": 0.71
      },
      "geometry": {
        "type": "Polygon",
        "coordinates": [
          [
            [
              72.716016,
              18.830078
            ],
            [
              72.710547,
              18.830078
            ],
            [
              72.710547,
              18.828711
            ],
            [
              72.70918,
              18.827344
            ],
            [
              72.70918,
              18.825977
            ],
            [
              72.707812,
              18.824609
            ],
            [
              72.707812,
              18.819141
            ],
            [
              72.70918,
              18.817773
            ],
            [
              72.70918,
              18.815039
            ],
            [
              72.710547,
              18.813672
            ],
            [
              72.710547,
              18.812305
            ],
            [
              72.711914,
              18.810938
            ],
            [
              72.714648,
              18.813672
            ],
            [
              72.714648,
              18.815039
            ],
            [
              72.716016,
              18.816406
            ],
            [
              72.716016,
              18.819141
            ],
            [
              72.717383,
              18.820508
            ],
            [
              72.717383,
              18.828711
            ],
            [
              72.716016,
              18.830078
            ]
          ]
        ]
      }
    },
    {
      "type": "Feature",
      "properties": {
        "spill_id": "palsar_538",
        "confidence": 0.71
      },
      "geometry": {
        "type": "Polygon",
        "coordinates": [
          [
            [
              72.767969,
              18.92168
            ],
            [
              72.7625,
              18.917578
            ],
            [
              72.7625,
              18.914844
            ],
            [
              72.759766,
              18.910742
            ],
            [
              72.754297,
              18.906641
            ],
            [
              72.746094,
              18.890234
            ],
            [
              72.743359,
              18.8875
            ],
            [
              72.740625,
              18.875195
            ],
            [
              72.729688,
              18.864258
            ],
            [
              72.729688,
              18.861523
            ],
            [
              72.724219,
              18.85332
            ],
            [
              72.724219,
              18.849219
            ],
            [
              72.726953,
              18.846484
            ],
            [
              72.736523,
              18.854688
            ],
            [
              72.741992,
              18.856055
            ],
            [
              72.747461,
              18.861523
            ],
            [
              72.747461,
              18.871094
            ],
            [
              72.757031,
              18.87793
            ],
            [
              72.7625,
              18.890234
            ],
            [
              72.769336,
              18.898438
            ],
            [
              72.77207,
              18.903906
            ],
            [
              72.77207,
              18.914844
            ],
            [
              72.767969,
              18.92168
            ]
          ]
        ]
      }
    },
    {
      "type": "Feature",
      "properties": {
        "spill_id": "palsar_538",
        "confidence": 0.71
      },
      "geometry": {
        "type": "Polygon",
        "coordinates": [
          [
            [
              72.564258,
              19.076172
            ],
            [
              72.564258,
              19.074805
            ],
            [
              72.562891,
              19.073438
            ],
            [
              72.562891,
              19.069336
            ],
            [
              72.564258,
              19.069336
            ],
            [
              72.566992,
              19.066602
            ],
            [
              72.568359,
              19.066602
            ],
            [
              72.571094,
              19.063867
            ],
            [
              72.571094,
              19.0625
            ],
            [
              72.575195,
              19.058398
            ],
            [
              72.575195,
              19.057031
            ],
            [
              72.579297,
              19.05293
            ],
            [
              72.580664,
              19.05293
            ],
            [
              72.582031,
              19.051562
            ],
            [
              72.583398,
              19.051562
            ],
            [
              72.586133,
              19.054297
            ],
            [
              72.5875,
              19.054297
            ],
            [
              72.590234,
              19.057031
            ],
            [
              72.590234,
              19.061133
            ],
            [
              72.588867,
              19.0625
            ],
            [
              72.588867,
              19.065234
            ],
            [
              72.584766,
              19.069336
            ],
            [
              72.580664,
              19.069336
            ],
            [
              72.579297,
              19.070703
            ],
            [
              72.576562,
              19.070703
            ],
            [
              72.572461,
              19.074805
            ],
            [
              72.571094,
              19.074805
            ],
            [
              72.566992,
              19.077539
            ],
            [
              72.565625,
              19.077539
            ],
            [
              72.564258,
              19.076172
            ]
          ]
        ]
      }
    }
  ]
}