{
  "type": "FeatureCollection",
  "features": [
    {
      "type": "Feature",
      "properties": {
        "spill_id": "palsar_161",
        "confidence": 0.85
      },
      "geometry": {
        "type": "Polygon",
        "coordinates": [
          [
            [
              72.800781,
              18.812305
            ],
            [
              72.800781,
              18.805469
            ],
            [
              72.803516,
              18.802734
            ],
            [
              72.803516,
              18.801367
            ],
            [
              72.819922,
              18.801367
            ],
            [
              72.821289,
              18.802734
            ],
            [
              72.821289,
              18.810938
            ],
            [
              72.819922,
              18.812305
            ],
            [
              72.818555,
              18.812305
            ],
            [
              72.817187,
              18.813672
            ],
            [
              72.814453,
              18.813672
            ],
            [
              72.813086,
              18.815039
            ],
            [
              72.810352,
              18.815039
            ],
            [
              72.808984,
              18.816406
            ],
            [
              72.804883,
              18.816406
            ],
            [
              72.800781,
              18.812305
            ]
          ]
        ]
      }
    },
    {
      "type": "Feature",
      "properties": {
        "spill_id": "palsar_161",
        "confidence": 0.85
      },
      "geometry": {
        "type": "Polygon",
        "coordinates": [
          [
            [
              72.814453,
              18.966797
            ],
            [
              72.808984,
              18.955859
            ],
            [
              72.792578,
              18.938086
            ],
            [
              72.791211,
              18.93125
            ],
            [
              72.788477,
              18.928516
            ],
            [
              72.777539,
              18.928516
            ],
            [
              72.773438,
              18.924414
            ],
            [
              72.773438,
              18.917578
            ],
            [
              72.788477,
              18.899805
            ],
            [
              72.792578,
              18.899805
            ],
            [
              72.793945,
              18.906641
            ],
            [
              72.798047,
              18.910742
            ],
            [
              72.808984,
              18.914844
            ],
            [
              72.821289,
              18.895703
            ],
            [
              72.826758,
              18.869727
            ],
            [
              72.830859,
              18.865625
            ],
            [
              72.848633,
              18.861523
            ],
            [
              72.848633,
              18.917578
            ],
            [
              72.841797,
              18.917578
            ],
            [
              72.841797,
              18.909375
            ],
            [
              72.839062,
              18.906641
            ],
            [
              72.830859,
              18.912109
            ],
            [
              72.829492,
              18.920312
            ],
            [
              72.832227,
              18.933984
            ],
            [
              72.814453,
              18.966797
            ]
          ]
        ]
      }
    },
    {
      "type": "Feature",
      "properties": {
        "spill_id": "palsar_161",
        "confidence": 0.85
      },
      "geometry": {
        "type": "Polygon",
        "coordinates": [
          [
            [
              72.726953,
              18.991406
            ],
            [
              72.725586,
              18.990039
            ],
            [
              72.724219,
              18.990039
            ],
            [
              72.71875,
              18.98457
            ],
            [
              72.71875,
              18.981836
            ],
            [
              72.717383,
              18.980469
            ],
            [
              72.717383,
              18.976367
            ],
            [
              72.716016,
              18.975
            ],
            [
              72.716016,
              18.964062
            ],
            [
              72.717383,
              18.962695
            ],
            [
              72.71875,
              18.958594
            ],
            [
              72.726953,
              18.950391
            ],
            [
              72.72832,
              18.950391
            ],
            [
              72.729688,
              18.949023
            ],
            [
              72.737891,
              18.949023
            ],
            [
              72.737891,
              18.950391
            ],
            [
              72.739258,
              18.951758
            ],
            [
              72.739258,
              18.955859
            ],
            [
              72.737891,
              18.957227
            ],
            [
              72.737891,
              18.959961
            ],
            [
              72.736523,
              18.961328
            ],
            [
              72.736523,
              18.962695
            ],
            [
              72.733789,
              18.96543
            ],
            [
              72.733789,
              18.973633
            ],
            [
              72.736523,
              18.977734
            ],
            [
              72.736523,
              18.987305
            ],
            [
              72.731055,
              18.991406
            ],
            [
              72.726953,
              18.991406
            ]
          ]
        ]
      }
    },
    {
      "type": "Feature",
      "properties": {
        "spill_id": "palsar_161",
        "confidence": 0.85
      },
      "geometry": {
        "type": "Polygon",
        "coordinates": [
          [
            [
              72.795312,
              19.032422
            ],
            [
              72.793945,
              19.029687
            ],
            [
              72.795312,
              19.020117
            ],
            [
              72.803516,
              19.00918
            ],
            [
              72.800781,
              19.005078
            ],
            [
              72.800781,
              19.002344
            ],
            [
              72.814453,
              18.985938
            ],
            [
              72.821289,
              18.981836
            ],
            [
              72.824023,
              18.981836
            ],
            [
              72.833594,
              18.994141
            ],
            [
              72.844531,
              18.994141
            ],
            [
              72.848633,
              18.995508
            ],
            [
              72.848633,
              19.005078
            ],
            [
              72.845898,
              19.006445
            ],
            [
              72.839062,
              19.002344
            ],
            [
              72.826758,
              19.002344
            ],
            [
              72.822656,
              19.006445
            ],
            [
              72.819922,
              19.011914
            ],
            [
              72.818555,
              19.022852
            ],
            [
              72.814453,
              19.031055
            ],
            [
              72.810352,
              19.035156
            ],
            [
              72.804883,
              19.036523
            ],
            [
              72.795312,
              19.032422
            ]
          ]
        ]
      }
    },
    {
      "type": "Feature",
      "properties": {
        "spill_id": "palsar_161",
        "confidence": 0.85
      },
      "geometry": {
        "type": "Polygon",
        "coordinates": [
          [
            [
              72.692773,
              19.083008
            ],
            [
              72.688672,
              19.083008
            ],
            [
              72.68457,
              19.085742
            ],
            [
              72.676367,
              19.085742
            ],
            [
              72.673633,
              19.083008
            ],
            [
              72.672266,
              19.076172
            ],
            [
              72.668164,
              19.073438
            ],
            [
              72.661328,
              19.065234
            ],
            [
              72.654492,
              19.046094
            ],
            [
              72.654492,
              19.032422
            ],
            [
              72.658594,
              19.024219
            ],
            [
              72.664062,
              19.022852
            ],
            [
              72.668164,
              19.025586
            ],
            [
              72.668164,
              19.037891
            ],
            [
              72.673633,
              19.047461
            ],
            [
              72.676367,
              19.057031
            ],
            [
              72.681836,
              19.0625
            ],
            [
              72.696875,
              19.0625
            ],
            [
              72.699609,
              19.066602
            ],
            [
              72.699609,
              19.074805
            ],
            [
              72.692773,
              19.083008
            ]
          ]
        ]
      }
    },
    {
      "type": "Feature",
      "properties": {
        "spill_id": "palsar_161",
        "confidence": 0.85
      },
      "geometry": {
        "type": "Polygon",
        "coordinates": [
          [
            [
              72.757031,
              19.089844
            ],
            [
              72.755664,
              19.088477
            ],
            [
              72.754297,
              19.088477
            ],
            [
              72.754297,
              19.087109
            ],
            [
              72.755664,
              19.085742
            ],
            [
              72.755664,
              19.084375
            ],
            [
              72.757031,
              19.083008
            ],
            [
              72.757031,
              19.081641
            ],
            [
              72.759766,
              19.078906
            ],
            [
              72.759766,
              19.076172
            ],
            [
              72.7625,
              19.073438
            ],
            [
              72.7625,
              19.07207
            ],
            [
              72.765234,
              19.069336
            ],
            [
              72.766602,
              19.070703
            ],
            [
              72.766602,
              19.07207
            ],
            [
              72.767969,
              19.073438
            ],
            [
              72.767969,
              19.074805
            ],
            [
              72.769336,
              19.076172
            ],
            [
              72.769336,
              19.083008
            ],
            [
              72.767969,
              19.084375
            ],
            [
              72.767969,
              19.085742
            ],
            [
              72.763867,
              19.089844
            ],
            [
              72.757031,
              19.089844
            ]
          ]
        ]
      }
    },
    {
      "type": "Feature",
      "properties": {
        "spill_id": "palsar_161",
        "confidence": 0.85
      },
      "geometry": {
        "type": "Polygon",
        "coordinates": [
          [
            [
              72.763867,
              19.15
            ],
            [
              72.766602,
              19.141797
            ],
            [
              72.774805,
              19.129492
            ],
            [
              72.778906,
              19.125391
            ],
            [
              72.792578,
              19.119922
            ],
            [
              72.799414,
              19.113086
            ],
            [
              72.810352,
              19.11582
            ],
            [
              72.832227,
              19.102148
            ],
            [
              72.84043,
              19.102148
            ],
            [
              72.843164,
              19.104883
            ],
            [
              72.839062,
              19.108984
            ],
            [
              72.832227,
              19.111719
            ],
            [
              72.824023,
              19.119922
            ],
            [
              72.813086,
              19.122656
            ],
            [
              72.80625,
              19.122656
            ],
            [
              72.799414,
              19.130859
            ],
            [
              72.777539,
              19.143164
            ],
            [
              72.77207,
              19.15
            ],
            [
              72.763867,
              19.15
            ]
          ]
        ]
      }
    },
    {
      "type": "Feature",
      "properties": {
        "spill_id": "palsar_161",
        "confidence": 0.85
      },
      "geometry": {
        "type": "Polygon",
        "coordinates": [
          [
            [
              72.536914,
              19.15
            ],
            [
              72.538281,
              19.137695
            ],
            [
              72.556055,
              19.122656
            ],
            [
              72.556055,
              19.110352
            ],
            [
              72.5875,
              19.040625
            ],
            [
              72.609375,
              19.017383
            ],
            [
              72.620312,
              18.977734
            ],
            [
              72.64082,
              18.955859
            ],
            [
              72.646289,
              18.936719
            ],
            [
              72.669531,
              18.938086
            ],
            [
              72.673633,
              18.916211
            ],
            [
              72.687305,
              18.910742
            ],
            [
              72.688672,
              18.924414
            ],
            [
              72.669531,
              18.938086
            ],
            [
              72.657227,
              18.961328
            ],
            [
              72.650391,
              18.985938
            ],
            [
              72.650391,
              19.017383
            ],
            [
              72.623047,
              19.041992
            ],
            [
              72.627148,
              19.130859
            ],
            [
              72.62168,
              19.143164
            ],
            [
              72.601172,
              19.14043
            ],
            [
              72.601172,
              19.118555
            ],
            [
              72.591602,
              19.103516
            ],
            [
              72.557422,
              19.15
            ],
            [
              72.536914,
              19.15
            ]
          ]
        ]
      }
    }
  ]
}