{
  "type": "FeatureCollection",
  "features": [
    {
      "type": "Feature",
      "properties": {
        "spill_id": "palsar_516",
        "confidence": 0.89
      },
      "geometry": {
        "type": "Polygon",
        "coordinates": [
          [
            [
              72.792578,
              18.912109
            ],
            [
              72.739258,
              18.917578
            ],
            [
              72.735156,
              18.935352
            ],
            [
              72.717383,
              18.954492
            ],
            [
              72.698242,
              18.944922
            ],
            [
              72.653125,
              18.944922
            ],
            [
              72.628516,
              18.933984
            ],
            [
              72.614844,
              18.935352
            ],
            [
              72.612109,
              18.924414
            ],
            [
              72.588867,
              18.939453
            ],
            [
              72.551953,
              18.949023
            ],
            [
              72.50957,
              18.951758
            ],
            [
              72.5,
              18.946289
            ],
            [
              72.501367,
              18.888867
            ],
            [
              72.583398,
              18.879297
            ],
            [
              72.612109,
              18.891602
            ],
            [
              72.617578,
              18.899805
            ],
            [
              72.625781,
              18.872461
            ],
            [
              72.662695,
              18.87793
            ],
            [
              72.679102,
              18.871094
            ],
            [
              72.68457,
              18.858789
            ],
            [
              72.692773,
              18.856055
            ],
            [
              72.780273,
              18.876562
            ],
            [
              72.792578,
              18.912109
            ]
          ]
        ]
      }
    },
    {
      "type": "Feature",
      "properties": {
        "spill_id": "palsar_516",
        "confidence": 0.89
      },
      "geometry": {
        "type": "Polygon",
        "coordinates": [
          [
            [
              72.66543,
              19.014648
            ],
            [
              72.658594,
              19.017383
            ],
            [
              72.657227,
              19.016016
            ],
            [
              72.655859,
              19.016016
            ],
            [
              72.655859,
              19.014648
            ],
            [
              72.653125,
              19.010547
            ],
            [
              72.649023,
              19.010547
            ],
            [
              72.647656,
              19.00918
            ],
            [
              72.644922,
              19.00918
            ],
            [
              72.643555,
              19.007812
            ],
            [
              72.642187,
              19.007812
            ],
            [
              72.64082,
              19.006445
            ],
            [
              72.638086,
              19.006445
            ],
            [
              72.636719,
              19.005078
            ],
            [
              72.63125,
              19.005078
            ],
            [
              72.627148,
              19.000977
            ],
            [
              72.625781,
              18.996875
            ],
            [
              72.623047,
              18.994141
            ],
            [
              72.623047,
              18.991406
            ],
            [
              72.628516,
              18.98457
            ],
            [
              72.632617,
              18.98457
            ],
            [
              72.633984,
              18.985938
            ],
            [
              72.635352,
              18.985938
            ],
            [
              72.639453,
              18.990039
            ],
            [
              72.642187,
              18.990039
            ],
            [
              72.643555,
              18.991406
            ],
            [
              72.647656,
              18.992773
            ],
            [
              72.650391,
              18.995508
            ],
            [
              72.651758,
              18.995508
            ],
            [
              72.657227,
              19.000977
            ],
            [
              72.657227,
              19.002344
            ],
            [
              72.661328,
              19.006445
            ],
            [
              72.662695,
              19.006445
            ],
            [
              72.662695,
              19.007812
            ],
            [
              72.66543,
              19.010547
            ],
            [
              72.66543,
              19.014648
            ]
          ]
        ]
      }
    },
    {
      "type": "Feature",
      "properties": {
        "spill_id": "palsar_516",
        "confidence": 0.89
      },
      "geometry": {
        "type": "Polygon",
        "coordinates": [
          [
            [
              72.783008,
              19.037891
            ],
            [
              72.778906,
              19.037891
            ],
            [
              72.777539,
              19.036523
            ],
            [
              72.776172,
              19.036523
            ],
            [
              72.776172,
              19.035156
            ],
            [
              72.774805,
              19.033789
            ],
            [
              72.774805,
              19.031055
            ],
            [
              72.773438,
              19.029687
            ],
            [
              72.773438,
              19.026953
            ],
            [
              72.77207,
              19.025586
            ],
            [
              72.77207,
              19.024219
            ],
            [
              72.773438,
              19.022852
            ],
            [
              72.773438,
              19.021484
            ],
            [
              72.777539,
              19.021484
            ],
            [
              72.781641,
              19.025586
            ],
            [
              72.781641,
              19.026953
            ],
            [
              72.783008,
              19.02832
            ],
            [
              72.783008,
              19.032422
            ],
            [
              72.784375,
              19.033789
            ],
            [
              72.784375,
              19.036523
            ],
            [
              72.783008,
              19.037891
            ]
          ]
        ]
      }
    }
  ]
}