{
  "type": "FeatureCollection",
  "features": [
    {
      "type": "Feature",
      "properties": {
        "spill_id": "palsar_38",
        "confidence": 0.84
      },
      "geometry": {
        "type": "Polygon",
        "coordinates": [
          [
            [
              72.5,
              18.845117
            ],
            [
              72.5,
              18.820508
            ],
            [
              72.513672,
              18.812305
            ],
            [
              72.516406,
              18.812305
            ],
            [
              72.53418,
              18.801367
            ],
            [
              72.549219,
              18.801367
            ],
            [
              72.550586,
              18.802734
            ],
            [
              72.550586,
              18.80957
            ],
            [
              72.549219,
              18.812305
            ],
            [
              72.535547,
              18.820508
            ],
            [
              72.528711,
              18.827344
            ],
            [
              72.525977,
              18.835547
            ],
            [
              72.517773,
              18.84375
            ],
            [
              72.5,
              18.845117
            ]
          ]
        ]
      }
    },
    {
      "type": "Feature",
      "properties": {
        "spill_id": "palsar_38",
        "confidence": 0.84
      },
      "geometry": {
        "type": "Polygon",
        "coordinates": [
          [
            [
              72.521875,
              18.8875
            ],
            [
              72.520508,
              18.886133
            ],
            [
              72.520508,
              18.879297
            ],
            [
              72.524609,
              18.875195
            ],
            [
              72.528711,
              18.866992
            ],
            [
              72.528711,
              18.864258
            ],
            [
              72.531445,
              18.861523
            ],
            [
              72.531445,
              18.860156
            ],
            [
              72.532812,
              18.860156
            ],
            [
              72.538281,
              18.856055
            ],
            [
              72.541016,
              18.856055
            ],
            [
              72.542383,
              18.854688
            ],
            [
              72.545117,
              18.854688
            ],
            [
              72.547852,
              18.85332
            ],
            [
              72.554688,
              18.847852
            ],
            [
              72.560156,
              18.847852
            ],
            [
              72.561523,
              18.849219
            ],
            [
              72.561523,
              18.856055
            ],
            [
              72.558789,
              18.861523
            ],
            [
              72.554688,
              18.865625
            ],
            [
              72.549219,
              18.868359
            ],
            [
              72.542383,
              18.876562
            ],
            [
              72.542383,
              18.87793
            ],
            [
              72.541016,
              18.87793
            ],
            [
              72.531445,
              18.886133
            ],
            [
              72.528711,
              18.8875
            ],
            [
              72.521875,
              18.8875
            ]
          ]
        ]
      }
    },
    {
      "type": "Feature",
      "properties": {
        "spill_id": "palsar_38",
        "confidence": 0.84
      },
      "geometry": {
        "type": "Polygon",
        "coordinates": [
          [
            [
              72.5,
              18.909375
            ],
            [
              72.5,
              18.895703
            ],
            [
              72.504102,
              18.895703
            ],
            [
              72.505469,
              18.894336
            ],
            [
              72.506836,
              18.895703
            ],
            [
              72.50957,
              18.895703
            ],
            [
              72.510938,
              18.89707
            ],
            [
              72.510938,
              18.902539
            ],
            [
              72.50957,
              18.903906
            ],
            [
              72.50957,
              18.905273
            ],
            [
              72.508203,
              18.906641
            ],
            [
              72.508203,
              18.908008
            ],
            [
              72.506836,
              18.909375
            ],
            [
              72.5,
              18.909375
            ]
          ]
        ]
      }
    },
    {
      "type": "Feature",
      "properties": {
        "spill_id": "palsar_38",
        "confidence": 0.84
      },
      "geometry": {
        "type": "Polygon",
        "coordinates": [
          [
            [
              72.554688,
              18.906641
            ],
            [
              72.556055,
              18.89707
            ],
            [
              72.573828,
              18.8875
            ],
            [
              72.576562,
              18.875195
            ],
            [
              72.584766,
              18.865625
            ],
            [
              72.638086,
              18.831445
            ],
            [
              72.654492,
              18.804102
            ],
            [
              72.662695,
              18.801367
            ],
            [
              72.672266,
              18.806836
            ],
            [
              72.680469,
              18.801367
            ],
            [
              72.702344,
              18.802734
            ],
            [
              72.680469,
              18.820508
            ],
            [
              72.679102,
              18.835547
            ],
            [
              72.668164,
              18.841016
            ],
            [
              72.644922,
              18.839648
            ],
            [
              72.635352,
              18.847852
            ],
            [
              72.609375,
              18.879297
            ],
            [
              72.598438,
              18.909375
            ],
            [
              72.599805,
              18.92168
            ],
            [
              72.594336,
              18.929883
            ],
            [
              72.588867,
              18.929883
            ],
            [
              72.576562,
              18.912109
            ],
            [
              72.554688,
              18.906641
            ]
          ]
        ]
      }
    },
    {
      "type": "Feature",
      "properties": {
        "spill_id": "palsar_38",
        "confidence": 0.84
      },
      "geometry": {
        "type": "Polygon",
        "coordinates": [
          [
            [
              72.506836,
              19.037891
            ],
            [
              72.505469,
              19.035156
            ],
            [
              72.506836,
              19.031055
            ],
            [
              72.50957,
              19.02832
            ],
            [
              72.515039,
              19.02832
            ],
            [
              72.520508,
              19.024219
            ],
            [
              72.523242,
              19.017383
            ],
            [
              72.523242,
              19.011914
            ],
            [
              72.525977,
              19.006445
            ],
            [
              72.535547,
              18.995508
            ],
            [
              72.542383,
              18.991406
            ],
            [
              72.551953,
              18.991406
            ],
            [
              72.554688,
              18.994141
            ],
            [
              72.554688,
              19.002344
            ],
            [
              72.551953,
              19.006445
            ],
            [
              72.546484,
              19.011914
            ],
            [
              72.545117,
              19.011914
            ],
            [
              72.53418,
              19.024219
            ],
            [
              72.532812,
              19.024219
            ],
            [
              72.528711,
              19.02832
            ],
            [
              72.521875,
              19.031055
            ],
            [
              72.517773,
              19.037891
            ],
            [
              72.515039,
              19.037891
            ],
            [
              72.513672,
              19.039258
            ],
            [
              72.50957,
              19.039258
            ],
            [
              72.506836,
              19.037891
            ]
          ]
        ]
      }
    },
    {
      "type": "Feature",
      "properties": {
        "spill_id": "palsar_38",
        "confidence": 0.84
      },
      "geometry": {
        "type": "Polygon",
        "coordinates": [
          [
            [
              72.516406,
              19.092578
            ],
            [
              72.515039,
              19.091211
            ],
            [
              72.515039,
              19.089844
            ],
            [
              72.513672,
              19.088477
            ],
            [
              72.513672,
              19.085742
            ],
            [
              72.515039,
              19.084375
            ],
            [
              72.516406,
              19.084375
            ],
            [
              72.517773,
              19.083008
            ],
            [
              72.520508,
              19.083008
            ],
            [
              72.521875,
              19.084375
            ],
            [
              72.521875,
              19.085742
            ],
            [
              72.523242,
              19.087109
            ],
            [
              72.523242,
              19.091211
            ],
            [
              72.521875,
              19.092578
            ],
            [
              72.516406,
              19.092578
            ]
          ]
        ]
      }
    },
    {
      "type": "Feature",
      "properties": {
        "spill_id": "palsar_38",
        "confidence": 0.84
      },
      "geometry": {
        "type": "Polygon",
        "coordinates": [
          [
            [
              72.699609,
              19.14043
            ],
            [
              72.703711,
              19.136328
            ],
            [
              72.706445,
              19.136328
            ],
            [
              72.707812,
              19.134961
            ],
            [
              72.713281,
              19.134961
            ],
            [
              72.714648,
              19.136328
            ],
            [
              72.716016,
              19.136328
            ],
            [
              72.717383,
              19.137695
            ],
            [
              72.71875,
              19.137695
            ],
            [
              72.721484,
              19.14043
            ],
            [
              72.722852,
              19.14043
            ],
            [
              72.726953,
              19.144531
            ],
            [
              72.726953,
              19.145898
            ],
            [
              72.72832,
              19.147266
            ],
            [
              72.72832,
              19.15
            ],
            [
              72.705078,
              19.15
            ],
            [
              72.702344,
              19.147266
            ],
            [
              72.702344,
              19.145898
            ],
            [
              72.699609,
              19.143164
            ],
            [
              72.699609,
              19.14043
            ]
          ]
        ]
      }
    },
    {
      "type": "Feature",
      "properties": {
        "spill_id": "palsar_38",
        "confidence": 0.84
      },
      "geometry": {
        "type": "Polygon",
        "coordinates": [
          [
            [
              72.673633,
              19.147266
            ],
            [
              72.673633,
              19.144531
            ],
            [
              72.675,
              19.143164
            ],
            [
              72.675,
              19.14043
            ],
            [
              72.676367,
              19.139062
            ],
            [
              72.677734,
              19.139062
            ],
            [
              72.679102,
              19.137695
            ],
            [
              72.683203,
              19.137695
            ],
            [
              72.68457,
              19.139062
            ],
            [
              72.685938,
              19.139062
            ],
            [
              72.687305,
              19.14043
            ],
            [
              72.688672,
              19.14043
            ],
            [
              72.691406,
              19.143164
            ],
            [
              72.691406,
              19.147266
            ],
            [
              72.690039,
              19.148633
            ],
            [
              72.690039,
              19.15
            ],
            [
              72.675,
              19.15
            ],
            [
              72.675,
              19.148633
            ],
            [
              72.673633,
              19.147266
            ]
          ]
        ]
      }
    }
  ]
}