{
  "type": "FeatureCollection",
  "features": [
    {
      "type": "Feature",
      "properties": {
        "spill_id": "palsar_255",
        "confidence": 0.81
      },
      "geometry": {
        "type": "Polygon",
        "coordinates": [
          [
            [
              72.732422,
              18.813672
            ],
            [
              72.732422,
              18.808203
            ],
            [
              72.733789,
              18.806836
            ],
            [
              72.735156,
              18.806836
            ],
            [
              72.736523,
              18.805469
            ],
            [
              72.744727,
              18.805469
            ],
            [
              72.746094,
              18.806836
            ],
            [
              72.747461,
              18.806836
            ],
            [
              72.748828,
              18.808203
            ],
            [
              72.750195,
              18.808203
            ],
            [
              72.750195,
              18.80957
            ],
            [
              72.751562,
              18.810938
            ],
            [
              72.750195,
              18.812305
            ],
            [
              72.739258,
              18.812305
            ],
            [
              72.737891,
              18.813672
            ],
            [
              72.732422,
              18.813672
            ]
          ]
        ]
      }
    },
    {
      "type": "Feature",
      "properties": {
        "spill_id": "palsar_255",
        "confidence": 0.81
      },
      "geometry": {
        "type": "Polygon",
        "coordinates": [
          [
            [
              72.610742,
              18.842383
            ],
            [
              72.610742,
              18.836914
            ],
            [
              72.612109,
              18.835547
            ],
            [
              72.612109,
              18.83418
            ],
            [
              72.617578,
              18.828711
            ],
            [
              72.617578,
              18.827344
            ],
            [
              72.62168,
              18.827344
            ],
            [
              72.623047,
              18.825977
            ],
            [
              72.624414,
              18.827344
            ],
            [
              72.625781,
              18.827344
            ],
            [
              72.63125,
              18.832812
            ],
            [
              72.63125,
              18.835547
            ],
            [
              72.625781,
              18.841016
            ],
            [
              72.624414,
              18.841016
            ],
            [
              72.623047,
              18.842383
            ],
            [
              72.620312,
              18.842383
            ],
            [
              72.618945,
              18.84375
            ],
            [
              72.612109,
              18.84375
            ],
            [
              72.610742,
              18.842383
            ]
          ]
        ]
      }
    },
    {
      "type": "Feature",
      "properties": {
        "spill_id": "palsar_255",
        "confidence": 0.81
      },
      "geometry": {
        "type": "Polygon",
        "coordinates": [
          [
            [
              72.564258,
              18.860156
            ],
            [
              72.562891,
              18.858789
            ],
            [
              72.562891,
              18.85332
            ],
            [
              72.565625,
              18.850586
            ],
            [
              72.565625,
              18.849219
            ],
            [
              72.569727,
              18.845117
            ],
            [
              72.571094,
              18.845117
            ],
            [
              72.573828,
              18.842383
            ],
            [
              72.575195,
              18.84375
            ],
            [
              72.576562,
              18.842383
            ],
            [
              72.57793,
              18.84375
            ],
            [
              72.57793,
              18.849219
            ],
            [
              72.576562,
              18.850586
            ],
            [
              72.576562,
              18.856055
            ],
            [
              72.575195,
              18.857422
            ],
            [
              72.575195,
              18.858789
            ],
            [
              72.572461,
              18.861523
            ],
            [
              72.571094,
              18.861523
            ],
            [
              72.569727,
              18.860156
            ],
            [
              72.564258,
              18.860156
            ]
          ]
        ]
      }
    },
    {
      "type": "Feature",
      "properties": {
        "spill_id": "palsar_255",
        "confidence": 0.81
      },
      "geometry": {
        "type": "Polygon",
        "coordinates": [
          [
            [
              72.713281,
              18.939453
            ],
            [
              72.706445,
              18.939453
            ],
            [
              72.703711,
              18.936719
            ],
            [
              72.703711,
              18.935352
            ],
            [
              72.702344,
              18.933984
            ],
            [
              72.702344,
              18.927148
            ],
            [
              72.705078,
              18.924414
            ],
            [
              72.70918,
              18.924414
            ],
            [
              72.710547,
              18.925781
            ],
            [
              72.710547,
              18.927148
            ],
            [
              72.713281,
              18.929883
            ],
            [
              72.713281,
              18.933984
            ],
            [
              72.714648,
              18.935352
            ],
            [
              72.714648,
              18.936719
            ],
            [
              72.713281,
              18.938086
            ],
            [
              72.713281,
              18.939453
            ]
          ]
        ]
      }
    },
    {
      "type": "Feature",
      "properties": {
        "spill_id": "palsar_255",
        "confidence": 0.81
      },
      "geometry": {
        "type": "Polygon",
        "coordinates": [
          [
            [
              72.746094,
              18.973633
            ],
            [
              72.748828,
              18.962695
            ],
            [
              72.746094,
              18.958594
            ],
            [
              72.747461,
              18.957227
            ],
            [
              72.743359,
              18.946289
            ],
            [
              72.746094,
              18.939453
            ],
            [
              72.751562,
              18.936719
            ],
            [
              72.766602,
              18.920312
            ],
            [
              72.780273,
              18.916211
            ],
            [
              72.800781,
              18.916211
            ],
            [
              72.802148,
              18.914844
            ],
            [
              72.811719,
              18.916211
            ],
            [
              72.817187,
              18.920312
            ],
            [
              72.818555,
              18.925781
            ],
            [
              72.813086,
              18.936719
            ],
            [
              72.793945,
              18.947656
            ],
            [
              72.788477,
              18.957227
            ],
            [
              72.781641,
              18.964062
            ],
            [
              72.776172,
              18.966797
            ],
            [
              72.754297,
              18.96543
            ],
            [
              72.75293,
              18.964062
            ],
            [
              72.750195,
              18.968164
            ],
            [
              72.750195,
              18.973633
            ],
            [
              72.748828,
              18.975
            ],
            [
              72.746094,
              18.973633
            ]
          ]
        ]
      }
    },
    {
      "type": "Feature",
      "properties": {
        "spill_id": "palsar_255",
        "confidence": 0.81
      },
      "geometry": {
        "type": "Polygon",
        "coordinates": [
          [
            [
              72.508203,
              19.010547
            ],
            [
              72.506836,
              19.00918
            ],
            [
              72.506836,
              18.994141
            ],
            [
              72.502734,
              18.991406
            ],
            [
              72.5,
              18.991406
            ],
            [
              72.5,
              18.983203
            ],
            [
              72.501367,
              18.98457
            ],
            [
              72.504102,
              18.983203
            ],
            [
              72.50957,
              18.977734
            ],
            [
              72.523242,
              18.957227
            ],
            [
              72.525977,
              18.955859
            ],
            [
              72.530078,
              18.955859
            ],
            [
              72.53418,
              18.958594
            ],
            [
              72.53418,
              18.966797
            ],
            [
              72.531445,
              18.969531
            ],
            [
              72.525977,
              18.980469
            ],
            [
              72.525977,
              18.983203
            ],
            [
              72.524609,
              18.98457
            ],
            [
              72.524609,
              18.990039
            ],
            [
              72.523242,
              18.991406
            ],
            [
              72.523242,
              18.994141
            ],
            [
              72.520508,
              18.996875
            ],
            [
              72.520508,
              19.000977
            ],
            [
              72.519141,
              19.002344
            ],
            [
              72.519141,
              19.00918
            ],
            [
              72.508203,
              19.010547
            ]
          ]
        ]
      }
    },
    {
      "type": "Feature",
      "properties": {
        "spill_id": "palsar_255",
        "confidence": 0.81
      },
      "geometry": {
        "type": "Polygon",
        "coordinates": [
          [
            [
              72.777539,
              19.011914
            ],
            [
              72.777539,
              19.00918
            ],
            [
              72.781641,
              19.003711
            ],
            [
              72.788477,
              19.000977
            ],
            [
              72.793945,
              18.995508
            ],
            [
              72.795312,
              18.995508
            ],
            [
              72.798047,
              18.992773
            ],
            [
              72.800781,
              18.992773
            ],
            [
              72.80625,
              18.988672
            ],
            [
              72.807617,
              18.988672
            ],
            [
              72.811719,
              18.985938
            ],
            [
              72.814453,
              18.985938
            ],
            [
              72.818555,
              18.988672
            ],
            [
              72.818555,
              18.990039
            ],
            [
              72.819922,
              18.991406
            ],
            [
              72.819922,
              18.994141
            ],
            [
              72.817187,
              18.996875
            ],
            [
              72.814453,
              18.996875
            ],
            [
              72.813086,
              18.998242
            ],
            [
              72.80625,
              19.000977
            ],
            [
              72.79668,
              19.010547
            ],
            [
              72.792578,
              19.010547
            ],
            [
              72.791211,
              19.011914
            ],
            [
              72.787109,
              19.011914
            ],
            [
              72.785742,
              19.013281
            ],
            [
              72.778906,
              19.013281
            ],
            [
              72.777539,
              19.011914
            ]
          ]
        ]
      }
    },
    {
      "type": "Feature",
      "properties": {
        "spill_id": "palsar_255",
        "confidence": 0.81
      },
      "geometry": {
        "type": "Polygon",
        "coordinates": [
          [
            [
              72.650391,
              19.059766
            ],
            [
              72.644922,
              19.059766
            ],
            [
              72.633984,
              19.051562
            ],
            [
              72.63125,
              19.043359
            ],
            [
              72.63125,
              19.037891
            ],
            [
              72.625781,
              19.029687
            ],
            [
              72.620312,
              19.017383
            ],
            [
              72.620312,
              19.007812
            ],
            [
              72.625781,
              19.002344
            ],
            [
              72.628516,
              19.000977
            ],
            [
              72.632617,
              19.002344
            ],
            [
              72.633984,
              19.000977
            ],
            [
              72.638086,
              19.000977
            ],
            [
              72.639453,
              18.999609
            ],
            [
              72.639453,
              18.994141
            ],
            [
              72.647656,
              18.991406
            ],
            [
              72.650391,
              18.992773
            ],
            [
              72.651758,
              18.996875
            ],
            [
              72.647656,
              19.002344
            ],
            [
              72.644922,
              19.003711
            ],
            [
              72.643555,
              19.002344
            ],
            [
              72.64082,
              19.005078
            ],
            [
              72.64082,
              19.016016
            ],
            [
              72.643555,
              19.022852
            ],
            [
              72.643555,
              19.033789
            ],
            [
              72.646289,
              19.041992
            ],
            [
              72.653125,
              19.05293
            ],
            [
              72.653125,
              19.057031
            ],
            [
              72.650391,
              19.059766
            ]
          ]
        ]
      }
    },
    {
      "type": "Feature",
      "properties": {
        "spill_id": "palsar_255",
        "confidence": 0.81
      },
      "geometry": {
        "type": "Polygon",
        "coordinates": [
          [
            [
              72.643555,
              19.119922
            ],
            [
              72.647656,
              19.107617
            ],
            [
              72.687305,
              19.069336
            ],
            [
              72.698242,
              19.051562
            ],
            [
              72.711914,
              19.039258
            ],
            [
              72.71875,
              19.037891
            ],
            [
              72.731055,
              19.043359
            ],
            [
              72.735156,
              19.047461
            ],
            [
              72.735156,
              19.054297
            ],
            [
              72.721484,
              19.067969
            ],
            [
              72.720117,
              19.080273
            ],
            [
              72.710547,
              19.091211
            ],
            [
              72.703711,
              19.103516
            ],
            [
              72.681836,
              19.114453
            ],
            [
              72.66543,
              19.113086
            ],
            [
              72.654492,
              19.121289
            ],
            [
              72.643555,
              19.119922
            ]
          ]
        ]
      }
    },
    {
      "type": "Feature",
      "properties": {
        "spill_id": "palsar_255",
        "confidence": 0.81
      },
      "geometry": {
        "type": "Polygon",
        "coordinates": [
          [
            [
              72.603906,
              19.139062
            ],
            [
              72.603906,
              19.133594
            ],
            [
              72.605273,
              19.132227
            ],
            [
              72.605273,
              19.129492
            ],
            [
              72.608008,
              19.126758
            ],
            [
              72.608008,
              19.125391
            ],
            [
              72.610742,
              19.122656
            ],
            [
              72.613477,
              19.122656
            ],
            [
              72.614844,
              19.121289
            ],
            [
              72.616211,
              19.121289
            ],
            [
              72.617578,
              19.122656
            ],
            [
              72.618945,
              19.122656
            ],
            [
              72.620312,
              19.124023
            ],
            [
              72.62168,
              19.124023
            ],
            [
              72.623047,
              19.125391
            ],
            [
              72.625781,
              19.125391
            ],
            [
              72.627148,
              19.126758
            ],
            [
              72.627148,
              19.130859
            ],
            [
              72.625781,
              19.132227
            ],
            [
              72.625781,
              19.133594
            ],
            [
              72.624414,
              19.134961
            ],
            [
              72.624414,
              19.136328
            ],
            [
              72.620312,
              19.14043
            ],
            [
              72.618945,
              19.14043
            ],
            [
              72.617578,
              19.141797
            ],
            [
              72.614844,
              19.141797
            ],
            [
              72.613477,
              19.143164
            ],
            [
              72.608008,
              19.143164
            ],
            [
              72.603906,
              19.139062
            ]
          ]
        ]
      }
    },
    {
      "type": "Feature",
      "properties": {
        "spill_id": "palsar_255",
        "confidence": 0.81
      },
      "geometry": {
        "type": "Polygon",
        "coordinates": [
          [
            [
              72.711914,
              19.15
            ],
            [
              72.711914,
              19.147266
            ],
            [
              72.713281,
              19.145898
            ],
            [
              72.714648,
              19.145898
            ],
            [
              72.717383,
              19.143164
            ],
            [
              72.726953,
              19.143164
            ],
            [
              72.729688,
              19.145898
            ],
            [
              72.729688,
              19.15
            ],
            [
              72.711914,
              19.15
            ]
          ]
        ]
      }
    },
    {
      "type": "Feature",
      "properties": {
        "spill_id": "palsar_255",
        "confidence": 0.81
      },
      "geometry": {
        "type": "Polygon",
        "coordinates": [
          [
            [
              72.666797,
              19.15
            ],
            [
              72.668164,
              19.148633
            ],
            [
              72.668164,
              19.145898
            ],
            [
              72.669531,
              19.144531
            ],
            [
              72.669531,
              19.143164
            ],
            [
              72.670898,
              19.141797
            ],
            [
              72.673633,
              19.141797
            ],
            [
              72.675,
              19.14043
            ],
            [
              72.676367,
              19.141797
            ],
            [
              72.679102,
              19.141797
            ],
            [
              72.680469,
              19.143164
            ],
            [
              72.688672,
              19.143164
            ],
            [
              72.691406,
              19.145898
            ],
            [
              72.690039,
              19.147266
            ],
            [
              72.690039,
              19.15
            ],
            [
              72.666797,
              19.15
            ]
          ]
        ]
      }
    }
  ]
}