{
  "type": "FeatureCollection",
  "features": [
    {
      "type": "Feature",
      "properties": {
        "spill_id": "palsar_584",
        "confidence": 0.93
      },
      "geometry": {
        "type": "Polygon",
        "coordinates": [
          [
            [
              72.848633,
              18.865625
            ],
            [
              72.80625,
              18.87793
            ],
            [
              72.789844,
              18.872461
            ],
            [
              72.785742,
              18.866992
            ],
            [
              72.787109,
              18.857422
            ],
            [
              72.776172,
              18.851953
            ],
            [
              72.769336,
              18.85332
            ],
            [
              72.765234,
              18.858789
            ],
            [
              72.751562,
              18.860156
            ],
            [
              72.714648,
              18.857422
            ],
            [
              72.70918,
              18.851953
            ],
            [
              72.710547,
              18.84375
            ],
            [
              72.71875,
              18.83418
            ],
            [
              72.729688,
              18.831445
            ],
            [
              72.733789,
              18.824609
            ],
            [
              72.72832,
              18.821875
            ],
            [
              72.713281,
              18.828711
            ],
            [
              72.711914,
              18.812305
            ],
            [
              72.71875,
              18.801367
            ],
            [
              72.848633,
              18.801367
            ],
            [
              72.848633,
              18.865625
            ]
          ]
        ]
      }
    },
    {
      "type": "Feature",
      "properties": {
        "spill_id": "palsar_584",
        "confidence": 0.93
      },
      "geometry": {
        "type": "Polygon",
        "coordinates": [
          [
            [
              72.650391,
              18.886133
            ],
            [
              72.649023,
              18.884766
            ],
            [
              72.647656,
              18.884766
            ],
            [
              72.647656,
              18.883398
            ],
            [
              72.644922,
              18.880664
            ],
            [
              72.644922,
              18.879297
            ],
            [
              72.64082,
              18.875195
            ],
            [
              72.64082,
              18.872461
            ],
            [
              72.639453,
              18.871094
            ],
            [
              72.639453,
              18.868359
            ],
            [
              72.642187,
              18.864258
            ],
            [
              72.643555,
              18.864258
            ],
            [
              72.650391,
              18.858789
            ],
            [
              72.651758,
              18.858789
            ],
            [
              72.653125,
              18.857422
            ],
            [
              72.661328,
              18.857422
            ],
            [
              72.662695,
              18.858789
            ],
            [
              72.664062,
              18.858789
            ],
            [
              72.666797,
              18.861523
            ],
            [
              72.666797,
              18.862891
            ],
            [
              72.668164,
              18.864258
            ],
            [
              72.668164,
              18.872461
            ],
            [
              72.666797,
              18.873828
            ],
            [
              72.666797,
              18.876562
            ],
            [
              72.66543,
              18.87793
            ],
            [
              72.66543,
              18.882031
            ],
            [
              72.662695,
              18.884766
            ],
            [
              72.659961,
              18.884766
            ],
            [
              72.658594,
              18.886133
            ],
            [
              72.650391,
              18.886133
            ]
          ]
        ]
      }
    }
  ]
}