{
  "type": "FeatureCollection",
  "features": [
    {
      "type": "Feature",
      "properties": {
        "spill_id": "palsar_165",
        "confidence": 0.83
      },
      "geometry": {
        "type": "Polygon",
        "coordinates": [
          [
            [
              72.5,
              18.858789
            ],
            [
              72.5,
              18.846484
            ],
            [
              72.525977,
              18.830078
            ],
            [
              72.539648,
              18.801367
            ],
            [
              72.610742,
              18.802734
            ],
            [
              72.610742,
              18.808203
            ],
            [
              72.601172,
              18.823242
            ],
            [
              72.592969,
              18.825977
            ],
            [
              72.586133,
              18.817773
            ],
            [
              72.57793,
              18.817773
            ],
            [
              72.571094,
              18.812305
            ],
            [
              72.564258,
              18.813672
            ],
            [
              72.550586,
              18.827344
            ],
            [
              72.531445,
              18.841016
            ],
            [
              72.515039,
              18.860156
            ],
            [
              72.505469,
              18.861523
            ],
            [
              72.5,
              18.858789
            ]
          ]
        ]
      }
    },
    {
      "type": "Feature",
      "properties": {
        "spill_id": "palsar_165",
        "confidence": 0.83
      },
      "geometry": {
        "type": "Polygon",
        "coordinates": [
          [
            [
              72.804883,
              18.879297
            ],
            [
              72.80625,
              18.87793
            ],
            [
              72.80625,
              18.875195
            ],
            [
              72.811719,
              18.869727
            ],
            [
              72.81582,
              18.868359
            ],
            [
              72.819922,
              18.864258
            ],
            [
              72.819922,
              18.861523
            ],
            [
              72.821289,
              18.860156
            ],
            [
              72.821289,
              18.856055
            ],
            [
              72.825391,
              18.847852
            ],
            [
              72.828125,
              18.845117
            ],
            [
              72.833594,
              18.842383
            ],
            [
              72.836328,
              18.842383
            ],
            [
              72.837695,
              18.84375
            ],
            [
              72.843164,
              18.84375
            ],
            [
              72.847266,
              18.847852
            ],
            [
              72.847266,
              18.850586
            ],
            [
              72.845898,
              18.85332
            ],
            [
              72.841797,
              18.857422
            ],
            [
              72.841797,
              18.858789
            ],
            [
              72.836328,
              18.865625
            ],
            [
              72.833594,
              18.865625
            ],
            [
              72.825391,
              18.869727
            ],
            [
              72.821289,
              18.873828
            ],
            [
              72.821289,
              18.875195
            ],
            [
              72.81582,
              18.879297
            ],
            [
              72.813086,
              18.879297
            ],
            [
              72.811719,
              18.880664
            ],
            [
              72.80625,
              18.880664
            ],
            [
              72.804883,
              18.879297
            ]
          ]
        ]
      }
    },
    {
      "type": "Feature",
      "properties": {
        "spill_id": "palsar_165",
        "confidence": 0.83
      },
      "geometry": {
        "type": "Polygon",
        "coordinates": [
          [
            [
              72.614844,
              18.917578
            ],
            [
              72.612109,
              18.917578
            ],
            [
              72.610742,
              18.918945
            ],
            [
              72.606641,
              18.918945
            ],
            [
              72.605273,
              18.917578
            ],
            [
              72.603906,
              18.917578
            ],
            [
              72.603906,
              18.916211
            ],
            [
              72.601172,
              18.913477
            ],
            [
              72.601172,
              18.912109
            ],
            [
              72.599805,
              18.910742
            ],
            [
              72.599805,
              18.906641
            ],
            [
              72.598438,
              18.905273
            ],
            [
              72.598438,
              18.899805
            ],
            [
              72.59707,
              18.898438
            ],
            [
              72.59707,
              18.890234
            ],
            [
              72.598438,
              18.888867
            ],
            [
              72.606641,
              18.888867
            ],
            [
              72.608008,
              18.890234
            ],
            [
              72.609375,
              18.890234
            ],
            [
              72.612109,
              18.892969
            ],
            [
              72.612109,
              18.894336
            ],
            [
              72.617578,
              18.901172
            ],
            [
              72.617578,
              18.905273
            ],
            [
              72.618945,
              18.906641
            ],
            [
              72.618945,
              18.912109
            ],
            [
              72.617578,
              18.913477
            ],
            [
              72.617578,
              18.914844
            ],
            [
              72.614844,
              18.917578
            ]
          ]
        ]
      }
    },
    {
      "type": "Feature",
      "properties": {
        "spill_id": "palsar_165",
        "confidence": 0.83
      },
      "geometry": {
        "type": "Polygon",
        "coordinates": [
          [
            [
              72.5,
              18.933984
            ],
            [
              72.5,
              18.894336
            ],
            [
              72.521875,
              18.876562
            ],
            [
              72.55332,
              18.841016
            ],
            [
              72.571094,
              18.831445
            ],
            [
              72.579297,
              18.832812
            ],
            [
              72.584766,
              18.838281
            ],
            [
              72.584766,
              18.849219
            ],
            [
              72.599805,
              18.847852
            ],
            [
              72.610742,
              18.830078
            ],
            [
              72.644922,
              18.851953
            ],
            [
              72.639453,
              18.860156
            ],
            [
              72.63125,
              18.862891
            ],
            [
              72.617578,
              18.849219
            ],
            [
              72.601172,
              18.849219
            ],
            [
              72.594336,
              18.854688
            ],
            [
              72.5875,
              18.854688
            ],
            [
              72.584766,
              18.850586
            ],
            [
              72.572461,
              18.868359
            ],
            [
              72.57793,
              18.880664
            ],
            [
              72.571094,
              18.895703
            ],
            [
              72.541016,
              18.892969
            ],
            [
              72.525977,
              18.908008
            ],
            [
              72.521875,
              18.93125
            ],
            [
              72.50957,
              18.936719
            ],
            [
              72.5,
              18.933984
            ]
          ]
        ]
      }
    },
    {
      "type": "Feature",
      "properties": {
        "spill_id": "palsar_165",
        "confidence": 0.83
      },
      "geometry": {
        "type": "Polygon",
        "coordinates": [
          [
            [
              72.5,
              18.969531
            ],
            [
              72.5,
              18.958594
            ],
            [
              72.504102,
              18.957227
            ],
            [
              72.512305,
              18.959961
            ],
            [
              72.521875,
              18.958594
            ],
            [
              72.535547,
              18.959961
            ],
            [
              72.538281,
              18.957227
            ],
            [
              72.538281,
              18.953125
            ],
            [
              72.542383,
              18.949023
            ],
            [
              72.556055,
              18.943555
            ],
            [
              72.573828,
              18.943555
            ],
            [
              72.575195,
              18.942188
            ],
            [
              72.592969,
              18.943555
            ],
            [
              72.592969,
              18.947656
            ],
            [
              72.588867,
              18.953125
            ],
            [
              72.588867,
              18.958594
            ],
            [
              72.5875,
              18.961328
            ],
            [
              72.583398,
              18.962695
            ],
            [
              72.573828,
              18.962695
            ],
            [
              72.561523,
              18.955859
            ],
            [
              72.550586,
              18.955859
            ],
            [
              72.541016,
              18.961328
            ],
            [
              72.541016,
              18.968164
            ],
            [
              72.538281,
              18.970898
            ],
            [
              72.520508,
              18.975
            ],
            [
              72.515039,
              18.970898
            ],
            [
              72.5,
              18.969531
            ]
          ]
        ]
      }
    },
    {
      "type": "Feature",
      "properties": {
        "spill_id": "palsar_165",
        "confidence": 0.83
      },
      "geometry": {
        "type": "Polygon",
        "coordinates": [
          [
            [
              72.747461,
              19.007812
            ],
            [
              72.744727,
              19.010547
            ],
            [
              72.737891,
              19.011914
            ],
            [
              72.724219,
              19.011914
            ],
            [
              72.717383,
              19.005078
            ],
            [
              72.713281,
              19.003711
            ],
            [
              72.706445,
              18.991406
            ],
            [
              72.696875,
              18.988672
            ],
            [
              72.675,
              18.966797
            ],
            [
              72.675,
              18.959961
            ],
            [
              72.679102,
              18.951758
            ],
            [
              72.68457,
              18.947656
            ],
            [
              72.687305,
              18.949023
            ],
            [
              72.714648,
              18.987305
            ],
            [
              72.721484,
              18.988672
            ],
            [
              72.732422,
              18.994141
            ],
            [
              72.744727,
              18.995508
            ],
            [
              72.747461,
              18.998242
            ],
            [
              72.747461,
              19.007812
            ]
          ]
        ]
      }
    },
    {
      "type": "Feature",
      "properties": {
        "spill_id": "palsar_165",
        "confidence": 0.83
      },
      "geometry": {
        "type": "Polygon",
        "coordinates": [
          [
            [
              72.828125,
              19.037891
            ],
            [
              72.828125,
              19.036523
            ],
            [
              72.829492,
              19.035156
            ],
            [
              72.829492,
              19.033789
            ],
            [
              72.830859,
              19.032422
            ],
            [
              72.832227,
              19.032422
            ],
            [
              72.833594,
              19.031055
            ],
            [
              72.839062,
              19.031055
            ],
            [
              72.84043,
              19.029687
            ],
            [
              72.844531,
              19.029687
            ],
            [
              72.845898,
              19.031055
            ],
            [
              72.848633,
              19.031055
            ],
            [
              72.848633,
              19.040625
            ],
            [
              72.847266,
              19.040625
            ],
            [
              72.845898,
              19.041992
            ],
            [
              72.844531,
              19.041992
            ],
            [
              72.843164,
              19.043359
            ],
            [
              72.837695,
              19.043359
            ],
            [
              72.836328,
              19.041992
            ],
            [
              72.830859,
              19.041992
            ],
            [
              72.829492,
              19.040625
            ],
            [
              72.829492,
              19.039258
            ],
            [
              72.828125,
              19.037891
            ]
          ]
        ]
      }
    },
    {
      "type": "Feature",
      "properties": {
        "spill_id": "palsar_165",
        "confidence": 0.83
      },
      "geometry": {
        "type": "Polygon",
        "coordinates": [
          [
            [
              72.789844,
              19.099414
            ],
            [
              72.787109,
              19.09668
            ],
            [
              72.787109,
              19.095312
            ],
            [
              72.785742,
              19.093945
            ],
            [
              72.785742,
              19.087109
            ],
            [
              72.791211,
              19.081641
            ],
            [
              72.792578,
              19.081641
            ],
            [
              72.793945,
              19.080273
            ],
            [
              72.795312,
              19.080273
            ],
            [
              72.79668,
              19.078906
            ],
            [
              72.802148,
              19.078906
            ],
            [
              72.80625,
              19.083008
            ],
            [
              72.80625,
              19.092578
            ],
            [
              72.804883,
              19.093945
            ],
            [
              72.804883,
              19.095312
            ],
            [
              72.803516,
              19.09668
            ],
            [
              72.802148,
              19.09668
            ],
            [
              72.800781,
              19.098047
            ],
            [
              72.799414,
              19.098047
            ],
            [
              72.798047,
              19.099414
            ],
            [
              72.795312,
              19.099414
            ],
            [
              72.793945,
              19.100781
            ],
            [
              72.792578,
              19.099414
            ],
            [
              72.789844,
              19.099414
            ]
          ]
        ]
      }
    }
  ]
}