{
  "type": "FeatureCollection",
  "features": [
    {
      "type": "Feature",
      "properties": {
        "spill_id": "palsar_372",
        "confidence": 0.82
      },
      "geometry": {
        "type": "Polygon",
        "coordinates": [
          [
            [
              72.591602,
              18.838281
            ],
            [
              72.584766,
              18.838281
            ],
            [
              72.582031,
              18.835547
            ],
            [
              72.582031,
              18.83418
            ],
            [
              72.579297,
              18.831445
            ],
            [
              72.579297,
              18.830078
            ],
            [
              72.576562,
              18.827344
            ],
            [
              72.576562,
              18.820508
            ],
            [
              72.579297,
              18.817773
            ],
            [
              72.586133,
              18.817773
            ],
            [
              72.588867,
              18.820508
            ],
            [
              72.588867,
              18.821875
            ],
            [
              72.590234,
              18.823242
            ],
            [
              72.590234,
              18.825977
            ],
            [
              72.591602,
              18.827344
            ],
            [
              72.591602,
              18.838281
            ]
          ]
        ]
      }
    },
    {
      "type": "Feature",
      "properties": {
        "spill_id": "palsar_372",
        "confidence": 0.82
      },
      "geometry": {
        "type": "Polygon",
        "coordinates": [
          [
            [
              72.605273,
              18.865625
            ],
            [
              72.603906,
              18.866992
            ],
            [
              72.601172,
              18.866992
            ],
            [
              72.599805,
              18.868359
            ],
            [
              72.591602,
              18.868359
            ],
            [
              72.590234,
              18.866992
            ],
            [
              72.588867,
              18.866992
            ],
            [
              72.5875,
              18.865625
            ],
            [
              72.5875,
              18.864258
            ],
            [
              72.586133,
              18.862891
            ],
            [
              72.586133,
              18.857422
            ],
            [
              72.5875,
              18.856055
            ],
            [
              72.5875,
              18.85332
            ],
            [
              72.588867,
              18.851953
            ],
            [
              72.588867,
              18.850586
            ],
            [
              72.594336,
              18.850586
            ],
            [
              72.605273,
              18.861523
            ],
            [
              72.605273,
              18.865625
            ]
          ]
        ]
      }
    },
    {
      "type": "Feature",
      "properties": {
        "spill_id": "palsar_372",
        "confidence": 0.82
      },
      "geometry": {
        "type": "Polygon",
        "coordinates": [
          [
            [
              72.654492,
              18.950391
            ],
            [
              72.644922,
              18.950391
            ],
            [
              72.632617,
              18.943555
            ],
            [
              72.620312,
              18.928516
            ],
            [
              72.609375,
              18.927148
            ],
            [
              72.603906,
              18.924414
            ],
            [
              72.599805,
              18.920312
            ],
            [
              72.599805,
              18.909375
            ],
            [
              72.601172,
              18.906641
            ],
            [
              72.605273,
              18.902539
            ],
            [
              72.608008,
              18.902539
            ],
            [
              72.609375,
              18.901172
            ],
            [
              72.616211,
              18.903906
            ],
            [
              72.620312,
              18.903906
            ],
            [
              72.628516,
              18.913477
            ],
            [
              72.633984,
              18.916211
            ],
            [
              72.639453,
              18.92168
            ],
            [
              72.646289,
              18.932617
            ],
            [
              72.653125,
              18.939453
            ],
            [
              72.655859,
              18.939453
            ],
            [
              72.658594,
              18.944922
            ],
            [
              72.654492,
              18.950391
            ]
          ]
        ]
      }
    },
    {
      "type": "Feature",
      "properties": {
        "spill_id": "palsar_372",
        "confidence": 0.82
      },
      "geometry": {
        "type": "Polygon",
        "coordinates": [
          [
            [
              72.765234,
              19.025586
            ],
            [
              72.757031,
              19.032422
            ],
            [
              72.739258,
              19.033789
            ],
            [
              72.736523,
              19.031055
            ],
            [
              72.736523,
              19.01875
            ],
            [
              72.72832,
              19.006445
            ],
            [
              72.71875,
              19.002344
            ],
            [
              72.713281,
              18.995508
            ],
            [
              72.699609,
              18.992773
            ],
            [
              72.691406,
              18.985938
            ],
            [
              72.683203,
              18.983203
            ],
            [
              72.680469,
              18.955859
            ],
            [
              72.68457,
              18.949023
            ],
            [
              72.694141,
              18.946289
            ],
            [
              72.717383,
              18.954492
            ],
            [
              72.721484,
              18.958594
            ],
            [
              72.721484,
              18.964062
            ],
            [
              72.70918,
              18.970898
            ],
            [
              72.713281,
              18.977734
            ],
            [
              72.729688,
              18.980469
            ],
            [
              72.754297,
              18.979102
            ],
            [
              72.776172,
              18.987305
            ],
            [
              72.781641,
              18.992773
            ],
            [
              72.781641,
              18.998242
            ],
            [
              72.770703,
              19.00918
            ],
            [
              72.765234,
              19.025586
            ]
          ]
        ]
      }
    },
    {
      "type": "Feature",
      "properties": {
        "spill_id": "palsar_372",
        "confidence": 0.82
      },
      "geometry": {
        "type": "Polygon",
        "coordinates": [
          [
            [
              72.583398,
              19.088477
            ],
            [
              72.583398,
              19.084375
            ],
            [
              72.584766,
              19.083008
            ],
            [
              72.584766,
              19.081641
            ],
            [
              72.586133,
              19.080273
            ],
            [
              72.5875,
              19.080273
            ],
            [
              72.588867,
              19.078906
            ],
            [
              72.595703,
              19.078906
            ],
            [
              72.598438,
              19.081641
            ],
            [
              72.598438,
              19.087109
            ],
            [
              72.59707,
              19.088477
            ],
            [
              72.595703,
              19.088477
            ],
            [
              72.594336,
              19.089844
            ],
            [
              72.590234,
              19.089844
            ],
            [
              72.588867,
              19.091211
            ],
            [
              72.5875,
              19.091211
            ],
            [
              72.586133,
              19.089844
            ],
            [
              72.584766,
              19.089844
            ],
            [
              72.583398,
              19.088477
            ]
          ]
        ]
      }
    },
    {
      "type": "Feature",
      "properties": {
        "spill_id": "palsar_372",
        "confidence": 0.82
      },
      "geometry": {
        "type": "Polygon",
        "coordinates": [
          [
            [
              72.690039,
              19.098047
            ],
            [
              72.690039,
              19.095312
            ],
            [
              72.691406,
              19.093945
            ],
            [
              72.691406,
              19.092578
            ],
            [
              72.692773,
              19.091211
            ],
            [
              72.694141,
              19.091211
            ],
            [
              72.695508,
              19.089844
            ],
            [
              72.699609,
              19.089844
            ],
            [
              72.700977,
              19.091211
            ],
            [
              72.702344,
              19.091211
            ],
            [
              72.703711,
              19.092578
            ],
            [
              72.703711,
              19.093945
            ],
            [
              72.702344,
              19.095312
            ],
            [
              72.702344,
              19.09668
            ],
            [
              72.700977,
              19.09668
            ],
            [
              72.699609,
              19.098047
            ],
            [
              72.698242,
              19.098047
            ],
            [
              72.696875,
              19.099414
            ],
            [
              72.691406,
              19.099414
            ],
            [
              72.690039,
              19.098047
            ]
          ]
        ]
      }
    }
  ]
}