{
  "type": "FeatureCollection",
  "features": [
    {
      "type": "Feature",
      "properties": {
        "spill_id": "palsar_747",
        "confidence": 0.87
      },
      "geometry": {
        "type": "Polygon",
        "coordinates": [
          [
            [
              72.568359,
              18.83418
            ],
            [
              72.557422,
              18.83418
            ],
            [
              72.556055,
              18.832812
            ],
            [
              72.55332,
              18.832812
            ],
            [
              72.550586,
              18.830078
            ],
            [
              72.550586,
              18.828711
            ],
            [
              72.549219,
              18.827344
            ],
            [
              72.549219,
              18.824609
            ],
            [
              72.550586,
              18.823242
            ],
            [
              72.550586,
              18.808203
            ],
            [
              72.55332,
              18.805469
            ],
            [
              72.55332,
              18.802734
            ],
            [
              72.554688,
              18.802734
            ],
            [
              72.554688,
              18.804102
            ],
            [
              72.556055,
              18.805469
            ],
            [
              72.558789,
              18.805469
            ],
            [
              72.561523,
              18.808203
            ],
            [
              72.561523,
              18.815039
            ],
            [
              72.562891,
              18.816406
            ],
            [
              72.562891,
              18.817773
            ],
            [
              72.564258,
              18.819141
            ],
            [
              72.564258,
              18.820508
            ],
            [
              72.565625,
              18.821875
            ],
            [
              72.565625,
              18.823242
            ],
            [
              72.568359,
              18.827344
            ],
            [
              72.568359,
              18.83418
            ]
          ]
        ]
      }
    },
    {
      "type": "Feature",
      "properties": {
        "spill_id": "palsar_747",
        "confidence": 0.87
      },
      "geometry": {
        "type": "Polygon",
        "coordinates": [
          [
            [
              72.785742,
              19.103516
            ],
            [
              72.785742,
              19.099414
            ],
            [
              72.787109,
              19.098047
            ],
            [
              72.787109,
              19.09668
            ],
            [
              72.788477,
              19.095312
            ],
            [
              72.788477,
              19.093945
            ],
            [
              72.789844,
              19.092578
            ],
            [
              72.791211,
              19.093945
            ],
            [
              72.793945,
              19.093945
            ],
            [
              72.799414,
              19.099414
            ],
            [
              72.800781,
              19.099414
            ],
            [
              72.802148,
              19.098047
            ],
            [
              72.804883,
              19.098047
            ],
            [
              72.80625,
              19.09668
            ],
            [
              72.808984,
              19.09668
            ],
            [
              72.810352,
              19.098047
            ],
            [
              72.811719,
              19.098047
            ],
            [
              72.811719,
              19.100781
            ],
            [
              72.808984,
              19.103516
            ],
            [
              72.808984,
              19.104883
            ],
            [
              72.803516,
              19.104883
            ],
            [
              72.802148,
              19.103516
            ],
            [
              72.800781,
              19.104883
            ],
            [
              72.787109,
              19.104883
            ],
            [
              72.785742,
              19.103516
            ]
          ]
        ]
      }
    },
    {
      "type": "Feature",
      "properties": {
        "spill_id": "palsar_747",
        "confidence": 0.87
      },
      "geometry": {
        "type": "Polygon",
        "coordinates": [
          [
            [
              72.650391,
              19.122656
            ],
            [
              72.638086,
              19.122656
            ],
            [
              72.620312,
              19.110352
            ],
            [
              72.612109,
              19.119922
            ],
            [
              72.592969,
              19.129492
            ],
            [
              72.583398,
              19.117188
            ],
            [
              72.586133,
              19.110352
            ],
            [
              72.584766,
              19.102148
            ],
            [
              72.576562,
              19.104883
            ],
            [
              72.565625,
              19.103516
            ],
            [
              72.569727,
              19.087109
            ],
            [
              72.584766,
              19.07207
            ],
            [
              72.586133,
              19.063867
            ],
            [
              72.576562,
              19.054297
            ],
            [
              72.573828,
              19.043359
            ],
            [
              72.554688,
              19.025586
            ],
            [
              72.558789,
              19.022852
            ],
            [
              72.571094,
              19.029687
            ],
            [
              72.588867,
              19.032422
            ],
            [
              72.605273,
              19.051562
            ],
            [
              72.609375,
              19.063867
            ],
            [
              72.616211,
              19.066602
            ],
            [
              72.63125,
              19.065234
            ],
            [
              72.633984,
              19.080273
            ],
            [
              72.653125,
              19.11582
            ],
            [
              72.650391,
              19.122656
            ]
          ]
        ]
      }
    },
    {
      "type": "Feature",
      "properties": {
        "spill_id": "palsar_747",
        "confidence": 0.87
      },
      "geometry": {
        "type": "Polygon",
        "coordinates": [
          [
            [
              72.520508,
              19.128125
            ],
            [
              72.513672,
              19.128125
            ],
            [
              72.512305,
              19.129492
            ],
            [
              72.506836,
              19.129492
            ],
            [
              72.505469,
              19.128125
            ],
            [
              72.505469,
              19.126758
            ],
            [
              72.502734,
              19.122656
            ],
            [
              72.502734,
              19.118555
            ],
            [
              72.501367,
              19.117188
            ],
            [
              72.5,
              19.117188
            ],
            [
              72.5,
              19.098047
            ],
            [
              72.502734,
              19.098047
            ],
            [
              72.504102,
              19.09668
            ],
            [
              72.506836,
              19.09668
            ],
            [
              72.508203,
              19.098047
            ],
            [
              72.50957,
              19.098047
            ],
            [
              72.519141,
              19.107617
            ],
            [
              72.519141,
              19.108984
            ],
            [
              72.520508,
              19.110352
            ],
            [
              72.520508,
              19.114453
            ],
            [
              72.519141,
              19.11582
            ],
            [
              72.519141,
              19.117188
            ],
            [
              72.520508,
              19.118555
            ],
            [
              72.520508,
              19.121289
            ],
            [
              72.521875,
              19.122656
            ],
            [
              72.521875,
              19.126758
            ],
            [
              72.520508,
              19.128125
            ]
          ]
        ]
      }
    },
    {
      "type": "Feature",
      "properties": {
        "spill_id": "palsar_747",
        "confidence": 0.87
      },
      "geometry": {
        "type": "Polygon",
        "coordinates": [
          [
            [
              72.702344,
              19.14043
            ],
            [
              72.710547,
              19.078906
            ],
            [
              72.750195,
              18.972266
            ],
            [
              72.725586,
              18.958594
            ],
            [
              72.713281,
              18.996875
            ],
            [
              72.676367,
              18.998242
            ],
            [
              72.650391,
              19.017383
            ],
            [
              72.642187,
              19.040625
            ],
            [
              72.635352,
              19.020117
            ],
            [
              72.609375,
              19.021484
            ],
            [
              72.624414,
              18.972266
            ],
            [
              72.639453,
              18.959961
            ],
            [
              72.627148,
              18.916211
            ],
            [
              72.655859,
              18.925781
            ],
            [
              72.657227,
              18.876562
            ],
            [
              72.59707,
              18.842383
            ],
            [
              72.584766,
              18.802734
            ],
            [
              72.620312,
              18.812305
            ],
            [
              72.632617,
              18.801367
            ],
            [
              72.845898,
              18.801367
            ],
            [
              72.848633,
              19.061133
            ],
            [
              72.819922,
              19.073438
            ],
            [
              72.814453,
              19.040625
            ],
            [
              72.802148,
              19.032422
            ],
            [
              72.791211,
              19.057031
            ],
            [
              72.761133,
              19.0625
            ],
            [
              72.702344,
              19.14043
            ]
          ]
        ]
      }
    }
  ]
}