{
  "type": "FeatureCollection",
  "features": [
    {
      "type": "Feature",
      "properties": {
        "spill_id": "palsar_610",
        "confidence": 0.92
      },
      "geometry": {
        "type": "Polygon",
        "coordinates": [
          [
            [
              72.841797,
              18.851953
            ],
            [
              72.839062,
              18.849219
            ],
            [
              72.839062,
              18.842383
            ],
            [
              72.84043,
              18.842383
            ],
            [
              72.841797,
              18.841016
            ],
            [
              72.845898,
              18.841016
            ],
            [
              72.847266,
              18.842383
            ],
            [
              72.848633,
              18.842383
            ],
            [
              72.848633,
              18.851953
            ],
            [
              72.841797,
              18.851953
            ]
          ]
        ]
      }
    },
    {
      "type": "Feature",
      "properties": {
        "spill_id": "palsar_610",
        "confidence": 0.92
      },
      "geometry": {
        "type": "Polygon",
        "coordinates": [
          [
            [
              72.814453,
              18.936719
            ],
            [
              72.814453,
              18.927148
            ],
            [
              72.81582,
              18.925781
            ],
            [
              72.817187,
              18.92168
            ],
            [
              72.821289,
              18.918945
            ],
            [
              72.837695,
              18.918945
            ],
            [
              72.841797,
              18.92168
            ],
            [
              72.847266,
              18.92168
            ],
            [
              72.848633,
              18.923047
            ],
            [
              72.848633,
              18.933984
            ],
            [
              72.847266,
              18.933984
            ],
            [
              72.845898,
              18.935352
            ],
            [
              72.843164,
              18.935352
            ],
            [
              72.841797,
              18.936719
            ],
            [
              72.836328,
              18.936719
            ],
            [
              72.834961,
              18.935352
            ],
            [
              72.828125,
              18.935352
            ],
            [
              72.826758,
              18.936719
            ],
            [
              72.814453,
              18.936719
            ]
          ]
        ]
      }
    },
    {
      "type": "Feature",
      "properties": {
        "spill_id": "palsar_610",
        "confidence": 0.92
      },
      "geometry": {
        "type": "Polygon",
        "coordinates": [
          [
            [
              72.5,
              18.804102
            ],
            [
              72.605273,
              18.801367
            ],
            [
              72.605273,
              18.817773
            ],
            [
              72.623047,
              18.812305
            ],
            [
              72.632617,
              18.816406
            ],
            [
              72.638086,
              18.825977
            ],
            [
              72.633984,
              18.838281
            ],
            [
              72.643555,
              18.846484
            ],
            [
              72.696875,
              18.847852
            ],
            [
              72.711914,
              18.854688
            ],
            [
              72.713281,
              18.879297
            ],
            [
              72.72832,
              18.888867
            ],
            [
              72.732422,
              18.902539
            ],
            [
              72.696875,
              18.917578
            ],
            [
              72.633984,
              18.899805
            ],
            [
              72.576562,
              18.89707
            ],
            [
              72.573828,
              18.902539
            ],
            [
              72.584766,
              18.917578
            ],
            [
              72.564258,
              18.933984
            ],
            [
              72.501367,
              18.946289
            ],
            [
              72.5,
              18.880664
            ],
            [
              72.554688,
              18.890234
            ],
            [
              72.571094,
              18.868359
            ],
            [
              72.532812,
              18.857422
            ],
            [
              72.5,
              18.821875
            ],
            [
              72.5,
              18.804102
            ]
          ]
        ]
      }
    },
    {
      "type": "Feature",
      "properties": {
        "spill_id": "palsar_610",
        "confidence": 0.92
      },
      "geometry": {
        "type": "Polygon",
        "coordinates": [
          [
            [
              72.769336,
              19.048828
            ],
            [
              72.766602,
              19.040625
            ],
            [
              72.776172,
              19.020117
            ],
            [
              72.776172,
              19.006445
            ],
            [
              72.778906,
              19.000977
            ],
            [
              72.789844,
              18.996875
            ],
            [
              72.79668,
              18.990039
            ],
            [
              72.79668,
              18.985938
            ],
            [
              72.802148,
              18.977734
            ],
            [
              72.829492,
              18.959961
            ],
            [
              72.84043,
              18.958594
            ],
            [
              72.848633,
              18.961328
            ],
            [
              72.848633,
              19.040625
            ],
            [
              72.814453,
              19.035156
            ],
            [
              72.800781,
              19.040625
            ],
            [
              72.793945,
              19.047461
            ],
            [
              72.787109,
              19.050195
            ],
            [
              72.769336,
              19.048828
            ]
          ]
        ]
      }
    }
  ]
}