{
  "type": "FeatureCollection",
  "features": [
    {
      "type": "Feature",
      "properties": {
        "spill_id": "palsar_20",
        "confidence": 0.83
      },
      "geometry": {
        "type": "Polygon",
        "coordinates": [
          [
            [
              72.63125,
              18.817773
            ],
            [
              72.629883,
              18.819141
            ],
            [
              72.624414,
              18.819141
            ],
            [
              72.623047,
              18.817773
            ],
            [
              72.62168,
              18.817773
            ],
            [
              72.620312,
              18.816406
            ],
            [
              72.620312,
              18.815039
            ],
            [
              72.618945,
              18.813672
            ],
            [
              72.618945,
              18.810938
            ],
            [
              72.620312,
              18.810938
            ],
            [
              72.62168,
              18.80957
            ],
            [
              72.623047,
              18.80957
            ],
            [
              72.624414,
              18.810938
            ],
            [
              72.627148,
              18.810938
            ],
            [
              72.63125,
              18.815039
            ],
            [
              72.63125,
              18.817773
            ]
          ]
        ]
      }
    },
    {
      "type": "Feature",
      "properties": {
        "spill_id": "palsar_20",
        "confidence": 0.83
      },
      "geometry": {
        "type": "Polygon",
        "coordinates": [
          [
            [
              72.832227,
              18.827344
            ],
            [
              72.808984,
              18.830078
            ],
            [
              72.802148,
              18.832812
            ],
            [
              72.791211,
              18.832812
            ],
            [
              72.777539,
              18.824609
            ],
            [
              72.75293,
              18.825977
            ],
            [
              72.747461,
              18.823242
            ],
            [
              72.732422,
              18.820508
            ],
            [
              72.725586,
              18.816406
            ],
            [
              72.725586,
              18.812305
            ],
            [
              72.731055,
              18.808203
            ],
            [
              72.743359,
              18.805469
            ],
            [
              72.754297,
              18.805469
            ],
            [
              72.773438,
              18.812305
            ],
            [
              72.795312,
              18.812305
            ],
            [
              72.79668,
              18.810938
            ],
            [
              72.829492,
              18.820508
            ],
            [
              72.832227,
              18.823242
            ],
            [
              72.832227,
              18.827344
            ]
          ]
        ]
      }
    },
    {
      "type": "Feature",
      "properties": {
        "spill_id": "palsar_20",
        "confidence": 0.83
      },
      "geometry": {
        "type": "Polygon",
        "coordinates": [
          [
            [
              72.654492,
              18.888867
            ],
            [
              72.650391,
              18.891602
            ],
            [
              72.64082,
              18.891602
            ],
            [
              72.627148,
              18.884766
            ],
            [
              72.624414,
              18.884766
            ],
            [
              72.623047,
              18.883398
            ],
            [
              72.617578,
              18.883398
            ],
            [
              72.616211,
              18.882031
            ],
            [
              72.612109,
              18.882031
            ],
            [
              72.608008,
              18.876562
            ],
            [
              72.608008,
              18.869727
            ],
            [
              72.612109,
              18.865625
            ],
            [
              72.623047,
              18.865625
            ],
            [
              72.624414,
              18.864258
            ],
            [
              72.628516,
              18.864258
            ],
            [
              72.629883,
              18.862891
            ],
            [
              72.638086,
              18.862891
            ],
            [
              72.64082,
              18.865625
            ],
            [
              72.64082,
              18.866992
            ],
            [
              72.653125,
              18.879297
            ],
            [
              72.653125,
              18.882031
            ],
            [
              72.654492,
              18.883398
            ],
            [
              72.654492,
              18.888867
            ]
          ]
        ]
      }
    },
    {
      "type": "Feature",
      "properties": {
        "spill_id": "palsar_20",
        "confidence": 0.83
      },
      "geometry": {
        "type": "Polygon",
        "coordinates": [
          [
            [
              72.683203,
              18.903906
            ],
            [
              72.683203,
              18.902539
            ],
            [
              72.687305,
              18.898438
            ],
            [
              72.694141,
              18.898438
            ],
            [
              72.696875,
              18.901172
            ],
            [
              72.696875,
              18.902539
            ],
            [
              72.695508,
              18.903906
            ],
            [
              72.695508,
              18.905273
            ],
            [
              72.694141,
              18.906641
            ],
            [
              72.685938,
              18.906641
            ],
            [
              72.683203,
              18.903906
            ]
          ]
        ]
      }
    },
    {
      "type": "Feature",
      "properties": {
        "spill_id": "palsar_20",
        "confidence": 0.83
      },
      "geometry": {
        "type": "Polygon",
        "coordinates": [
          [
            [
              72.5,
              18.923047
            ],
            [
              72.5,
              18.898438
            ],
            [
              72.501367,
              18.898438
            ],
            [
              72.510938,
              18.890234
            ],
            [
              72.516406,
              18.8875
            ],
            [
              72.519141,
              18.8875
            ],
            [
              72.523242,
              18.884766
            ],
            [
              72.535547,
              18.884766
            ],
            [
              72.538281,
              18.886133
            ],
            [
              72.538281,
              18.888867
            ],
            [
              72.536914,
              18.891602
            ],
            [
              72.530078,
              18.898438
            ],
            [
              72.521875,
              18.902539
            ],
            [
              72.520508,
              18.905273
            ],
            [
              72.519141,
              18.905273
            ],
            [
              72.515039,
              18.909375
            ],
            [
              72.513672,
              18.918945
            ],
            [
              72.510938,
              18.92168
            ],
            [
              72.508203,
              18.923047
            ],
            [
              72.5,
              18.923047
            ]
          ]
        ]
      }
    },
    {
      "type": "Feature",
      "properties": {
        "spill_id": "palsar_20",
        "confidence": 0.83
      },
      "geometry": {
        "type": "Polygon",
        "coordinates": [
          [
            [
              72.845898,
              18.933984
            ],
            [
              72.825391,
              18.933984
            ],
            [
              72.81582,
              18.916211
            ],
            [
              72.799414,
              18.929883
            ],
            [
              72.780273,
              18.929883
            ],
            [
              72.770703,
              18.912109
            ],
            [
              72.732422,
              18.89707
            ],
            [
              72.720117,
              18.886133
            ],
            [
              72.725586,
              18.871094
            ],
            [
              72.68457,
              18.865625
            ],
            [
              72.68457,
              18.845117
            ],
            [
              72.695508,
              18.841016
            ],
            [
              72.70918,
              18.846484
            ],
            [
              72.739258,
              18.846484
            ],
            [
              72.748828,
              18.858789
            ],
            [
              72.732422,
              18.860156
            ],
            [
              72.733789,
              18.872461
            ],
            [
              72.778906,
              18.890234
            ],
            [
              72.803516,
              18.882031
            ],
            [
              72.783008,
              18.879297
            ],
            [
              72.783008,
              18.871094
            ],
            [
              72.789844,
              18.865625
            ],
            [
              72.841797,
              18.868359
            ],
            [
              72.848633,
              18.890234
            ],
            [
              72.848633,
              18.906641
            ],
            [
              72.841797,
              18.913477
            ],
            [
              72.845898,
              18.933984
            ]
          ]
        ]
      }
    },
    {
      "type": "Feature",
      "properties": {
        "spill_id": "palsar_20",
        "confidence": 0.83
      },
      "geometry": {
        "type": "Polygon",
        "coordinates": [
          [
            [
              72.729688,
              18.94082
            ],
            [
              72.729688,
              18.935352
            ],
            [
              72.731055,
              18.933984
            ],
            [
              72.733789,
              18.933984
            ],
            [
              72.735156,
              18.932617
            ],
            [
              72.75293,
              18.932617
            ],
            [
              72.754297,
              18.93125
            ],
            [
              72.758398,
              18.93125
            ],
            [
              72.759766,
              18.929883
            ],
            [
              72.766602,
              18.929883
            ],
            [
              72.770703,
              18.933984
            ],
            [
              72.770703,
              18.942188
            ],
            [
              72.769336,
              18.943555
            ],
            [
              72.769336,
              18.944922
            ],
            [
              72.767969,
              18.944922
            ],
            [
              72.761133,
              18.949023
            ],
            [
              72.758398,
              18.949023
            ],
            [
              72.757031,
              18.950391
            ],
            [
              72.748828,
              18.950391
            ],
            [
              72.747461,
              18.949023
            ],
            [
              72.746094,
              18.949023
            ],
            [
              72.744727,
              18.947656
            ],
            [
              72.743359,
              18.947656
            ],
            [
              72.741992,
              18.946289
            ],
            [
              72.740625,
              18.946289
            ],
            [
              72.739258,
              18.944922
            ],
            [
              72.729688,
              18.94082
            ]
          ]
        ]
      }
    },
    {
      "type": "Feature",
      "properties": {
        "spill_id": "palsar_20",
        "confidence": 0.83
      },
      "geometry": {
        "type": "Polygon",
        "coordinates": [
          [
            [
              72.785742,
              18.961328
            ],
            [
              72.785742,
              18.959961
            ],
            [
              72.789844,
              18.955859
            ],
            [
              72.79668,
              18.955859
            ],
            [
              72.798047,
              18.957227
            ],
            [
              72.799414,
              18.957227
            ],
            [
              72.799414,
              18.958594
            ],
            [
              72.800781,
              18.959961
            ],
            [
              72.800781,
              18.962695
            ],
            [
              72.798047,
              18.96543
            ],
            [
              72.792578,
              18.96543
            ],
            [
              72.791211,
              18.964062
            ],
            [
              72.788477,
              18.964062
            ],
            [
              72.785742,
              18.961328
            ]
          ]
        ]
      }
    },
    {
      "type": "Feature",
      "properties": {
        "spill_id": "palsar_20",
        "confidence": 0.83
      },
      "geometry": {
        "type": "Polygon",
        "coordinates": [
          [
            [
              72.837695,
              18.991406
            ],
            [
              72.834961,
              18.991406
            ],
            [
              72.832227,
              18.988672
            ],
            [
              72.830859,
              18.988672
            ],
            [
              72.826758,
              18.985938
            ],
            [
              72.822656,
              18.985938
            ],
            [
              72.819922,
              18.983203
            ],
            [
              72.818555,
              18.983203
            ],
            [
              72.817187,
              18.981836
            ],
            [
              72.817187,
              18.980469
            ],
            [
              72.81582,
              18.979102
            ],
            [
              72.81582,
              18.976367
            ],
            [
              72.814453,
              18.975
            ],
            [
              72.814453,
              18.969531
            ],
            [
              72.81582,
              18.969531
            ],
            [
              72.817187,
              18.968164
            ],
            [
              72.819922,
              18.968164
            ],
            [
              72.821289,
              18.969531
            ],
            [
              72.825391,
              18.969531
            ],
            [
              72.826758,
              18.970898
            ],
            [
              72.828125,
              18.970898
            ],
            [
              72.829492,
              18.972266
            ],
            [
              72.829492,
              18.973633
            ],
            [
              72.832227,
              18.976367
            ],
            [
              72.832227,
              18.977734
            ],
            [
              72.833594,
              18.979102
            ],
            [
              72.833594,
              18.980469
            ],
            [
              72.834961,
              18.981836
            ],
            [
              72.834961,
              18.983203
            ],
            [
              72.837695,
              18.987305
            ],
            [
              72.837695,
              18.991406
            ]
          ]
        ]
      }
    },
    {
      "type": "Feature",
      "properties": {
        "spill_id": "palsar_20",
        "confidence": 0.83
      },
      "geometry": {
        "type": "Polygon",
        "coordinates": [
          [
            [
              72.505469,
              18.990039
            ],
            [
              72.505469,
              18.981836
            ],
            [
              72.506836,
              18.980469
            ],
            [
              72.515039,
              18.979102
            ],
            [
              72.525977,
              18.970898
            ],
            [
              72.530078,
              18.969531
            ],
            [
              72.535547,
              18.964062
            ],
            [
              72.538281,
              18.964062
            ],
            [
              72.545117,
              18.959961
            ],
            [
              72.550586,
              18.959961
            ],
            [
              72.560156,
              18.968164
            ],
            [
              72.569727,
              18.968164
            ],
            [
              72.583398,
              18.972266
            ],
            [
              72.583398,
              18.975
            ],
            [
              72.580664,
              18.977734
            ],
            [
              72.571094,
              18.981836
            ],
            [
              72.542383,
              18.983203
            ],
            [
              72.541016,
              18.98457
            ],
            [
              72.530078,
              18.985938
            ],
            [
              72.513672,
              18.992773
            ],
            [
              72.508203,
              18.992773
            ],
            [
              72.505469,
              18.990039
            ]
          ]
        ]
      }
    },
    {
      "type": "Feature",
      "properties": {
        "spill_id": "palsar_20",
        "confidence": 0.83
      },
      "geometry": {
        "type": "Polygon",
        "coordinates": [
          [
            [
              72.638086,
              18.990039
            ],
            [
              72.643555,
              18.983203
            ],
            [
              72.649023,
              18.980469
            ],
            [
              72.675,
              18.983203
            ],
            [
              72.680469,
              18.980469
            ],
            [
              72.691406,
              18.980469
            ],
            [
              72.702344,
              18.973633
            ],
            [
              72.716016,
              18.969531
            ],
            [
              72.732422,
              18.969531
            ],
            [
              72.739258,
              18.964062
            ],
            [
              72.747461,
              18.964062
            ],
            [
              72.750195,
              18.961328
            ],
            [
              72.755664,
              18.962695
            ],
            [
              72.754297,
              18.966797
            ],
            [
              72.746094,
              18.966797
            ],
            [
              72.726953,
              18.977734
            ],
            [
              72.706445,
              18.981836
            ],
            [
              72.700977,
              18.987305
            ],
            [
              72.695508,
              18.988672
            ],
            [
              72.68457,
              18.999609
            ],
            [
              72.676367,
              18.999609
            ],
            [
              72.669531,
              19.005078
            ],
            [
              72.650391,
              19.000977
            ],
            [
              72.643555,
              18.996875
            ],
            [
              72.638086,
              18.990039
            ]
          ]
        ]
      }
    }
  ]
}