{
  "type": "FeatureCollection",
  "features": [
    {
      "type": "Feature",
      "properties": {
        "spill_id": "palsar_455",
        "confidence": 0.85
      },
      "geometry": {
        "type": "Polygon",
        "coordinates": [
          [
            [
              72.843164,
              18.824609
            ],
            [
              72.839062,
              18.827344
            ],
            [
              72.832227,
              18.827344
            ],
            [
              72.830859,
              18.825977
            ],
            [
              72.829492,
              18.825977
            ],
            [
              72.825391,
              18.823242
            ],
            [
              72.81582,
              18.823242
            ],
            [
              72.814453,
              18.821875
            ],
            [
              72.813086,
              18.821875
            ],
            [
              72.810352,
              18.819141
            ],
            [
              72.810352,
              18.815039
            ],
            [
              72.818555,
              18.806836
            ],
            [
              72.821289,
              18.806836
            ],
            [
              72.822656,
              18.805469
            ],
            [
              72.825391,
              18.805469
            ],
            [
              72.826758,
              18.806836
            ],
            [
              72.829492,
              18.806836
            ],
            [
              72.833594,
              18.80957
            ],
            [
              72.836328,
              18.80957
            ],
            [
              72.843164,
              18.816406
            ],
            [
              72.843164,
              18.824609
            ]
          ]
        ]
      }
    },
    {
      "type": "Feature",
      "properties": {
        "spill_id": "palsar_455",
        "confidence": 0.85
      },
      "geometry": {
        "type": "Polygon",
        "coordinates": [
          [
            [
              72.736523,
              18.847852
            ],
            [
              72.736523,
              18.841016
            ],
            [
              72.740625,
              18.836914
            ],
            [
              72.751562,
              18.836914
            ],
            [
              72.75293,
              18.835547
            ],
            [
              72.757031,
              18.835547
            ],
            [
              72.7625,
              18.832812
            ],
            [
              72.773438,
              18.831445
            ],
            [
              72.781641,
              18.824609
            ],
            [
              72.783008,
              18.825977
            ],
            [
              72.784375,
              18.824609
            ],
            [
              72.785742,
              18.825977
            ],
            [
              72.789844,
              18.825977
            ],
            [
              72.792578,
              18.827344
            ],
            [
              72.793945,
              18.830078
            ],
            [
              72.792578,
              18.83418
            ],
            [
              72.787109,
              18.836914
            ],
            [
              72.784375,
              18.836914
            ],
            [
              72.767969,
              18.850586
            ],
            [
              72.7625,
              18.85332
            ],
            [
              72.751562,
              18.856055
            ],
            [
              72.750195,
              18.857422
            ],
            [
              72.743359,
              18.856055
            ],
            [
              72.740625,
              18.85332
            ],
            [
              72.739258,
              18.85332
            ],
            [
              72.736523,
              18.847852
            ]
          ]
        ]
      }
    },
    {
      "type": "Feature",
      "properties": {
        "spill_id": "palsar_455",
        "confidence": 0.85
      },
      "geometry": {
        "type": "Polygon",
        "coordinates": [
          [
            [
              72.5,
              18.872461
            ],
            [
              72.5,
              18.860156
            ],
            [
              72.508203,
              18.860156
            ],
            [
              72.512305,
              18.865625
            ],
            [
              72.520508,
              18.866992
            ],
            [
              72.538281,
              18.857422
            ],
            [
              72.536914,
              18.850586
            ],
            [
              72.524609,
              18.846484
            ],
            [
              72.530078,
              18.839648
            ],
            [
              72.538281,
              18.835547
            ],
            [
              72.550586,
              18.838281
            ],
            [
              72.562891,
              18.835547
            ],
            [
              72.579297,
              18.819141
            ],
            [
              72.609375,
              18.801367
            ],
            [
              72.677734,
              18.802734
            ],
            [
              72.675,
              18.808203
            ],
            [
              72.664062,
              18.808203
            ],
            [
              72.616211,
              18.831445
            ],
            [
              72.595703,
              18.835547
            ],
            [
              72.584766,
              18.846484
            ],
            [
              72.565625,
              18.85332
            ],
            [
              72.53418,
              18.880664
            ],
            [
              72.519141,
              18.882031
            ],
            [
              72.513672,
              18.875195
            ],
            [
              72.5,
              18.872461
            ]
          ]
        ]
      }
    },
    {
      "type": "Feature",
      "properties": {
        "spill_id": "palsar_455",
        "confidence": 0.85
      },
      "geometry": {
        "type": "Polygon",
        "coordinates": [
          [
            [
              72.644922,
              18.901172
            ],
            [
              72.644922,
              18.899805
            ],
            [
              72.643555,
              18.898438
            ],
            [
              72.643555,
              18.895703
            ],
            [
              72.654492,
              18.884766
            ],
            [
              72.658594,
              18.884766
            ],
            [
              72.659961,
              18.886133
            ],
            [
              72.659961,
              18.892969
            ],
            [
              72.657227,
              18.895703
            ],
            [
              72.657227,
              18.89707
            ],
            [
              72.655859,
              18.898438
            ],
            [
              72.654492,
              18.898438
            ],
            [
              72.653125,
              18.899805
            ],
            [
              72.650391,
              18.899805
            ],
            [
              72.649023,
              18.901172
            ],
            [
              72.644922,
              18.901172
            ]
          ]
        ]
      }
    },
    {
      "type": "Feature",
      "properties": {
        "spill_id": "palsar_455",
        "confidence": 0.85
      },
      "geometry": {
        "type": "Polygon",
        "coordinates": [
          [
            [
              72.807617,
              18.961328
            ],
            [
              72.807617,
              18.955859
            ],
            [
              72.810352,
              18.953125
            ],
            [
              72.810352,
              18.951758
            ],
            [
              72.811719,
              18.950391
            ],
            [
              72.811719,
              18.949023
            ],
            [
              72.813086,
              18.947656
            ],
            [
              72.814453,
              18.947656
            ],
            [
              72.81582,
              18.946289
            ],
            [
              72.817187,
              18.946289
            ],
            [
              72.818555,
              18.947656
            ],
            [
              72.824023,
              18.947656
            ],
            [
              72.828125,
              18.951758
            ],
            [
              72.828125,
              18.953125
            ],
            [
              72.826758,
              18.954492
            ],
            [
              72.826758,
              18.955859
            ],
            [
              72.821289,
              18.961328
            ],
            [
              72.819922,
              18.961328
            ],
            [
              72.818555,
              18.962695
            ],
            [
              72.817187,
              18.962695
            ],
            [
              72.81582,
              18.964062
            ],
            [
              72.811719,
              18.964062
            ],
            [
              72.808984,
              18.961328
            ],
            [
              72.807617,
              18.961328
            ]
          ]
        ]
      }
    },
    {
      "type": "Feature",
      "properties": {
        "spill_id": "palsar_455",
        "confidence": 0.85
      },
      "geometry": {
        "type": "Polygon",
        "coordinates": [
          [
            [
              72.77207,
              19.005078
            ],
            [
              72.77207,
              19.003711
            ],
            [
              72.770703,
              19.002344
            ],
            [
              72.770703,
              18.999609
            ],
            [
              72.77207,
              18.998242
            ],
            [
              72.773438,
              18.994141
            ],
            [
              72.777539,
              18.990039
            ],
            [
              72.781641,
              18.980469
            ],
            [
              72.784375,
              18.977734
            ],
            [
              72.785742,
              18.977734
            ],
            [
              72.795312,
              18.972266
            ],
            [
              72.803516,
              18.972266
            ],
            [
              72.803516,
              18.980469
            ],
            [
              72.802148,
              18.981836
            ],
            [
              72.802148,
              18.983203
            ],
            [
              72.799414,
              18.985938
            ],
            [
              72.799414,
              18.987305
            ],
            [
              72.79668,
              18.990039
            ],
            [
              72.79668,
              18.991406
            ],
            [
              72.795312,
              18.992773
            ],
            [
              72.793945,
              18.992773
            ],
            [
              72.787109,
              18.999609
            ],
            [
              72.787109,
              19.000977
            ],
            [
              72.783008,
              19.005078
            ],
            [
              72.781641,
              19.005078
            ],
            [
              72.780273,
              19.006445
            ],
            [
              72.774805,
              19.006445
            ],
            [
              72.773438,
              19.005078
            ],
            [
              72.77207,
              19.005078
            ]
          ]
        ]
      }
    },
    {
      "type": "Feature",
      "properties": {
        "spill_id": "palsar_455",
        "confidence": 0.85
      },
      "geometry": {
        "type": "Polygon",
        "coordinates": [
          [
            [
              72.68457,
              19.033789
            ],
            [
              72.68457,
              19.029687
            ],
            [
              72.688672,
              19.025586
            ],
            [
              72.690039,
              19.025586
            ],
            [
              72.695508,
              19.020117
            ],
            [
              72.696875,
              19.020117
            ],
            [
              72.698242,
              19.01875
            ],
            [
              72.702344,
              19.01875
            ],
            [
              72.703711,
              19.020117
            ],
            [
              72.706445,
              19.020117
            ],
            [
              72.706445,
              19.025586
            ],
            [
              72.702344,
              19.029687
            ],
            [
              72.700977,
              19.029687
            ],
            [
              72.699609,
              19.031055
            ],
            [
              72.698242,
              19.031055
            ],
            [
              72.696875,
              19.032422
            ],
            [
              72.695508,
              19.032422
            ],
            [
              72.694141,
              19.033789
            ],
            [
              72.692773,
              19.033789
            ],
            [
              72.691406,
              19.035156
            ],
            [
              72.685938,
              19.035156
            ],
            [
              72.68457,
              19.033789
            ]
          ]
        ]
      }
    },
    {
      "type": "Feature",
      "properties": {
        "spill_id": "palsar_455",
        "confidence": 0.85
      },
      "geometry": {
        "type": "Polygon",
        "coordinates": [
          [
            [
              72.575195,
              19.103516
            ],
            [
              72.57793,
              19.093945
            ],
            [
              72.5875,
              19.089844
            ],
            [
              72.59707,
              19.080273
            ],
            [
              72.598438,
              19.074805
            ],
            [
              72.603906,
              19.069336
            ],
            [
              72.608008,
              19.061133
            ],
            [
              72.612109,
              19.059766
            ],
            [
              72.62168,
              19.050195
            ],
            [
              72.635352,
              19.040625
            ],
            [
              72.647656,
              19.037891
            ],
            [
              72.651758,
              19.032422
            ],
            [
              72.658594,
              19.031055
            ],
            [
              72.659961,
              19.035156
            ],
            [
              72.650391,
              19.041992
            ],
            [
              72.647656,
              19.050195
            ],
            [
              72.643555,
              19.054297
            ],
            [
              72.625781,
              19.0625
            ],
            [
              72.62168,
              19.066602
            ],
            [
              72.617578,
              19.078906
            ],
            [
              72.601172,
              19.095312
            ],
            [
              72.582031,
              19.10625
            ],
            [
              72.57793,
              19.10625
            ],
            [
              72.575195,
              19.103516
            ]
          ]
        ]
      }
    },
    {
      "type": "Feature",
      "properties": {
        "spill_id": "palsar_455",
        "confidence": 0.85
      },
      "geometry": {
        "type": "Polygon",
        "coordinates": [
          [
            [
              72.675,
              19.14043
            ],
            [
              72.676367,
              19.139062
            ],
            [
              72.676367,
              19.136328
            ],
            [
              72.679102,
              19.133594
            ],
            [
              72.680469,
              19.133594
            ],
            [
              72.681836,
              19.132227
            ],
            [
              72.688672,
              19.132227
            ],
            [
              72.690039,
              19.133594
            ],
            [
              72.691406,
              19.133594
            ],
            [
              72.692773,
              19.134961
            ],
            [
              72.694141,
              19.134961
            ],
            [
              72.694141,
              19.136328
            ],
            [
              72.695508,
              19.137695
            ],
            [
              72.695508,
              19.139062
            ],
            [
              72.692773,
              19.141797
            ],
            [
              72.690039,
              19.141797
            ],
            [
              72.688672,
              19.143164
            ],
            [
              72.683203,
              19.143164
            ],
            [
              72.681836,
              19.144531
            ],
            [
              72.679102,
              19.144531
            ],
            [
              72.677734,
              19.143164
            ],
            [
              72.676367,
              19.143164
            ],
            [
              72.676367,
              19.141797
            ],
            [
              72.675,
              19.14043
            ]
          ]
        ]
      }
    },
    {
      "type": "Feature",
      "properties": {
        "spill_id": "palsar_455",
        "confidence": 0.85
      },
      "geometry": {
        "type": "Polygon",
        "coordinates": [
          [
            [
              72.588867,
              19.15
            ],
            [
              72.594336,
              19.141797
            ],
            [
              72.610742,
              19.137695
            ],
            [
              72.624414,
              19.126758
            ],
            [
              72.644922,
              19.122656
            ],
            [
              72.676367,
              19.098047
            ],
            [
              72.695508,
              19.095312
            ],
            [
              72.724219,
              19.081641
            ],
            [
              72.7625,
              19.054297
            ],
            [
              72.79668,
              19.040625
            ],
            [
              72.810352,
              19.026953
            ],
            [
              72.837695,
              19.01875
            ],
            [
              72.844531,
              19.021484
            ],
            [
              72.828125,
              19.041992
            ],
            [
              72.834961,
              19.05293
            ],
            [
              72.833594,
              19.061133
            ],
            [
              72.817187,
              19.065234
            ],
            [
              72.803516,
              19.077539
            ],
            [
              72.770703,
              19.084375
            ],
            [
              72.754297,
              19.09668
            ],
            [
              72.710547,
              19.11582
            ],
            [
              72.673633,
              19.122656
            ],
            [
              72.633984,
              19.15
            ],
            [
              72.588867,
              19.15
            ]
          ]
        ]
      }
    }
  ]
}