{
  "type": "FeatureCollection",
  "features": [
    {
      "type": "Feature",
      "properties": {
        "spill_id": "palsar_500",
        "confidence": 0.87
      },
      "geometry": {
        "type": "Polygon",
        "coordinates": [
          [
            [
              72.542383,
              18.849219
            ],
            [
              72.538281,
              18.845117
            ],
            [
              72.538281,
              18.838281
            ],
            [
              72.542383,
              18.831445
            ],
            [
              72.54375,
              18.820508
            ],
            [
              72.546484,
              18.815039
            ],
            [
              72.546484,
              18.810938
            ],
            [
              72.541016,
              18.806836
            ],
            [
              72.542383,
              18.801367
            ],
            [
              72.569727,
              18.801367
            ],
            [
              72.571094,
              18.802734
            ],
            [
              72.571094,
              18.805469
            ],
            [
              72.568359,
              18.808203
            ],
            [
              72.560156,
              18.812305
            ],
            [
              72.557422,
              18.816406
            ],
            [
              72.557422,
              18.825977
            ],
            [
              72.562891,
              18.83418
            ],
            [
              72.562891,
              18.839648
            ],
            [
              72.554688,
              18.850586
            ],
            [
              72.545117,
              18.850586
            ],
            [
              72.542383,
              18.849219
            ]
          ]
        ]
      }
    },
    {
      "type": "Feature",
      "properties": {
        "spill_id": "palsar_500",
        "confidence": 0.87
      },
      "geometry": {
        "type": "Polygon",
        "coordinates": [
          [
            [
              72.813086,
              18.918945
            ],
            [
              72.813086,
              18.917578
            ],
            [
              72.810352,
              18.913477
            ],
            [
              72.810352,
              18.905273
            ],
            [
              72.81582,
              18.899805
            ],
            [
              72.821289,
              18.899805
            ],
            [
              72.822656,
              18.898438
            ],
            [
              72.829492,
              18.898438
            ],
            [
              72.837695,
              18.890234
            ],
            [
              72.847266,
              18.890234
            ],
            [
              72.848633,
              18.891602
            ],
            [
              72.848633,
              18.906641
            ],
            [
              72.847266,
              18.906641
            ],
            [
              72.845898,
              18.908008
            ],
            [
              72.845898,
              18.909375
            ],
            [
              72.841797,
              18.913477
            ],
            [
              72.84043,
              18.913477
            ],
            [
              72.830859,
              18.923047
            ],
            [
              72.821289,
              18.923047
            ],
            [
              72.819922,
              18.92168
            ],
            [
              72.817187,
              18.92168
            ],
            [
              72.813086,
              18.918945
            ]
          ]
        ]
      }
    },
    {
      "type": "Feature",
      "properties": {
        "spill_id": "palsar_500",
        "confidence": 0.87
      },
      "geometry": {
        "type": "Polygon",
        "coordinates": [
          [
            [
              72.5,
              18.954492
            ],
            [
              72.5,
              18.925781
            ],
            [
              72.501367,
              18.924414
            ],
            [
              72.515039,
              18.924414
            ],
            [
              72.516406,
              18.925781
            ],
            [
              72.519141,
              18.925781
            ],
            [
              72.520508,
              18.927148
            ],
            [
              72.524609,
              18.928516
            ],
            [
              72.528711,
              18.932617
            ],
            [
              72.528711,
              18.933984
            ],
            [
              72.530078,
              18.935352
            ],
            [
              72.530078,
              18.94082
            ],
            [
              72.528711,
              18.942188
            ],
            [
              72.527344,
              18.946289
            ],
            [
              72.521875,
              18.951758
            ],
            [
              72.520508,
              18.951758
            ],
            [
              72.519141,
              18.953125
            ],
            [
              72.515039,
              18.953125
            ],
            [
              72.513672,
              18.954492
            ],
            [
              72.5,
              18.954492
            ]
          ]
        ]
      }
    },
    {
      "type": "Feature",
      "properties": {
        "spill_id": "palsar_500",
        "confidence": 0.87
      },
      "geometry": {
        "type": "Polygon",
        "coordinates": [
          [
            [
              72.802148,
              18.966797
            ],
            [
              72.800781,
              18.962695
            ],
            [
              72.803516,
              18.957227
            ],
            [
              72.808984,
              18.950391
            ],
            [
              72.808984,
              18.949023
            ],
            [
              72.813086,
              18.944922
            ],
            [
              72.818555,
              18.943555
            ],
            [
              72.826758,
              18.935352
            ],
            [
              72.826758,
              18.933984
            ],
            [
              72.832227,
              18.93125
            ],
            [
              72.841797,
              18.93125
            ],
            [
              72.848633,
              18.938086
            ],
            [
              72.848633,
              18.942188
            ],
            [
              72.844531,
              18.946289
            ],
            [
              72.834961,
              18.950391
            ],
            [
              72.829492,
              18.955859
            ],
            [
              72.828125,
              18.959961
            ],
            [
              72.824023,
              18.964062
            ],
            [
              72.818555,
              18.96543
            ],
            [
              72.817187,
              18.966797
            ],
            [
              72.814453,
              18.966797
            ],
            [
              72.813086,
              18.968164
            ],
            [
              72.807617,
              18.968164
            ],
            [
              72.80625,
              18.969531
            ],
            [
              72.802148,
              18.966797
            ]
          ]
        ]
      }
    },
    {
      "type": "Feature",
      "properties": {
        "spill_id": "palsar_500",
        "confidence": 0.87
      },
      "geometry": {
        "type": "Polygon",
        "coordinates": [
          [
            [
              72.826758,
              18.995508
            ],
            [
              72.825391,
              18.994141
            ],
            [
              72.825391,
              18.991406
            ],
            [
              72.824023,
              18.990039
            ],
            [
              72.824023,
              18.988672
            ],
            [
              72.825391,
              18.987305
            ],
            [
              72.825391,
              18.98457
            ],
            [
              72.828125,
              18.981836
            ],
            [
              72.828125,
              18.980469
            ],
            [
              72.829492,
              18.979102
            ],
            [
              72.829492,
              18.976367
            ],
            [
              72.830859,
              18.975
            ],
            [
              72.832227,
              18.970898
            ],
            [
              72.834961,
              18.968164
            ],
            [
              72.834961,
              18.966797
            ],
            [
              72.836328,
              18.966797
            ],
            [
              72.839062,
              18.964062
            ],
            [
              72.848633,
              18.964062
            ],
            [
              72.848633,
              18.995508
            ],
            [
              72.847266,
              18.995508
            ],
            [
              72.845898,
              18.996875
            ],
            [
              72.829492,
              18.996875
            ],
            [
              72.828125,
              18.995508
            ],
            [
              72.826758,
              18.995508
            ]
          ]
        ]
      }
    },
    {
      "type": "Feature",
      "properties": {
        "spill_id": "palsar_500",
        "confidence": 0.87
      },
      "geometry": {
        "type": "Polygon",
        "coordinates": [
          [
            [
              72.528711,
              19.011914
            ],
            [
              72.528711,
              19.010547
            ],
            [
              72.527344,
              19.00918
            ],
            [
              72.527344,
              18.995508
            ],
            [
              72.528711,
              18.994141
            ],
            [
              72.530078,
              18.990039
            ],
            [
              72.532812,
              18.987305
            ],
            [
              72.535547,
              18.987305
            ],
            [
              72.541016,
              18.983203
            ],
            [
              72.542383,
              18.983203
            ],
            [
              72.547852,
              18.977734
            ],
            [
              72.55332,
              18.977734
            ],
            [
              72.554688,
              18.976367
            ],
            [
              72.558789,
              18.977734
            ],
            [
              72.558789,
              18.979102
            ],
            [
              72.560156,
              18.980469
            ],
            [
              72.560156,
              18.98457
            ],
            [
              72.558789,
              18.985938
            ],
            [
              72.558789,
              18.987305
            ],
            [
              72.556055,
              18.990039
            ],
            [
              72.549219,
              18.991406
            ],
            [
              72.546484,
              18.994141
            ],
            [
              72.546484,
              18.999609
            ],
            [
              72.545117,
              19.000977
            ],
            [
              72.545117,
              19.013281
            ],
            [
              72.542383,
              19.013281
            ],
            [
              72.541016,
              19.011914
            ],
            [
              72.528711,
              19.011914
            ]
          ]
        ]
      }
    },
    {
      "type": "Feature",
      "properties": {
        "spill_id": "palsar_500",
        "confidence": 0.87
      },
      "geometry": {
        "type": "Polygon",
        "coordinates": [
          [
            [
              72.571094,
              19.017383
            ],
            [
              72.591602,
              18.954492
            ],
            [
              72.614844,
              18.942188
            ],
            [
              72.624414,
              18.946289
            ],
            [
              72.64082,
              18.928516
            ],
            [
              72.677734,
              18.936719
            ],
            [
              72.700977,
              18.955859
            ],
            [
              72.726953,
              18.954492
            ],
            [
              72.732422,
              18.958594
            ],
            [
              72.732422,
              18.970898
            ],
            [
              72.720117,
              18.973633
            ],
            [
              72.702344,
              18.969531
            ],
            [
              72.691406,
              18.957227
            ],
            [
              72.664062,
              18.955859
            ],
            [
              72.651758,
              18.950391
            ],
            [
              72.644922,
              18.968164
            ],
            [
              72.668164,
              18.968164
            ],
            [
              72.673633,
              18.979102
            ],
            [
              72.658594,
              18.998242
            ],
            [
              72.650391,
              19.032422
            ],
            [
              72.636719,
              19.032422
            ],
            [
              72.632617,
              19.025586
            ],
            [
              72.642187,
              18.994141
            ],
            [
              72.636719,
              18.98457
            ],
            [
              72.628516,
              18.988672
            ],
            [
              72.628516,
              18.998242
            ],
            [
              72.601172,
              18.998242
            ],
            [
              72.59707,
              19.021484
            ],
            [
              72.580664,
              19.022852
            ],
            [
              72.571094,
              19.017383
            ]
          ]
        ]
      }
    },
    {
      "type": "Feature",
      "properties": {
        "spill_id": "palsar_500",
        "confidence": 0.87
      },
      "geometry": {
        "type": "Polygon",
        "coordinates": [
          [
            [
              72.824023,
              19.063867
            ],
            [
              72.821289,
              19.061133
            ],
            [
              72.821289,
              19.054297
            ],
            [
              72.824023,
              19.048828
            ],
            [
              72.830859,
              19.043359
            ],
            [
              72.830859,
              19.039258
            ],
            [
              72.821289,
              19.031055
            ],
            [
              72.81582,
              19.02832
            ],
            [
              72.811719,
              19.024219
            ],
            [
              72.810352,
              19.01875
            ],
            [
              72.818555,
              19.006445
            ],
            [
              72.826758,
              19.003711
            ],
            [
              72.839062,
              19.013281
            ],
            [
              72.841797,
              19.017383
            ],
            [
              72.843164,
              19.037891
            ],
            [
              72.848633,
              19.040625
            ],
            [
              72.848633,
              19.057031
            ],
            [
              72.824023,
              19.063867
            ]
          ]
        ]
      }
    },
    {
      "type": "Feature",
      "properties": {
        "spill_id": "palsar_500",
        "confidence": 0.87
      },
      "geometry": {
        "type": "Polygon",
        "coordinates": [
          [
            [
              72.629883,
              19.15
            ],
            [
              72.620312,
              19.15
            ],
            [
              72.620312,
              19.148633
            ],
            [
              72.62168,
              19.147266
            ],
            [
              72.62168,
              19.145898
            ],
            [
              72.623047,
              19.144531
            ],
            [
              72.623047,
              19.141797
            ],
            [
              72.624414,
              19.14043
            ],
            [
              72.629883,
              19.145898
            ],
            [
              72.629883,
              19.15
            ]
          ]
        ]
      }
    },
    {
      "type": "Feature",
      "properties": {
        "spill_id": "palsar_500",
        "confidence": 0.87
      },
      "geometry": {
        "type": "Polygon",
        "coordinates": [
          [
            [
              72.5,
              19.15
            ],
            [
              72.5,
              19.134961
            ],
            [
              72.519141,
              19.110352
            ],
            [
              72.510938,
              19.091211
            ],
            [
              72.527344,
              19.074805
            ],
            [
              72.531445,
              19.040625
            ],
            [
              72.538281,
              19.035156
            ],
            [
              72.549219,
              19.036523
            ],
            [
              72.568359,
              19.055664
            ],
            [
              72.591602,
              19.047461
            ],
            [
              72.632617,
              19.051562
            ],
            [
              72.628516,
              19.078906
            ],
            [
              72.649023,
              19.093945
            ],
            [
              72.669531,
              19.087109
            ],
            [
              72.702344,
              19.059766
            ],
            [
              72.714648,
              19.070703
            ],
            [
              72.732422,
              19.061133
            ],
            [
              72.763867,
              19.067969
            ],
            [
              72.780273,
              19.036523
            ],
            [
              72.798047,
              19.036523
            ],
            [
              72.795312,
              19.054297
            ],
            [
              72.737891,
              19.118555
            ],
            [
              72.703711,
              19.125391
            ],
            [
              72.687305,
              19.15
            ],
            [
              72.680469,
              19.14043
            ],
            [
              72.696875,
              19.114453
            ],
            [
              72.68457,
              19.102148
            ],
            [
              72.625781,
              19.10625
            ],
            [
              72.613477,
              19.11582
            ],
            [
              72.613477,
              19.125391
            ],
            [
              72.59707,
              19.124023
            ],
            [
              72.586133,
              19.132227
            ],
            [
              72.575195,
              19.132227
            ],
            [
              72.562891,
              19.119922
            ],
            [
              72.539648,
              19.121289
            ],
            [
              72.520508,
              19.15
            ],
            [
              72.5,
              19.15
            ]
          ]
        ]
      }
    }
  ]
}