{
  "type": "FeatureCollection",
  "features": [
    {
      "type": "Feature",
      "properties": {
        "spill_id": "sentinel_398",
        "confidence": 0.92
      },
      "geometry": {
        "type": "Polygon",
        "coordinates": [
          [
            [
              72.531445,
              18.988672
            ],
            [
              72.530078,
              18.987305
            ],
            [
              72.530078,
              18.985938
            ],
            [
              72.528711,
              18.98457
            ],
            [
              72.528711,
              18.983203
            ],
            [
              72.530078,
              18.981836
            ],
            [
              72.530078,
              18.980469
            ],
            [
              72.532812,
              18.977734
            ],
            [
              72.53418,
              18.977734
            ],
            [
              72.535547,
              18.976367
            ],
            [
              72.542383,
              18.976367
            ],
            [
              72.542383,
              18.979102
            ],
            [
              72.539648,
              18.981836
            ],
            [
              72.539648,
              18.983203
            ],
            [
              72.53418,
              18.988672
            ],
            [
              72.531445,
              18.988672
            ]
          ]
        ]
      }
    },
    {
      "type": "Feature",
      "properties": {
        "spill_id": "sentinel_398",
        "confidence": 0.92
      },
      "geometry": {
        "type": "Polygon",
        "coordinates": [
          [
            [
              72.848633,
              18.801367
            ],
            [
              72.848633,
              18.972266
            ],
            [
              72.839062,
              18.979102
            ],
            [
              72.848633,
              19.002344
            ],
            [
              72.839062,
              18.999609
            ],
            [
              72.841797,
              18.983203
            ],
            [
              72.828125,
              18.96543
            ],
            [
              72.798047,
              18.969531
            ],
            [
              72.743359,
              18.953125
            ],
            [
              72.767969,
              18.913477
            ],
            [
              72.758398,
              18.895703
            ],
            [
              72.700977,
              18.914844
            ],
            [
              72.677734,
              18.8875
            ],
            [
              72.613477,
              18.920312
            ],
            [
              72.546484,
              18.969531
            ],
            [
              72.561523,
              18.936719
            ],
            [
              72.617578,
              18.899805
            ],
            [
              72.620312,
              18.875195
            ],
            [
              72.608008,
              18.860156
            ],
            [
              72.635352,
              18.802734
            ],
            [
              72.848633,
              18.801367
            ]
          ]
        ]
      }
    },
    {
      "type": "Feature",
      "properties": {
        "spill_id": "sentinel_398",
        "confidence": 0.92
      },
      "geometry": {
        "type": "Polygon",
        "coordinates": [
          [
            [
              72.642187,
              19.15
            ],
            [
              72.646289,
              19.136328
            ],
            [
              72.676367,
              19.125391
            ],
            [
              72.683203,
              19.10625
            ],
            [
              72.710547,
              19.089844
            ],
            [
              72.722852,
              19.07207
            ],
            [
              72.733789,
              19.066602
            ],
            [
              72.736523,
              19.040625
            ],
            [
              72.744727,
              19.024219
            ],
            [
              72.780273,
              18.990039
            ],
            [
              72.795312,
              18.991406
            ],
            [
              72.802148,
              18.999609
            ],
            [
              72.773438,
              19.021484
            ],
            [
              72.767969,
              19.036523
            ],
            [
              72.810352,
              19.029687
            ],
            [
              72.836328,
              19.017383
            ],
            [
              72.848633,
              19.022852
            ],
            [
              72.848633,
              19.05293
            ],
            [
              72.841797,
              19.058398
            ],
            [
              72.848633,
              19.066602
            ],
            [
              72.848633,
              19.092578
            ],
            [
              72.811719,
              19.091211
            ],
            [
              72.765234,
              19.132227
            ],
            [
              72.736523,
              19.128125
            ],
            [
              72.71875,
              19.11582
            ],
            [
              72.707812,
              19.11582
            ],
            [
              72.681836,
              19.139062
            ],
            [
              72.658594,
              19.15
            ],
            [
              72.642187,
              19.15
            ]
          ]
        ]
      }
    }
  ]
}