{
  "type": "FeatureCollection",
  "features": [
    {
      "type": "Feature",
      "properties": {
        "spill_id": "sentinel_36",
        "confidence": 0.81
      },
      "geometry": {
        "type": "Polygon",
        "coordinates": [
          [
            [
              72.501367,
              19.15
            ],
            [
              72.5,
              18.801367
            ],
            [
              72.848633,
              18.801367
            ],
            [
              72.847266,
              19.15
            ],
            [
              72.789844,
              19.15
            ],
            [
              72.778906,
              19.137695
            ],
            [
              72.763867,
              19.15
            ],
            [
              72.501367,
              19.15
            ]
          ]
        ]
      }
    }
  ]
}