{
  "type": "FeatureCollection",
  "features": [
    {
      "type": "Feature",
      "properties": {
        "spill_id": "sentinel_225",
        "confidence": 0.89
      },
      "geometry": {
        "type": "Polygon",
        "coordinates": [
          [
            [
              72.554688,
              19.15
            ],
            [
              72.523242,
              19.107617
            ],
            [
              72.515039,
              19.031055
            ],
            [
              72.5,
              19.022852
            ],
            [
              72.5,
              18.992773
            ],
            [
              72.520508,
              18.96543
            ],
            [
              72.504102,
              18.935352
            ],
            [
              72.5,
              18.868359
            ],
            [
              72.557422,
              18.858789
            ],
            [
              72.57793,
              18.801367
            ],
            [
              72.695508,
              18.801367
            ],
            [
              72.703711,
              18.810938
            ],
            [
              72.706445,
              18.901172
            ],
            [
              72.688672,
              18.979102
            ],
            [
              72.676367,
              18.994141
            ],
            [
              72.683203,
              19.01875
            ],
            [
              72.647656,
              19.0625
            ],
            [
              72.650391,
              19.081641
            ],
            [
              72.633984,
              19.11582
            ],
            [
              72.638086,
              19.15
            ],
            [
              72.554688,
              19.15
            ]
          ]
        ]
      }
    }
  ]
}