{
  "type": "FeatureCollection",
  "features": [
    {
      "type": "Feature",
      "properties": {
        "spill_id": "sentinel_315",
        "confidence": 0.83
      },
      "geometry": {
        "type": "Polygon",
        "coordinates": [
          [
            [
              72.778906,
              19.035156
            ],
            [
              72.7625,
              19.033789
            ],
            [
              72.744727,
              18.98457
            ],
            [
              72.731055,
              18.976367
            ],
            [
              72.736523,
              18.96543
            ],
            [
              72.750195,
              18.96543
            ],
            [
              72.748828,
              18.953125
            ],
            [
              72.714648,
              18.917578
            ],
            [
              72.685938,
              18.828711
            ],
            [
              72.662695,
              18.810938
            ],
            [
              72.662695,
              18.801367
            ],
            [
              72.722852,
              18.802734
            ],
            [
              72.741992,
              18.835547
            ],
            [
              72.754297,
              18.827344
            ],
            [
              72.759766,
              18.802734
            ],
            [
              72.77207,
              18.80957
            ],
            [
              72.787109,
              18.835547
            ],
            [
              72.79668,
              18.801367
            ],
            [
              72.848633,
              18.801367
            ],
            [
              72.848633,
              18.827344
            ],
            [
              72.841797,
              18.83418
            ],
            [
              72.845898,
              18.851953
            ],
            [
              72.817187,
              18.824609
            ],
            [
              72.804883,
              18.841016
            ],
            [
              72.787109,
              18.847852
            ],
            [
              72.807617,
              18.924414
            ],
            [
              72.799414,
              18.955859
            ],
            [
              72.780273,
              18.977734
            ],
            [
              72.799414,
              19.007812
            ],
            [
              72.778906,
              19.035156
            ]
          ]
        ]
      }
    },
    {
      "type": "Feature",
      "properties": {
        "spill_id": "sentinel_315",
        "confidence": 0.83
      },
      "geometry": {
        "type": "Polygon",
        "coordinates": [
          [
            [
              72.798047,
              19.069336
            ],
            [
              72.79668,
              19.067969
            ],
            [
              72.795312,
              19.067969
            ],
            [
              72.795312,
              19.065234
            ],
            [
              72.793945,
              19.063867
            ],
            [
              72.793945,
              19.059766
            ],
            [
              72.795312,
              19.058398
            ],
            [
              72.795312,
              19.057031
            ],
            [
              72.798047,
              19.054297
            ],
            [
              72.803516,
              19.054297
            ],
            [
              72.804883,
              19.055664
            ],
            [
              72.804883,
              19.057031
            ],
            [
              72.80625,
              19.058398
            ],
            [
              72.80625,
              19.059766
            ],
            [
              72.807617,
              19.061133
            ],
            [
              72.807617,
              19.067969
            ],
            [
              72.80625,
              19.069336
            ],
            [
              72.798047,
              19.069336
            ]
          ]
        ]
      }
    },
    {
      "type": "Feature",
      "properties": {
        "spill_id": "sentinel_315",
        "confidence": 0.83
      },
      "geometry": {
        "type": "Polygon",
        "coordinates": [
          [
            [
              72.506836,
              19.15
            ],
            [
              72.5,
              19.048828
            ],
            [
              72.601172,
              19.057031
            ],
            [
              72.647656,
              19.014648
            ],
            [
              72.639453,
              18.999609
            ],
            [
              72.608008,
              18.996875
            ],
            [
              72.632617,
              18.969531
            ],
            [
              72.629883,
              18.939453
            ],
            [
              72.650391,
              18.923047
            ],
            [
              72.639453,
              18.886133
            ],
            [
              72.584766,
              18.827344
            ],
            [
              72.590234,
              18.805469
            ],
            [
              72.614844,
              18.806836
            ],
            [
              72.673633,
              18.888867
            ],
            [
              72.664062,
              18.983203
            ],
            [
              72.696875,
              19.044727
            ],
            [
              72.677734,
              19.058398
            ],
            [
              72.66543,
              19.040625
            ],
            [
              72.661328,
              19.057031
            ],
            [
              72.695508,
              19.069336
            ],
            [
              72.72832,
              19.119922
            ],
            [
              72.707812,
              19.15
            ],
            [
              72.694141,
              19.15
            ],
            [
              72.68457,
              19.128125
            ],
            [
              72.698242,
              19.103516
            ],
            [
              72.672266,
              19.089844
            ],
            [
              72.666797,
              19.143164
            ],
            [
              72.628516,
              19.15
            ],
            [
              72.629883,
              19.083008
            ],
            [
              72.575195,
              19.080273
            ],
            [
              72.532812,
              19.15
            ],
            [
              72.506836,
              19.15
            ]
          ]
        ]
      }
    }
  ]
}