{
  "type": "FeatureCollection",
  "features": [
    {
      "type": "Feature",
      "properties": {
        "spill_id": "sentinel_676",
        "confidence": 0.83
      },
      "geometry": {
        "type": "Polygon",
        "coordinates": [
          [
            [
              72.666797,
              18.935352
            ],
            [
              72.66543,
              18.933984
            ],
            [
              72.664062,
              18.933984
            ],
            [
              72.664062,
              18.932617
            ],
            [
              72.662695,
              18.93125
            ],
            [
              72.662695,
              18.924414
            ],
            [
              72.666797,
              18.920312
            ],
            [
              72.666797,
              18.918945
            ],
            [
              72.668164,
              18.918945
            ],
            [
              72.669531,
              18.917578
            ],
            [
              72.670898,
              18.917578
            ],
            [
              72.670898,
              18.920312
            ],
            [
              72.673633,
              18.923047
            ],
            [
              72.675,
              18.923047
            ],
            [
              72.676367,
              18.924414
            ],
            [
              72.676367,
              18.925781
            ],
            [
              72.677734,
              18.927148
            ],
            [
              72.677734,
              18.93125
            ],
            [
              72.675,
              18.933984
            ],
            [
              72.673633,
              18.933984
            ],
            [
              72.672266,
              18.935352
            ],
            [
              72.666797,
              18.935352
            ]
          ]
        ]
      }
    },
    {
      "type": "Feature",
      "properties": {
        "spill_id": "sentinel_676",
        "confidence": 0.83
      },
      "geometry": {
        "type": "Polygon",
        "coordinates": [
          [
            [
              72.565625,
              18.990039
            ],
            [
              72.562891,
              18.992773
            ],
            [
              72.561523,
              18.991406
            ],
            [
              72.55332,
              18.991406
            ],
            [
              72.547852,
              18.988672
            ],
            [
              72.542383,
              18.988672
            ],
            [
              72.541016,
              18.990039
            ],
            [
              72.539648,
              18.988672
            ],
            [
              72.53418,
              18.988672
            ],
            [
              72.524609,
              18.98457
            ],
            [
              72.517773,
              18.985938
            ],
            [
              72.516406,
              18.98457
            ],
            [
              72.516406,
              18.977734
            ],
            [
              72.517773,
              18.976367
            ],
            [
              72.520508,
              18.977734
            ],
            [
              72.525977,
              18.977734
            ],
            [
              72.528711,
              18.975
            ],
            [
              72.528711,
              18.968164
            ],
            [
              72.530078,
              18.966797
            ],
            [
              72.530078,
              18.962695
            ],
            [
              72.532812,
              18.962695
            ],
            [
              72.535547,
              18.964062
            ],
            [
              72.541016,
              18.970898
            ],
            [
              72.545117,
              18.966797
            ],
            [
              72.546484,
              18.966797
            ],
            [
              72.547852,
              18.973633
            ],
            [
              72.550586,
              18.976367
            ],
            [
              72.558789,
              18.977734
            ],
            [
              72.564258,
              18.983203
            ],
            [
              72.565625,
              18.985938
            ],
            [
              72.565625,
              18.990039
            ]
          ]
        ]
      }
    },
    {
      "type": "Feature",
      "properties": {
        "spill_id": "sentinel_676",
        "confidence": 0.83
      },
      "geometry": {
        "type": "Polygon",
        "coordinates": [
          [
            [
              72.5,
              19.020117
            ],
            [
              72.5,
              19.00918
            ],
            [
              72.501367,
              19.010547
            ],
            [
              72.502734,
              19.00918
            ],
            [
              72.504102,
              19.00918
            ],
            [
              72.505469,
              19.007812
            ],
            [
              72.506836,
              19.00918
            ],
            [
              72.508203,
              19.00918
            ],
            [
              72.50957,
              19.010547
            ],
            [
              72.510938,
              19.010547
            ],
            [
              72.510938,
              19.013281
            ],
            [
              72.508203,
              19.016016
            ],
            [
              72.506836,
              19.016016
            ],
            [
              72.505469,
              19.017383
            ],
            [
              72.502734,
              19.017383
            ],
            [
              72.5,
              19.020117
            ]
          ]
        ]
      }
    },
    {
      "type": "Feature",
      "properties": {
        "spill_id": "sentinel_676",
        "confidence": 0.83
      },
      "geometry": {
        "type": "Polygon",
        "coordinates": [
          [
            [
              72.519141,
              19.15
            ],
            [
              72.546484,
              19.110352
            ],
            [
              72.603906,
              19.083008
            ],
            [
              72.588867,
              19.0625
            ],
            [
              72.566992,
              19.080273
            ],
            [
              72.532812,
              19.063867
            ],
            [
              72.517773,
              19.073438
            ],
            [
              72.5,
              19.061133
            ],
            [
              72.5,
              19.044727
            ],
            [
              72.519141,
              19.037891
            ],
            [
              72.541016,
              19.051562
            ],
            [
              72.62168,
              19.00918
            ],
            [
              72.617578,
              18.994141
            ],
            [
              72.603906,
              18.996875
            ],
            [
              72.608008,
              18.981836
            ],
            [
              72.588867,
              18.981836
            ],
            [
              72.594336,
              18.936719
            ],
            [
              72.575195,
              18.933984
            ],
            [
              72.573828,
              18.888867
            ],
            [
              72.557422,
              18.866992
            ],
            [
              72.571094,
              18.80957
            ],
            [
              72.595703,
              18.801367
            ],
            [
              72.576562,
              18.865625
            ],
            [
              72.588867,
              18.856055
            ],
            [
              72.618945,
              18.979102
            ],
            [
              72.644922,
              18.980469
            ],
            [
              72.676367,
              18.947656
            ],
            [
              72.676367,
              19.003711
            ],
            [
              72.707812,
              19.003711
            ],
            [
              72.700977,
              19.025586
            ],
            [
              72.681836,
              19.035156
            ],
            [
              72.687305,
              19.043359
            ],
            [
              72.675,
              19.033789
            ],
            [
              72.646289,
              19.084375
            ],
            [
              72.653125,
              19.114453
            ],
            [
              72.623047,
              19.108984
            ],
            [
              72.636719,
              19.15
            ],
            [
              72.519141,
              19.15
            ]
          ]
        ]
      }
    }
  ]
}