{
  "type": "FeatureCollection",
  "features": [
    {
      "type": "Feature",
      "properties": {
        "spill_id": "sentinel_49",
        "confidence": 0.79
      },
      "geometry": {
        "type": "Polygon",
        "coordinates": [
          [
            [
              72.767969,
              18.866992
            ],
            [
              72.767969,
              18.862891
            ],
            [
              72.766602,
              18.861523
            ],
            [
              72.766602,
              18.857422
            ],
            [
              72.767969,
              18.856055
            ],
            [
              72.767969,
              18.854688
            ],
            [
              72.766602,
              18.85332
            ],
            [
              72.765234,
              18.846484
            ],
            [
              72.7625,
              18.842383
            ],
            [
              72.7625,
              18.831445
            ],
            [
              72.763867,
              18.831445
            ],
            [
              72.765234,
              18.830078
            ],
            [
              72.765234,
              18.828711
            ],
            [
              72.766602,
              18.828711
            ],
            [
              72.767969,
              18.827344
            ],
            [
              72.767969,
              18.825977
            ],
            [
              72.769336,
              18.825977
            ],
            [
              72.770703,
              18.824609
            ],
            [
              72.770703,
              18.823242
            ],
            [
              72.77207,
              18.823242
            ],
            [
              72.773438,
              18.821875
            ],
            [
              72.773438,
              18.824609
            ],
            [
              72.774805,
              18.825977
            ],
            [
              72.777539,
              18.825977
            ],
            [
              72.778906,
              18.827344
            ],
            [
              72.781641,
              18.827344
            ],
            [
              72.783008,
              18.828711
            ],
            [
              72.783008,
              18.835547
            ],
            [
              72.781641,
              18.836914
            ],
            [
              72.781641,
              18.839648
            ],
            [
              72.783008,
              18.841016
            ],
            [
              72.783008,
              18.846484
            ],
            [
              72.781641,
              18.847852
            ],
            [
              72.781641,
              18.849219
            ],
            [
              72.776172,
              18.854688
            ],
            [
              72.774805,
              18.854688
            ],
            [
              72.77207,
              18.857422
            ],
            [
              72.77207,
              18.858789
            ],
            [
              72.770703,
              18.860156
            ],
            [
              72.770703,
              18.862891
            ],
            [
              72.767969,
              18.866992
            ]
          ]
        ]
      }
    },
    {
      "type": "Feature",
      "properties": {
        "spill_id": "sentinel_49",
        "confidence": 0.79
      },
      "geometry": {
        "type": "Polygon",
        "coordinates": [
          [
            [
              72.848633,
              18.962695
            ],
            [
              72.844531,
              18.962695
            ],
            [
              72.84043,
              18.958594
            ],
            [
              72.839062,
              18.958594
            ],
            [
              72.836328,
              18.953125
            ],
            [
              72.834961,
              18.951758
            ],
            [
              72.832227,
              18.951758
            ],
            [
              72.829492,
              18.950391
            ],
            [
              72.829492,
              18.949023
            ],
            [
              72.824023,
              18.943555
            ],
            [
              72.824023,
              18.933984
            ],
            [
              72.826758,
              18.93125
            ],
            [
              72.826758,
              18.929883
            ],
            [
              72.832227,
              18.924414
            ],
            [
              72.833594,
              18.924414
            ],
            [
              72.837695,
              18.920312
            ],
            [
              72.837695,
              18.918945
            ],
            [
              72.84043,
              18.917578
            ],
            [
              72.843164,
              18.918945
            ],
            [
              72.844531,
              18.917578
            ],
            [
              72.848633,
              18.917578
            ],
            [
              72.848633,
              18.947656
            ],
            [
              72.847266,
              18.949023
            ],
            [
              72.848633,
              18.951758
            ],
            [
              72.848633,
              18.962695
            ]
          ]
        ]
      }
    },
    {
      "type": "Feature",
      "properties": {
        "spill_id": "sentinel_49",
        "confidence": 0.79
      },
      "geometry": {
        "type": "Polygon",
        "coordinates": [
          [
            [
              72.778906,
              19.121289
            ],
            [
              72.778906,
              19.118555
            ],
            [
              72.777539,
              19.117188
            ],
            [
              72.777539,
              19.11582
            ],
            [
              72.776172,
              19.114453
            ],
            [
              72.776172,
              19.110352
            ],
            [
              72.777539,
              19.108984
            ],
            [
              72.778906,
              19.108984
            ],
            [
              72.780273,
              19.110352
            ],
            [
              72.789844,
              19.110352
            ],
            [
              72.792578,
              19.107617
            ],
            [
              72.798047,
              19.107617
            ],
            [
              72.798047,
              19.113086
            ],
            [
              72.79668,
              19.113086
            ],
            [
              72.795312,
              19.114453
            ],
            [
              72.793945,
              19.114453
            ],
            [
              72.792578,
              19.113086
            ],
            [
              72.789844,
              19.113086
            ],
            [
              72.787109,
              19.11582
            ],
            [
              72.788477,
              19.117188
            ],
            [
              72.788477,
              19.119922
            ],
            [
              72.783008,
              19.119922
            ],
            [
              72.781641,
              19.121289
            ],
            [
              72.778906,
              19.121289
            ]
          ]
        ]
      }
    },
    {
      "type": "Feature",
      "properties": {
        "spill_id": "sentinel_49",
        "confidence": 0.79
      },
      "geometry": {
        "type": "Polygon",
        "coordinates": [
          [
            [
              72.795312,
              19.137695
            ],
            [
              72.792578,
              19.137695
            ],
            [
              72.792578,
              19.136328
            ],
            [
              72.785742,
              19.129492
            ],
            [
              72.784375,
              19.129492
            ],
            [
              72.783008,
              19.130859
            ],
            [
              72.780273,
              19.130859
            ],
            [
              72.780273,
              19.128125
            ],
            [
              72.781641,
              19.126758
            ],
            [
              72.783008,
              19.126758
            ],
            [
              72.783008,
              19.128125
            ],
            [
              72.784375,
              19.129492
            ],
            [
              72.785742,
              19.128125
            ],
            [
              72.785742,
              19.126758
            ],
            [
              72.787109,
              19.125391
            ],
            [
              72.787109,
              19.124023
            ],
            [
              72.795312,
              19.124023
            ],
            [
              72.795312,
              19.125391
            ],
            [
              72.79668,
              19.126758
            ],
            [
              72.79668,
              19.132227
            ],
            [
              72.795312,
              19.133594
            ],
            [
              72.795312,
              19.137695
            ]
          ]
        ]
      }
    },
    {
      "type": "Feature",
      "properties": {
        "spill_id": "sentinel_49",
        "confidence": 0.79
      },
      "geometry": {
        "type": "Polygon",
        "coordinates": [
          [
            [
              72.70918,
              19.15
            ],
            [
              72.711914,
              19.147266
            ],
            [
              72.711914,
              19.145898
            ],
            [
              72.713281,
              19.144531
            ],
            [
              72.717383,
              19.144531
            ],
            [
              72.71875,
              19.145898
            ],
            [
              72.721484,
              19.145898
            ],
            [
              72.722852,
              19.147266
            ],
            [
              72.722852,
              19.148633
            ],
            [
              72.724219,
              19.15
            ],
            [
              72.70918,
              19.15
            ]
          ]
        ]
      }
    },
    {
      "type": "Feature",
      "properties": {
        "spill_id": "sentinel_49",
        "confidence": 0.79
      },
      "geometry": {
        "type": "Polygon",
        "coordinates": [
          [
            [
              72.547852,
              19.145898
            ],
            [
              72.535547,
              19.118555
            ],
            [
              72.591602,
              19.006445
            ],
            [
              72.62168,
              18.977734
            ],
            [
              72.666797,
              18.973633
            ],
            [
              72.70918,
              18.909375
            ],
            [
              72.670898,
              18.871094
            ],
            [
              72.655859,
              18.958594
            ],
            [
              72.638086,
              18.898438
            ],
            [
              72.605273,
              18.901172
            ],
            [
              72.55332,
              18.970898
            ],
            [
              72.55332,
              19.01875
            ],
            [
              72.527344,
              19.013281
            ],
            [
              72.5,
              19.035156
            ],
            [
              72.546484,
              18.939453
            ],
            [
              72.539648,
              18.912109
            ],
            [
              72.5,
              18.92168
            ],
            [
              72.5,
              18.883398
            ],
            [
              72.628516,
              18.812305
            ],
            [
              72.679102,
              18.816406
            ],
            [
              72.698242,
              18.851953
            ],
            [
              72.716016,
              18.838281
            ],
            [
              72.70918,
              18.808203
            ],
            [
              72.750195,
              18.805469
            ],
            [
              72.713281,
              18.87793
            ],
            [
              72.765234,
              18.932617
            ],
            [
              72.795312,
              18.929883
            ],
            [
              72.795312,
              18.955859
            ],
            [
              72.706445,
              19.010547
            ],
            [
              72.680469,
              19.061133
            ],
            [
              72.673633,
              19.15
            ],
            [
              72.669531,
              19.132227
            ],
            [
              72.594336,
              19.145898
            ],
            [
              72.653125,
              19.088477
            ],
            [
              72.642187,
              19.033789
            ],
            [
              72.627148,
              19.070703
            ],
            [
              72.586133,
              19.067969
            ],
            [
              72.579297,
              19.111719
            ],
            [
              72.547852,
              19.145898
            ]
          ]
        ]
      }
    }
  ]
}