{
  "type": "FeatureCollection",
  "features": [
    {
      "type": "Feature",
      "properties": {
        "spill_id": "sentinel_209",
        "confidence": 0.88
      },
      "geometry": {
        "type": "Polygon",
        "coordinates": [
          [
            [
              72.844531,
              18.856055
            ],
            [
              72.837695,
              18.856055
            ],
            [
              72.829492,
              18.849219
            ],
            [
              72.826758,
              18.849219
            ],
            [
              72.825391,
              18.847852
            ],
            [
              72.821289,
              18.847852
            ],
            [
              72.817187,
              18.84375
            ],
            [
              72.817187,
              18.842383
            ],
            [
              72.814453,
              18.838281
            ],
            [
              72.814453,
              18.83418
            ],
            [
              72.817187,
              18.830078
            ],
            [
              72.817187,
              18.827344
            ],
            [
              72.825391,
              18.820508
            ],
            [
              72.826758,
              18.820508
            ],
            [
              72.828125,
              18.824609
            ],
            [
              72.833594,
              18.830078
            ],
            [
              72.834961,
              18.830078
            ],
            [
              72.841797,
              18.835547
            ],
            [
              72.841797,
              18.836914
            ],
            [
              72.843164,
              18.838281
            ],
            [
              72.843164,
              18.841016
            ],
            [
              72.844531,
              18.842383
            ],
            [
              72.844531,
              18.846484
            ],
            [
              72.845898,
              18.847852
            ],
            [
              72.845898,
              18.854688
            ],
            [
              72.844531,
              18.856055
            ]
          ]
        ]
      }
    },
    {
      "type": "Feature",
      "properties": {
        "spill_id": "sentinel_209",
        "confidence": 0.88
      },
      "geometry": {
        "type": "Polygon",
        "coordinates": [
          [
            [
              72.776172,
              18.895703
            ],
            [
              72.763867,
              18.902539
            ],
            [
              72.748828,
              18.902539
            ],
            [
              72.741992,
              18.888867
            ],
            [
              72.720117,
              18.87793
            ],
            [
              72.680469,
              18.882031
            ],
            [
              72.677734,
              18.873828
            ],
            [
              72.692773,
              18.856055
            ],
            [
              72.692773,
              18.838281
            ],
            [
              72.680469,
              18.836914
            ],
            [
              72.669531,
              18.850586
            ],
            [
              72.661328,
              18.850586
            ],
            [
              72.646289,
              18.841016
            ],
            [
              72.664062,
              18.820508
            ],
            [
              72.661328,
              18.802734
            ],
            [
              72.787109,
              18.801367
            ],
            [
              72.787109,
              18.805469
            ],
            [
              72.757031,
              18.819141
            ],
            [
              72.754297,
              18.835547
            ],
            [
              72.737891,
              18.851953
            ],
            [
              72.751562,
              18.871094
            ],
            [
              72.750195,
              18.879297
            ],
            [
              72.776172,
              18.895703
            ]
          ]
        ]
      }
    },
    {
      "type": "Feature",
      "properties": {
        "spill_id": "sentinel_209",
        "confidence": 0.88
      },
      "geometry": {
        "type": "Polygon",
        "coordinates": [
          [
            [
              72.521875,
              18.968164
            ],
            [
              72.519141,
              18.964062
            ],
            [
              72.520508,
              18.954492
            ],
            [
              72.516406,
              18.950391
            ],
            [
              72.516406,
              18.943555
            ],
            [
              72.517773,
              18.94082
            ],
            [
              72.527344,
              18.939453
            ],
            [
              72.539648,
              18.928516
            ],
            [
              72.531445,
              18.920312
            ],
            [
              72.532812,
              18.916211
            ],
            [
              72.535547,
              18.913477
            ],
            [
              72.541016,
              18.912109
            ],
            [
              72.54375,
              18.913477
            ],
            [
              72.558789,
              18.912109
            ],
            [
              72.560156,
              18.910742
            ],
            [
              72.573828,
              18.912109
            ],
            [
              72.571094,
              18.920312
            ],
            [
              72.566992,
              18.924414
            ],
            [
              72.556055,
              18.928516
            ],
            [
              72.551953,
              18.933984
            ],
            [
              72.554688,
              18.938086
            ],
            [
              72.554688,
              18.943555
            ],
            [
              72.551953,
              18.949023
            ],
            [
              72.554688,
              18.957227
            ],
            [
              72.545117,
              18.959961
            ],
            [
              72.535547,
              18.969531
            ],
            [
              72.521875,
              18.968164
            ]
          ]
        ]
      }
    },
    {
      "type": "Feature",
      "properties": {
        "spill_id": "sentinel_209",
        "confidence": 0.88
      },
      "geometry": {
        "type": "Polygon",
        "coordinates": [
          [
            [
              72.766602,
              19.15
            ],
            [
              72.774805,
              19.119922
            ],
            [
              72.761133,
              19.081641
            ],
            [
              72.769336,
              19.043359
            ],
            [
              72.781641,
              19.031055
            ],
            [
              72.814453,
              19.050195
            ],
            [
              72.822656,
              19.035156
            ],
            [
              72.81582,
              19.021484
            ],
            [
              72.789844,
              19.021484
            ],
            [
              72.783008,
              19.016016
            ],
            [
              72.776172,
              18.972266
            ],
            [
              72.783008,
              18.924414
            ],
            [
              72.791211,
              18.909375
            ],
            [
              72.81582,
              18.903906
            ],
            [
              72.822656,
              18.892969
            ],
            [
              72.847266,
              18.890234
            ],
            [
              72.848633,
              18.913477
            ],
            [
              72.825391,
              18.927148
            ],
            [
              72.817187,
              18.950391
            ],
            [
              72.829492,
              18.979102
            ],
            [
              72.848633,
              18.996875
            ],
            [
              72.848633,
              19.110352
            ],
            [
              72.826758,
              19.122656
            ],
            [
              72.848633,
              19.14043
            ],
            [
              72.848633,
              19.15
            ],
            [
              72.766602,
              19.15
            ]
          ]
        ]
      }
    },
    {
      "type": "Feature",
      "properties": {
        "spill_id": "sentinel_209",
        "confidence": 0.88
      },
      "geometry": {
        "type": "Polygon",
        "coordinates": [
          [
            [
              72.711914,
              19.15
            ],
            [
              72.669531,
              19.15
            ],
            [
              72.662695,
              19.143164
            ],
            [
              72.651758,
              19.095312
            ],
            [
              72.64082,
              19.087109
            ],
            [
              72.639453,
              19.07207
            ],
            [
              72.616211,
              19.031055
            ],
            [
              72.601172,
              19.01875
            ],
            [
              72.605273,
              19.003711
            ],
            [
              72.601172,
              18.987305
            ],
            [
              72.610742,
              18.976367
            ],
            [
              72.608008,
              18.955859
            ],
            [
              72.595703,
              18.951758
            ],
            [
              72.602539,
              18.917578
            ],
            [
              72.629883,
              18.916211
            ],
            [
              72.651758,
              18.928516
            ],
            [
              72.647656,
              18.942188
            ],
            [
              72.655859,
              18.958594
            ],
            [
              72.628516,
              18.994141
            ],
            [
              72.628516,
              19.002344
            ],
            [
              72.64082,
              19.00918
            ],
            [
              72.659961,
              19.005078
            ],
            [
              72.66543,
              19.016016
            ],
            [
              72.716016,
              19.040625
            ],
            [
              72.70918,
              19.058398
            ],
            [
              72.695508,
              19.059766
            ],
            [
              72.675,
              19.050195
            ],
            [
              72.661328,
              19.059766
            ],
            [
              72.661328,
              19.070703
            ],
            [
              72.710547,
              19.108984
            ],
            [
              72.714648,
              19.122656
            ],
            [
              72.705078,
              19.130859
            ],
            [
              72.711914,
              19.15
            ]
          ]
        ]
      }
    }
  ]
}