{
  "type": "FeatureCollection",
  "features": [
    {
      "type": "Feature",
      "properties": {
        "spill_id": "sentinel_462",
        "confidence": 0.9
      },
      "geometry": {
        "type": "Polygon",
        "coordinates": [
          [
            [
              72.5,
              19.15
            ],
            [
              72.5,
              18.801367
            ],
            [
              72.602539,
              18.802734
            ],
            [
              72.595703,
              18.821875
            ],
            [
              72.614844,
              18.815039
            ],
            [
              72.613477,
              18.801367
            ],
            [
              72.848633,
              18.801367
            ],
            [
              72.848633,
              19.15
            ],
            [
              72.62168,
              19.15
            ],
            [
              72.613477,
              19.137695
            ],
            [
              72.609375,
              19.15
            ],
            [
              72.5,
              19.15
            ]
          ]
        ]
      }
    }
  ]
}