{
  "type": "FeatureCollection",
  "features": [
    {
      "type": "Feature",
      "properties": {
        "spill_id": "sentinel_184",
        "confidence": 0.9
      },
      "geometry": {
        "type": "Polygon",
        "coordinates": [
          [
            [
              72.710547,
              18.875195
            ],
            [
              72.702344,
              18.876562
            ],
            [
              72.694141,
              18.872461
            ],
            [
              72.664062,
              18.869727
            ],
            [
              72.644922,
              18.883398
            ],
            [
              72.63125,
              18.8875
            ],
            [
              72.635352,
              18.875195
            ],
            [
              72.642187,
              18.869727
            ],
            [
              72.64082,
              18.866992
            ],
            [
              72.632617,
              18.866992
            ],
            [
              72.624414,
              18.873828
            ],
            [
              72.609375,
              18.875195
            ],
            [
              72.617578,
              18.805469
            ],
            [
              72.62168,
              18.801367
            ],
            [
              72.627148,
              18.801367
            ],
            [
              72.632617,
              18.806836
            ],
            [
              72.63125,
              18.828711
            ],
            [
              72.635352,
              18.845117
            ],
            [
              72.64082,
              18.850586
            ],
            [
              72.649023,
              18.85332
            ],
            [
              72.666797,
              18.851953
            ],
            [
              72.694141,
              18.864258
            ],
            [
              72.700977,
              18.860156
            ],
            [
              72.707812,
              18.860156
            ],
            [
              72.711914,
              18.866992
            ],
            [
              72.710547,
              18.875195
            ]
          ]
        ]
      }
    },
    {
      "type": "Feature",
      "properties": {
        "spill_id": "sentinel_184",
        "confidence": 0.9
      },
      "geometry": {
        "type": "Polygon",
        "coordinates": [
          [
            [
              72.784375,
              19.15
            ],
            [
              72.601172,
              19.15
            ],
            [
              72.602539,
              19.139062
            ],
            [
              72.579297,
              19.111719
            ],
            [
              72.565625,
              19.124023
            ],
            [
              72.592969,
              19.15
            ],
            [
              72.515039,
              19.15
            ],
            [
              72.512305,
              19.14043
            ],
            [
              72.5,
              19.14043
            ],
            [
              72.5,
              18.968164
            ],
            [
              72.605273,
              18.954492
            ],
            [
              72.628516,
              18.895703
            ],
            [
              72.623047,
              18.951758
            ],
            [
              72.659961,
              18.966797
            ],
            [
              72.650391,
              19.006445
            ],
            [
              72.635352,
              19.026953
            ],
            [
              72.633984,
              19.076172
            ],
            [
              72.649023,
              19.084375
            ],
            [
              72.688672,
              19.07207
            ],
            [
              72.707812,
              19.091211
            ],
            [
              72.732422,
              19.081641
            ],
            [
              72.766602,
              19.088477
            ],
            [
              72.784375,
              19.111719
            ],
            [
              72.784375,
              19.15
            ]
          ]
        ]
      }
    }
  ]
}