{
  "type": "FeatureCollection",
  "features": [
    {
      "type": "Feature",
      "properties": {
        "spill_id": "sentinel_497",
        "confidence": 0.81
      },
      "geometry": {
        "type": "Polygon",
        "coordinates": [
          [
            [
              72.629883,
              18.995508
            ],
            [
              72.627148,
              18.992773
            ],
            [
              72.627148,
              18.987305
            ],
            [
              72.632617,
              18.981836
            ],
            [
              72.632617,
              18.980469
            ],
            [
              72.633984,
              18.979102
            ],
            [
              72.636719,
              18.979102
            ],
            [
              72.638086,
              18.977734
            ],
            [
              72.644922,
              18.977734
            ],
            [
              72.647656,
              18.980469
            ],
            [
              72.647656,
              18.983203
            ],
            [
              72.649023,
              18.98457
            ],
            [
              72.647656,
              18.985938
            ],
            [
              72.647656,
              18.987305
            ],
            [
              72.646289,
              18.988672
            ],
            [
              72.646289,
              18.990039
            ],
            [
              72.644922,
              18.990039
            ],
            [
              72.642187,
              18.992773
            ],
            [
              72.64082,
              18.992773
            ],
            [
              72.639453,
              18.994141
            ],
            [
              72.636719,
              18.994141
            ],
            [
              72.635352,
              18.995508
            ],
            [
              72.629883,
              18.995508
            ]
          ]
        ]
      }
    },
    {
      "type": "Feature",
      "properties": {
        "spill_id": "sentinel_497",
        "confidence": 0.81
      },
      "geometry": {
        "type": "Polygon",
        "coordinates": [
          [
            [
              72.702344,
              19.006445
            ],
            [
              72.703711,
              18.994141
            ],
            [
              72.71875,
              18.98457
            ],
            [
              72.724219,
              18.979102
            ],
            [
              72.729688,
              18.979102
            ],
            [
              72.736523,
              18.976367
            ],
            [
              72.744727,
              18.966797
            ],
            [
              72.748828,
              18.957227
            ],
            [
              72.759766,
              18.954492
            ],
            [
              72.767969,
              18.954492
            ],
            [
              72.770703,
              18.958594
            ],
            [
              72.769336,
              18.96543
            ],
            [
              72.755664,
              18.979102
            ],
            [
              72.75293,
              18.985938
            ],
            [
              72.75293,
              18.991406
            ],
            [
              72.758398,
              18.999609
            ],
            [
              72.758398,
              19.005078
            ],
            [
              72.755664,
              19.007812
            ],
            [
              72.741992,
              19.011914
            ],
            [
              72.733789,
              19.011914
            ],
            [
              72.72832,
              19.014648
            ],
            [
              72.717383,
              19.014648
            ],
            [
              72.707812,
              19.011914
            ],
            [
              72.702344,
              19.006445
            ]
          ]
        ]
      }
    },
    {
      "type": "Feature",
      "properties": {
        "spill_id": "sentinel_497",
        "confidence": 0.81
      },
      "geometry": {
        "type": "Polygon",
        "coordinates": [
          [
            [
              72.737891,
              19.092578
            ],
            [
              72.740625,
              19.081641
            ],
            [
              72.773438,
              19.051562
            ],
            [
              72.777539,
              19.041992
            ],
            [
              72.783008,
              19.039258
            ],
            [
              72.789844,
              19.029687
            ],
            [
              72.787109,
              19.025586
            ],
            [
              72.774805,
              19.025586
            ],
            [
              72.77207,
              19.022852
            ],
            [
              72.77207,
              19.017383
            ],
            [
              72.776172,
              19.013281
            ],
            [
              72.792578,
              19.006445
            ],
            [
              72.800781,
              19.011914
            ],
            [
              72.810352,
              19.013281
            ],
            [
              72.819922,
              19.020117
            ],
            [
              72.826758,
              19.01875
            ],
            [
              72.836328,
              19.024219
            ],
            [
              72.834961,
              19.031055
            ],
            [
              72.814453,
              19.039258
            ],
            [
              72.795312,
              19.054297
            ],
            [
              72.765234,
              19.083008
            ],
            [
              72.761133,
              19.089844
            ],
            [
              72.75293,
              19.092578
            ],
            [
              72.737891,
              19.092578
            ]
          ]
        ]
      }
    },
    {
      "type": "Feature",
      "properties": {
        "spill_id": "sentinel_497",
        "confidence": 0.81
      },
      "geometry": {
        "type": "Polygon",
        "coordinates": [
          [
            [
              72.814453,
              19.11582
            ],
            [
              72.814453,
              19.113086
            ],
            [
              72.81582,
              19.111719
            ],
            [
              72.81582,
              19.110352
            ],
            [
              72.817187,
              19.108984
            ],
            [
              72.825391,
              19.108984
            ],
            [
              72.826758,
              19.110352
            ],
            [
              72.826758,
              19.114453
            ],
            [
              72.825391,
              19.11582
            ],
            [
              72.825391,
              19.117188
            ],
            [
              72.824023,
              19.118555
            ],
            [
              72.817187,
              19.118555
            ],
            [
              72.814453,
              19.11582
            ]
          ]
        ]
      }
    },
    {
      "type": "Feature",
      "properties": {
        "spill_id": "sentinel_497",
        "confidence": 0.81
      },
      "geometry": {
        "type": "Polygon",
        "coordinates": [
          [
            [
              72.538281,
              19.113086
            ],
            [
              72.523242,
              19.113086
            ],
            [
              72.521875,
              19.114453
            ],
            [
              72.524609,
              19.121289
            ],
            [
              72.523242,
              19.122656
            ],
            [
              72.519141,
              19.122656
            ],
            [
              72.517773,
              19.119922
            ],
            [
              72.520508,
              19.114453
            ],
            [
              72.510938,
              19.100781
            ],
            [
              72.510938,
              19.089844
            ],
            [
              72.50957,
              19.088477
            ],
            [
              72.5,
              19.087109
            ],
            [
              72.5,
              19.076172
            ],
            [
              72.502734,
              19.074805
            ],
            [
              72.508203,
              19.074805
            ],
            [
              72.513672,
              19.080273
            ],
            [
              72.517773,
              19.087109
            ],
            [
              72.525977,
              19.095312
            ],
            [
              72.525977,
              19.09668
            ],
            [
              72.528711,
              19.099414
            ],
            [
              72.536914,
              19.103516
            ],
            [
              72.536914,
              19.10625
            ],
            [
              72.538281,
              19.107617
            ],
            [
              72.538281,
              19.113086
            ]
          ]
        ]
      }
    }
  ]
}