{
  "type": "FeatureCollection",
  "features": [
    {
      "type": "Feature",
      "properties": {
        "spill_id": "sentinel_604",
        "confidence": 0.77
      },
      "geometry": {
        "type": "Polygon",
        "coordinates": [
          [
            [
              72.848633,
              18.939453
            ],
            [
              72.778906,
              18.932617
            ],
            [
              72.75293,
              18.92168
            ],
            [
              72.724219,
              18.927148
            ],
            [
              72.666797,
              18.908008
            ],
            [
              72.623047,
              18.906641
            ],
            [
              72.513672,
              18.87793
            ],
            [
              72.5,
              18.883398
            ],
            [
              72.5,
              18.801367
            ],
            [
              72.845898,
              18.801367
            ],
            [
              72.848633,
              18.939453
            ]
          ]
        ]
      }
    },
    {
      "type": "Feature",
      "properties": {
        "spill_id": "sentinel_604",
        "confidence": 0.77
      },
      "geometry": {
        "type": "Polygon",
        "coordinates": [
          [
            [
              72.501367,
              19.15
            ],
            [
              72.5,
              18.912109
            ],
            [
              72.668164,
              18.93125
            ],
            [
              72.711914,
              18.950391
            ],
            [
              72.757031,
              18.943555
            ],
            [
              72.804883,
              18.962695
            ],
            [
              72.848633,
              18.953125
            ],
            [
              72.848633,
              19.15
            ],
            [
              72.735156,
              19.15
            ],
            [
              72.705078,
              19.118555
            ],
            [
              72.698242,
              19.133594
            ],
            [
              72.685938,
              19.11582
            ],
            [
              72.687305,
              19.080273
            ],
            [
              72.66543,
              19.0625
            ],
            [
              72.651758,
              19.021484
            ],
            [
              72.618945,
              19.011914
            ],
            [
              72.599805,
              19.058398
            ],
            [
              72.623047,
              19.050195
            ],
            [
              72.63125,
              19.067969
            ],
            [
              72.609375,
              19.080273
            ],
            [
              72.628516,
              19.125391
            ],
            [
              72.655859,
              19.15
            ],
            [
              72.501367,
              19.15
            ]
          ]
        ]
      }
    }
  ]
}