{
  "type": "FeatureCollection",
  "features": [
    {
      "type": "Feature",
      "properties": {
        "spill_id": "sentinel_270",
        "confidence": 0.81
      },
      "geometry": {
        "type": "Polygon",
        "coordinates": [
          [
            [
              72.642187,
              19.047461
            ],
            [
              72.636719,
              19.048828
            ],
            [
              72.63125,
              19.043359
            ],
            [
              72.625781,
              19.050195
            ],
            [
              72.623047,
              19.044727
            ],
            [
              72.613477,
              19.040625
            ],
            [
              72.603906,
              19.048828
            ],
            [
              72.602539,
              19.055664
            ],
            [
              72.576562,
              19.051562
            ],
            [
              72.562891,
              19.033789
            ],
            [
              72.565625,
              19.025586
            ],
            [
              72.57793,
              19.017383
            ],
            [
              72.576562,
              19.002344
            ],
            [
              72.561523,
              18.985938
            ],
            [
              72.547852,
              18.980469
            ],
            [
              72.54375,
              18.972266
            ],
            [
              72.530078,
              18.968164
            ],
            [
              72.524609,
              18.961328
            ],
            [
              72.516406,
              18.961328
            ],
            [
              72.513672,
              18.951758
            ],
            [
              72.530078,
              18.944922
            ],
            [
              72.584766,
              18.943555
            ],
            [
              72.588867,
              18.955859
            ],
            [
              72.583398,
              18.958594
            ],
            [
              72.582031,
              18.966797
            ],
            [
              72.594336,
              18.976367
            ],
            [
              72.59707,
              18.987305
            ],
            [
              72.5875,
              19.000977
            ],
            [
              72.616211,
              19.031055
            ],
            [
              72.639453,
              19.033789
            ],
            [
              72.642187,
              19.047461
            ]
          ]
        ]
      }
    },
    {
      "type": "Feature",
      "properties": {
        "spill_id": "sentinel_270",
        "confidence": 0.81
      },
      "geometry": {
        "type": "Polygon",
        "coordinates": [
          [
            [
              72.5,
              19.069336
            ],
            [
              72.5,
              19.05293
            ],
            [
              72.501367,
              19.05293
            ],
            [
              72.502734,
              19.051562
            ],
            [
              72.505469,
              19.051562
            ],
            [
              72.506836,
              19.050195
            ],
            [
              72.512305,
              19.050195
            ],
            [
              72.512305,
              19.057031
            ],
            [
              72.510938,
              19.058398
            ],
            [
              72.510938,
              19.0625
            ],
            [
              72.50957,
              19.0625
            ],
            [
              72.508203,
              19.063867
            ],
            [
              72.506836,
              19.063867
            ],
            [
              72.502734,
              19.067969
            ],
            [
              72.501367,
              19.067969
            ],
            [
              72.5,
              19.069336
            ]
          ]
        ]
      }
    },
    {
      "type": "Feature",
      "properties": {
        "spill_id": "sentinel_270",
        "confidence": 0.81
      },
      "geometry": {
        "type": "Polygon",
        "coordinates": [
          [
            [
              72.531445,
              19.114453
            ],
            [
              72.525977,
              19.114453
            ],
            [
              72.523242,
              19.111719
            ],
            [
              72.521875,
              19.111719
            ],
            [
              72.520508,
              19.110352
            ],
            [
              72.519141,
              19.110352
            ],
            [
              72.517773,
              19.108984
            ],
            [
              72.517773,
              19.10625
            ],
            [
              72.519141,
              19.104883
            ],
            [
              72.519141,
              19.103516
            ],
            [
              72.520508,
              19.102148
            ],
            [
              72.528711,
              19.102148
            ],
            [
              72.531445,
              19.104883
            ],
            [
              72.531445,
              19.114453
            ]
          ]
        ]
      }
    },
    {
      "type": "Feature",
      "properties": {
        "spill_id": "sentinel_270",
        "confidence": 0.81
      },
      "geometry": {
        "type": "Polygon",
        "coordinates": [
          [
            [
              72.618945,
              19.137695
            ],
            [
              72.610742,
              19.130859
            ],
            [
              72.612109,
              19.121289
            ],
            [
              72.618945,
              19.108984
            ],
            [
              72.628516,
              19.098047
            ],
            [
              72.628516,
              19.089844
            ],
            [
              72.63125,
              19.088477
            ],
            [
              72.629883,
              19.083008
            ],
            [
              72.628516,
              19.085742
            ],
            [
              72.625781,
              19.083008
            ],
            [
              72.627148,
              19.077539
            ],
            [
              72.632617,
              19.074805
            ],
            [
              72.632617,
              19.07207
            ],
            [
              72.628516,
              19.069336
            ],
            [
              72.628516,
              19.063867
            ],
            [
              72.638086,
              19.061133
            ],
            [
              72.646289,
              19.066602
            ],
            [
              72.643555,
              19.076172
            ],
            [
              72.636719,
              19.076172
            ],
            [
              72.638086,
              19.083008
            ],
            [
              72.647656,
              19.084375
            ],
            [
              72.661328,
              19.092578
            ],
            [
              72.670898,
              19.103516
            ],
            [
              72.672266,
              19.114453
            ],
            [
              72.670898,
              19.117188
            ],
            [
              72.650391,
              19.118555
            ],
            [
              72.639453,
              19.125391
            ],
            [
              72.639453,
              19.129492
            ],
            [
              72.638086,
              19.126758
            ],
            [
              72.632617,
              19.126758
            ],
            [
              72.632617,
              19.136328
            ],
            [
              72.618945,
              19.137695
            ]
          ]
        ]
      }
    },
    {
      "type": "Feature",
      "properties": {
        "spill_id": "sentinel_270",
        "confidence": 0.81
      },
      "geometry": {
        "type": "Polygon",
        "coordinates": [
          [
            [
              72.524609,
              19.137695
            ],
            [
              72.520508,
              19.137695
            ],
            [
              72.519141,
              19.136328
            ],
            [
              72.519141,
              19.134961
            ],
            [
              72.517773,
              19.133594
            ],
            [
              72.516406,
              19.133594
            ],
            [
              72.515039,
              19.132227
            ],
            [
              72.513672,
              19.132227
            ],
            [
              72.513672,
              19.130859
            ],
            [
              72.512305,
              19.129492
            ],
            [
              72.512305,
              19.126758
            ],
            [
              72.515039,
              19.124023
            ],
            [
              72.515039,
              19.122656
            ],
            [
              72.516406,
              19.121289
            ],
            [
              72.519141,
              19.121289
            ],
            [
              72.520508,
              19.122656
            ],
            [
              72.521875,
              19.122656
            ],
            [
              72.523242,
              19.124023
            ],
            [
              72.524609,
              19.124023
            ],
            [
              72.527344,
              19.126758
            ],
            [
              72.527344,
              19.130859
            ],
            [
              72.528711,
              19.132227
            ],
            [
              72.527344,
              19.133594
            ],
            [
              72.527344,
              19.134961
            ],
            [
              72.524609,
              19.137695
            ]
          ]
        ]
      }
    },
    {
      "type": "Feature",
      "properties": {
        "spill_id": "sentinel_270",
        "confidence": 0.81
      },
      "geometry": {
        "type": "Polygon",
        "coordinates": [
          [
            [
              72.845898,
              19.15
            ],
            [
              72.817187,
              19.15
            ],
            [
              72.798047,
              19.130859
            ],
            [
              72.765234,
              19.15
            ],
            [
              72.7625,
              19.128125
            ],
            [
              72.739258,
              19.126758
            ],
            [
              72.677734,
              19.073438
            ],
            [
              72.669531,
              19.050195
            ],
            [
              72.679102,
              19.040625
            ],
            [
              72.754297,
              19.069336
            ],
            [
              72.766602,
              19.046094
            ],
            [
              72.68457,
              19.033789
            ],
            [
              72.664062,
              18.959961
            ],
            [
              72.609375,
              18.935352
            ],
            [
              72.632617,
              18.92168
            ],
            [
              72.571094,
              18.865625
            ],
            [
              72.54375,
              18.864258
            ],
            [
              72.560156,
              18.8875
            ],
            [
              72.550586,
              18.908008
            ],
            [
              72.502734,
              18.909375
            ],
            [
              72.5,
              18.817773
            ],
            [
              72.517773,
              18.816406
            ],
            [
              72.519141,
              18.801367
            ],
            [
              72.848633,
              18.801367
            ],
            [
              72.845898,
              19.15
            ]
          ]
        ]
      }
    }
  ]
}