{
  "type": "FeatureCollection",
  "features": [
    {
      "type": "Feature",
      "properties": {
        "spill_id": "sentinel_244",
        "confidence": 0.9
      },
      "geometry": {
        "type": "Polygon",
        "coordinates": [
          [
            [
              72.845898,
              18.925781
            ],
            [
              72.844531,
              18.925781
            ],
            [
              72.841797,
              18.923047
            ],
            [
              72.841797,
              18.920312
            ],
            [
              72.837695,
              18.916211
            ],
            [
              72.839062,
              18.914844
            ],
            [
              72.841797,
              18.914844
            ],
            [
              72.843164,
              18.916211
            ],
            [
              72.844531,
              18.916211
            ],
            [
              72.845898,
              18.917578
            ],
            [
              72.845898,
              18.918945
            ],
            [
              72.848633,
              18.92168
            ],
            [
              72.848633,
              18.923047
            ],
            [
              72.845898,
              18.925781
            ]
          ]
        ]
      }
    },
    {
      "type": "Feature",
      "properties": {
        "spill_id": "sentinel_244",
        "confidence": 0.9
      },
      "geometry": {
        "type": "Polygon",
        "coordinates": [
          [
            [
              72.81582,
              18.950391
            ],
            [
              72.81582,
              18.949023
            ],
            [
              72.817187,
              18.947656
            ],
            [
              72.817187,
              18.943555
            ],
            [
              72.818555,
              18.942188
            ],
            [
              72.818555,
              18.943555
            ],
            [
              72.821289,
              18.946289
            ],
            [
              72.822656,
              18.944922
            ],
            [
              72.822656,
              18.94082
            ],
            [
              72.824023,
              18.94082
            ],
            [
              72.826758,
              18.938086
            ],
            [
              72.828125,
              18.938086
            ],
            [
              72.829492,
              18.936719
            ],
            [
              72.833594,
              18.936719
            ],
            [
              72.837695,
              18.933984
            ],
            [
              72.844531,
              18.933984
            ],
            [
              72.848633,
              18.938086
            ],
            [
              72.848633,
              18.949023
            ],
            [
              72.845898,
              18.951758
            ],
            [
              72.844531,
              18.951758
            ],
            [
              72.843164,
              18.950391
            ],
            [
              72.839062,
              18.950391
            ],
            [
              72.837695,
              18.949023
            ],
            [
              72.833594,
              18.949023
            ],
            [
              72.832227,
              18.950391
            ],
            [
              72.826758,
              18.950391
            ],
            [
              72.825391,
              18.951758
            ],
            [
              72.817187,
              18.951758
            ],
            [
              72.81582,
              18.950391
            ]
          ]
        ]
      }
    },
    {
      "type": "Feature",
      "properties": {
        "spill_id": "sentinel_244",
        "confidence": 0.9
      },
      "geometry": {
        "type": "Polygon",
        "coordinates": [
          [
            [
              72.5,
              19.132227
            ],
            [
              72.5,
              19.118555
            ],
            [
              72.505469,
              19.11582
            ],
            [
              72.516406,
              19.10625
            ],
            [
              72.524609,
              19.10625
            ],
            [
              72.532812,
              19.110352
            ],
            [
              72.551953,
              19.110352
            ],
            [
              72.566992,
              19.103516
            ],
            [
              72.572461,
              19.103516
            ],
            [
              72.573828,
              19.102148
            ],
            [
              72.57793,
              19.103516
            ],
            [
              72.580664,
              19.108984
            ],
            [
              72.582031,
              19.11582
            ],
            [
              72.579297,
              19.122656
            ],
            [
              72.576562,
              19.125391
            ],
            [
              72.566992,
              19.129492
            ],
            [
              72.545117,
              19.130859
            ],
            [
              72.54375,
              19.132227
            ],
            [
              72.535547,
              19.132227
            ],
            [
              72.524609,
              19.134961
            ],
            [
              72.5,
              19.132227
            ]
          ]
        ]
      }
    },
    {
      "type": "Feature",
      "properties": {
        "spill_id": "sentinel_244",
        "confidence": 0.9
      },
      "geometry": {
        "type": "Polygon",
        "coordinates": [
          [
            [
              72.848633,
              19.15
            ],
            [
              72.792578,
              19.15
            ],
            [
              72.780273,
              19.14043
            ],
            [
              72.784375,
              19.15
            ],
            [
              72.765234,
              19.15
            ],
            [
              72.774805,
              19.137695
            ],
            [
              72.769336,
              19.125391
            ],
            [
              72.741992,
              19.119922
            ],
            [
              72.722852,
              19.100781
            ],
            [
              72.675,
              19.087109
            ],
            [
              72.59707,
              19.087109
            ],
            [
              72.583398,
              19.065234
            ],
            [
              72.5,
              19.080273
            ],
            [
              72.5,
              19.05293
            ],
            [
              72.515039,
              19.047461
            ],
            [
              72.516406,
              19.033789
            ],
            [
              72.5,
              19.02832
            ],
            [
              72.5,
              18.815039
            ],
            [
              72.521875,
              18.820508
            ],
            [
              72.54375,
              18.810938
            ],
            [
              72.602539,
              18.832812
            ],
            [
              72.623047,
              18.85332
            ],
            [
              72.664062,
              18.854688
            ],
            [
              72.687305,
              18.892969
            ],
            [
              72.725586,
              18.892969
            ],
            [
              72.765234,
              18.908008
            ],
            [
              72.793945,
              18.959961
            ],
            [
              72.845898,
              18.955859
            ],
            [
              72.848633,
              19.15
            ]
          ]
        ]
      }
    }
  ]
}