{
  "type": "FeatureCollection",
  "features": [
    {
      "type": "Feature",
      "properties": {
        "spill_id": "sentinel_320",
        "confidence": 0.82
      },
      "geometry": {
        "type": "Polygon",
        "coordinates": [
          [
            [
              72.822656,
              18.802734
            ],
            [
              72.817187,
              18.808203
            ],
            [
              72.81582,
              18.808203
            ],
            [
              72.811719,
              18.810938
            ],
            [
              72.804883,
              18.810938
            ],
            [
              72.803516,
              18.80957
            ],
            [
              72.802148,
              18.80957
            ],
            [
              72.798047,
              18.806836
            ],
            [
              72.795312,
              18.806836
            ],
            [
              72.793945,
              18.808203
            ],
            [
              72.792578,
              18.808203
            ],
            [
              72.789844,
              18.805469
            ],
            [
              72.788477,
              18.805469
            ],
            [
              72.787109,
              18.804102
            ],
            [
              72.783008,
              18.802734
            ],
            [
              72.784375,
              18.802734
            ],
            [
              72.785742,
              18.801367
            ],
            [
              72.791211,
              18.801367
            ],
            [
              72.792578,
              18.802734
            ],
            [
              72.79668,
              18.802734
            ],
            [
              72.798047,
              18.801367
            ],
            [
              72.821289,
              18.801367
            ],
            [
              72.822656,
              18.802734
            ]
          ]
        ]
      }
    },
    {
      "type": "Feature",
      "properties": {
        "spill_id": "sentinel_320",
        "confidence": 0.82
      },
      "geometry": {
        "type": "Polygon",
        "coordinates": [
          [
            [
              72.75293,
              18.89707
            ],
            [
              72.70918,
              18.869727
            ],
            [
              72.70918,
              18.875195
            ],
            [
              72.696875,
              18.872461
            ],
            [
              72.694141,
              18.876562
            ],
            [
              72.705078,
              18.898438
            ],
            [
              72.680469,
              18.912109
            ],
            [
              72.623047,
              18.899805
            ],
            [
              72.573828,
              18.87793
            ],
            [
              72.547852,
              18.85332
            ],
            [
              72.523242,
              18.815039
            ],
            [
              72.505469,
              18.802734
            ],
            [
              72.616211,
              18.801367
            ],
            [
              72.646289,
              18.823242
            ],
            [
              72.699609,
              18.841016
            ],
            [
              72.721484,
              18.865625
            ],
            [
              72.733789,
              18.869727
            ],
            [
              72.739258,
              18.854688
            ],
            [
              72.75293,
              18.860156
            ],
            [
              72.754297,
              18.868359
            ],
            [
              72.740625,
              18.871094
            ],
            [
              72.75293,
              18.89707
            ]
          ]
        ]
      }
    },
    {
      "type": "Feature",
      "properties": {
        "spill_id": "sentinel_320",
        "confidence": 0.82
      },
      "geometry": {
        "type": "Polygon",
        "coordinates": [
          [
            [
              72.848633,
              18.950391
            ],
            [
              72.84043,
              18.946289
            ],
            [
              72.837695,
              18.94082
            ],
            [
              72.837695,
              18.938086
            ],
            [
              72.817187,
              18.916211
            ],
            [
              72.817187,
              18.912109
            ],
            [
              72.814453,
              18.908008
            ],
            [
              72.81582,
              18.905273
            ],
            [
              72.821289,
              18.903906
            ],
            [
              72.824023,
              18.901172
            ],
            [
              72.829492,
              18.902539
            ],
            [
              72.832227,
              18.901172
            ],
            [
              72.833594,
              18.898438
            ],
            [
              72.834961,
              18.899805
            ],
            [
              72.837695,
              18.895703
            ],
            [
              72.84043,
              18.89707
            ],
            [
              72.844531,
              18.894336
            ],
            [
              72.844531,
              18.89707
            ],
            [
              72.848633,
              18.902539
            ],
            [
              72.848633,
              18.950391
            ]
          ]
        ]
      }
    },
    {
      "type": "Feature",
      "properties": {
        "spill_id": "sentinel_320",
        "confidence": 0.82
      },
      "geometry": {
        "type": "Polygon",
        "coordinates": [
          [
            [
              72.787109,
              19.100781
            ],
            [
              72.776172,
              19.107617
            ],
            [
              72.759766,
              19.111719
            ],
            [
              72.754297,
              19.110352
            ],
            [
              72.750195,
              19.103516
            ],
            [
              72.748828,
              19.084375
            ],
            [
              72.743359,
              19.07207
            ],
            [
              72.732422,
              19.0625
            ],
            [
              72.717383,
              19.057031
            ],
            [
              72.70918,
              19.048828
            ],
            [
              72.702344,
              19.037891
            ],
            [
              72.705078,
              19.02832
            ],
            [
              72.725586,
              19.031055
            ],
            [
              72.75293,
              19.05293
            ],
            [
              72.767969,
              19.055664
            ],
            [
              72.77207,
              19.0625
            ],
            [
              72.77207,
              19.070703
            ],
            [
              72.778906,
              19.076172
            ],
            [
              72.781641,
              19.085742
            ],
            [
              72.788477,
              19.092578
            ],
            [
              72.787109,
              19.100781
            ]
          ]
        ]
      }
    }
  ]
}