{
  "type": "FeatureCollection",
  "features": [
    {
      "type": "Feature",
      "properties": {
        "spill_id": "sentinel_110",
        "confidence": 0.85
      },
      "geometry": {
        "type": "Polygon",
        "coordinates": [
          [
            [
              72.590234,
              18.879297
            ],
            [
              72.590234,
              18.87793
            ],
            [
              72.591602,
              18.876562
            ],
            [
              72.591602,
              18.875195
            ],
            [
              72.594336,
              18.872461
            ],
            [
              72.599805,
              18.872461
            ],
            [
              72.601172,
              18.871094
            ],
            [
              72.608008,
              18.871094
            ],
            [
              72.609375,
              18.869727
            ],
            [
              72.614844,
              18.869727
            ],
            [
              72.616211,
              18.871094
            ],
            [
              72.616211,
              18.879297
            ],
            [
              72.614844,
              18.880664
            ],
            [
              72.614844,
              18.882031
            ],
            [
              72.613477,
              18.882031
            ],
            [
              72.610742,
              18.884766
            ],
            [
              72.598438,
              18.884766
            ],
            [
              72.59707,
              18.883398
            ],
            [
              72.594336,
              18.883398
            ],
            [
              72.592969,
              18.882031
            ],
            [
              72.591602,
              18.882031
            ],
            [
              72.591602,
              18.880664
            ],
            [
              72.590234,
              18.879297
            ]
          ]
        ]
      }
    },
    {
      "type": "Feature",
      "properties": {
        "spill_id": "sentinel_110",
        "confidence": 0.85
      },
      "geometry": {
        "type": "Polygon",
        "coordinates": [
          [
            [
              72.531445,
              19.130859
            ],
            [
              72.530078,
              19.130859
            ],
            [
              72.528711,
              19.129492
            ],
            [
              72.527344,
              19.130859
            ],
            [
              72.523242,
              19.126758
            ],
            [
              72.516406,
              19.126758
            ],
            [
              72.516406,
              19.125391
            ],
            [
              72.515039,
              19.124023
            ],
            [
              72.513672,
              19.124023
            ],
            [
              72.513672,
              19.122656
            ],
            [
              72.515039,
              19.122656
            ],
            [
              72.519141,
              19.118555
            ],
            [
              72.519141,
              19.117188
            ],
            [
              72.520508,
              19.117188
            ],
            [
              72.524609,
              19.121289
            ],
            [
              72.524609,
              19.122656
            ],
            [
              72.525977,
              19.124023
            ],
            [
              72.525977,
              19.126758
            ],
            [
              72.528711,
              19.129492
            ],
            [
              72.530078,
              19.128125
            ],
            [
              72.531445,
              19.129492
            ],
            [
              72.531445,
              19.130859
            ]
          ]
        ]
      }
    },
    {
      "type": "Feature",
      "properties": {
        "spill_id": "sentinel_110",
        "confidence": 0.85
      },
      "geometry": {
        "type": "Polygon",
        "coordinates": [
          [
            [
              72.5,
              19.132227
            ],
            [
              72.5,
              19.113086
            ],
            [
              72.501367,
              19.113086
            ],
            [
              72.502734,
              19.114453
            ],
            [
              72.506836,
              19.114453
            ],
            [
              72.506836,
              19.122656
            ],
            [
              72.505469,
              19.124023
            ],
            [
              72.505469,
              19.125391
            ],
            [
              72.504102,
              19.124023
            ],
            [
              72.502734,
              19.125391
            ],
            [
              72.502734,
              19.129492
            ],
            [
              72.5,
              19.132227
            ]
          ]
        ]
      }
    },
    {
      "type": "Feature",
      "properties": {
        "spill_id": "sentinel_110",
        "confidence": 0.85
      },
      "geometry": {
        "type": "Polygon",
        "coordinates": [
          [
            [
              72.789844,
              19.15
            ],
            [
              72.791211,
              19.148633
            ],
            [
              72.791211,
              19.147266
            ],
            [
              72.793945,
              19.144531
            ],
            [
              72.793945,
              19.143164
            ],
            [
              72.795312,
              19.143164
            ],
            [
              72.79668,
              19.141797
            ],
            [
              72.799414,
              19.141797
            ],
            [
              72.802148,
              19.144531
            ],
            [
              72.808984,
              19.144531
            ],
            [
              72.808984,
              19.147266
            ],
            [
              72.811719,
              19.15
            ],
            [
              72.813086,
              19.15
            ],
            [
              72.789844,
              19.15
            ]
          ]
        ]
      }
    },
    {
      "type": "Feature",
      "properties": {
        "spill_id": "sentinel_110",
        "confidence": 0.85
      },
      "geometry": {
        "type": "Polygon",
        "coordinates": [
          [
            [
              72.562891,
              19.15
            ],
            [
              72.562891,
              19.107617
            ],
            [
              72.595703,
              19.110352
            ],
            [
              72.59707,
              19.089844
            ],
            [
              72.628516,
              19.076172
            ],
            [
              72.625781,
              19.057031
            ],
            [
              72.668164,
              19.047461
            ],
            [
              72.681836,
              19.020117
            ],
            [
              72.627148,
              19.002344
            ],
            [
              72.547852,
              19.029687
            ],
            [
              72.551953,
              19.048828
            ],
            [
              72.505469,
              19.050195
            ],
            [
              72.5,
              19.014648
            ],
            [
              72.564258,
              19.011914
            ],
            [
              72.62168,
              18.976367
            ],
            [
              72.603906,
              18.962695
            ],
            [
              72.5,
              18.969531
            ],
            [
              72.5,
              18.920312
            ],
            [
              72.575195,
              18.908008
            ],
            [
              72.672266,
              18.949023
            ],
            [
              72.739258,
              18.924414
            ],
            [
              72.747461,
              18.865625
            ],
            [
              72.839062,
              18.854688
            ],
            [
              72.826758,
              18.876562
            ],
            [
              72.848633,
              18.912109
            ],
            [
              72.780273,
              18.905273
            ],
            [
              72.698242,
              18.991406
            ],
            [
              72.740625,
              18.999609
            ],
            [
              72.731055,
              19.016016
            ],
            [
              72.77207,
              18.996875
            ],
            [
              72.833594,
              19.003711
            ],
            [
              72.848633,
              18.985938
            ],
            [
              72.848633,
              19.07207
            ],
            [
              72.811719,
              19.09668
            ],
            [
              72.713281,
              19.102148
            ],
            [
              72.676367,
              19.15
            ],
            [
              72.627148,
              19.15
            ],
            [
              72.624414,
              19.130859
            ],
            [
              72.614844,
              19.15
            ],
            [
              72.562891,
              19.15
            ]
          ]
        ]
      }
    },
    {
      "type": "Feature",
      "properties": {
        "spill_id": "sentinel_110",
        "confidence": 0.85
      },
      "geometry": {
        "type": "Polygon",
        "coordinates": [
          [
            [
              72.512305,
              19.137695
            ],
            [
              72.520508,
              19.137695
            ],
            [
              72.521875,
              19.139062
            ],
            [
              72.521875,
              19.14043
            ],
            [
              72.525977,
              19.144531
            ],
            [
              72.527344,
              19.144531
            ],
            [
              72.528711,
              19.145898
            ],
            [
              72.530078,
              19.145898
            ],
            [
              72.530078,
              19.148633
            ],
            [
              72.531445,
              19.15
            ],
            [
              72.532812,
              19.15
            ],
            [
              72.513672,
              19.15
            ],
            [
              72.513672,
              19.144531
            ],
            [
              72.515039,
              19.143164
            ],
            [
              72.515039,
              19.141797
            ],
            [
              72.513672,
              19.14043
            ],
            [
              72.513672,
              19.139062
            ],
            [
              72.512305,
              19.137695
            ]
          ]
        ]
      }
    }
  ]
}