{
  "type": "FeatureCollection",
  "features": [
    {
      "type": "Feature",
      "properties": {
        "spill_id": "sentinel_55",
        "confidence": 0.79
      },
      "geometry": {
        "type": "Polygon",
        "coordinates": [
          [
            [
              72.672266,
              18.891602
            ],
            [
              72.672266,
              18.888867
            ],
            [
              72.675,
              18.886133
            ],
            [
              72.675,
              18.884766
            ],
            [
              72.681836,
              18.87793
            ],
            [
              72.683203,
              18.87793
            ],
            [
              72.68457,
              18.876562
            ],
            [
              72.685938,
              18.876562
            ],
            [
              72.687305,
              18.875195
            ],
            [
              72.688672,
              18.875195
            ],
            [
              72.691406,
              18.872461
            ],
            [
              72.694141,
              18.872461
            ],
            [
              72.695508,
              18.871094
            ],
            [
              72.698242,
              18.871094
            ],
            [
              72.699609,
              18.872461
            ],
            [
              72.702344,
              18.872461
            ],
            [
              72.702344,
              18.876562
            ],
            [
              72.695508,
              18.883398
            ],
            [
              72.694141,
              18.883398
            ],
            [
              72.692773,
              18.884766
            ],
            [
              72.690039,
              18.884766
            ],
            [
              72.688672,
              18.886133
            ],
            [
              72.687305,
              18.886133
            ],
            [
              72.685938,
              18.8875
            ],
            [
              72.68457,
              18.8875
            ],
            [
              72.683203,
              18.888867
            ],
            [
              72.681836,
              18.888867
            ],
            [
              72.679102,
              18.891602
            ],
            [
              72.672266,
              18.891602
            ]
          ]
        ]
      }
    },
    {
      "type": "Feature",
      "properties": {
        "spill_id": "sentinel_55",
        "confidence": 0.79
      },
      "geometry": {
        "type": "Polygon",
        "coordinates": [
          [
            [
              72.802148,
              18.976367
            ],
            [
              72.800781,
              18.975
            ],
            [
              72.803516,
              18.972266
            ],
            [
              72.803516,
              18.96543
            ],
            [
              72.80625,
              18.958594
            ],
            [
              72.810352,
              18.953125
            ],
            [
              72.813086,
              18.951758
            ],
            [
              72.818555,
              18.944922
            ],
            [
              72.822656,
              18.943555
            ],
            [
              72.825391,
              18.939453
            ],
            [
              72.825391,
              18.92168
            ],
            [
              72.829492,
              18.917578
            ],
            [
              72.833594,
              18.916211
            ],
            [
              72.848633,
              18.920312
            ],
            [
              72.848633,
              18.946289
            ],
            [
              72.830859,
              18.957227
            ],
            [
              72.818555,
              18.968164
            ],
            [
              72.811719,
              18.970898
            ],
            [
              72.807617,
              18.975
            ],
            [
              72.802148,
              18.976367
            ]
          ]
        ]
      }
    }
  ]
}