{
  "type": "FeatureCollection",
  "features": [
    {
      "type": "Feature",
      "properties": {
        "spill_id": "sentinel_483",
        "confidence": 0.83
      },
      "geometry": {
        "type": "Polygon",
        "coordinates": [
          [
            [
              72.528711,
              18.918945
            ],
            [
              72.524609,
              18.918945
            ],
            [
              72.520508,
              18.916211
            ],
            [
              72.517773,
              18.916211
            ],
            [
              72.515039,
              18.914844
            ],
            [
              72.508203,
              18.905273
            ],
            [
              72.5,
              18.905273
            ],
            [
              72.5,
              18.8875
            ],
            [
              72.502734,
              18.886133
            ],
            [
              72.506836,
              18.886133
            ],
            [
              72.508203,
              18.888867
            ],
            [
              72.515039,
              18.895703
            ],
            [
              72.515039,
              18.898438
            ],
            [
              72.519141,
              18.902539
            ],
            [
              72.524609,
              18.902539
            ],
            [
              72.527344,
              18.901172
            ],
            [
              72.528711,
              18.898438
            ],
            [
              72.531445,
              18.89707
            ],
            [
              72.535547,
              18.899805
            ],
            [
              72.535547,
              18.903906
            ],
            [
              72.531445,
              18.910742
            ],
            [
              72.531445,
              18.914844
            ],
            [
              72.528711,
              18.918945
            ]
          ]
        ]
      }
    },
    {
      "type": "Feature",
      "properties": {
        "spill_id": "sentinel_483",
        "confidence": 0.83
      },
      "geometry": {
        "type": "Polygon",
        "coordinates": [
          [
            [
              72.778906,
              19.024219
            ],
            [
              72.777539,
              19.022852
            ],
            [
              72.777539,
              19.01875
            ],
            [
              72.780273,
              19.016016
            ],
            [
              72.780273,
              19.014648
            ],
            [
              72.783008,
              19.014648
            ],
            [
              72.787109,
              19.01875
            ],
            [
              72.787109,
              19.022852
            ],
            [
              72.785742,
              19.022852
            ],
            [
              72.784375,
              19.024219
            ],
            [
              72.778906,
              19.024219
            ]
          ]
        ]
      }
    },
    {
      "type": "Feature",
      "properties": {
        "spill_id": "sentinel_483",
        "confidence": 0.83
      },
      "geometry": {
        "type": "Polygon",
        "coordinates": [
          [
            [
              72.807617,
              19.092578
            ],
            [
              72.798047,
              19.100781
            ],
            [
              72.787109,
              19.121289
            ],
            [
              72.763867,
              19.128125
            ],
            [
              72.758398,
              19.124023
            ],
            [
              72.757031,
              19.11582
            ],
            [
              72.776172,
              19.089844
            ],
            [
              72.773438,
              19.085742
            ],
            [
              72.758398,
              19.083008
            ],
            [
              72.739258,
              19.095312
            ],
            [
              72.737891,
              19.10625
            ],
            [
              72.72832,
              19.121289
            ],
            [
              72.713281,
              19.107617
            ],
            [
              72.713281,
              19.09668
            ],
            [
              72.721484,
              19.080273
            ],
            [
              72.71875,
              19.066602
            ],
            [
              72.714648,
              19.0625
            ],
            [
              72.707812,
              19.065234
            ],
            [
              72.687305,
              19.039258
            ],
            [
              72.670898,
              19.029687
            ],
            [
              72.670898,
              19.024219
            ],
            [
              72.676367,
              19.022852
            ],
            [
              72.68457,
              19.031055
            ],
            [
              72.706445,
              19.032422
            ],
            [
              72.714648,
              19.039258
            ],
            [
              72.722852,
              19.035156
            ],
            [
              72.735156,
              19.036523
            ],
            [
              72.767969,
              19.054297
            ],
            [
              72.788477,
              19.05293
            ],
            [
              72.804883,
              19.076172
            ],
            [
              72.807617,
              19.092578
            ]
          ]
        ]
      }
    },
    {
      "type": "Feature",
      "properties": {
        "spill_id": "sentinel_483",
        "confidence": 0.83
      },
      "geometry": {
        "type": "Polygon",
        "coordinates": [
          [
            [
              72.5,
              19.132227
            ],
            [
              72.5,
              19.108984
            ],
            [
              72.501367,
              19.108984
            ],
            [
              72.505469,
              19.10625
            ],
            [
              72.516406,
              19.10625
            ],
            [
              72.517773,
              19.107617
            ],
            [
              72.520508,
              19.107617
            ],
            [
              72.524609,
              19.110352
            ],
            [
              72.527344,
              19.110352
            ],
            [
              72.528711,
              19.111719
            ],
            [
              72.531445,
              19.111719
            ],
            [
              72.532812,
              19.113086
            ],
            [
              72.532812,
              19.114453
            ],
            [
              72.53418,
              19.11582
            ],
            [
              72.53418,
              19.122656
            ],
            [
              72.531445,
              19.125391
            ],
            [
              72.531445,
              19.126758
            ],
            [
              72.530078,
              19.126758
            ],
            [
              72.527344,
              19.129492
            ],
            [
              72.525977,
              19.129492
            ],
            [
              72.521875,
              19.132227
            ],
            [
              72.517773,
              19.132227
            ],
            [
              72.516406,
              19.130859
            ],
            [
              72.50957,
              19.130859
            ],
            [
              72.508203,
              19.132227
            ],
            [
              72.5,
              19.132227
            ]
          ]
        ]
      }
    },
    {
      "type": "Feature",
      "properties": {
        "spill_id": "sentinel_483",
        "confidence": 0.83
      },
      "geometry": {
        "type": "Polygon",
        "coordinates": [
          [
            [
              72.714648,
              19.15
            ],
            [
              72.70918,
              19.15
            ],
            [
              72.70918,
              19.145898
            ],
            [
              72.707812,
              19.144531
            ],
            [
              72.707812,
              19.143164
            ],
            [
              72.706445,
              19.141797
            ],
            [
              72.706445,
              19.14043
            ],
            [
              72.707812,
              19.139062
            ],
            [
              72.711914,
              19.139062
            ],
            [
              72.713281,
              19.14043
            ],
            [
              72.714648,
              19.14043
            ],
            [
              72.716016,
              19.141797
            ],
            [
              72.716016,
              19.144531
            ],
            [
              72.713281,
              19.147266
            ],
            [
              72.713281,
              19.148633
            ],
            [
              72.714648,
              19.15
            ]
          ]
        ]
      }
    }
  ]
}