{
  "type": "FeatureCollection",
  "features": [
    {
      "type": "Feature",
      "properties": {
        "spill_id": "sentinel_362",
        "confidence": 0.98
      },
      "geometry": {
        "type": "Polygon",
        "coordinates": [
          [
            [
              72.834961,
              19.15
            ],
            [
              72.834961,
              19.145898
            ],
            [
              72.833594,
              19.144531
            ],
            [
              72.833594,
              19.143164
            ],
            [
              72.834961,
              19.141797
            ],
            [
              72.834961,
              19.136328
            ],
            [
              72.836328,
              19.134961
            ],
            [
              72.836328,
              19.133594
            ],
            [
              72.837695,
              19.132227
            ],
            [
              72.837695,
              19.130859
            ],
            [
              72.839062,
              19.130859
            ],
            [
              72.84043,
              19.129492
            ],
            [
              72.845898,
              19.129492
            ],
            [
              72.847266,
              19.130859
            ],
            [
              72.848633,
              19.130859
            ],
            [
              72.848633,
              19.15
            ],
            [
              72.834961,
              19.15
            ]
          ]
        ]
      }
    },
    {
      "type": "Feature",
      "properties": {
        "spill_id": "sentinel_362",
        "confidence": 0.98
      },
      "geometry": {
        "type": "Polygon",
        "coordinates": [
          [
            [
              72.5,
              19.15
            ],
            [
              72.5,
              18.801367
            ],
            [
              72.848633,
              18.805469
            ],
            [
              72.848633,
              19.054297
            ],
            [
              72.839062,
              19.067969
            ],
            [
              72.793945,
              19.077539
            ],
            [
              72.780273,
              19.095312
            ],
            [
              72.726953,
              19.103516
            ],
            [
              72.724219,
              19.117188
            ],
            [
              72.743359,
              19.114453
            ],
            [
              72.754297,
              19.126758
            ],
            [
              72.748828,
              19.15
            ],
            [
              72.5,
              19.15
            ]
          ]
        ]
      }
    }
  ]
}