{
  "type": "FeatureCollection",
  "features": [
    {
      "type": "Feature",
      "properties": {
        "spill_id": "sentinel_301",
        "confidence": 0.82
      },
      "geometry": {
        "type": "Polygon",
        "coordinates": [
          [
            [
              72.647656,
              18.821875
            ],
            [
              72.638086,
              18.821875
            ],
            [
              72.636719,
              18.820508
            ],
            [
              72.635352,
              18.820508
            ],
            [
              72.633984,
              18.819141
            ],
            [
              72.632617,
              18.819141
            ],
            [
              72.629883,
              18.816406
            ],
            [
              72.628516,
              18.816406
            ],
            [
              72.624414,
              18.813672
            ],
            [
              72.62168,
              18.813672
            ],
            [
              72.618945,
              18.810938
            ],
            [
              72.617578,
              18.810938
            ],
            [
              72.616211,
              18.80957
            ],
            [
              72.616211,
              18.806836
            ],
            [
              72.617578,
              18.806836
            ],
            [
              72.618945,
              18.805469
            ],
            [
              72.625781,
              18.805469
            ],
            [
              72.627148,
              18.806836
            ],
            [
              72.632617,
              18.806836
            ],
            [
              72.633984,
              18.808203
            ],
            [
              72.635352,
              18.808203
            ],
            [
              72.636719,
              18.80957
            ],
            [
              72.638086,
              18.80957
            ],
            [
              72.639453,
              18.810938
            ],
            [
              72.64082,
              18.810938
            ],
            [
              72.642187,
              18.812305
            ],
            [
              72.643555,
              18.812305
            ],
            [
              72.646289,
              18.815039
            ],
            [
              72.646289,
              18.816406
            ],
            [
              72.647656,
              18.817773
            ],
            [
              72.647656,
              18.821875
            ]
          ]
        ]
      }
    },
    {
      "type": "Feature",
      "properties": {
        "spill_id": "sentinel_301",
        "confidence": 0.82
      },
      "geometry": {
        "type": "Polygon",
        "coordinates": [
          [
            [
              72.613477,
              18.846484
            ],
            [
              72.610742,
              18.846484
            ],
            [
              72.609375,
              18.847852
            ],
            [
              72.605273,
              18.847852
            ],
            [
              72.603906,
              18.849219
            ],
            [
              72.602539,
              18.847852
            ],
            [
              72.598438,
              18.847852
            ],
            [
              72.59707,
              18.846484
            ],
            [
              72.595703,
              18.846484
            ],
            [
              72.592969,
              18.84375
            ],
            [
              72.591602,
              18.84375
            ],
            [
              72.591602,
              18.842383
            ],
            [
              72.584766,
              18.835547
            ],
            [
              72.584766,
              18.832812
            ],
            [
              72.583398,
              18.831445
            ],
            [
              72.584766,
              18.830078
            ],
            [
              72.584766,
              18.828711
            ],
            [
              72.5875,
              18.828711
            ],
            [
              72.588867,
              18.830078
            ],
            [
              72.590234,
              18.830078
            ],
            [
              72.591602,
              18.831445
            ],
            [
              72.592969,
              18.831445
            ],
            [
              72.595703,
              18.83418
            ],
            [
              72.59707,
              18.83418
            ],
            [
              72.598438,
              18.835547
            ],
            [
              72.599805,
              18.835547
            ],
            [
              72.601172,
              18.836914
            ],
            [
              72.602539,
              18.836914
            ],
            [
              72.605273,
              18.839648
            ],
            [
              72.606641,
              18.839648
            ],
            [
              72.613477,
              18.846484
            ]
          ]
        ]
      }
    },
    {
      "type": "Feature",
      "properties": {
        "spill_id": "sentinel_301",
        "confidence": 0.82
      },
      "geometry": {
        "type": "Polygon",
        "coordinates": [
          [
            [
              72.757031,
              18.890234
            ],
            [
              72.750195,
              18.891602
            ],
            [
              72.739258,
              18.8875
            ],
            [
              72.722852,
              18.869727
            ],
            [
              72.713281,
              18.865625
            ],
            [
              72.702344,
              18.854688
            ],
            [
              72.658594,
              18.827344
            ],
            [
              72.655859,
              18.823242
            ],
            [
              72.658594,
              18.820508
            ],
            [
              72.680469,
              18.824609
            ],
            [
              72.722852,
              18.850586
            ],
            [
              72.747461,
              18.869727
            ],
            [
              72.757031,
              18.884766
            ],
            [
              72.757031,
              18.890234
            ]
          ]
        ]
      }
    },
    {
      "type": "Feature",
      "properties": {
        "spill_id": "sentinel_301",
        "confidence": 0.82
      },
      "geometry": {
        "type": "Polygon",
        "coordinates": [
          [
            [
              72.848633,
              18.958594
            ],
            [
              72.836328,
              18.958594
            ],
            [
              72.821289,
              18.947656
            ],
            [
              72.808984,
              18.949023
            ],
            [
              72.798047,
              18.936719
            ],
            [
              72.787109,
              18.93125
            ],
            [
              72.778906,
              18.923047
            ],
            [
              72.776172,
              18.910742
            ],
            [
              72.777539,
              18.903906
            ],
            [
              72.781641,
              18.899805
            ],
            [
              72.785742,
              18.899805
            ],
            [
              72.80625,
              18.914844
            ],
            [
              72.813086,
              18.92168
            ],
            [
              72.822656,
              18.927148
            ],
            [
              72.826758,
              18.927148
            ],
            [
              72.834961,
              18.932617
            ],
            [
              72.848633,
              18.946289
            ],
            [
              72.848633,
              18.958594
            ]
          ]
        ]
      }
    },
    {
      "type": "Feature",
      "properties": {
        "spill_id": "sentinel_301",
        "confidence": 0.82
      },
      "geometry": {
        "type": "Polygon",
        "coordinates": [
          [
            [
              72.687305,
              18.995508
            ],
            [
              72.676367,
              18.995508
            ],
            [
              72.675,
              18.994141
            ],
            [
              72.672266,
              18.994141
            ],
            [
              72.670898,
              18.992773
            ],
            [
              72.666797,
              18.991406
            ],
            [
              72.662695,
              18.987305
            ],
            [
              72.662695,
              18.985938
            ],
            [
              72.654492,
              18.977734
            ],
            [
              72.654492,
              18.972266
            ],
            [
              72.655859,
              18.970898
            ],
            [
              72.655859,
              18.969531
            ],
            [
              72.659961,
              18.96543
            ],
            [
              72.662695,
              18.96543
            ],
            [
              72.664062,
              18.966797
            ],
            [
              72.66543,
              18.966797
            ],
            [
              72.669531,
              18.970898
            ],
            [
              72.670898,
              18.970898
            ],
            [
              72.673633,
              18.973633
            ],
            [
              72.675,
              18.973633
            ],
            [
              72.677734,
              18.976367
            ],
            [
              72.679102,
              18.976367
            ],
            [
              72.683203,
              18.980469
            ],
            [
              72.683203,
              18.981836
            ],
            [
              72.687305,
              18.988672
            ],
            [
              72.687305,
              18.995508
            ]
          ]
        ]
      }
    },
    {
      "type": "Feature",
      "properties": {
        "spill_id": "sentinel_301",
        "confidence": 0.82
      },
      "geometry": {
        "type": "Polygon",
        "coordinates": [
          [
            [
              72.584766,
              19.006445
            ],
            [
              72.582031,
              19.00918
            ],
            [
              72.575195,
              19.00918
            ],
            [
              72.573828,
              19.007812
            ],
            [
              72.568359,
              19.007812
            ],
            [
              72.566992,
              19.006445
            ],
            [
              72.557422,
              19.006445
            ],
            [
              72.550586,
              19.000977
            ],
            [
              72.549219,
              19.000977
            ],
            [
              72.54375,
              18.994141
            ],
            [
              72.538281,
              18.991406
            ],
            [
              72.536914,
              18.988672
            ],
            [
              72.536914,
              18.985938
            ],
            [
              72.539648,
              18.981836
            ],
            [
              72.554688,
              18.981836
            ],
            [
              72.556055,
              18.983203
            ],
            [
              72.560156,
              18.983203
            ],
            [
              72.564258,
              18.991406
            ],
            [
              72.564258,
              18.994141
            ],
            [
              72.566992,
              18.998242
            ],
            [
              72.576562,
              18.998242
            ],
            [
              72.57793,
              18.999609
            ],
            [
              72.580664,
              18.999609
            ],
            [
              72.583398,
              19.002344
            ],
            [
              72.584766,
              19.006445
            ]
          ]
        ]
      }
    },
    {
      "type": "Feature",
      "properties": {
        "spill_id": "sentinel_301",
        "confidence": 0.82
      },
      "geometry": {
        "type": "Polygon",
        "coordinates": [
          [
            [
              72.650391,
              19.013281
            ],
            [
              72.646289,
              19.016016
            ],
            [
              72.643555,
              19.016016
            ],
            [
              72.635352,
              19.020117
            ],
            [
              72.63125,
              19.020117
            ],
            [
              72.629883,
              19.01875
            ],
            [
              72.625781,
              19.01875
            ],
            [
              72.620312,
              19.016016
            ],
            [
              72.614844,
              19.016016
            ],
            [
              72.613477,
              19.014648
            ],
            [
              72.610742,
              19.014648
            ],
            [
              72.606641,
              19.010547
            ],
            [
              72.606641,
              19.007812
            ],
            [
              72.605273,
              19.006445
            ],
            [
              72.605273,
              19.000977
            ],
            [
              72.598438,
              18.991406
            ],
            [
              72.598438,
              18.985938
            ],
            [
              72.599805,
              18.983203
            ],
            [
              72.610742,
              18.983203
            ],
            [
              72.628516,
              18.995508
            ],
            [
              72.644922,
              18.999609
            ],
            [
              72.650391,
              19.006445
            ],
            [
              72.650391,
              19.00918
            ],
            [
              72.651758,
              19.010547
            ],
            [
              72.650391,
              19.013281
            ]
          ]
        ]
      }
    },
    {
      "type": "Feature",
      "properties": {
        "spill_id": "sentinel_301",
        "confidence": 0.82
      },
      "geometry": {
        "type": "Polygon",
        "coordinates": [
          [
            [
              72.528711,
              19.026953
            ],
            [
              72.527344,
              19.02832
            ],
            [
              72.523242,
              19.02832
            ],
            [
              72.521875,
              19.026953
            ],
            [
              72.519141,
              19.026953
            ],
            [
              72.517773,
              19.025586
            ],
            [
              72.515039,
              19.025586
            ],
            [
              72.513672,
              19.024219
            ],
            [
              72.512305,
              19.024219
            ],
            [
              72.506836,
              19.01875
            ],
            [
              72.505469,
              19.01875
            ],
            [
              72.501367,
              19.014648
            ],
            [
              72.5,
              19.014648
            ],
            [
              72.5,
              19.00918
            ],
            [
              72.504102,
              19.00918
            ],
            [
              72.505469,
              19.007812
            ],
            [
              72.506836,
              19.00918
            ],
            [
              72.50957,
              19.00918
            ],
            [
              72.510938,
              19.010547
            ],
            [
              72.512305,
              19.010547
            ],
            [
              72.513672,
              19.011914
            ],
            [
              72.515039,
              19.011914
            ],
            [
              72.516406,
              19.013281
            ],
            [
              72.517773,
              19.013281
            ],
            [
              72.519141,
              19.014648
            ],
            [
              72.520508,
              19.014648
            ],
            [
              72.521875,
              19.016016
            ],
            [
              72.523242,
              19.016016
            ],
            [
              72.525977,
              19.01875
            ],
            [
              72.525977,
              19.020117
            ],
            [
              72.528711,
              19.024219
            ],
            [
              72.528711,
              19.026953
            ]
          ]
        ]
      }
    },
    {
      "type": "Feature",
      "properties": {
        "spill_id": "sentinel_301",
        "confidence": 0.82
      },
      "geometry": {
        "type": "Polygon",
        "coordinates": [
          [
            [
              72.62168,
              19.083008
            ],
            [
              72.609375,
              19.083008
            ],
            [
              72.605273,
              19.081641
            ],
            [
              72.594336,
              19.073438
            ],
            [
              72.591602,
              19.065234
            ],
            [
              72.591602,
              19.057031
            ],
            [
              72.595703,
              19.051562
            ],
            [
              72.601172,
              19.048828
            ],
            [
              72.606641,
              19.048828
            ],
            [
              72.609375,
              19.046094
            ],
            [
              72.608008,
              19.043359
            ],
            [
              72.608008,
              19.031055
            ],
            [
              72.610742,
              19.029687
            ],
            [
              72.616211,
              19.032422
            ],
            [
              72.620312,
              19.036523
            ],
            [
              72.620312,
              19.041992
            ],
            [
              72.612109,
              19.048828
            ],
            [
              72.612109,
              19.055664
            ],
            [
              72.613477,
              19.058398
            ],
            [
              72.623047,
              19.067969
            ],
            [
              72.628516,
              19.07207
            ],
            [
              72.635352,
              19.074805
            ],
            [
              72.63125,
              19.078906
            ],
            [
              72.62168,
              19.083008
            ]
          ]
        ]
      }
    },
    {
      "type": "Feature",
      "properties": {
        "spill_id": "sentinel_301",
        "confidence": 0.82
      },
      "geometry": {
        "type": "Polygon",
        "coordinates": [
          [
            [
              72.681836,
              19.095312
            ],
            [
              72.680469,
              19.09668
            ],
            [
              72.679102,
              19.095312
            ],
            [
              72.676367,
              19.095312
            ],
            [
              72.673633,
              19.092578
            ],
            [
              72.672266,
              19.092578
            ],
            [
              72.666797,
              19.087109
            ],
            [
              72.664062,
              19.087109
            ],
            [
              72.659961,
              19.084375
            ],
            [
              72.657227,
              19.084375
            ],
            [
              72.655859,
              19.083008
            ],
            [
              72.653125,
              19.083008
            ],
            [
              72.651758,
              19.081641
            ],
            [
              72.650391,
              19.081641
            ],
            [
              72.646289,
              19.077539
            ],
            [
              72.646289,
              19.074805
            ],
            [
              72.647656,
              19.074805
            ],
            [
              72.649023,
              19.073438
            ],
            [
              72.650391,
              19.073438
            ],
            [
              72.651758,
              19.074805
            ],
            [
              72.658594,
              19.074805
            ],
            [
              72.659961,
              19.076172
            ],
            [
              72.662695,
              19.076172
            ],
            [
              72.664062,
              19.077539
            ],
            [
              72.66543,
              19.077539
            ],
            [
              72.666797,
              19.078906
            ],
            [
              72.670898,
              19.080273
            ],
            [
              72.676367,
              19.085742
            ],
            [
              72.676367,
              19.087109
            ],
            [
              72.680469,
              19.091211
            ],
            [
              72.681836,
              19.095312
            ]
          ]
        ]
      }
    },
    {
      "type": "Feature",
      "properties": {
        "spill_id": "sentinel_301",
        "confidence": 0.82
      },
      "geometry": {
        "type": "Polygon",
        "coordinates": [
          [
            [
              72.722852,
              19.126758
            ],
            [
              72.714648,
              19.126758
            ],
            [
              72.703711,
              19.121289
            ],
            [
              72.696875,
              19.114453
            ],
            [
              72.692773,
              19.10625
            ],
            [
              72.692773,
              19.102148
            ],
            [
              72.698242,
              19.099414
            ],
            [
              72.702344,
              19.093945
            ],
            [
              72.690039,
              19.080273
            ],
            [
              72.687305,
              19.074805
            ],
            [
              72.677734,
              19.066602
            ],
            [
              72.672266,
              19.057031
            ],
            [
              72.673633,
              19.054297
            ],
            [
              72.681836,
              19.061133
            ],
            [
              72.703711,
              19.07207
            ],
            [
              72.716016,
              19.092578
            ],
            [
              72.714648,
              19.103516
            ],
            [
              72.726953,
              19.11582
            ],
            [
              72.725586,
              19.124023
            ],
            [
              72.722852,
              19.126758
            ]
          ]
        ]
      }
    },
    {
      "type": "Feature",
      "properties": {
        "spill_id": "sentinel_301",
        "confidence": 0.82
      },
      "geometry": {
        "type": "Polygon",
        "coordinates": [
          [
            [
              72.828125,
              19.15
            ],
            [
              72.799414,
              19.15
            ],
            [
              72.789844,
              19.141797
            ],
            [
              72.784375,
              19.132227
            ],
            [
              72.77207,
              19.119922
            ],
            [
              72.759766,
              19.111719
            ],
            [
              72.744727,
              19.098047
            ],
            [
              72.741992,
              19.089844
            ],
            [
              72.748828,
              19.088477
            ],
            [
              72.765234,
              19.098047
            ],
            [
              72.800781,
              19.129492
            ],
            [
              72.808984,
              19.134961
            ],
            [
              72.822656,
              19.137695
            ],
            [
              72.828125,
              19.143164
            ],
            [
              72.829492,
              19.147266
            ],
            [
              72.828125,
              19.15
            ]
          ]
        ]
      }
    },
    {
      "type": "Feature",
      "properties": {
        "spill_id": "sentinel_301",
        "confidence": 0.82
      },
      "geometry": {
        "type": "Polygon",
        "coordinates": [
          [
            [
              72.523242,
              19.141797
            ],
            [
              72.521875,
              19.139062
            ],
            [
              72.521875,
              19.132227
            ],
            [
              72.524609,
              19.126758
            ],
            [
              72.532812,
              19.122656
            ],
            [
              72.54375,
              19.110352
            ],
            [
              72.550586,
              19.107617
            ],
            [
              72.560156,
              19.10625
            ],
            [
              72.566992,
              19.100781
            ],
            [
              72.575195,
              19.100781
            ],
            [
              72.57793,
              19.103516
            ],
            [
              72.57793,
              19.117188
            ],
            [
              72.573828,
              19.122656
            ],
            [
              72.573828,
              19.128125
            ],
            [
              72.565625,
              19.132227
            ],
            [
              72.566992,
              19.139062
            ],
            [
              72.572461,
              19.15
            ],
            [
              72.560156,
              19.15
            ],
            [
              72.558789,
              19.147266
            ],
            [
              72.554688,
              19.145898
            ],
            [
              72.547852,
              19.145898
            ],
            [
              72.542383,
              19.143164
            ],
            [
              72.525977,
              19.143164
            ],
            [
              72.523242,
              19.141797
            ]
          ]
        ]
      }
    }
  ]
}