{
  "type": "FeatureCollection",
  "features": [
    {
      "type": "Feature",
      "properties": {
        "spill_id": "sentinel_777",
        "confidence": 0.7
      },
      "geometry": {
        "type": "Polygon",
        "coordinates": [
          [
            [
              72.524609,
              18.802734
            ],
            [
              72.523242,
              18.804102
            ],
            [
              72.523242,
              18.805469
            ],
            [
              72.521875,
              18.806836
            ],
            [
              72.520508,
              18.806836
            ],
            [
              72.519141,
              18.808203
            ],
            [
              72.517773,
              18.808203
            ],
            [
              72.516406,
              18.806836
            ],
            [
              72.513672,
              18.806836
            ],
            [
              72.512305,
              18.805469
            ],
            [
              72.510938,
              18.805469
            ],
            [
              72.50957,
              18.804102
            ],
            [
              72.50957,
              18.801367
            ],
            [
              72.523242,
              18.801367
            ],
            [
              72.524609,
              18.802734
            ]
          ]
        ]
      }
    },
    {
      "type": "Feature",
      "properties": {
        "spill_id": "sentinel_777",
        "confidence": 0.7
      },
      "geometry": {
        "type": "Polygon",
        "coordinates": [
          [
            [
              72.848633,
              18.903906
            ],
            [
              72.84043,
              18.899805
            ],
            [
              72.837695,
              18.894336
            ],
            [
              72.836328,
              18.883398
            ],
            [
              72.829492,
              18.87793
            ],
            [
              72.826758,
              18.866992
            ],
            [
              72.819922,
              18.864258
            ],
            [
              72.813086,
              18.85332
            ],
            [
              72.813086,
              18.846484
            ],
            [
              72.818555,
              18.838281
            ],
            [
              72.819922,
              18.825977
            ],
            [
              72.818555,
              18.817773
            ],
            [
              72.814453,
              18.812305
            ],
            [
              72.81582,
              18.801367
            ],
            [
              72.845898,
              18.801367
            ],
            [
              72.848633,
              18.804102
            ],
            [
              72.848633,
              18.903906
            ]
          ]
        ]
      }
    },
    {
      "type": "Feature",
      "properties": {
        "spill_id": "sentinel_777",
        "confidence": 0.7
      },
      "geometry": {
        "type": "Polygon",
        "coordinates": [
          [
            [
              72.675,
              18.977734
            ],
            [
              72.672266,
              18.977734
            ],
            [
              72.670898,
              18.976367
            ],
            [
              72.668164,
              18.976367
            ],
            [
              72.666797,
              18.975
            ],
            [
              72.666797,
              18.969531
            ],
            [
              72.66543,
              18.968164
            ],
            [
              72.66543,
              18.966797
            ],
            [
              72.664062,
              18.96543
            ],
            [
              72.662695,
              18.96543
            ],
            [
              72.662695,
              18.961328
            ],
            [
              72.666797,
              18.957227
            ],
            [
              72.666797,
              18.955859
            ],
            [
              72.668164,
              18.954492
            ],
            [
              72.668164,
              18.951758
            ],
            [
              72.669531,
              18.951758
            ],
            [
              72.670898,
              18.953125
            ],
            [
              72.670898,
              18.954492
            ],
            [
              72.672266,
              18.955859
            ],
            [
              72.672266,
              18.959961
            ],
            [
              72.673633,
              18.961328
            ],
            [
              72.673633,
              18.962695
            ],
            [
              72.675,
              18.964062
            ],
            [
              72.675,
              18.968164
            ],
            [
              72.676367,
              18.969531
            ],
            [
              72.676367,
              18.975
            ],
            [
              72.675,
              18.976367
            ],
            [
              72.675,
              18.977734
            ]
          ]
        ]
      }
    },
    {
      "type": "Feature",
      "properties": {
        "spill_id": "sentinel_777",
        "confidence": 0.7
      },
      "geometry": {
        "type": "Polygon",
        "coordinates": [
          [
            [
              72.845898,
              18.994141
            ],
            [
              72.844531,
              18.994141
            ],
            [
              72.844531,
              18.991406
            ],
            [
              72.843164,
              18.990039
            ],
            [
              72.843164,
              18.988672
            ],
            [
              72.841797,
              18.987305
            ],
            [
              72.841797,
              18.985938
            ],
            [
              72.839062,
              18.983203
            ],
            [
              72.839062,
              18.979102
            ],
            [
              72.837695,
              18.977734
            ],
            [
              72.844531,
              18.970898
            ],
            [
              72.845898,
              18.972266
            ],
            [
              72.847266,
              18.972266
            ],
            [
              72.848633,
              18.973633
            ],
            [
              72.848633,
              18.990039
            ],
            [
              72.845898,
              18.992773
            ],
            [
              72.845898,
              18.994141
            ]
          ]
        ]
      }
    },
    {
      "type": "Feature",
      "properties": {
        "spill_id": "sentinel_777",
        "confidence": 0.7
      },
      "geometry": {
        "type": "Polygon",
        "coordinates": [
          [
            [
              72.825391,
              19.087109
            ],
            [
              72.817187,
              19.077539
            ],
            [
              72.814453,
              19.065234
            ],
            [
              72.822656,
              19.05293
            ],
            [
              72.828125,
              19.025586
            ],
            [
              72.839062,
              19.014648
            ],
            [
              72.839062,
              19.010547
            ],
            [
              72.844531,
              19.002344
            ],
            [
              72.848633,
              19.007812
            ],
            [
              72.848633,
              19.067969
            ],
            [
              72.847266,
              19.069336
            ],
            [
              72.848633,
              19.081641
            ],
            [
              72.845898,
              19.083008
            ],
            [
              72.839062,
              19.077539
            ],
            [
              72.84043,
              19.073438
            ],
            [
              72.837695,
              19.066602
            ],
            [
              72.834961,
              19.065234
            ],
            [
              72.828125,
              19.073438
            ],
            [
              72.829492,
              19.085742
            ],
            [
              72.825391,
              19.087109
            ]
          ]
        ]
      }
    }
  ]
}