{
  "type": "FeatureCollection",
  "features": [
    {
      "type": "Feature",
      "properties": {
        "spill_id": "sentinel_757",
        "confidence": 0.75
      },
      "geometry": {
        "type": "Polygon",
        "coordinates": [
          [
            [
              72.546484,
              18.884766
            ],
            [
              72.542383,
              18.8875
            ],
            [
              72.532812,
              18.888867
            ],
            [
              72.525977,
              18.884766
            ],
            [
              72.517773,
              18.884766
            ],
            [
              72.516406,
              18.886133
            ],
            [
              72.510938,
              18.886133
            ],
            [
              72.50957,
              18.884766
            ],
            [
              72.504102,
              18.884766
            ],
            [
              72.502734,
              18.883398
            ],
            [
              72.5,
              18.883398
            ],
            [
              72.5,
              18.865625
            ],
            [
              72.502734,
              18.864258
            ],
            [
              72.508203,
              18.864258
            ],
            [
              72.50957,
              18.865625
            ],
            [
              72.521875,
              18.865625
            ],
            [
              72.523242,
              18.866992
            ],
            [
              72.530078,
              18.866992
            ],
            [
              72.532812,
              18.868359
            ],
            [
              72.536914,
              18.872461
            ],
            [
              72.536914,
              18.873828
            ],
            [
              72.546484,
              18.882031
            ],
            [
              72.546484,
              18.884766
            ]
          ]
        ]
      }
    },
    {
      "type": "Feature",
      "properties": {
        "spill_id": "sentinel_757",
        "confidence": 0.75
      },
      "geometry": {
        "type": "Polygon",
        "coordinates": [
          [
            [
              72.586133,
              18.909375
            ],
            [
              72.584766,
              18.908008
            ],
            [
              72.583398,
              18.908008
            ],
            [
              72.583398,
              18.906641
            ],
            [
              72.582031,
              18.905273
            ],
            [
              72.582031,
              18.902539
            ],
            [
              72.584766,
              18.899805
            ],
            [
              72.584766,
              18.898438
            ],
            [
              72.580664,
              18.895703
            ],
            [
              72.572461,
              18.895703
            ],
            [
              72.569727,
              18.891602
            ],
            [
              72.568359,
              18.884766
            ],
            [
              72.569727,
              18.883398
            ],
            [
              72.575195,
              18.883398
            ],
            [
              72.576562,
              18.882031
            ],
            [
              72.580664,
              18.882031
            ],
            [
              72.582031,
              18.880664
            ],
            [
              72.583398,
              18.880664
            ],
            [
              72.584766,
              18.879297
            ],
            [
              72.5875,
              18.879297
            ],
            [
              72.591602,
              18.876562
            ],
            [
              72.598438,
              18.876562
            ],
            [
              72.599805,
              18.87793
            ],
            [
              72.601172,
              18.87793
            ],
            [
              72.602539,
              18.882031
            ],
            [
              72.601172,
              18.883398
            ],
            [
              72.601172,
              18.886133
            ],
            [
              72.595703,
              18.892969
            ],
            [
              72.595703,
              18.902539
            ],
            [
              72.591602,
              18.908008
            ],
            [
              72.590234,
              18.908008
            ],
            [
              72.588867,
              18.909375
            ],
            [
              72.586133,
              18.909375
            ]
          ]
        ]
      }
    },
    {
      "type": "Feature",
      "properties": {
        "spill_id": "sentinel_757",
        "confidence": 0.75
      },
      "geometry": {
        "type": "Polygon",
        "coordinates": [
          [
            [
              72.594336,
              18.946289
            ],
            [
              72.594336,
              18.943555
            ],
            [
              72.598438,
              18.939453
            ],
            [
              72.602539,
              18.938086
            ],
            [
              72.606641,
              18.933984
            ],
            [
              72.606641,
              18.932617
            ],
            [
              72.608008,
              18.93125
            ],
            [
              72.608008,
              18.929883
            ],
            [
              72.609375,
              18.928516
            ],
            [
              72.610742,
              18.924414
            ],
            [
              72.612109,
              18.924414
            ],
            [
              72.616211,
              18.92168
            ],
            [
              72.618945,
              18.92168
            ],
            [
              72.620312,
              18.923047
            ],
            [
              72.62168,
              18.923047
            ],
            [
              72.624414,
              18.925781
            ],
            [
              72.624414,
              18.927148
            ],
            [
              72.627148,
              18.929883
            ],
            [
              72.627148,
              18.93125
            ],
            [
              72.628516,
              18.932617
            ],
            [
              72.628516,
              18.935352
            ],
            [
              72.627148,
              18.936719
            ],
            [
              72.625781,
              18.936719
            ],
            [
              72.624414,
              18.938086
            ],
            [
              72.623047,
              18.938086
            ],
            [
              72.616211,
              18.942188
            ],
            [
              72.612109,
              18.942188
            ],
            [
              72.610742,
              18.943555
            ],
            [
              72.608008,
              18.943555
            ],
            [
              72.602539,
              18.949023
            ],
            [
              72.59707,
              18.949023
            ],
            [
              72.594336,
              18.946289
            ]
          ]
        ]
      }
    },
    {
      "type": "Feature",
      "properties": {
        "spill_id": "sentinel_757",
        "confidence": 0.75
      },
      "geometry": {
        "type": "Polygon",
        "coordinates": [
          [
            [
              72.793945,
              19.02832
            ],
            [
              72.791211,
              19.031055
            ],
            [
              72.784375,
              19.031055
            ],
            [
              72.783008,
              19.029687
            ],
            [
              72.781641,
              19.029687
            ],
            [
              72.778906,
              19.026953
            ],
            [
              72.778906,
              19.016016
            ],
            [
              72.785742,
              19.016016
            ],
            [
              72.789844,
              19.020117
            ],
            [
              72.791211,
              19.020117
            ],
            [
              72.792578,
              19.021484
            ],
            [
              72.792578,
              19.022852
            ],
            [
              72.793945,
              19.024219
            ],
            [
              72.793945,
              19.02832
            ]
          ]
        ]
      }
    },
    {
      "type": "Feature",
      "properties": {
        "spill_id": "sentinel_757",
        "confidence": 0.75
      },
      "geometry": {
        "type": "Polygon",
        "coordinates": [
          [
            [
              72.848633,
              19.040625
            ],
            [
              72.839062,
              19.041992
            ],
            [
              72.836328,
              19.035156
            ],
            [
              72.828125,
              19.026953
            ],
            [
              72.826758,
              19.021484
            ],
            [
              72.817187,
              19.013281
            ],
            [
              72.81582,
              19.00918
            ],
            [
              72.808984,
              19.002344
            ],
            [
              72.80625,
              19.002344
            ],
            [
              72.79668,
              18.994141
            ],
            [
              72.795312,
              18.988672
            ],
            [
              72.789844,
              18.983203
            ],
            [
              72.784375,
              18.981836
            ],
            [
              72.777539,
              18.976367
            ],
            [
              72.769336,
              18.975
            ],
            [
              72.765234,
              18.970898
            ],
            [
              72.763867,
              18.961328
            ],
            [
              72.766602,
              18.959961
            ],
            [
              72.770703,
              18.961328
            ],
            [
              72.781641,
              18.969531
            ],
            [
              72.789844,
              18.969531
            ],
            [
              72.798047,
              18.972266
            ],
            [
              72.837695,
              19.005078
            ],
            [
              72.848633,
              19.016016
            ],
            [
              72.848633,
              19.040625
            ]
          ]
        ]
      }
    },
    {
      "type": "Feature",
      "properties": {
        "spill_id": "sentinel_757",
        "confidence": 0.75
      },
      "geometry": {
        "type": "Polygon",
        "coordinates": [
          [
            [
              72.649023,
              19.055664
            ],
            [
              72.644922,
              19.055664
            ],
            [
              72.643555,
              19.054297
            ],
            [
              72.642187,
              19.054297
            ],
            [
              72.642187,
              19.05293
            ],
            [
              72.639453,
              19.050195
            ],
            [
              72.639453,
              19.047461
            ],
            [
              72.638086,
              19.046094
            ],
            [
              72.638086,
              19.043359
            ],
            [
              72.635352,
              19.040625
            ],
            [
              72.632617,
              19.040625
            ],
            [
              72.63125,
              19.039258
            ],
            [
              72.627148,
              19.039258
            ],
            [
              72.625781,
              19.037891
            ],
            [
              72.624414,
              19.037891
            ],
            [
              72.624414,
              19.035156
            ],
            [
              72.625781,
              19.033789
            ],
            [
              72.627148,
              19.029687
            ],
            [
              72.632617,
              19.024219
            ],
            [
              72.636719,
              19.024219
            ],
            [
              72.638086,
              19.025586
            ],
            [
              72.642187,
              19.026953
            ],
            [
              72.644922,
              19.029687
            ],
            [
              72.649023,
              19.031055
            ],
            [
              72.651758,
              19.033789
            ],
            [
              72.651758,
              19.035156
            ],
            [
              72.657227,
              19.041992
            ],
            [
              72.657227,
              19.047461
            ],
            [
              72.649023,
              19.055664
            ]
          ]
        ]
      }
    },
    {
      "type": "Feature",
      "properties": {
        "spill_id": "sentinel_757",
        "confidence": 0.75
      },
      "geometry": {
        "type": "Polygon",
        "coordinates": [
          [
            [
              72.843164,
              19.069336
            ],
            [
              72.841797,
              19.069336
            ],
            [
              72.84043,
              19.070703
            ],
            [
              72.836328,
              19.070703
            ],
            [
              72.834961,
              19.069336
            ],
            [
              72.822656,
              19.069336
            ],
            [
              72.821289,
              19.067969
            ],
            [
              72.819922,
              19.067969
            ],
            [
              72.814453,
              19.0625
            ],
            [
              72.814453,
              19.061133
            ],
            [
              72.813086,
              19.059766
            ],
            [
              72.813086,
              19.048828
            ],
            [
              72.814453,
              19.047461
            ],
            [
              72.817187,
              19.047461
            ],
            [
              72.818555,
              19.048828
            ],
            [
              72.819922,
              19.048828
            ],
            [
              72.822656,
              19.05293
            ],
            [
              72.824023,
              19.05293
            ],
            [
              72.826758,
              19.055664
            ],
            [
              72.828125,
              19.055664
            ],
            [
              72.829492,
              19.057031
            ],
            [
              72.837695,
              19.057031
            ],
            [
              72.84043,
              19.054297
            ],
            [
              72.841797,
              19.054297
            ],
            [
              72.844531,
              19.057031
            ],
            [
              72.844531,
              19.058398
            ],
            [
              72.845898,
              19.059766
            ],
            [
              72.845898,
              19.0625
            ],
            [
              72.844531,
              19.063867
            ],
            [
              72.844531,
              19.066602
            ],
            [
              72.843164,
              19.067969
            ],
            [
              72.843164,
              19.069336
            ]
          ]
        ]
      }
    }
  ]
}