{
  "type": "FeatureCollection",
  "features": [
    {
      "type": "Feature",
      "properties": {
        "spill_id": "sentinel_764",
        "confidence": 0.85
      },
      "geometry": {
        "type": "Polygon",
        "coordinates": [
          [
            [
              72.657227,
              19.022852
            ],
            [
              72.657227,
              19.007812
            ],
            [
              72.658594,
              19.006445
            ],
            [
              72.658594,
              19.003711
            ],
            [
              72.659961,
              19.002344
            ],
            [
              72.659961,
              19.000977
            ],
            [
              72.668164,
              18.995508
            ],
            [
              72.670898,
              18.995508
            ],
            [
              72.672266,
              18.994141
            ],
            [
              72.676367,
              18.995508
            ],
            [
              72.679102,
              18.998242
            ],
            [
              72.679102,
              18.999609
            ],
            [
              72.680469,
              19.000977
            ],
            [
              72.680469,
              19.005078
            ],
            [
              72.681836,
              19.006445
            ],
            [
              72.681836,
              19.00918
            ],
            [
              72.680469,
              19.010547
            ],
            [
              72.680469,
              19.013281
            ],
            [
              72.677734,
              19.016016
            ],
            [
              72.677734,
              19.017383
            ],
            [
              72.676367,
              19.01875
            ],
            [
              72.676367,
              19.022852
            ],
            [
              72.675,
              19.024219
            ],
            [
              72.659961,
              19.024219
            ],
            [
              72.658594,
              19.022852
            ],
            [
              72.657227,
              19.022852
            ]
          ]
        ]
      }
    },
    {
      "type": "Feature",
      "properties": {
        "spill_id": "sentinel_764",
        "confidence": 0.85
      },
      "geometry": {
        "type": "Polygon",
        "coordinates": [
          [
            [
              72.729688,
              19.087109
            ],
            [
              72.71875,
              19.074805
            ],
            [
              72.720117,
              19.05293
            ],
            [
              72.748828,
              19.007812
            ],
            [
              72.754297,
              18.987305
            ],
            [
              72.765234,
              18.975
            ],
            [
              72.765234,
              18.962695
            ],
            [
              72.759766,
              18.955859
            ],
            [
              72.725586,
              18.962695
            ],
            [
              72.725586,
              18.946289
            ],
            [
              72.746094,
              18.917578
            ],
            [
              72.757031,
              18.912109
            ],
            [
              72.773438,
              18.914844
            ],
            [
              72.769336,
              18.942188
            ],
            [
              72.781641,
              18.943555
            ],
            [
              72.848633,
              18.898438
            ],
            [
              72.848633,
              19.010547
            ],
            [
              72.844531,
              19.021484
            ],
            [
              72.830859,
              19.031055
            ],
            [
              72.814453,
              19.081641
            ],
            [
              72.798047,
              19.089844
            ],
            [
              72.783008,
              19.078906
            ],
            [
              72.754297,
              19.092578
            ],
            [
              72.741992,
              19.084375
            ],
            [
              72.729688,
              19.087109
            ]
          ]
        ]
      }
    },
    {
      "type": "Feature",
      "properties": {
        "spill_id": "sentinel_764",
        "confidence": 0.85
      },
      "geometry": {
        "type": "Polygon",
        "coordinates": [
          [
            [
              72.584766,
              19.139062
            ],
            [
              72.583398,
              19.129492
            ],
            [
              72.584766,
              19.128125
            ],
            [
              72.584766,
              19.125391
            ],
            [
              72.588867,
              19.122656
            ],
            [
              72.592969,
              19.117188
            ],
            [
              72.592969,
              19.107617
            ],
            [
              72.595703,
              19.104883
            ],
            [
              72.599805,
              19.104883
            ],
            [
              72.606641,
              19.100781
            ],
            [
              72.623047,
              19.085742
            ],
            [
              72.628516,
              19.085742
            ],
            [
              72.629883,
              19.092578
            ],
            [
              72.625781,
              19.099414
            ],
            [
              72.625781,
              19.11582
            ],
            [
              72.616211,
              19.119922
            ],
            [
              72.612109,
              19.125391
            ],
            [
              72.605273,
              19.128125
            ],
            [
              72.601172,
              19.132227
            ],
            [
              72.601172,
              19.134961
            ],
            [
              72.595703,
              19.139062
            ],
            [
              72.594336,
              19.137695
            ],
            [
              72.584766,
              19.139062
            ]
          ]
        ]
      }
    }
  ]
}