{
  "type": "FeatureCollection",
  "features": [
    {
      "type": "Feature",
      "properties": {
        "spill_id": "sentinel_421",
        "confidence": 0.87
      },
      "geometry": {
        "type": "Polygon",
        "coordinates": [
          [
            [
              72.669531,
              18.932617
            ],
            [
              72.668164,
              18.933984
            ],
            [
              72.659961,
              18.933984
            ],
            [
              72.658594,
              18.932617
            ],
            [
              72.657227,
              18.932617
            ],
            [
              72.654492,
              18.929883
            ],
            [
              72.654492,
              18.928516
            ],
            [
              72.651758,
              18.925781
            ],
            [
              72.651758,
              18.918945
            ],
            [
              72.654492,
              18.918945
            ],
            [
              72.655859,
              18.917578
            ],
            [
              72.662695,
              18.917578
            ],
            [
              72.664062,
              18.918945
            ],
            [
              72.66543,
              18.918945
            ],
            [
              72.666797,
              18.920312
            ],
            [
              72.666797,
              18.923047
            ],
            [
              72.668164,
              18.924414
            ],
            [
              72.668164,
              18.925781
            ],
            [
              72.669531,
              18.927148
            ],
            [
              72.669531,
              18.932617
            ]
          ]
        ]
      }
    },
    {
      "type": "Feature",
      "properties": {
        "spill_id": "sentinel_421",
        "confidence": 0.87
      },
      "geometry": {
        "type": "Polygon",
        "coordinates": [
          [
            [
              72.848633,
              18.906641
            ],
            [
              72.822656,
              18.903906
            ],
            [
              72.795312,
              18.876562
            ],
            [
              72.740625,
              18.917578
            ],
            [
              72.724219,
              18.943555
            ],
            [
              72.705078,
              18.947656
            ],
            [
              72.725586,
              18.909375
            ],
            [
              72.703711,
              18.891602
            ],
            [
              72.711914,
              18.873828
            ],
            [
              72.702344,
              18.860156
            ],
            [
              72.692773,
              18.871094
            ],
            [
              72.683203,
              18.864258
            ],
            [
              72.681836,
              18.849219
            ],
            [
              72.666797,
              18.849219
            ],
            [
              72.668164,
              18.839648
            ],
            [
              72.64082,
              18.847852
            ],
            [
              72.620312,
              18.828711
            ],
            [
              72.57793,
              18.845117
            ],
            [
              72.5,
              18.847852
            ],
            [
              72.5,
              18.801367
            ],
            [
              72.848633,
              18.801367
            ],
            [
              72.848633,
              18.906641
            ]
          ]
        ]
      }
    },
    {
      "type": "Feature",
      "properties": {
        "spill_id": "sentinel_421",
        "confidence": 0.87
      },
      "geometry": {
        "type": "Polygon",
        "coordinates": [
          [
            [
              72.688672,
              18.966797
            ],
            [
              72.688672,
              18.964062
            ],
            [
              72.687305,
              18.962695
            ],
            [
              72.688672,
              18.961328
            ],
            [
              72.688672,
              18.959961
            ],
            [
              72.691406,
              18.957227
            ],
            [
              72.692773,
              18.957227
            ],
            [
              72.694141,
              18.955859
            ],
            [
              72.696875,
              18.955859
            ],
            [
              72.698242,
              18.957227
            ],
            [
              72.699609,
              18.957227
            ],
            [
              72.699609,
              18.961328
            ],
            [
              72.698242,
              18.961328
            ],
            [
              72.695508,
              18.964062
            ],
            [
              72.694141,
              18.964062
            ],
            [
              72.691406,
              18.966797
            ],
            [
              72.688672,
              18.966797
            ]
          ]
        ]
      }
    },
    {
      "type": "Feature",
      "properties": {
        "spill_id": "sentinel_421",
        "confidence": 0.87
      },
      "geometry": {
        "type": "Polygon",
        "coordinates": [
          [
            [
              72.590234,
              19.024219
            ],
            [
              72.588867,
              19.022852
            ],
            [
              72.590234,
              18.998242
            ],
            [
              72.579297,
              18.980469
            ],
            [
              72.57793,
              18.968164
            ],
            [
              72.583398,
              18.961328
            ],
            [
              72.5875,
              18.959961
            ],
            [
              72.591602,
              18.954492
            ],
            [
              72.601172,
              18.949023
            ],
            [
              72.609375,
              18.94082
            ],
            [
              72.617578,
              18.94082
            ],
            [
              72.620312,
              18.943555
            ],
            [
              72.620312,
              18.949023
            ],
            [
              72.617578,
              18.953125
            ],
            [
              72.617578,
              18.957227
            ],
            [
              72.608008,
              18.962695
            ],
            [
              72.605273,
              18.970898
            ],
            [
              72.605273,
              18.988672
            ],
            [
              72.616211,
              18.999609
            ],
            [
              72.629883,
              19.000977
            ],
            [
              72.629883,
              19.003711
            ],
            [
              72.62168,
              19.010547
            ],
            [
              72.614844,
              19.011914
            ],
            [
              72.602539,
              19.025586
            ],
            [
              72.590234,
              19.024219
            ]
          ]
        ]
      }
    },
    {
      "type": "Feature",
      "properties": {
        "spill_id": "sentinel_421",
        "confidence": 0.87
      },
      "geometry": {
        "type": "Polygon",
        "coordinates": [
          [
            [
              72.595703,
              19.129492
            ],
            [
              72.595703,
              19.126758
            ],
            [
              72.59707,
              19.125391
            ],
            [
              72.59707,
              19.114453
            ],
            [
              72.598438,
              19.113086
            ],
            [
              72.598438,
              19.111719
            ],
            [
              72.599805,
              19.110352
            ],
            [
              72.603906,
              19.110352
            ],
            [
              72.606641,
              19.113086
            ],
            [
              72.606641,
              19.114453
            ],
            [
              72.608008,
              19.11582
            ],
            [
              72.608008,
              19.117188
            ],
            [
              72.610742,
              19.119922
            ],
            [
              72.610742,
              19.121289
            ],
            [
              72.612109,
              19.122656
            ],
            [
              72.608008,
              19.122656
            ],
            [
              72.606641,
              19.124023
            ],
            [
              72.602539,
              19.124023
            ],
            [
              72.601172,
              19.125391
            ],
            [
              72.599805,
              19.124023
            ],
            [
              72.595703,
              19.128125
            ],
            [
              72.595703,
              19.129492
            ]
          ]
        ]
      }
    },
    {
      "type": "Feature",
      "properties": {
        "spill_id": "sentinel_421",
        "confidence": 0.87
      },
      "geometry": {
        "type": "Polygon",
        "coordinates": [
          [
            [
              72.722852,
              19.136328
            ],
            [
              72.720117,
              19.133594
            ],
            [
              72.720117,
              19.130859
            ],
            [
              72.721484,
              19.129492
            ],
            [
              72.722852,
              19.129492
            ],
            [
              72.724219,
              19.128125
            ],
            [
              72.726953,
              19.128125
            ],
            [
              72.729688,
              19.130859
            ],
            [
              72.729688,
              19.136328
            ],
            [
              72.722852,
              19.136328
            ]
          ]
        ]
      }
    },
    {
      "type": "Feature",
      "properties": {
        "spill_id": "sentinel_421",
        "confidence": 0.87
      },
      "geometry": {
        "type": "Polygon",
        "coordinates": [
          [
            [
              72.643555,
              19.15
            ],
            [
              72.642187,
              19.141797
            ],
            [
              72.654492,
              19.118555
            ],
            [
              72.666797,
              19.107617
            ],
            [
              72.676367,
              19.10625
            ],
            [
              72.687305,
              19.089844
            ],
            [
              72.705078,
              19.077539
            ],
            [
              72.713281,
              19.063867
            ],
            [
              72.721484,
              19.059766
            ],
            [
              72.729688,
              19.061133
            ],
            [
              72.732422,
              19.063867
            ],
            [
              72.732422,
              19.078906
            ],
            [
              72.72832,
              19.083008
            ],
            [
              72.720117,
              19.085742
            ],
            [
              72.711914,
              19.09668
            ],
            [
              72.698242,
              19.100781
            ],
            [
              72.690039,
              19.100781
            ],
            [
              72.683203,
              19.10625
            ],
            [
              72.68457,
              19.11582
            ],
            [
              72.675,
              19.128125
            ],
            [
              72.670898,
              19.14043
            ],
            [
              72.670898,
              19.148633
            ],
            [
              72.643555,
              19.15
            ]
          ]
        ]
      }
    }
  ]
}