{
  "type": "FeatureCollection",
  "features": [
    {
      "type": "Feature",
      "properties": {
        "spill_id": "sentinel_530",
        "confidence": 0.91
      },
      "geometry": {
        "type": "Polygon",
        "coordinates": [
          [
            [
              72.661328,
              18.802734
            ],
            [
              72.659961,
              18.804102
            ],
            [
              72.659961,
              18.805469
            ],
            [
              72.658594,
              18.806836
            ],
            [
              72.654492,
              18.806836
            ],
            [
              72.653125,
              18.805469
            ],
            [
              72.647656,
              18.805469
            ],
            [
              72.647656,
              18.804102
            ],
            [
              72.646289,
              18.802734
            ],
            [
              72.647656,
              18.802734
            ],
            [
              72.649023,
              18.801367
            ],
            [
              72.659961,
              18.801367
            ],
            [
              72.661328,
              18.802734
            ]
          ]
        ]
      }
    },
    {
      "type": "Feature",
      "properties": {
        "spill_id": "sentinel_530",
        "confidence": 0.91
      },
      "geometry": {
        "type": "Polygon",
        "coordinates": [
          [
            [
              72.505469,
              18.817773
            ],
            [
              72.505469,
              18.815039
            ],
            [
              72.504102,
              18.813672
            ],
            [
              72.504102,
              18.808203
            ],
            [
              72.508203,
              18.804102
            ],
            [
              72.506836,
              18.802734
            ],
            [
              72.508203,
              18.802734
            ],
            [
              72.50957,
              18.801367
            ],
            [
              72.530078,
              18.801367
            ],
            [
              72.531445,
              18.802734
            ],
            [
              72.530078,
              18.804102
            ],
            [
              72.531445,
              18.805469
            ],
            [
              72.531445,
              18.810938
            ],
            [
              72.530078,
              18.812305
            ],
            [
              72.530078,
              18.815039
            ],
            [
              72.528711,
              18.815039
            ],
            [
              72.527344,
              18.816406
            ],
            [
              72.524609,
              18.816406
            ],
            [
              72.523242,
              18.817773
            ],
            [
              72.516406,
              18.817773
            ],
            [
              72.515039,
              18.816406
            ],
            [
              72.513672,
              18.816406
            ],
            [
              72.512305,
              18.815039
            ],
            [
              72.510938,
              18.815039
            ],
            [
              72.508203,
              18.817773
            ],
            [
              72.505469,
              18.817773
            ]
          ]
        ]
      }
    },
    {
      "type": "Feature",
      "properties": {
        "spill_id": "sentinel_530",
        "confidence": 0.91
      },
      "geometry": {
        "type": "Polygon",
        "coordinates": [
          [
            [
              72.5,
              18.865625
            ],
            [
              72.5,
              18.854688
            ],
            [
              72.502734,
              18.85332
            ],
            [
              72.502734,
              18.850586
            ],
            [
              72.505469,
              18.847852
            ],
            [
              72.510938,
              18.849219
            ],
            [
              72.517773,
              18.847852
            ],
            [
              72.520508,
              18.850586
            ],
            [
              72.527344,
              18.847852
            ],
            [
              72.532812,
              18.849219
            ],
            [
              72.53418,
              18.847852
            ],
            [
              72.535547,
              18.849219
            ],
            [
              72.539648,
              18.845117
            ],
            [
              72.539648,
              18.842383
            ],
            [
              72.54375,
              18.842383
            ],
            [
              72.549219,
              18.839648
            ],
            [
              72.554688,
              18.841016
            ],
            [
              72.562891,
              18.839648
            ],
            [
              72.568359,
              18.842383
            ],
            [
              72.569727,
              18.845117
            ],
            [
              72.566992,
              18.851953
            ],
            [
              72.551953,
              18.857422
            ],
            [
              72.549219,
              18.860156
            ],
            [
              72.549219,
              18.865625
            ],
            [
              72.547852,
              18.866992
            ],
            [
              72.541016,
              18.866992
            ],
            [
              72.539648,
              18.865625
            ],
            [
              72.536914,
              18.866992
            ],
            [
              72.53418,
              18.864258
            ],
            [
              72.530078,
              18.864258
            ],
            [
              72.528711,
              18.865625
            ],
            [
              72.531445,
              18.87793
            ],
            [
              72.519141,
              18.87793
            ],
            [
              72.510938,
              18.869727
            ],
            [
              72.505469,
              18.869727
            ],
            [
              72.5,
              18.865625
            ]
          ]
        ]
      }
    },
    {
      "type": "Feature",
      "properties": {
        "spill_id": "sentinel_530",
        "confidence": 0.91
      },
      "geometry": {
        "type": "Polygon",
        "coordinates": [
          [
            [
              72.562891,
              18.924414
            ],
            [
              72.558789,
              18.924414
            ],
            [
              72.557422,
              18.925781
            ],
            [
              72.557422,
              18.93125
            ],
            [
              72.554688,
              18.932617
            ],
            [
              72.549219,
              18.927148
            ],
            [
              72.547852,
              18.928516
            ],
            [
              72.54375,
              18.928516
            ],
            [
              72.531445,
              18.923047
            ],
            [
              72.523242,
              18.923047
            ],
            [
              72.521875,
              18.92168
            ],
            [
              72.515039,
              18.92168
            ],
            [
              72.512305,
              18.924414
            ],
            [
              72.512305,
              18.929883
            ],
            [
              72.510938,
              18.93125
            ],
            [
              72.504102,
              18.928516
            ],
            [
              72.5,
              18.929883
            ],
            [
              72.5,
              18.916211
            ],
            [
              72.501367,
              18.914844
            ],
            [
              72.5,
              18.905273
            ],
            [
              72.5,
              18.908008
            ],
            [
              72.505469,
              18.910742
            ],
            [
              72.513672,
              18.908008
            ],
            [
              72.517773,
              18.903906
            ],
            [
              72.521875,
              18.903906
            ],
            [
              72.530078,
              18.913477
            ],
            [
              72.535547,
              18.913477
            ],
            [
              72.536914,
              18.912109
            ],
            [
              72.546484,
              18.912109
            ],
            [
              72.549219,
              18.913477
            ],
            [
              72.551953,
              18.909375
            ],
            [
              72.554688,
              18.909375
            ],
            [
              72.562891,
              18.917578
            ],
            [
              72.562891,
              18.924414
            ]
          ]
        ]
      }
    },
    {
      "type": "Feature",
      "properties": {
        "spill_id": "sentinel_530",
        "confidence": 0.91
      },
      "geometry": {
        "type": "Polygon",
        "coordinates": [
          [
            [
              72.5,
              19.15
            ],
            [
              72.5,
              18.994141
            ],
            [
              72.520508,
              18.980469
            ],
            [
              72.539648,
              19.016016
            ],
            [
              72.561523,
              19.014648
            ],
            [
              72.598438,
              18.992773
            ],
            [
              72.59707,
              18.96543
            ],
            [
              72.643555,
              18.942188
            ],
            [
              72.627148,
              18.916211
            ],
            [
              72.594336,
              18.925781
            ],
            [
              72.579297,
              18.909375
            ],
            [
              72.586133,
              18.888867
            ],
            [
              72.613477,
              18.87793
            ],
            [
              72.610742,
              18.813672
            ],
            [
              72.633984,
              18.80957
            ],
            [
              72.625781,
              18.830078
            ],
            [
              72.647656,
              18.856055
            ],
            [
              72.696875,
              18.856055
            ],
            [
              72.761133,
              18.801367
            ],
            [
              72.848633,
              18.810938
            ],
            [
              72.848633,
              19.15
            ],
            [
              72.5,
              19.15
            ]
          ]
        ]
      }
    }
  ]
}