{
  "type": "FeatureCollection",
  "features": [
    {
      "type": "Feature",
      "properties": {
        "spill_id": "sentinel_732",
        "confidence": 0.92
      },
      "geometry": {
        "type": "Polygon",
        "coordinates": [
          [
            [
              72.732422,
              18.977734
            ],
            [
              72.729688,
              18.980469
            ],
            [
              72.722852,
              18.980469
            ],
            [
              72.721484,
              18.979102
            ],
            [
              72.721484,
              18.976367
            ],
            [
              72.717383,
              18.972266
            ],
            [
              72.717383,
              18.970898
            ],
            [
              72.720117,
              18.968164
            ],
            [
              72.721484,
              18.968164
            ],
            [
              72.722852,
              18.969531
            ],
            [
              72.724219,
              18.969531
            ],
            [
              72.725586,
              18.970898
            ],
            [
              72.72832,
              18.970898
            ],
            [
              72.731055,
              18.973633
            ],
            [
              72.731055,
              18.975
            ],
            [
              72.732422,
              18.976367
            ],
            [
              72.732422,
              18.977734
            ]
          ]
        ]
      }
    },
    {
      "type": "Feature",
      "properties": {
        "spill_id": "sentinel_732",
        "confidence": 0.92
      },
      "geometry": {
        "type": "Polygon",
        "coordinates": [
          [
            [
              72.5,
              19.15
            ],
            [
              72.5,
              18.801367
            ],
            [
              72.702344,
              18.802734
            ],
            [
              72.569727,
              18.902539
            ],
            [
              72.556055,
              18.944922
            ],
            [
              72.582031,
              18.962695
            ],
            [
              72.670898,
              18.906641
            ],
            [
              72.700977,
              18.832812
            ],
            [
              72.774805,
              18.85332
            ],
            [
              72.747461,
              18.802734
            ],
            [
              72.793945,
              18.801367
            ],
            [
              72.821289,
              18.827344
            ],
            [
              72.848633,
              18.804102
            ],
            [
              72.848633,
              19.15
            ],
            [
              72.657227,
              19.15
            ],
            [
              72.731055,
              19.095312
            ],
            [
              72.700977,
              19.077539
            ],
            [
              72.769336,
              18.943555
            ],
            [
              72.735156,
              18.908008
            ],
            [
              72.672266,
              18.953125
            ],
            [
              72.661328,
              19.051562
            ],
            [
              72.535547,
              19.107617
            ],
            [
              72.599805,
              19.137695
            ],
            [
              72.643555,
              19.103516
            ],
            [
              72.646289,
              19.15
            ],
            [
              72.5,
              19.15
            ]
          ]
        ]
      }
    }
  ]
}