{
  "type": "FeatureCollection",
  "features": [
    {
      "type": "Feature",
      "properties": {
        "spill_id": "sentinel_555",
        "confidence": 0.63
      },
      "geometry": {
        "type": "Polygon",
        "coordinates": [
          [
            [
              72.5,
              18.838281
            ],
            [
              72.5,
              18.820508
            ],
            [
              72.504102,
              18.820508
            ],
            [
              72.505469,
              18.819141
            ],
            [
              72.506836,
              18.819141
            ],
            [
              72.50957,
              18.821875
            ],
            [
              72.50957,
              18.825977
            ],
            [
              72.510938,
              18.827344
            ],
            [
              72.510938,
              18.830078
            ],
            [
              72.512305,
              18.831445
            ],
            [
              72.512305,
              18.83418
            ],
            [
              72.506836,
              18.83418
            ],
            [
              72.502734,
              18.838281
            ],
            [
              72.5,
              18.838281
            ]
          ]
        ]
      }
    }
  ]
}