{
  "type": "FeatureCollection",
  "features": [
    {
      "type": "Feature",
      "properties": {
        "spill_id": "sentinel_333",
        "confidence": 0.87
      },
      "geometry": {
        "type": "Polygon",
        "coordinates": [
          [
            [
              72.81582,
              18.879297
            ],
            [
              72.81582,
              18.87793
            ],
            [
              72.817187,
              18.87793
            ],
            [
              72.818555,
              18.876562
            ],
            [
              72.825391,
              18.876562
            ],
            [
              72.826758,
              18.875195
            ],
            [
              72.828125,
              18.876562
            ],
            [
              72.829492,
              18.875195
            ],
            [
              72.829492,
              18.879297
            ],
            [
              72.825391,
              18.883398
            ],
            [
              72.821289,
              18.883398
            ],
            [
              72.818555,
              18.880664
            ],
            [
              72.817187,
              18.880664
            ],
            [
              72.81582,
              18.879297
            ]
          ]
        ]
      }
    },
    {
      "type": "Feature",
      "properties": {
        "spill_id": "sentinel_333",
        "confidence": 0.87
      },
      "geometry": {
        "type": "Polygon",
        "coordinates": [
          [
            [
              72.5,
              18.98457
            ],
            [
              72.5,
              18.801367
            ],
            [
              72.848633,
              18.801367
            ],
            [
              72.848633,
              18.87793
            ],
            [
              72.824023,
              18.856055
            ],
            [
              72.825391,
              18.842383
            ],
            [
              72.791211,
              18.854688
            ],
            [
              72.770703,
              18.850586
            ],
            [
              72.725586,
              18.872461
            ],
            [
              72.724219,
              18.888867
            ],
            [
              72.680469,
              18.924414
            ],
            [
              72.680469,
              18.933984
            ],
            [
              72.714648,
              18.942188
            ],
            [
              72.695508,
              18.961328
            ],
            [
              72.698242,
              18.980469
            ],
            [
              72.669531,
              18.976367
            ],
            [
              72.650391,
              18.959961
            ],
            [
              72.608008,
              18.959961
            ],
            [
              72.588867,
              18.938086
            ],
            [
              72.530078,
              18.917578
            ],
            [
              72.506836,
              18.925781
            ],
            [
              72.524609,
              18.938086
            ],
            [
              72.510938,
              18.951758
            ],
            [
              72.550586,
              18.957227
            ],
            [
              72.554688,
              18.966797
            ],
            [
              72.5,
              18.98457
            ]
          ]
        ]
      }
    },
    {
      "type": "Feature",
      "properties": {
        "spill_id": "sentinel_333",
        "confidence": 0.87
      },
      "geometry": {
        "type": "Polygon",
        "coordinates": [
          [
            [
              72.804883,
              19.15
            ],
            [
              72.804883,
              19.148633
            ],
            [
              72.808984,
              19.144531
            ],
            [
              72.808984,
              19.143164
            ],
            [
              72.811719,
              19.14043
            ],
            [
              72.824023,
              19.14043
            ],
            [
              72.825391,
              19.139062
            ],
            [
              72.826758,
              19.14043
            ],
            [
              72.848633,
              19.14043
            ],
            [
              72.848633,
              19.15
            ],
            [
              72.804883,
              19.15
            ]
          ]
        ]
      }
    },
    {
      "type": "Feature",
      "properties": {
        "spill_id": "sentinel_333",
        "confidence": 0.87
      },
      "geometry": {
        "type": "Polygon",
        "coordinates": [
          [
            [
              72.5875,
              19.15
            ],
            [
              72.592969,
              19.144531
            ],
            [
              72.592969,
              19.143164
            ],
            [
              72.594336,
              19.143164
            ],
            [
              72.595703,
              19.141797
            ],
            [
              72.598438,
              19.141797
            ],
            [
              72.599805,
              19.14043
            ],
            [
              72.620312,
              19.14043
            ],
            [
              72.624414,
              19.143164
            ],
            [
              72.627148,
              19.143164
            ],
            [
              72.632617,
              19.147266
            ],
            [
              72.636719,
              19.147266
            ],
            [
              72.636719,
              19.148633
            ],
            [
              72.638086,
              19.15
            ],
            [
              72.639453,
              19.15
            ],
            [
              72.5875,
              19.15
            ]
          ]
        ]
      }
    }
  ]
}