{
  "type": "FeatureCollection",
  "features": [
    {
      "type": "Feature",
      "properties": {
        "spill_id": "sentinel_692",
        "confidence": 0.78
      },
      "geometry": {
        "type": "Polygon",
        "coordinates": [
          [
            [
              72.572461,
              18.806836
            ],
            [
              72.571094,
              18.806836
            ],
            [
              72.569727,
              18.808203
            ],
            [
              72.568359,
              18.808203
            ],
            [
              72.566992,
              18.806836
            ],
            [
              72.562891,
              18.806836
            ],
            [
              72.561523,
              18.805469
            ],
            [
              72.560156,
              18.805469
            ],
            [
              72.558789,
              18.804102
            ],
            [
              72.557422,
              18.804102
            ],
            [
              72.557422,
              18.802734
            ],
            [
              72.558789,
              18.801367
            ],
            [
              72.572461,
              18.801367
            ],
            [
              72.572461,
              18.806836
            ]
          ]
        ]
      }
    },
    {
      "type": "Feature",
      "properties": {
        "spill_id": "sentinel_692",
        "confidence": 0.78
      },
      "geometry": {
        "type": "Polygon",
        "coordinates": [
          [
            [
              72.5,
              18.838281
            ],
            [
              72.5,
              18.827344
            ],
            [
              72.504102,
              18.827344
            ],
            [
              72.505469,
              18.825977
            ],
            [
              72.508203,
              18.825977
            ],
            [
              72.50957,
              18.827344
            ],
            [
              72.510938,
              18.827344
            ],
            [
              72.512305,
              18.828711
            ],
            [
              72.513672,
              18.828711
            ],
            [
              72.50957,
              18.832812
            ],
            [
              72.506836,
              18.832812
            ],
            [
              72.505469,
              18.83418
            ],
            [
              72.504102,
              18.83418
            ],
            [
              72.5,
              18.838281
            ]
          ]
        ]
      }
    },
    {
      "type": "Feature",
      "properties": {
        "spill_id": "sentinel_692",
        "confidence": 0.78
      },
      "geometry": {
        "type": "Polygon",
        "coordinates": [
          [
            [
              72.755664,
              18.847852
            ],
            [
              72.754297,
              18.846484
            ],
            [
              72.751562,
              18.846484
            ],
            [
              72.748828,
              18.84375
            ],
            [
              72.747461,
              18.84375
            ],
            [
              72.747461,
              18.842383
            ],
            [
              72.746094,
              18.841016
            ],
            [
              72.747461,
              18.839648
            ],
            [
              72.747461,
              18.836914
            ],
            [
              72.751562,
              18.830078
            ],
            [
              72.751562,
              18.827344
            ],
            [
              72.75293,
              18.825977
            ],
            [
              72.75293,
              18.820508
            ],
            [
              72.754297,
              18.819141
            ],
            [
              72.754297,
              18.817773
            ],
            [
              72.758398,
              18.813672
            ],
            [
              72.759766,
              18.813672
            ],
            [
              72.761133,
              18.812305
            ],
            [
              72.765234,
              18.812305
            ],
            [
              72.766602,
              18.816406
            ],
            [
              72.770703,
              18.821875
            ],
            [
              72.770703,
              18.824609
            ],
            [
              72.778906,
              18.835547
            ],
            [
              72.778906,
              18.841016
            ],
            [
              72.776172,
              18.84375
            ],
            [
              72.773438,
              18.84375
            ],
            [
              72.77207,
              18.845117
            ],
            [
              72.769336,
              18.845117
            ],
            [
              72.767969,
              18.846484
            ],
            [
              72.7625,
              18.846484
            ],
            [
              72.761133,
              18.847852
            ],
            [
              72.755664,
              18.847852
            ]
          ]
        ]
      }
    },
    {
      "type": "Feature",
      "properties": {
        "spill_id": "sentinel_692",
        "confidence": 0.78
      },
      "geometry": {
        "type": "Polygon",
        "coordinates": [
          [
            [
              72.685938,
              18.871094
            ],
            [
              72.681836,
              18.861523
            ],
            [
              72.676367,
              18.854688
            ],
            [
              72.676367,
              18.850586
            ],
            [
              72.681836,
              18.839648
            ],
            [
              72.681836,
              18.820508
            ],
            [
              72.683203,
              18.819141
            ],
            [
              72.681836,
              18.805469
            ],
            [
              72.679102,
              18.801367
            ],
            [
              72.690039,
              18.802734
            ],
            [
              72.726953,
              18.801367
            ],
            [
              72.729688,
              18.802734
            ],
            [
              72.724219,
              18.80957
            ],
            [
              72.722852,
              18.816406
            ],
            [
              72.707812,
              18.831445
            ],
            [
              72.707812,
              18.838281
            ],
            [
              72.713281,
              18.84375
            ],
            [
              72.724219,
              18.846484
            ],
            [
              72.726953,
              18.851953
            ],
            [
              72.724219,
              18.854688
            ],
            [
              72.720117,
              18.854688
            ],
            [
              72.703711,
              18.862891
            ],
            [
              72.696875,
              18.871094
            ],
            [
              72.690039,
              18.872461
            ],
            [
              72.685938,
              18.871094
            ]
          ]
        ]
      }
    },
    {
      "type": "Feature",
      "properties": {
        "spill_id": "sentinel_692",
        "confidence": 0.78
      },
      "geometry": {
        "type": "Polygon",
        "coordinates": [
          [
            [
              72.735156,
              18.891602
            ],
            [
              72.731055,
              18.8875
            ],
            [
              72.72832,
              18.882031
            ],
            [
              72.729688,
              18.880664
            ],
            [
              72.729688,
              18.871094
            ],
            [
              72.72832,
              18.868359
            ],
            [
              72.731055,
              18.862891
            ],
            [
              72.736523,
              18.858789
            ],
            [
              72.740625,
              18.858789
            ],
            [
              72.741992,
              18.857422
            ],
            [
              72.747461,
              18.857422
            ],
            [
              72.748828,
              18.856055
            ],
            [
              72.75293,
              18.856055
            ],
            [
              72.755664,
              18.85332
            ],
            [
              72.758398,
              18.85332
            ],
            [
              72.7625,
              18.860156
            ],
            [
              72.7625,
              18.862891
            ],
            [
              72.759766,
              18.865625
            ],
            [
              72.758398,
              18.865625
            ],
            [
              72.744727,
              18.879297
            ],
            [
              72.744727,
              18.8875
            ],
            [
              72.746094,
              18.888867
            ],
            [
              72.746094,
              18.891602
            ],
            [
              72.735156,
              18.891602
            ]
          ]
        ]
      }
    },
    {
      "type": "Feature",
      "properties": {
        "spill_id": "sentinel_692",
        "confidence": 0.78
      },
      "geometry": {
        "type": "Polygon",
        "coordinates": [
          [
            [
              72.643555,
              18.947656
            ],
            [
              72.646289,
              18.938086
            ],
            [
              72.673633,
              18.928516
            ],
            [
              72.688672,
              18.929883
            ],
            [
              72.717383,
              18.943555
            ],
            [
              72.732422,
              18.943555
            ],
            [
              72.750195,
              18.933984
            ],
            [
              72.788477,
              18.92168
            ],
            [
              72.80625,
              18.920312
            ],
            [
              72.814453,
              18.923047
            ],
            [
              72.808984,
              18.938086
            ],
            [
              72.766602,
              18.953125
            ],
            [
              72.747461,
              18.951758
            ],
            [
              72.713281,
              18.970898
            ],
            [
              72.696875,
              18.976367
            ],
            [
              72.679102,
              18.973633
            ],
            [
              72.649023,
              18.954492
            ],
            [
              72.643555,
              18.947656
            ]
          ]
        ]
      }
    },
    {
      "type": "Feature",
      "properties": {
        "spill_id": "sentinel_692",
        "confidence": 0.78
      },
      "geometry": {
        "type": "Polygon",
        "coordinates": [
          [
            [
              72.843164,
              19.144531
            ],
            [
              72.839062,
              19.14043
            ],
            [
              72.839062,
              19.139062
            ],
            [
              72.836328,
              19.134961
            ],
            [
              72.836328,
              19.132227
            ],
            [
              72.834961,
              19.130859
            ],
            [
              72.834961,
              19.126758
            ],
            [
              72.833594,
              19.125391
            ],
            [
              72.833594,
              19.124023
            ],
            [
              72.834961,
              19.122656
            ],
            [
              72.834961,
              19.119922
            ],
            [
              72.836328,
              19.118555
            ],
            [
              72.836328,
              19.117188
            ],
            [
              72.837695,
              19.11582
            ],
            [
              72.837695,
              19.114453
            ],
            [
              72.84043,
              19.114453
            ],
            [
              72.844531,
              19.111719
            ],
            [
              72.848633,
              19.111719
            ],
            [
              72.848633,
              19.144531
            ],
            [
              72.843164,
              19.144531
            ]
          ]
        ]
      }
    },
    {
      "type": "Feature",
      "properties": {
        "spill_id": "sentinel_692",
        "confidence": 0.78
      },
      "geometry": {
        "type": "Polygon",
        "coordinates": [
          [
            [
              72.569727,
              19.15
            ],
            [
              72.572461,
              19.139062
            ],
            [
              72.5875,
              19.117188
            ],
            [
              72.579297,
              19.111719
            ],
            [
              72.579297,
              19.10625
            ],
            [
              72.605273,
              19.088477
            ],
            [
              72.614844,
              19.089844
            ],
            [
              72.614844,
              19.104883
            ],
            [
              72.625781,
              19.113086
            ],
            [
              72.63125,
              19.114453
            ],
            [
              72.642187,
              19.111719
            ],
            [
              72.651758,
              19.118555
            ],
            [
              72.677734,
              19.11582
            ],
            [
              72.685938,
              19.130859
            ],
            [
              72.685938,
              19.137695
            ],
            [
              72.680469,
              19.15
            ],
            [
              72.569727,
              19.15
            ]
          ]
        ]
      }
    },
    {
      "type": "Feature",
      "properties": {
        "spill_id": "sentinel_692",
        "confidence": 0.78
      },
      "geometry": {
        "type": "Polygon",
        "coordinates": [
          [
            [
              72.5,
              19.147266
            ],
            [
              72.5,
              19.100781
            ],
            [
              72.505469,
              19.100781
            ],
            [
              72.512305,
              19.104883
            ],
            [
              72.516406,
              19.104883
            ],
            [
              72.521875,
              19.107617
            ],
            [
              72.528711,
              19.114453
            ],
            [
              72.541016,
              19.11582
            ],
            [
              72.545117,
              19.121289
            ],
            [
              72.545117,
              19.128125
            ],
            [
              72.54375,
              19.129492
            ],
            [
              72.542383,
              19.136328
            ],
            [
              72.539648,
              19.139062
            ],
            [
              72.539648,
              19.144531
            ],
            [
              72.536914,
              19.15
            ],
            [
              72.502734,
              19.15
            ],
            [
              72.5,
              19.147266
            ]
          ]
        ]
      }
    }
  ]
}