{
  "type": "FeatureCollection",
  "features": [
    {
      "type": "Feature",
      "properties": {
        "spill_id": "sentinel_789",
        "confidence": 0.79
      },
      "geometry": {
        "type": "Polygon",
        "coordinates": [
          [
            [
              72.675,
              18.906641
            ],
            [
              72.668164,
              18.906641
            ],
            [
              72.666797,
              18.908008
            ],
            [
              72.66543,
              18.908008
            ],
            [
              72.664062,
              18.906641
            ],
            [
              72.662695,
              18.906641
            ],
            [
              72.659961,
              18.903906
            ],
            [
              72.659961,
              18.901172
            ],
            [
              72.658594,
              18.899805
            ],
            [
              72.658594,
              18.895703
            ],
            [
              72.659961,
              18.894336
            ],
            [
              72.659961,
              18.891602
            ],
            [
              72.661328,
              18.890234
            ],
            [
              72.669531,
              18.890234
            ],
            [
              72.670898,
              18.891602
            ],
            [
              72.672266,
              18.891602
            ],
            [
              72.673633,
              18.892969
            ],
            [
              72.673633,
              18.894336
            ],
            [
              72.675,
              18.895703
            ],
            [
              72.675,
              18.89707
            ],
            [
              72.676367,
              18.898438
            ],
            [
              72.676367,
              18.905273
            ],
            [
              72.675,
              18.906641
            ]
          ]
        ]
      }
    },
    {
      "type": "Feature",
      "properties": {
        "spill_id": "sentinel_789",
        "confidence": 0.79
      },
      "geometry": {
        "type": "Polygon",
        "coordinates": [
          [
            [
              72.565625,
              19.15
            ],
            [
              72.53418,
              19.15
            ],
            [
              72.524609,
              19.137695
            ],
            [
              72.520508,
              19.128125
            ],
            [
              72.520508,
              19.10625
            ],
            [
              72.519141,
              19.104883
            ],
            [
              72.519141,
              19.09668
            ],
            [
              72.523242,
              19.091211
            ],
            [
              72.530078,
              19.091211
            ],
            [
              72.542383,
              19.099414
            ],
            [
              72.546484,
              19.113086
            ],
            [
              72.551953,
              19.121289
            ],
            [
              72.551953,
              19.126758
            ],
            [
              72.554688,
              19.133594
            ],
            [
              72.557422,
              19.136328
            ],
            [
              72.565625,
              19.139062
            ],
            [
              72.566992,
              19.141797
            ],
            [
              72.565625,
              19.15
            ]
          ]
        ]
      }
    }
  ]
}