{
  "type": "FeatureCollection",
  "features": [
    {
      "type": "Feature",
      "properties": {
        "spill_id": "sentinel_38",
        "confidence": 0.8
      },
      "geometry": {
        "type": "Polygon",
        "coordinates": [
          [
            [
              72.761133,
              18.882031
            ],
            [
              72.777539,
              18.865625
            ],
            [
              72.800781,
              18.865625
            ],
            [
              72.802148,
              18.866992
            ],
            [
              72.810352,
              18.864258
            ],
            [
              72.822656,
              18.871094
            ],
            [
              72.843164,
              18.872461
            ],
            [
              72.848633,
              18.876562
            ],
            [
              72.848633,
              18.880664
            ],
            [
              72.839062,
              18.884766
            ],
            [
              72.798047,
              18.883398
            ],
            [
              72.79668,
              18.884766
            ],
            [
              72.767969,
              18.886133
            ],
            [
              72.761133,
              18.882031
            ]
          ]
        ]
      }
    },
    {
      "type": "Feature",
      "properties": {
        "spill_id": "sentinel_38",
        "confidence": 0.8
      },
      "geometry": {
        "type": "Polygon",
        "coordinates": [
          [
            [
              72.675,
              18.928516
            ],
            [
              72.659961,
              18.932617
            ],
            [
              72.616211,
              18.914844
            ],
            [
              72.575195,
              18.916211
            ],
            [
              72.569727,
              18.909375
            ],
            [
              72.541016,
              18.923047
            ],
            [
              72.535547,
              18.895703
            ],
            [
              72.519141,
              18.886133
            ],
            [
              72.515039,
              18.862891
            ],
            [
              72.538281,
              18.854688
            ],
            [
              72.545117,
              18.838281
            ],
            [
              72.504102,
              18.819141
            ],
            [
              72.5,
              18.801367
            ],
            [
              72.521875,
              18.801367
            ],
            [
              72.536914,
              18.810938
            ],
            [
              72.566992,
              18.808203
            ],
            [
              72.592969,
              18.821875
            ],
            [
              72.680469,
              18.84375
            ],
            [
              72.685938,
              18.854688
            ],
            [
              72.650391,
              18.866992
            ],
            [
              72.633984,
              18.851953
            ],
            [
              72.602539,
              18.838281
            ],
            [
              72.566992,
              18.832812
            ],
            [
              72.557422,
              18.839648
            ],
            [
              72.560156,
              18.849219
            ],
            [
              72.586133,
              18.857422
            ],
            [
              72.617578,
              18.890234
            ],
            [
              72.658594,
              18.912109
            ],
            [
              72.675,
              18.928516
            ]
          ]
        ]
      }
    },
    {
      "type": "Feature",
      "properties": {
        "spill_id": "sentinel_38",
        "confidence": 0.8
      },
      "geometry": {
        "type": "Polygon",
        "coordinates": [
          [
            [
              72.54375,
              18.943555
            ],
            [
              72.542383,
              18.944922
            ],
            [
              72.538281,
              18.944922
            ],
            [
              72.536914,
              18.946289
            ],
            [
              72.527344,
              18.946289
            ],
            [
              72.525977,
              18.944922
            ],
            [
              72.520508,
              18.944922
            ],
            [
              72.519141,
              18.943555
            ],
            [
              72.512305,
              18.943555
            ],
            [
              72.510938,
              18.942188
            ],
            [
              72.502734,
              18.942188
            ],
            [
              72.501367,
              18.94082
            ],
            [
              72.5,
              18.94082
            ],
            [
              72.5,
              18.936719
            ],
            [
              72.501367,
              18.936719
            ],
            [
              72.502734,
              18.935352
            ],
            [
              72.504102,
              18.935352
            ],
            [
              72.506836,
              18.932617
            ],
            [
              72.50957,
              18.932617
            ],
            [
              72.510938,
              18.93125
            ],
            [
              72.515039,
              18.93125
            ],
            [
              72.516406,
              18.932617
            ],
            [
              72.532812,
              18.932617
            ],
            [
              72.53418,
              18.93125
            ],
            [
              72.539648,
              18.93125
            ],
            [
              72.54375,
              18.935352
            ],
            [
              72.54375,
              18.943555
            ]
          ]
        ]
      }
    },
    {
      "type": "Feature",
      "properties": {
        "spill_id": "sentinel_38",
        "confidence": 0.8
      },
      "geometry": {
        "type": "Polygon",
        "coordinates": [
          [
            [
              72.848633,
              18.981836
            ],
            [
              72.839062,
              18.983203
            ],
            [
              72.814453,
              18.973633
            ],
            [
              72.811719,
              18.977734
            ],
            [
              72.814453,
              18.987305
            ],
            [
              72.810352,
              18.988672
            ],
            [
              72.791211,
              18.979102
            ],
            [
              72.75293,
              18.977734
            ],
            [
              72.746094,
              18.962695
            ],
            [
              72.720117,
              18.949023
            ],
            [
              72.726953,
              18.93125
            ],
            [
              72.725586,
              18.92168
            ],
            [
              72.716016,
              18.914844
            ],
            [
              72.690039,
              18.908008
            ],
            [
              72.677734,
              18.895703
            ],
            [
              72.677734,
              18.886133
            ],
            [
              72.725586,
              18.8875
            ],
            [
              72.741992,
              18.898438
            ],
            [
              72.757031,
              18.901172
            ],
            [
              72.766602,
              18.912109
            ],
            [
              72.783008,
              18.920312
            ],
            [
              72.807617,
              18.92168
            ],
            [
              72.848633,
              18.938086
            ],
            [
              72.848633,
              18.981836
            ]
          ]
        ]
      }
    },
    {
      "type": "Feature",
      "properties": {
        "spill_id": "sentinel_38",
        "confidence": 0.8
      },
      "geometry": {
        "type": "Polygon",
        "coordinates": [
          [
            [
              72.763867,
              19.020117
            ],
            [
              72.75293,
              19.020117
            ],
            [
              72.751562,
              19.01875
            ],
            [
              72.743359,
              19.01875
            ],
            [
              72.741992,
              19.020117
            ],
            [
              72.737891,
              19.020117
            ],
            [
              72.733789,
              19.017383
            ],
            [
              72.733789,
              19.013281
            ],
            [
              72.732422,
              19.011914
            ],
            [
              72.732422,
              19.006445
            ],
            [
              72.731055,
              19.005078
            ],
            [
              72.731055,
              18.995508
            ],
            [
              72.72832,
              18.991406
            ],
            [
              72.72832,
              18.988672
            ],
            [
              72.732422,
              18.98457
            ],
            [
              72.737891,
              18.981836
            ],
            [
              72.739258,
              18.983203
            ],
            [
              72.744727,
              18.983203
            ],
            [
              72.751562,
              18.988672
            ],
            [
              72.75293,
              18.988672
            ],
            [
              72.75293,
              18.990039
            ],
            [
              72.757031,
              18.994141
            ],
            [
              72.761133,
              19.005078
            ],
            [
              72.766602,
              19.011914
            ],
            [
              72.766602,
              19.017383
            ],
            [
              72.763867,
              19.020117
            ]
          ]
        ]
      }
    },
    {
      "type": "Feature",
      "properties": {
        "spill_id": "sentinel_38",
        "confidence": 0.8
      },
      "geometry": {
        "type": "Polygon",
        "coordinates": [
          [
            [
              72.688672,
              19.084375
            ],
            [
              72.685938,
              19.087109
            ],
            [
              72.681836,
              19.088477
            ],
            [
              72.670898,
              19.084375
            ],
            [
              72.66543,
              19.078906
            ],
            [
              72.661328,
              19.07207
            ],
            [
              72.653125,
              19.065234
            ],
            [
              72.650391,
              19.065234
            ],
            [
              72.642187,
              19.059766
            ],
            [
              72.632617,
              19.058398
            ],
            [
              72.63125,
              19.057031
            ],
            [
              72.63125,
              19.048828
            ],
            [
              72.635352,
              19.040625
            ],
            [
              72.643555,
              19.041992
            ],
            [
              72.653125,
              19.050195
            ],
            [
              72.661328,
              19.05293
            ],
            [
              72.670898,
              19.0625
            ],
            [
              72.673633,
              19.0625
            ],
            [
              72.677734,
              19.058398
            ],
            [
              72.685938,
              19.058398
            ],
            [
              72.688672,
              19.061133
            ],
            [
              72.690039,
              19.065234
            ],
            [
              72.687305,
              19.073438
            ],
            [
              72.688672,
              19.084375
            ]
          ]
        ]
      }
    },
    {
      "type": "Feature",
      "properties": {
        "spill_id": "sentinel_38",
        "confidence": 0.8
      },
      "geometry": {
        "type": "Polygon",
        "coordinates": [
          [
            [
              72.70918,
              19.15
            ],
            [
              72.70918,
              19.145898
            ],
            [
              72.710547,
              19.145898
            ],
            [
              72.711914,
              19.144531
            ],
            [
              72.713281,
              19.144531
            ],
            [
              72.714648,
              19.143164
            ],
            [
              72.714648,
              19.141797
            ],
            [
              72.716016,
              19.14043
            ],
            [
              72.716016,
              19.139062
            ],
            [
              72.717383,
              19.137695
            ],
            [
              72.717383,
              19.136328
            ],
            [
              72.71875,
              19.134961
            ],
            [
              72.71875,
              19.133594
            ],
            [
              72.720117,
              19.133594
            ],
            [
              72.721484,
              19.132227
            ],
            [
              72.722852,
              19.133594
            ],
            [
              72.722852,
              19.134961
            ],
            [
              72.724219,
              19.136328
            ],
            [
              72.724219,
              19.139062
            ],
            [
              72.725586,
              19.14043
            ],
            [
              72.725586,
              19.143164
            ],
            [
              72.726953,
              19.144531
            ],
            [
              72.726953,
              19.145898
            ],
            [
              72.725586,
              19.147266
            ],
            [
              72.725586,
              19.15
            ],
            [
              72.70918,
              19.15
            ]
          ]
        ]
      }
    }
  ]
}