{
  "type": "FeatureCollection",
  "features": [
    {
      "type": "Feature",
      "properties": {
        "spill_id": "sentinel_776",
        "confidence": 0.86
      },
      "geometry": {
        "type": "Polygon",
        "coordinates": [
          [
            [
              72.549219,
              18.835547
            ],
            [
              72.546484,
              18.835547
            ],
            [
              72.545117,
              18.83418
            ],
            [
              72.535547,
              18.83418
            ],
            [
              72.53418,
              18.832812
            ],
            [
              72.525977,
              18.842383
            ],
            [
              72.521875,
              18.845117
            ],
            [
              72.517773,
              18.845117
            ],
            [
              72.516406,
              18.84375
            ],
            [
              72.516406,
              18.839648
            ],
            [
              72.513672,
              18.83418
            ],
            [
              72.50957,
              18.831445
            ],
            [
              72.506836,
              18.831445
            ],
            [
              72.50957,
              18.825977
            ],
            [
              72.50957,
              18.823242
            ],
            [
              72.517773,
              18.817773
            ],
            [
              72.513672,
              18.813672
            ],
            [
              72.512305,
              18.813672
            ],
            [
              72.510938,
              18.810938
            ],
            [
              72.510938,
              18.804102
            ],
            [
              72.513672,
              18.801367
            ],
            [
              72.519141,
              18.801367
            ],
            [
              72.523242,
              18.808203
            ],
            [
              72.523242,
              18.813672
            ],
            [
              72.524609,
              18.816406
            ],
            [
              72.53418,
              18.823242
            ],
            [
              72.545117,
              18.827344
            ],
            [
              72.547852,
              18.830078
            ],
            [
              72.549219,
              18.835547
            ]
          ]
        ]
      }
    },
    {
      "type": "Feature",
      "properties": {
        "spill_id": "sentinel_776",
        "confidence": 0.86
      },
      "geometry": {
        "type": "Polygon",
        "coordinates": [
          [
            [
              72.579297,
              19.15
            ],
            [
              72.571094,
              19.128125
            ],
            [
              72.586133,
              19.095312
            ],
            [
              72.5875,
              19.020117
            ],
            [
              72.599805,
              18.98457
            ],
            [
              72.594336,
              18.962695
            ],
            [
              72.566992,
              18.932617
            ],
            [
              72.560156,
              18.895703
            ],
            [
              72.525977,
              18.880664
            ],
            [
              72.525977,
              18.865625
            ],
            [
              72.556055,
              18.842383
            ],
            [
              72.550586,
              18.812305
            ],
            [
              72.561523,
              18.801367
            ],
            [
              72.848633,
              18.801367
            ],
            [
              72.848633,
              19.15
            ],
            [
              72.579297,
              19.15
            ]
          ]
        ]
      }
    }
  ]
}