{
  "type": "FeatureCollection",
  "features": [
    {
      "type": "Feature",
      "properties": {
        "spill_id": "sentinel_282",
        "confidence": 0.8
      },
      "geometry": {
        "type": "Polygon",
        "coordinates": [
          [
            [
              72.763867,
              18.805469
            ],
            [
              72.7625,
              18.806836
            ],
            [
              72.7625,
              18.808203
            ],
            [
              72.761133,
              18.80957
            ],
            [
              72.755664,
              18.80957
            ],
            [
              72.754297,
              18.808203
            ],
            [
              72.75293,
              18.808203
            ],
            [
              72.751562,
              18.806836
            ],
            [
              72.750195,
              18.806836
            ],
            [
              72.746094,
              18.802734
            ],
            [
              72.747461,
              18.801367
            ],
            [
              72.7625,
              18.801367
            ],
            [
              72.763867,
              18.802734
            ],
            [
              72.763867,
              18.805469
            ]
          ]
        ]
      }
    },
    {
      "type": "Feature",
      "properties": {
        "spill_id": "sentinel_282",
        "confidence": 0.8
      },
      "geometry": {
        "type": "Polygon",
        "coordinates": [
          [
            [
              72.601172,
              18.806836
            ],
            [
              72.601172,
              18.805469
            ],
            [
              72.602539,
              18.804102
            ],
            [
              72.603906,
              18.804102
            ],
            [
              72.605273,
              18.802734
            ],
            [
              72.613477,
              18.802734
            ],
            [
              72.614844,
              18.801367
            ],
            [
              72.617578,
              18.801367
            ],
            [
              72.618945,
              18.802734
            ],
            [
              72.620312,
              18.802734
            ],
            [
              72.620312,
              18.805469
            ],
            [
              72.618945,
              18.805469
            ],
            [
              72.617578,
              18.806836
            ],
            [
              72.614844,
              18.806836
            ],
            [
              72.612109,
              18.80957
            ],
            [
              72.612109,
              18.810938
            ],
            [
              72.610742,
              18.812305
            ],
            [
              72.608008,
              18.812305
            ],
            [
              72.606641,
              18.810938
            ],
            [
              72.605273,
              18.810938
            ],
            [
              72.601172,
              18.806836
            ]
          ]
        ]
      }
    },
    {
      "type": "Feature",
      "properties": {
        "spill_id": "sentinel_282",
        "confidence": 0.8
      },
      "geometry": {
        "type": "Polygon",
        "coordinates": [
          [
            [
              72.655859,
              18.821875
            ],
            [
              72.654492,
              18.821875
            ],
            [
              72.650391,
              18.824609
            ],
            [
              72.647656,
              18.824609
            ],
            [
              72.646289,
              18.823242
            ],
            [
              72.646289,
              18.821875
            ],
            [
              72.647656,
              18.820508
            ],
            [
              72.647656,
              18.816406
            ],
            [
              72.642187,
              18.810938
            ],
            [
              72.636719,
              18.810938
            ],
            [
              72.635352,
              18.80957
            ],
            [
              72.635352,
              18.806836
            ],
            [
              72.632617,
              18.802734
            ],
            [
              72.635352,
              18.802734
            ],
            [
              72.636719,
              18.801367
            ],
            [
              72.655859,
              18.801367
            ],
            [
              72.657227,
              18.802734
            ],
            [
              72.657227,
              18.805469
            ],
            [
              72.658594,
              18.806836
            ],
            [
              72.658594,
              18.815039
            ],
            [
              72.657227,
              18.816406
            ],
            [
              72.657227,
              18.819141
            ],
            [
              72.655859,
              18.820508
            ],
            [
              72.655859,
              18.821875
            ]
          ]
        ]
      }
    },
    {
      "type": "Feature",
      "properties": {
        "spill_id": "sentinel_282",
        "confidence": 0.8
      },
      "geometry": {
        "type": "Polygon",
        "coordinates": [
          [
            [
              72.666797,
              18.825977
            ],
            [
              72.66543,
              18.824609
            ],
            [
              72.66543,
              18.810938
            ],
            [
              72.668164,
              18.808203
            ],
            [
              72.668164,
              18.802734
            ],
            [
              72.669531,
              18.802734
            ],
            [
              72.670898,
              18.801367
            ],
            [
              72.685938,
              18.801367
            ],
            [
              72.687305,
              18.802734
            ],
            [
              72.685938,
              18.804102
            ],
            [
              72.687305,
              18.805469
            ],
            [
              72.687305,
              18.80957
            ],
            [
              72.68457,
              18.812305
            ],
            [
              72.68457,
              18.813672
            ],
            [
              72.683203,
              18.815039
            ],
            [
              72.683203,
              18.819141
            ],
            [
              72.680469,
              18.821875
            ],
            [
              72.676367,
              18.821875
            ],
            [
              72.673633,
              18.824609
            ],
            [
              72.669531,
              18.824609
            ],
            [
              72.668164,
              18.825977
            ],
            [
              72.666797,
              18.825977
            ]
          ]
        ]
      }
    },
    {
      "type": "Feature",
      "properties": {
        "spill_id": "sentinel_282",
        "confidence": 0.8
      },
      "geometry": {
        "type": "Polygon",
        "coordinates": [
          [
            [
              72.564258,
              18.831445
            ],
            [
              72.560156,
              18.824609
            ],
            [
              72.560156,
              18.820508
            ],
            [
              72.557422,
              18.817773
            ],
            [
              72.557422,
              18.812305
            ],
            [
              72.556055,
              18.810938
            ],
            [
              72.557422,
              18.80957
            ],
            [
              72.557422,
              18.805469
            ],
            [
              72.556055,
              18.804102
            ],
            [
              72.556055,
              18.802734
            ],
            [
              72.557422,
              18.801367
            ],
            [
              72.588867,
              18.801367
            ],
            [
              72.590234,
              18.802734
            ],
            [
              72.590234,
              18.805469
            ],
            [
              72.588867,
              18.806836
            ],
            [
              72.588867,
              18.808203
            ],
            [
              72.584766,
              18.812305
            ],
            [
              72.584766,
              18.813672
            ],
            [
              72.579297,
              18.819141
            ],
            [
              72.579297,
              18.824609
            ],
            [
              72.57793,
              18.825977
            ],
            [
              72.57793,
              18.827344
            ],
            [
              72.572461,
              18.831445
            ],
            [
              72.568359,
              18.831445
            ],
            [
              72.566992,
              18.830078
            ],
            [
              72.565625,
              18.831445
            ],
            [
              72.564258,
              18.831445
            ]
          ]
        ]
      }
    },
    {
      "type": "Feature",
      "properties": {
        "spill_id": "sentinel_282",
        "confidence": 0.8
      },
      "geometry": {
        "type": "Polygon",
        "coordinates": [
          [
            [
              72.639453,
              18.938086
            ],
            [
              72.638086,
              18.936719
            ],
            [
              72.636719,
              18.938086
            ],
            [
              72.628516,
              18.938086
            ],
            [
              72.625781,
              18.929883
            ],
            [
              72.617578,
              18.920312
            ],
            [
              72.612109,
              18.920312
            ],
            [
              72.606641,
              18.917578
            ],
            [
              72.605273,
              18.914844
            ],
            [
              72.605273,
              18.89707
            ],
            [
              72.610742,
              18.888867
            ],
            [
              72.623047,
              18.879297
            ],
            [
              72.627148,
              18.879297
            ],
            [
              72.639453,
              18.883398
            ],
            [
              72.642187,
              18.898438
            ],
            [
              72.646289,
              18.903906
            ],
            [
              72.649023,
              18.910742
            ],
            [
              72.649023,
              18.914844
            ],
            [
              72.650391,
              18.916211
            ],
            [
              72.643555,
              18.924414
            ],
            [
              72.643555,
              18.932617
            ],
            [
              72.639453,
              18.938086
            ]
          ]
        ]
      }
    },
    {
      "type": "Feature",
      "properties": {
        "spill_id": "sentinel_282",
        "confidence": 0.8
      },
      "geometry": {
        "type": "Polygon",
        "coordinates": [
          [
            [
              72.545117,
              19.05293
            ],
            [
              72.541016,
              19.051562
            ],
            [
              72.535547,
              19.046094
            ],
            [
              72.536914,
              19.037891
            ],
            [
              72.545117,
              19.02832
            ],
            [
              72.546484,
              19.021484
            ],
            [
              72.549219,
              19.01875
            ],
            [
              72.547852,
              19.017383
            ],
            [
              72.549219,
              19.016016
            ],
            [
              72.547852,
              19.011914
            ],
            [
              72.54375,
              19.007812
            ],
            [
              72.538281,
              18.996875
            ],
            [
              72.538281,
              18.988672
            ],
            [
              72.54375,
              18.980469
            ],
            [
              72.547852,
              18.980469
            ],
            [
              72.551953,
              18.983203
            ],
            [
              72.560156,
              18.999609
            ],
            [
              72.561523,
              19.010547
            ],
            [
              72.560156,
              19.011914
            ],
            [
              72.55332,
              19.010547
            ],
            [
              72.550586,
              19.013281
            ],
            [
              72.550586,
              19.016016
            ],
            [
              72.556055,
              19.024219
            ],
            [
              72.556055,
              19.029687
            ],
            [
              72.560156,
              19.037891
            ],
            [
              72.558789,
              19.050195
            ],
            [
              72.557422,
              19.051562
            ],
            [
              72.545117,
              19.05293
            ]
          ]
        ]
      }
    },
    {
      "type": "Feature",
      "properties": {
        "spill_id": "sentinel_282",
        "confidence": 0.8
      },
      "geometry": {
        "type": "Polygon",
        "coordinates": [
          [
            [
              72.661328,
              19.077539
            ],
            [
              72.659961,
              19.077539
            ],
            [
              72.658594,
              19.078906
            ],
            [
              72.650391,
              19.078906
            ],
            [
              72.649023,
              19.077539
            ],
            [
              72.647656,
              19.077539
            ],
            [
              72.646289,
              19.076172
            ],
            [
              72.644922,
              19.076172
            ],
            [
              72.64082,
              19.07207
            ],
            [
              72.64082,
              19.067969
            ],
            [
              72.642187,
              19.066602
            ],
            [
              72.642187,
              19.063867
            ],
            [
              72.643555,
              19.0625
            ],
            [
              72.643555,
              19.059766
            ],
            [
              72.644922,
              19.058398
            ],
            [
              72.644922,
              19.057031
            ],
            [
              72.647656,
              19.057031
            ],
            [
              72.649023,
              19.058398
            ],
            [
              72.650391,
              19.058398
            ],
            [
              72.651758,
              19.059766
            ],
            [
              72.653125,
              19.059766
            ],
            [
              72.654492,
              19.061133
            ],
            [
              72.655859,
              19.061133
            ],
            [
              72.657227,
              19.0625
            ],
            [
              72.657227,
              19.063867
            ],
            [
              72.658594,
              19.065234
            ],
            [
              72.658594,
              19.066602
            ],
            [
              72.659961,
              19.067969
            ],
            [
              72.659961,
              19.069336
            ],
            [
              72.661328,
              19.070703
            ],
            [
              72.661328,
              19.07207
            ],
            [
              72.662695,
              19.073438
            ],
            [
              72.662695,
              19.076172
            ],
            [
              72.661328,
              19.077539
            ]
          ]
        ]
      }
    },
    {
      "type": "Feature",
      "properties": {
        "spill_id": "sentinel_282",
        "confidence": 0.8
      },
      "geometry": {
        "type": "Polygon",
        "coordinates": [
          [
            [
              72.784375,
              19.15
            ],
            [
              72.780273,
              19.137695
            ],
            [
              72.784375,
              19.085742
            ],
            [
              72.777539,
              19.073438
            ],
            [
              72.777539,
              19.054297
            ],
            [
              72.767969,
              19.041992
            ],
            [
              72.770703,
              19.033789
            ],
            [
              72.763867,
              19.006445
            ],
            [
              72.750195,
              18.996875
            ],
            [
              72.743359,
              18.981836
            ],
            [
              72.744727,
              18.959961
            ],
            [
              72.77207,
              18.938086
            ],
            [
              72.802148,
              18.936719
            ],
            [
              72.822656,
              18.924414
            ],
            [
              72.845898,
              18.92168
            ],
            [
              72.848633,
              19.02832
            ],
            [
              72.839062,
              19.032422
            ],
            [
              72.848633,
              19.05293
            ],
            [
              72.848633,
              19.137695
            ],
            [
              72.832227,
              19.134961
            ],
            [
              72.828125,
              19.15
            ],
            [
              72.784375,
              19.15
            ]
          ]
        ]
      }
    },
    {
      "type": "Feature",
      "properties": {
        "spill_id": "sentinel_282",
        "confidence": 0.8
      },
      "geometry": {
        "type": "Polygon",
        "coordinates": [
          [
            [
              72.677734,
              19.15
            ],
            [
              72.676367,
              19.148633
            ],
            [
              72.676367,
              19.139062
            ],
            [
              72.679102,
              19.136328
            ],
            [
              72.685938,
              19.136328
            ],
            [
              72.685938,
              19.137695
            ],
            [
              72.688672,
              19.14043
            ],
            [
              72.688672,
              19.141797
            ],
            [
              72.690039,
              19.143164
            ],
            [
              72.690039,
              19.15
            ],
            [
              72.677734,
              19.15
            ]
          ]
        ]
      }
    },
    {
      "type": "Feature",
      "properties": {
        "spill_id": "sentinel_282",
        "confidence": 0.8
      },
      "geometry": {
        "type": "Polygon",
        "coordinates": [
          [
            [
              72.63125,
              19.15
            ],
            [
              72.629883,
              19.148633
            ],
            [
              72.629883,
              19.144531
            ],
            [
              72.627148,
              19.139062
            ],
            [
              72.627148,
              19.134961
            ],
            [
              72.624414,
              19.132227
            ],
            [
              72.624414,
              19.129492
            ],
            [
              72.623047,
              19.128125
            ],
            [
              72.623047,
              19.124023
            ],
            [
              72.62168,
              19.122656
            ],
            [
              72.62168,
              19.113086
            ],
            [
              72.623047,
              19.113086
            ],
            [
              72.624414,
              19.110352
            ],
            [
              72.629883,
              19.107617
            ],
            [
              72.63125,
              19.108984
            ],
            [
              72.638086,
              19.108984
            ],
            [
              72.639453,
              19.110352
            ],
            [
              72.643555,
              19.110352
            ],
            [
              72.644922,
              19.108984
            ],
            [
              72.649023,
              19.108984
            ],
            [
              72.650391,
              19.107617
            ],
            [
              72.653125,
              19.108984
            ],
            [
              72.653125,
              19.11582
            ],
            [
              72.650391,
              19.118555
            ],
            [
              72.651758,
              19.119922
            ],
            [
              72.651758,
              19.126758
            ],
            [
              72.653125,
              19.128125
            ],
            [
              72.654492,
              19.136328
            ],
            [
              72.647656,
              19.14043
            ],
            [
              72.643555,
              19.14043
            ],
            [
              72.642187,
              19.141797
            ],
            [
              72.642187,
              19.148633
            ],
            [
              72.643555,
              19.15
            ],
            [
              72.63125,
              19.15
            ]
          ]
        ]
      }
    }
  ]
}