{
  "type": "FeatureCollection",
  "features": [
    {
      "type": "Feature",
      "properties": {
        "spill_id": "sentinel_210",
        "confidence": 0.77
      },
      "geometry": {
        "type": "Polygon",
        "coordinates": [
          [
            [
              72.573828,
              19.066602
            ],
            [
              72.564258,
              19.05293
            ],
            [
              72.564258,
              19.040625
            ],
            [
              72.576562,
              19.025586
            ],
            [
              72.588867,
              19.026953
            ],
            [
              72.610742,
              19.000977
            ],
            [
              72.608008,
              18.949023
            ],
            [
              72.617578,
              18.942188
            ],
            [
              72.627148,
              18.946289
            ],
            [
              72.642187,
              18.924414
            ],
            [
              72.644922,
              18.872461
            ],
            [
              72.657227,
              18.854688
            ],
            [
              72.662695,
              18.820508
            ],
            [
              72.673633,
              18.802734
            ],
            [
              72.706445,
              18.801367
            ],
            [
              72.707812,
              18.815039
            ],
            [
              72.694141,
              18.823242
            ],
            [
              72.669531,
              18.85332
            ],
            [
              72.670898,
              18.880664
            ],
            [
              72.657227,
              18.924414
            ],
            [
              72.668164,
              18.918945
            ],
            [
              72.676367,
              18.935352
            ],
            [
              72.654492,
              18.985938
            ],
            [
              72.628516,
              19.029687
            ],
            [
              72.5875,
              19.063867
            ],
            [
              72.573828,
              19.066602
            ]
          ]
        ]
      }
    },
    {
      "type": "Feature",
      "properties": {
        "spill_id": "sentinel_210",
        "confidence": 0.77
      },
      "geometry": {
        "type": "Polygon",
        "coordinates": [
          [
            [
              72.53418,
              19.076172
            ],
            [
              72.53418,
              19.073438
            ],
            [
              72.536914,
              19.070703
            ],
            [
              72.536914,
              19.069336
            ],
            [
              72.541016,
              19.065234
            ],
            [
              72.542383,
              19.065234
            ],
            [
              72.54375,
              19.066602
            ],
            [
              72.545117,
              19.066602
            ],
            [
              72.545117,
              19.067969
            ],
            [
              72.546484,
              19.069336
            ],
            [
              72.547852,
              19.069336
            ],
            [
              72.550586,
              19.07207
            ],
            [
              72.550586,
              19.076172
            ],
            [
              72.546484,
              19.076172
            ],
            [
              72.545117,
              19.074805
            ],
            [
              72.54375,
              19.076172
            ],
            [
              72.542383,
              19.076172
            ],
            [
              72.539648,
              19.073438
            ],
            [
              72.538281,
              19.074805
            ],
            [
              72.536914,
              19.074805
            ],
            [
              72.535547,
              19.076172
            ],
            [
              72.53418,
              19.076172
            ]
          ]
        ]
      }
    },
    {
      "type": "Feature",
      "properties": {
        "spill_id": "sentinel_210",
        "confidence": 0.77
      },
      "geometry": {
        "type": "Polygon",
        "coordinates": [
          [
            [
              72.737891,
              19.088477
            ],
            [
              72.736523,
              19.085742
            ],
            [
              72.757031,
              19.0625
            ],
            [
              72.767969,
              19.035156
            ],
            [
              72.766602,
              19.031055
            ],
            [
              72.788477,
              18.996875
            ],
            [
              72.788477,
              18.991406
            ],
            [
              72.799414,
              18.983203
            ],
            [
              72.81582,
              18.961328
            ],
            [
              72.828125,
              18.954492
            ],
            [
              72.844531,
              18.953125
            ],
            [
              72.848633,
              18.958594
            ],
            [
              72.848633,
              18.976367
            ],
            [
              72.829492,
              18.990039
            ],
            [
              72.800781,
              19.047461
            ],
            [
              72.789844,
              19.054297
            ],
            [
              72.769336,
              19.077539
            ],
            [
              72.747461,
              19.089844
            ],
            [
              72.737891,
              19.088477
            ]
          ]
        ]
      }
    },
    {
      "type": "Feature",
      "properties": {
        "spill_id": "sentinel_210",
        "confidence": 0.77
      },
      "geometry": {
        "type": "Polygon",
        "coordinates": [
          [
            [
              72.512305,
              19.15
            ],
            [
              72.512305,
              19.147266
            ],
            [
              72.515039,
              19.144531
            ],
            [
              72.515039,
              19.137695
            ],
            [
              72.517773,
              19.134961
            ],
            [
              72.521875,
              19.134961
            ],
            [
              72.523242,
              19.136328
            ],
            [
              72.530078,
              19.136328
            ],
            [
              72.531445,
              19.134961
            ],
            [
              72.538281,
              19.134961
            ],
            [
              72.539648,
              19.136328
            ],
            [
              72.539648,
              19.14043
            ],
            [
              72.541016,
              19.141797
            ],
            [
              72.541016,
              19.145898
            ],
            [
              72.539648,
              19.147266
            ],
            [
              72.539648,
              19.15
            ],
            [
              72.512305,
              19.15
            ]
          ]
        ]
      }
    }
  ]
}