{
  "type": "FeatureCollection",
  "features": [
    {
      "type": "Feature",
      "properties": {
        "spill_id": "sentinel_103",
        "confidence": 0.75
      },
      "geometry": {
        "type": "Polygon",
        "coordinates": [
          [
            [
              72.66543,
              18.802734
            ],
            [
              72.666797,
              18.802734
            ],
            [
              72.668164,
              18.801367
            ],
            [
              72.707812,
              18.801367
            ],
            [
              72.707812,
              18.806836
            ],
            [
              72.702344,
              18.812305
            ],
            [
              72.698242,
              18.813672
            ],
            [
              72.695508,
              18.816406
            ],
            [
              72.692773,
              18.816406
            ],
            [
              72.691406,
              18.817773
            ],
            [
              72.688672,
              18.817773
            ],
            [
              72.687305,
              18.816406
            ],
            [
              72.685938,
              18.817773
            ],
            [
              72.683203,
              18.817773
            ],
            [
              72.677734,
              18.812305
            ],
            [
              72.676367,
              18.812305
            ],
            [
              72.675,
              18.810938
            ],
            [
              72.669531,
              18.810938
            ],
            [
              72.668164,
              18.80957
            ],
            [
              72.668164,
              18.808203
            ],
            [
              72.666797,
              18.806836
            ],
            [
              72.666797,
              18.804102
            ],
            [
              72.66543,
              18.802734
            ]
          ]
        ]
      }
    },
    {
      "type": "Feature",
      "properties": {
        "spill_id": "sentinel_103",
        "confidence": 0.75
      },
      "geometry": {
        "type": "Polygon",
        "coordinates": [
          [
            [
              72.591602,
              18.836914
            ],
            [
              72.591602,
              18.830078
            ],
            [
              72.592969,
              18.830078
            ],
            [
              72.594336,
              18.828711
            ],
            [
              72.595703,
              18.828711
            ],
            [
              72.59707,
              18.827344
            ],
            [
              72.598438,
              18.827344
            ],
            [
              72.599805,
              18.828711
            ],
            [
              72.608008,
              18.828711
            ],
            [
              72.609375,
              18.827344
            ],
            [
              72.612109,
              18.827344
            ],
            [
              72.612109,
              18.832812
            ],
            [
              72.614844,
              18.835547
            ],
            [
              72.612109,
              18.838281
            ],
            [
              72.610742,
              18.838281
            ],
            [
              72.609375,
              18.839648
            ],
            [
              72.609375,
              18.842383
            ],
            [
              72.606641,
              18.845117
            ],
            [
              72.601172,
              18.845117
            ],
            [
              72.599805,
              18.84375
            ],
            [
              72.598438,
              18.84375
            ],
            [
              72.595703,
              18.841016
            ],
            [
              72.594336,
              18.841016
            ],
            [
              72.594336,
              18.839648
            ],
            [
              72.591602,
              18.836914
            ]
          ]
        ]
      }
    },
    {
      "type": "Feature",
      "properties": {
        "spill_id": "sentinel_103",
        "confidence": 0.75
      },
      "geometry": {
        "type": "Polygon",
        "coordinates": [
          [
            [
              72.685938,
              18.872461
            ],
            [
              72.675,
              18.884766
            ],
            [
              72.668164,
              18.886133
            ],
            [
              72.659961,
              18.882031
            ],
            [
              72.659961,
              18.865625
            ],
            [
              72.657227,
              18.862891
            ],
            [
              72.647656,
              18.862891
            ],
            [
              72.643555,
              18.865625
            ],
            [
              72.64082,
              18.871094
            ],
            [
              72.627148,
              18.872461
            ],
            [
              72.614844,
              18.865625
            ],
            [
              72.612109,
              18.856055
            ],
            [
              72.618945,
              18.847852
            ],
            [
              72.63125,
              18.841016
            ],
            [
              72.636719,
              18.84375
            ],
            [
              72.64082,
              18.849219
            ],
            [
              72.644922,
              18.849219
            ],
            [
              72.650391,
              18.854688
            ],
            [
              72.658594,
              18.84375
            ],
            [
              72.668164,
              18.839648
            ],
            [
              72.668164,
              18.846484
            ],
            [
              72.670898,
              18.849219
            ],
            [
              72.676367,
              18.845117
            ],
            [
              72.683203,
              18.845117
            ],
            [
              72.685938,
              18.872461
            ]
          ]
        ]
      }
    },
    {
      "type": "Feature",
      "properties": {
        "spill_id": "sentinel_103",
        "confidence": 0.75
      },
      "geometry": {
        "type": "Polygon",
        "coordinates": [
          [
            [
              72.848633,
              18.894336
            ],
            [
              72.839062,
              18.888867
            ],
            [
              72.837695,
              18.880664
            ],
            [
              72.834961,
              18.87793
            ],
            [
              72.829492,
              18.87793
            ],
            [
              72.818555,
              18.869727
            ],
            [
              72.792578,
              18.866992
            ],
            [
              72.784375,
              18.858789
            ],
            [
              72.785742,
              18.851953
            ],
            [
              72.79668,
              18.845117
            ],
            [
              72.813086,
              18.84375
            ],
            [
              72.821289,
              18.849219
            ],
            [
              72.829492,
              18.851953
            ],
            [
              72.832227,
              18.854688
            ],
            [
              72.84043,
              18.857422
            ],
            [
              72.844531,
              18.856055
            ],
            [
              72.848633,
              18.857422
            ],
            [
              72.848633,
              18.894336
            ]
          ]
        ]
      }
    },
    {
      "type": "Feature",
      "properties": {
        "spill_id": "sentinel_103",
        "confidence": 0.75
      },
      "geometry": {
        "type": "Polygon",
        "coordinates": [
          [
            [
              72.523242,
              18.895703
            ],
            [
              72.517773,
              18.895703
            ],
            [
              72.516406,
              18.894336
            ],
            [
              72.5,
              18.894336
            ],
            [
              72.5,
              18.860156
            ],
            [
              72.504102,
              18.860156
            ],
            [
              72.505469,
              18.858789
            ],
            [
              72.506836,
              18.860156
            ],
            [
              72.513672,
              18.861523
            ],
            [
              72.515039,
              18.862891
            ],
            [
              72.519141,
              18.864258
            ],
            [
              72.521875,
              18.866992
            ],
            [
              72.521875,
              18.868359
            ],
            [
              72.525977,
              18.875195
            ],
            [
              72.525977,
              18.879297
            ],
            [
              72.521875,
              18.883398
            ],
            [
              72.521875,
              18.886133
            ],
            [
              72.524609,
              18.888867
            ],
            [
              72.524609,
              18.894336
            ],
            [
              72.523242,
              18.895703
            ]
          ]
        ]
      }
    },
    {
      "type": "Feature",
      "properties": {
        "spill_id": "sentinel_103",
        "confidence": 0.75
      },
      "geometry": {
        "type": "Polygon",
        "coordinates": [
          [
            [
              72.562891,
              18.93125
            ],
            [
              72.562891,
              18.928516
            ],
            [
              72.561523,
              18.927148
            ],
            [
              72.562891,
              18.925781
            ],
            [
              72.564258,
              18.918945
            ],
            [
              72.566992,
              18.914844
            ],
            [
              72.571094,
              18.914844
            ],
            [
              72.579297,
              18.918945
            ],
            [
              72.583398,
              18.912109
            ],
            [
              72.583398,
              18.909375
            ],
            [
              72.584766,
              18.909375
            ],
            [
              72.591602,
              18.903906
            ],
            [
              72.601172,
              18.905273
            ],
            [
              72.603906,
              18.908008
            ],
            [
              72.605273,
              18.913477
            ],
            [
              72.598438,
              18.917578
            ],
            [
              72.598438,
              18.920312
            ],
            [
              72.595703,
              18.920312
            ],
            [
              72.594336,
              18.918945
            ],
            [
              72.592969,
              18.920312
            ],
            [
              72.588867,
              18.916211
            ],
            [
              72.584766,
              18.916211
            ],
            [
              72.582031,
              18.918945
            ],
            [
              72.579297,
              18.918945
            ],
            [
              72.573828,
              18.925781
            ],
            [
              72.573828,
              18.932617
            ],
            [
              72.571094,
              18.935352
            ],
            [
              72.568359,
              18.935352
            ],
            [
              72.562891,
              18.93125
            ]
          ]
        ]
      }
    },
    {
      "type": "Feature",
      "properties": {
        "spill_id": "sentinel_103",
        "confidence": 0.75
      },
      "geometry": {
        "type": "Polygon",
        "coordinates": [
          [
            [
              72.625781,
              18.938086
            ],
            [
              72.623047,
              18.938086
            ],
            [
              72.62168,
              18.936719
            ],
            [
              72.618945,
              18.936719
            ],
            [
              72.616211,
              18.933984
            ],
            [
              72.614844,
              18.933984
            ],
            [
              72.613477,
              18.932617
            ],
            [
              72.612109,
              18.932617
            ],
            [
              72.609375,
              18.929883
            ],
            [
              72.613477,
              18.929883
            ],
            [
              72.614844,
              18.93125
            ],
            [
              72.62168,
              18.93125
            ],
            [
              72.623047,
              18.932617
            ],
            [
              72.625781,
              18.932617
            ],
            [
              72.627148,
              18.933984
            ],
            [
              72.625781,
              18.935352
            ],
            [
              72.625781,
              18.938086
            ]
          ]
        ]
      }
    },
    {
      "type": "Feature",
      "properties": {
        "spill_id": "sentinel_103",
        "confidence": 0.75
      },
      "geometry": {
        "type": "Polygon",
        "coordinates": [
          [
            [
              72.824023,
              18.999609
            ],
            [
              72.824023,
              18.990039
            ],
            [
              72.828125,
              18.985938
            ],
            [
              72.834961,
              18.985938
            ],
            [
              72.836328,
              18.987305
            ],
            [
              72.837695,
              18.987305
            ],
            [
              72.839062,
              18.988672
            ],
            [
              72.84043,
              18.988672
            ],
            [
              72.844531,
              18.992773
            ],
            [
              72.844531,
              19.000977
            ],
            [
              72.84043,
              19.000977
            ],
            [
              72.839062,
              19.002344
            ],
            [
              72.828125,
              19.002344
            ],
            [
              72.825391,
              18.999609
            ],
            [
              72.824023,
              18.999609
            ]
          ]
        ]
      }
    },
    {
      "type": "Feature",
      "properties": {
        "spill_id": "sentinel_103",
        "confidence": 0.75
      },
      "geometry": {
        "type": "Polygon",
        "coordinates": [
          [
            [
              72.5,
              19.063867
            ],
            [
              72.5,
              19.043359
            ],
            [
              72.502734,
              19.040625
            ],
            [
              72.505469,
              19.040625
            ],
            [
              72.506836,
              19.039258
            ],
            [
              72.50957,
              19.039258
            ],
            [
              72.510938,
              19.037891
            ],
            [
              72.512305,
              19.037891
            ],
            [
              72.513672,
              19.036523
            ],
            [
              72.513672,
              19.035156
            ],
            [
              72.515039,
              19.035156
            ],
            [
              72.516406,
              19.036523
            ],
            [
              72.516406,
              19.039258
            ],
            [
              72.517773,
              19.040625
            ],
            [
              72.517773,
              19.041992
            ],
            [
              72.516406,
              19.043359
            ],
            [
              72.516406,
              19.044727
            ],
            [
              72.515039,
              19.044727
            ],
            [
              72.512305,
              19.047461
            ],
            [
              72.513672,
              19.048828
            ],
            [
              72.513672,
              19.054297
            ],
            [
              72.512305,
              19.055664
            ],
            [
              72.512305,
              19.057031
            ],
            [
              72.50957,
              19.059766
            ],
            [
              72.506836,
              19.059766
            ],
            [
              72.505469,
              19.061133
            ],
            [
              72.504102,
              19.061133
            ],
            [
              72.5,
              19.063867
            ]
          ]
        ]
      }
    },
    {
      "type": "Feature",
      "properties": {
        "spill_id": "sentinel_103",
        "confidence": 0.75
      },
      "geometry": {
        "type": "Polygon",
        "coordinates": [
          [
            [
              72.703711,
              19.070703
            ],
            [
              72.705078,
              19.061133
            ],
            [
              72.710547,
              19.058398
            ],
            [
              72.717383,
              19.051562
            ],
            [
              72.720117,
              19.043359
            ],
            [
              72.729688,
              19.036523
            ],
            [
              72.731055,
              19.026953
            ],
            [
              72.736523,
              19.013281
            ],
            [
              72.741992,
              19.007812
            ],
            [
              72.748828,
              19.006445
            ],
            [
              72.7625,
              18.998242
            ],
            [
              72.777539,
              18.998242
            ],
            [
              72.781641,
              19.005078
            ],
            [
              72.778906,
              19.016016
            ],
            [
              72.759766,
              19.031055
            ],
            [
              72.759766,
              19.037891
            ],
            [
              72.769336,
              19.048828
            ],
            [
              72.765234,
              19.058398
            ],
            [
              72.748828,
              19.067969
            ],
            [
              72.733789,
              19.070703
            ],
            [
              72.724219,
              19.074805
            ],
            [
              72.711914,
              19.076172
            ],
            [
              72.703711,
              19.070703
            ]
          ]
        ]
      }
    },
    {
      "type": "Feature",
      "properties": {
        "spill_id": "sentinel_103",
        "confidence": 0.75
      },
      "geometry": {
        "type": "Polygon",
        "coordinates": [
          [
            [
              72.746094,
              19.15
            ],
            [
              72.761133,
              19.111719
            ],
            [
              72.75293,
              19.099414
            ],
            [
              72.754297,
              19.091211
            ],
            [
              72.761133,
              19.085742
            ],
            [
              72.777539,
              19.083008
            ],
            [
              72.793945,
              19.074805
            ],
            [
              72.824023,
              19.031055
            ],
            [
              72.847266,
              19.01875
            ],
            [
              72.848633,
              19.0625
            ],
            [
              72.821289,
              19.085742
            ],
            [
              72.813086,
              19.088477
            ],
            [
              72.818555,
              19.10625
            ],
            [
              72.810352,
              19.110352
            ],
            [
              72.810352,
              19.117188
            ],
            [
              72.783008,
              19.122656
            ],
            [
              72.759766,
              19.143164
            ],
            [
              72.757031,
              19.15
            ],
            [
              72.746094,
              19.15
            ]
          ]
        ]
      }
    }
  ]
}