{
  "type": "FeatureCollection",
  "features": [
    {
      "type": "Feature",
      "properties": {
        "spill_id": "sentinel_26",
        "confidence": 0.94
      },
      "geometry": {
        "type": "Polygon",
        "coordinates": [
          [
            [
              72.7625,
              19.148633
            ],
            [
              72.7625,
              19.145898
            ],
            [
              72.766602,
              19.14043
            ],
            [
              72.767969,
              19.14043
            ],
            [
              72.769336,
              19.139062
            ],
            [
              72.773438,
              19.139062
            ],
            [
              72.774805,
              19.137695
            ],
            [
              72.778906,
              19.137695
            ],
            [
              72.780273,
              19.136328
            ],
            [
              72.781641,
              19.136328
            ],
            [
              72.789844,
              19.126758
            ],
            [
              72.793945,
              19.126758
            ],
            [
              72.795312,
              19.125391
            ],
            [
              72.79668,
              19.126758
            ],
            [
              72.799414,
              19.126758
            ],
            [
              72.80625,
              19.134961
            ],
            [
              72.803516,
              19.137695
            ],
            [
              72.803516,
              19.143164
            ],
            [
              72.802148,
              19.144531
            ],
            [
              72.800781,
              19.144531
            ],
            [
              72.79668,
              19.148633
            ],
            [
              72.79668,
              19.15
            ],
            [
              72.763867,
              19.15
            ],
            [
              72.7625,
              19.148633
            ]
          ]
        ]
      }
    },
    {
      "type": "Feature",
      "properties": {
        "spill_id": "sentinel_26",
        "confidence": 0.94
      },
      "geometry": {
        "type": "Polygon",
        "coordinates": [
          [
            [
              72.5,
              19.15
            ],
            [
              72.5,
              18.801367
            ],
            [
              72.669531,
              18.801367
            ],
            [
              72.677734,
              18.810938
            ],
            [
              72.679102,
              18.801367
            ],
            [
              72.848633,
              18.801367
            ],
            [
              72.848633,
              18.954492
            ],
            [
              72.833594,
              18.957227
            ],
            [
              72.848633,
              18.980469
            ],
            [
              72.848633,
              19.005078
            ],
            [
              72.80625,
              19.047461
            ],
            [
              72.848633,
              19.085742
            ],
            [
              72.804883,
              19.11582
            ],
            [
              72.77207,
              19.119922
            ],
            [
              72.739258,
              19.15
            ],
            [
              72.5,
              19.15
            ]
          ]
        ]
      }
    }
  ]
}