{
  "type": "FeatureCollection",
  "features": [
    {
      "type": "Feature",
      "properties": {
        "spill_id": "sentinel_125",
        "confidence": 0.94
      },
      "geometry": {
        "type": "Polygon",
        "coordinates": [
          [
            [
              72.502734,
              19.15
            ],
            [
              72.5,
              18.801367
            ],
            [
              72.625781,
              18.801367
            ],
            [
              72.651758,
              18.873828
            ],
            [
              72.739258,
              18.821875
            ],
            [
              72.739258,
              18.806836
            ],
            [
              72.721484,
              18.801367
            ],
            [
              72.848633,
              18.801367
            ],
            [
              72.848633,
              19.09668
            ],
            [
              72.834961,
              19.113086
            ],
            [
              72.848633,
              19.145898
            ],
            [
              72.79668,
              19.15
            ],
            [
              72.798047,
              19.11582
            ],
            [
              72.785742,
              19.102148
            ],
            [
              72.767969,
              19.132227
            ],
            [
              72.773438,
              19.15
            ],
            [
              72.694141,
              19.15
            ],
            [
              72.687305,
              19.14043
            ],
            [
              72.651758,
              19.15
            ],
            [
              72.643555,
              19.139062
            ],
            [
              72.639453,
              19.15
            ],
            [
              72.547852,
              19.15
            ],
            [
              72.531445,
              19.139062
            ],
            [
              72.502734,
              19.15
            ]
          ]
        ]
      }
    }
  ]
}