{
  "type": "FeatureCollection",
  "features": [
    {
      "type": "Feature",
      "properties": {
        "spill_id": "sentinel_257",
        "confidence": 0.75
      },
      "geometry": {
        "type": "Polygon",
        "coordinates": [
          [
            [
              72.700977,
              18.810938
            ],
            [
              72.699609,
              18.80957
            ],
            [
              72.699609,
              18.804102
            ],
            [
              72.702344,
              18.801367
            ],
            [
              72.707812,
              18.801367
            ],
            [
              72.70918,
              18.802734
            ],
            [
              72.707812,
              18.804102
            ],
            [
              72.70918,
              18.805469
            ],
            [
              72.710547,
              18.805469
            ],
            [
              72.70918,
              18.806836
            ],
            [
              72.70918,
              18.810938
            ],
            [
              72.700977,
              18.810938
            ]
          ]
        ]
      }
    },
    {
      "type": "Feature",
      "properties": {
        "spill_id": "sentinel_257",
        "confidence": 0.75
      },
      "geometry": {
        "type": "Polygon",
        "coordinates": [
          [
            [
              72.679102,
              18.805469
            ],
            [
              72.677734,
              18.806836
            ],
            [
              72.677734,
              18.808203
            ],
            [
              72.676367,
              18.80957
            ],
            [
              72.676367,
              18.810938
            ],
            [
              72.672266,
              18.810938
            ],
            [
              72.670898,
              18.80957
            ],
            [
              72.669531,
              18.80957
            ],
            [
              72.668164,
              18.808203
            ],
            [
              72.666797,
              18.808203
            ],
            [
              72.66543,
              18.806836
            ],
            [
              72.662695,
              18.806836
            ],
            [
              72.659961,
              18.804102
            ],
            [
              72.657227,
              18.804102
            ],
            [
              72.655859,
              18.802734
            ],
            [
              72.654492,
              18.802734
            ],
            [
              72.654492,
              18.801367
            ],
            [
              72.677734,
              18.801367
            ],
            [
              72.679102,
              18.802734
            ],
            [
              72.677734,
              18.804102
            ],
            [
              72.679102,
              18.805469
            ]
          ]
        ]
      }
    },
    {
      "type": "Feature",
      "properties": {
        "spill_id": "sentinel_257",
        "confidence": 0.75
      },
      "geometry": {
        "type": "Polygon",
        "coordinates": [
          [
            [
              72.571094,
              18.810938
            ],
            [
              72.572461,
              18.80957
            ],
            [
              72.572461,
              18.806836
            ],
            [
              72.573828,
              18.805469
            ],
            [
              72.573828,
              18.804102
            ],
            [
              72.576562,
              18.801367
            ],
            [
              72.612109,
              18.801367
            ],
            [
              72.612109,
              18.806836
            ],
            [
              72.602539,
              18.816406
            ],
            [
              72.601172,
              18.816406
            ],
            [
              72.599805,
              18.817773
            ],
            [
              72.59707,
              18.817773
            ],
            [
              72.595703,
              18.819141
            ],
            [
              72.590234,
              18.819141
            ],
            [
              72.588867,
              18.820508
            ],
            [
              72.586133,
              18.820508
            ],
            [
              72.584766,
              18.819141
            ],
            [
              72.579297,
              18.819141
            ],
            [
              72.57793,
              18.817773
            ],
            [
              72.573828,
              18.816406
            ],
            [
              72.572461,
              18.815039
            ],
            [
              72.572461,
              18.812305
            ],
            [
              72.571094,
              18.810938
            ]
          ]
        ]
      }
    },
    {
      "type": "Feature",
      "properties": {
        "spill_id": "sentinel_257",
        "confidence": 0.75
      },
      "geometry": {
        "type": "Polygon",
        "coordinates": [
          [
            [
              72.817187,
              18.849219
            ],
            [
              72.81582,
              18.849219
            ],
            [
              72.814453,
              18.847852
            ],
            [
              72.810352,
              18.847852
            ],
            [
              72.808984,
              18.846484
            ],
            [
              72.807617,
              18.846484
            ],
            [
              72.80625,
              18.847852
            ],
            [
              72.803516,
              18.847852
            ],
            [
              72.79668,
              18.841016
            ],
            [
              72.79668,
              18.838281
            ],
            [
              72.791211,
              18.828711
            ],
            [
              72.791211,
              18.819141
            ],
            [
              72.795312,
              18.815039
            ],
            [
              72.795312,
              18.813672
            ],
            [
              72.79668,
              18.812305
            ],
            [
              72.79668,
              18.806836
            ],
            [
              72.798047,
              18.806836
            ],
            [
              72.802148,
              18.80957
            ],
            [
              72.804883,
              18.80957
            ],
            [
              72.810352,
              18.813672
            ],
            [
              72.811719,
              18.813672
            ],
            [
              72.811719,
              18.820508
            ],
            [
              72.818555,
              18.830078
            ],
            [
              72.818555,
              18.847852
            ],
            [
              72.817187,
              18.849219
            ]
          ]
        ]
      }
    },
    {
      "type": "Feature",
      "properties": {
        "spill_id": "sentinel_257",
        "confidence": 0.75
      },
      "geometry": {
        "type": "Polygon",
        "coordinates": [
          [
            [
              72.655859,
              18.866992
            ],
            [
              72.653125,
              18.866992
            ],
            [
              72.647656,
              18.861523
            ],
            [
              72.647656,
              18.858789
            ],
            [
              72.649023,
              18.857422
            ],
            [
              72.653125,
              18.857422
            ],
            [
              72.654492,
              18.858789
            ],
            [
              72.655859,
              18.858789
            ],
            [
              72.655859,
              18.861523
            ],
            [
              72.657227,
              18.862891
            ],
            [
              72.657227,
              18.865625
            ],
            [
              72.655859,
              18.866992
            ]
          ]
        ]
      }
    },
    {
      "type": "Feature",
      "properties": {
        "spill_id": "sentinel_257",
        "confidence": 0.75
      },
      "geometry": {
        "type": "Polygon",
        "coordinates": [
          [
            [
              72.683203,
              18.905273
            ],
            [
              72.681836,
              18.903906
            ],
            [
              72.680469,
              18.903906
            ],
            [
              72.676367,
              18.899805
            ],
            [
              72.676367,
              18.895703
            ],
            [
              72.677734,
              18.894336
            ],
            [
              72.680469,
              18.8875
            ],
            [
              72.68457,
              18.883398
            ],
            [
              72.68457,
              18.880664
            ],
            [
              72.692773,
              18.869727
            ],
            [
              72.692773,
              18.866992
            ],
            [
              72.694141,
              18.865625
            ],
            [
              72.694141,
              18.864258
            ],
            [
              72.695508,
              18.864258
            ],
            [
              72.696875,
              18.862891
            ],
            [
              72.699609,
              18.862891
            ],
            [
              72.700977,
              18.864258
            ],
            [
              72.702344,
              18.864258
            ],
            [
              72.702344,
              18.865625
            ],
            [
              72.705078,
              18.869727
            ],
            [
              72.705078,
              18.880664
            ],
            [
              72.700977,
              18.8875
            ],
            [
              72.694141,
              18.890234
            ],
            [
              72.688672,
              18.894336
            ],
            [
              72.688672,
              18.901172
            ],
            [
              72.685938,
              18.905273
            ],
            [
              72.683203,
              18.905273
            ]
          ]
        ]
      }
    },
    {
      "type": "Feature",
      "properties": {
        "spill_id": "sentinel_257",
        "confidence": 0.75
      },
      "geometry": {
        "type": "Polygon",
        "coordinates": [
          [
            [
              72.521875,
              18.935352
            ],
            [
              72.512305,
              18.929883
            ],
            [
              72.512305,
              18.916211
            ],
            [
              72.505469,
              18.891602
            ],
            [
              72.504102,
              18.856055
            ],
            [
              72.515039,
              18.846484
            ],
            [
              72.525977,
              18.830078
            ],
            [
              72.527344,
              18.823242
            ],
            [
              72.523242,
              18.810938
            ],
            [
              72.524609,
              18.801367
            ],
            [
              72.545117,
              18.801367
            ],
            [
              72.549219,
              18.806836
            ],
            [
              72.560156,
              18.812305
            ],
            [
              72.561523,
              18.823242
            ],
            [
              72.554688,
              18.83418
            ],
            [
              72.549219,
              18.87793
            ],
            [
              72.53418,
              18.895703
            ],
            [
              72.531445,
              18.913477
            ],
            [
              72.521875,
              18.923047
            ],
            [
              72.521875,
              18.935352
            ]
          ]
        ]
      }
    },
    {
      "type": "Feature",
      "properties": {
        "spill_id": "sentinel_257",
        "confidence": 0.75
      },
      "geometry": {
        "type": "Polygon",
        "coordinates": [
          [
            [
              72.804883,
              18.936719
            ],
            [
              72.804883,
              18.925781
            ],
            [
              72.810352,
              18.914844
            ],
            [
              72.811719,
              18.914844
            ],
            [
              72.814453,
              18.912109
            ],
            [
              72.817187,
              18.910742
            ],
            [
              72.822656,
              18.910742
            ],
            [
              72.826758,
              18.913477
            ],
            [
              72.834961,
              18.913477
            ],
            [
              72.844531,
              18.906641
            ],
            [
              72.847266,
              18.906641
            ],
            [
              72.848633,
              18.908008
            ],
            [
              72.848633,
              18.932617
            ],
            [
              72.847266,
              18.932617
            ],
            [
              72.84043,
              18.938086
            ],
            [
              72.834961,
              18.939453
            ],
            [
              72.825391,
              18.944922
            ],
            [
              72.817187,
              18.944922
            ],
            [
              72.811719,
              18.942188
            ],
            [
              72.804883,
              18.936719
            ]
          ]
        ]
      }
    },
    {
      "type": "Feature",
      "properties": {
        "spill_id": "sentinel_257",
        "confidence": 0.75
      },
      "geometry": {
        "type": "Polygon",
        "coordinates": [
          [
            [
              72.618945,
              18.943555
            ],
            [
              72.618945,
              18.932617
            ],
            [
              72.616211,
              18.929883
            ],
            [
              72.62168,
              18.924414
            ],
            [
              72.623047,
              18.924414
            ],
            [
              72.628516,
              18.918945
            ],
            [
              72.63125,
              18.918945
            ],
            [
              72.632617,
              18.917578
            ],
            [
              72.633984,
              18.917578
            ],
            [
              72.635352,
              18.918945
            ],
            [
              72.636719,
              18.918945
            ],
            [
              72.636719,
              18.927148
            ],
            [
              72.632617,
              18.93125
            ],
            [
              72.632617,
              18.933984
            ],
            [
              72.63125,
              18.935352
            ],
            [
              72.63125,
              18.942188
            ],
            [
              72.628516,
              18.944922
            ],
            [
              72.627148,
              18.943555
            ],
            [
              72.625781,
              18.944922
            ],
            [
              72.62168,
              18.942188
            ],
            [
              72.620312,
              18.943555
            ],
            [
              72.618945,
              18.943555
            ]
          ]
        ]
      }
    },
    {
      "type": "Feature",
      "properties": {
        "spill_id": "sentinel_257",
        "confidence": 0.75
      },
      "geometry": {
        "type": "Polygon",
        "coordinates": [
          [
            [
              72.694141,
              18.966797
            ],
            [
              72.692773,
              18.96543
            ],
            [
              72.691406,
              18.96543
            ],
            [
              72.687305,
              18.962695
            ],
            [
              72.687305,
              18.961328
            ],
            [
              72.685938,
              18.959961
            ],
            [
              72.685938,
              18.953125
            ],
            [
              72.687305,
              18.951758
            ],
            [
              72.687305,
              18.947656
            ],
            [
              72.690039,
              18.944922
            ],
            [
              72.690039,
              18.943555
            ],
            [
              72.695508,
              18.938086
            ],
            [
              72.698242,
              18.938086
            ],
            [
              72.699609,
              18.936719
            ],
            [
              72.699609,
              18.938086
            ],
            [
              72.702344,
              18.942188
            ],
            [
              72.702344,
              18.947656
            ],
            [
              72.699609,
              18.951758
            ],
            [
              72.699609,
              18.955859
            ],
            [
              72.698242,
              18.957227
            ],
            [
              72.698242,
              18.962695
            ],
            [
              72.696875,
              18.964062
            ],
            [
              72.696875,
              18.96543
            ],
            [
              72.695508,
              18.966797
            ],
            [
              72.694141,
              18.966797
            ]
          ]
        ]
      }
    },
    {
      "type": "Feature",
      "properties": {
        "spill_id": "sentinel_257",
        "confidence": 0.75
      },
      "geometry": {
        "type": "Polygon",
        "coordinates": [
          [
            [
              72.590234,
              19.010547
            ],
            [
              72.5875,
              19.007812
            ],
            [
              72.5875,
              19.002344
            ],
            [
              72.584766,
              18.998242
            ],
            [
              72.584766,
              18.995508
            ],
            [
              72.586133,
              18.994141
            ],
            [
              72.586133,
              18.987305
            ],
            [
              72.588867,
              18.981836
            ],
            [
              72.599805,
              18.973633
            ],
            [
              72.603906,
              18.973633
            ],
            [
              72.612109,
              18.969531
            ],
            [
              72.617578,
              18.969531
            ],
            [
              72.620312,
              18.970898
            ],
            [
              72.620312,
              18.975
            ],
            [
              72.62168,
              18.976367
            ],
            [
              72.62168,
              18.980469
            ],
            [
              72.623047,
              18.981836
            ],
            [
              72.623047,
              18.990039
            ],
            [
              72.618945,
              18.994141
            ],
            [
              72.617578,
              18.999609
            ],
            [
              72.612109,
              19.006445
            ],
            [
              72.612109,
              19.010547
            ],
            [
              72.613477,
              19.011914
            ],
            [
              72.612109,
              19.013281
            ],
            [
              72.612109,
              19.010547
            ],
            [
              72.610742,
              19.00918
            ],
            [
              72.609375,
              19.010547
            ],
            [
              72.608008,
              19.00918
            ],
            [
              72.605273,
              19.011914
            ],
            [
              72.603906,
              19.00918
            ],
            [
              72.594336,
              19.00918
            ],
            [
              72.592969,
              19.010547
            ],
            [
              72.590234,
              19.010547
            ]
          ]
        ]
      }
    },
    {
      "type": "Feature",
      "properties": {
        "spill_id": "sentinel_257",
        "confidence": 0.75
      },
      "geometry": {
        "type": "Polygon",
        "coordinates": [
          [
            [
              72.702344,
              19.048828
            ],
            [
              72.702344,
              19.047461
            ],
            [
              72.700977,
              19.046094
            ],
            [
              72.699609,
              19.046094
            ],
            [
              72.700977,
              19.044727
            ],
            [
              72.699609,
              19.043359
            ],
            [
              72.699609,
              19.037891
            ],
            [
              72.700977,
              19.037891
            ],
            [
              72.702344,
              19.036523
            ],
            [
              72.703711,
              19.037891
            ],
            [
              72.705078,
              19.037891
            ],
            [
              72.707812,
              19.040625
            ],
            [
              72.707812,
              19.043359
            ],
            [
              72.702344,
              19.048828
            ]
          ]
        ]
      }
    },
    {
      "type": "Feature",
      "properties": {
        "spill_id": "sentinel_257",
        "confidence": 0.75
      },
      "geometry": {
        "type": "Polygon",
        "coordinates": [
          [
            [
              72.628516,
              19.121289
            ],
            [
              72.623047,
              19.121289
            ],
            [
              72.617578,
              19.11582
            ],
            [
              72.617578,
              19.111719
            ],
            [
              72.620312,
              19.108984
            ],
            [
              72.625781,
              19.108984
            ],
            [
              72.628516,
              19.111719
            ],
            [
              72.628516,
              19.113086
            ],
            [
              72.63125,
              19.11582
            ],
            [
              72.629883,
              19.117188
            ],
            [
              72.629883,
              19.119922
            ],
            [
              72.628516,
              19.121289
            ]
          ]
        ]
      }
    },
    {
      "type": "Feature",
      "properties": {
        "spill_id": "sentinel_257",
        "confidence": 0.75
      },
      "geometry": {
        "type": "Polygon",
        "coordinates": [
          [
            [
              72.655859,
              19.15
            ],
            [
              72.650391,
              19.124023
            ],
            [
              72.673633,
              19.107617
            ],
            [
              72.670898,
              19.069336
            ],
            [
              72.692773,
              19.048828
            ],
            [
              72.702344,
              19.05293
            ],
            [
              72.702344,
              19.126758
            ],
            [
              72.710547,
              19.134961
            ],
            [
              72.732422,
              19.134961
            ],
            [
              72.758398,
              19.098047
            ],
            [
              72.785742,
              19.093945
            ],
            [
              72.799414,
              19.113086
            ],
            [
              72.807617,
              19.102148
            ],
            [
              72.795312,
              19.087109
            ],
            [
              72.837695,
              19.05293
            ],
            [
              72.832227,
              19.037891
            ],
            [
              72.741992,
              19.040625
            ],
            [
              72.739258,
              19.024219
            ],
            [
              72.755664,
              19.016016
            ],
            [
              72.784375,
              19.024219
            ],
            [
              72.799414,
              19.006445
            ],
            [
              72.817187,
              19.00918
            ],
            [
              72.845898,
              18.992773
            ],
            [
              72.848633,
              19.128125
            ],
            [
              72.833594,
              19.132227
            ],
            [
              72.829492,
              19.15
            ],
            [
              72.655859,
              19.15
            ]
          ]
        ]
      }
    },
    {
      "type": "Feature",
      "properties": {
        "spill_id": "sentinel_257",
        "confidence": 0.75
      },
      "geometry": {
        "type": "Polygon",
        "coordinates": [
          [
            [
              72.516406,
              19.15
            ],
            [
              72.525977,
              19.124023
            ],
            [
              72.520508,
              19.113086
            ],
            [
              72.517773,
              19.083008
            ],
            [
              72.512305,
              19.080273
            ],
            [
              72.5,
              19.084375
            ],
            [
              72.5,
              19.036523
            ],
            [
              72.512305,
              19.036523
            ],
            [
              72.550586,
              19.017383
            ],
            [
              72.561523,
              19.017383
            ],
            [
              72.573828,
              19.024219
            ],
            [
              72.575195,
              19.058398
            ],
            [
              72.579297,
              19.0625
            ],
            [
              72.594336,
              19.058398
            ],
            [
              72.602539,
              19.037891
            ],
            [
              72.612109,
              19.036523
            ],
            [
              72.624414,
              19.050195
            ],
            [
              72.624414,
              19.055664
            ],
            [
              72.617578,
              19.0625
            ],
            [
              72.617578,
              19.070703
            ],
            [
              72.606641,
              19.076172
            ],
            [
              72.606641,
              19.088477
            ],
            [
              72.592969,
              19.09668
            ],
            [
              72.586133,
              19.110352
            ],
            [
              72.591602,
              19.126758
            ],
            [
              72.590234,
              19.15
            ],
            [
              72.516406,
              19.15
            ]
          ]
        ]
      }
    }
  ]
}