{
  "type": "FeatureCollection",
  "features": [
    {
      "type": "Feature",
      "properties": {
        "spill_id": "sentinel_328",
        "confidence": 0.77
      },
      "geometry": {
        "type": "Polygon",
        "coordinates": [
          [
            [
              72.710547,
              18.903906
            ],
            [
              72.707812,
              18.902539
            ],
            [
              72.707812,
              18.898438
            ],
            [
              72.720117,
              18.879297
            ],
            [
              72.721484,
              18.871094
            ],
            [
              72.726953,
              18.861523
            ],
            [
              72.724219,
              18.836914
            ],
            [
              72.72832,
              18.821875
            ],
            [
              72.739258,
              18.801367
            ],
            [
              72.75293,
              18.801367
            ],
            [
              72.754297,
              18.806836
            ],
            [
              72.750195,
              18.812305
            ],
            [
              72.750195,
              18.823242
            ],
            [
              72.755664,
              18.838281
            ],
            [
              72.755664,
              18.846484
            ],
            [
              72.747461,
              18.860156
            ],
            [
              72.746094,
              18.868359
            ],
            [
              72.733789,
              18.876562
            ],
            [
              72.731055,
              18.898438
            ],
            [
              72.722852,
              18.903906
            ],
            [
              72.716016,
              18.902539
            ],
            [
              72.710547,
              18.903906
            ]
          ]
        ]
      }
    },
    {
      "type": "Feature",
      "properties": {
        "spill_id": "sentinel_328",
        "confidence": 0.77
      },
      "geometry": {
        "type": "Polygon",
        "coordinates": [
          [
            [
              72.720117,
              18.918945
            ],
            [
              72.71875,
              18.920312
            ],
            [
              72.717383,
              18.920312
            ],
            [
              72.716016,
              18.92168
            ],
            [
              72.714648,
              18.92168
            ],
            [
              72.713281,
              18.920312
            ],
            [
              72.710547,
              18.920312
            ],
            [
              72.70918,
              18.918945
            ],
            [
              72.707812,
              18.918945
            ],
            [
              72.705078,
              18.916211
            ],
            [
              72.702344,
              18.916211
            ],
            [
              72.707812,
              18.916211
            ],
            [
              72.70918,
              18.914844
            ],
            [
              72.710547,
              18.916211
            ],
            [
              72.720117,
              18.916211
            ],
            [
              72.720117,
              18.918945
            ]
          ]
        ]
      }
    },
    {
      "type": "Feature",
      "properties": {
        "spill_id": "sentinel_328",
        "confidence": 0.77
      },
      "geometry": {
        "type": "Polygon",
        "coordinates": [
          [
            [
              72.810352,
              18.959961
            ],
            [
              72.810352,
              18.958594
            ],
            [
              72.808984,
              18.957227
            ],
            [
              72.808984,
              18.955859
            ],
            [
              72.810352,
              18.954492
            ],
            [
              72.810352,
              18.953125
            ],
            [
              72.811719,
              18.951758
            ],
            [
              72.813086,
              18.951758
            ],
            [
              72.817187,
              18.947656
            ],
            [
              72.821289,
              18.947656
            ],
            [
              72.821289,
              18.949023
            ],
            [
              72.822656,
              18.950391
            ],
            [
              72.822656,
              18.954492
            ],
            [
              72.818555,
              18.958594
            ],
            [
              72.817187,
              18.958594
            ],
            [
              72.814453,
              18.961328
            ],
            [
              72.813086,
              18.961328
            ],
            [
              72.811719,
              18.959961
            ],
            [
              72.810352,
              18.959961
            ]
          ]
        ]
      }
    },
    {
      "type": "Feature",
      "properties": {
        "spill_id": "sentinel_328",
        "confidence": 0.77
      },
      "geometry": {
        "type": "Polygon",
        "coordinates": [
          [
            [
              72.661328,
              18.981836
            ],
            [
              72.661328,
              18.976367
            ],
            [
              72.664062,
              18.973633
            ],
            [
              72.66543,
              18.973633
            ],
            [
              72.666797,
              18.972266
            ],
            [
              72.668164,
              18.972266
            ],
            [
              72.669531,
              18.970898
            ],
            [
              72.670898,
              18.970898
            ],
            [
              72.672266,
              18.969531
            ],
            [
              72.673633,
              18.969531
            ],
            [
              72.675,
              18.968164
            ],
            [
              72.675,
              18.966797
            ],
            [
              72.677734,
              18.964062
            ],
            [
              72.677734,
              18.962695
            ],
            [
              72.679102,
              18.962695
            ],
            [
              72.680469,
              18.961328
            ],
            [
              72.681836,
              18.962695
            ],
            [
              72.683203,
              18.961328
            ],
            [
              72.685938,
              18.964062
            ],
            [
              72.685938,
              18.96543
            ],
            [
              72.68457,
              18.966797
            ],
            [
              72.68457,
              18.969531
            ],
            [
              72.681836,
              18.972266
            ],
            [
              72.681836,
              18.973633
            ],
            [
              72.676367,
              18.979102
            ],
            [
              72.675,
              18.979102
            ],
            [
              72.673633,
              18.980469
            ],
            [
              72.672266,
              18.980469
            ],
            [
              72.668164,
              18.983203
            ],
            [
              72.662695,
              18.983203
            ],
            [
              72.661328,
              18.981836
            ]
          ]
        ]
      }
    },
    {
      "type": "Feature",
      "properties": {
        "spill_id": "sentinel_328",
        "confidence": 0.77
      },
      "geometry": {
        "type": "Polygon",
        "coordinates": [
          [
            [
              72.824023,
              18.991406
            ],
            [
              72.822656,
              18.990039
            ],
            [
              72.821289,
              18.990039
            ],
            [
              72.818555,
              18.987305
            ],
            [
              72.818555,
              18.985938
            ],
            [
              72.817187,
              18.98457
            ],
            [
              72.817187,
              18.981836
            ],
            [
              72.818555,
              18.980469
            ],
            [
              72.818555,
              18.979102
            ],
            [
              72.822656,
              18.975
            ],
            [
              72.826758,
              18.975
            ],
            [
              72.830859,
              18.979102
            ],
            [
              72.830859,
              18.980469
            ],
            [
              72.832227,
              18.981836
            ],
            [
              72.832227,
              18.983203
            ],
            [
              72.830859,
              18.98457
            ],
            [
              72.830859,
              18.985938
            ],
            [
              72.829492,
              18.987305
            ],
            [
              72.829492,
              18.988672
            ],
            [
              72.828125,
              18.990039
            ],
            [
              72.826758,
              18.990039
            ],
            [
              72.825391,
              18.991406
            ],
            [
              72.824023,
              18.991406
            ]
          ]
        ]
      }
    },
    {
      "type": "Feature",
      "properties": {
        "spill_id": "sentinel_328",
        "confidence": 0.77
      },
      "geometry": {
        "type": "Polygon",
        "coordinates": [
          [
            [
              72.633984,
              19.010547
            ],
            [
              72.632617,
              19.010547
            ],
            [
              72.63125,
              19.011914
            ],
            [
              72.628516,
              19.011914
            ],
            [
              72.627148,
              19.013281
            ],
            [
              72.624414,
              19.013281
            ],
            [
              72.620312,
              19.00918
            ],
            [
              72.620312,
              19.007812
            ],
            [
              72.618945,
              19.006445
            ],
            [
              72.618945,
              19.003711
            ],
            [
              72.617578,
              19.002344
            ],
            [
              72.617578,
              18.994141
            ],
            [
              72.62168,
              18.990039
            ],
            [
              72.624414,
              18.990039
            ],
            [
              72.625781,
              18.991406
            ],
            [
              72.629883,
              18.991406
            ],
            [
              72.63125,
              18.992773
            ],
            [
              72.632617,
              18.992773
            ],
            [
              72.636719,
              18.996875
            ],
            [
              72.636719,
              18.999609
            ],
            [
              72.638086,
              19.000977
            ],
            [
              72.638086,
              19.006445
            ],
            [
              72.633984,
              19.010547
            ]
          ]
        ]
      }
    },
    {
      "type": "Feature",
      "properties": {
        "spill_id": "sentinel_328",
        "confidence": 0.77
      },
      "geometry": {
        "type": "Polygon",
        "coordinates": [
          [
            [
              72.546484,
              19.055664
            ],
            [
              72.54375,
              19.044727
            ],
            [
              72.547852,
              19.031055
            ],
            [
              72.556055,
              19.017383
            ],
            [
              72.568359,
              19.003711
            ],
            [
              72.569727,
              18.991406
            ],
            [
              72.566992,
              18.983203
            ],
            [
              72.568359,
              18.977734
            ],
            [
              72.579297,
              18.975
            ],
            [
              72.583398,
              18.970898
            ],
            [
              72.602539,
              18.961328
            ],
            [
              72.608008,
              18.961328
            ],
            [
              72.610742,
              18.969531
            ],
            [
              72.608008,
              18.973633
            ],
            [
              72.602539,
              18.975
            ],
            [
              72.598438,
              18.979102
            ],
            [
              72.591602,
              18.995508
            ],
            [
              72.586133,
              19.002344
            ],
            [
              72.584766,
              19.01875
            ],
            [
              72.580664,
              19.022852
            ],
            [
              72.568359,
              19.02832
            ],
            [
              72.564258,
              19.033789
            ],
            [
              72.560156,
              19.046094
            ],
            [
              72.546484,
              19.055664
            ]
          ]
        ]
      }
    },
    {
      "type": "Feature",
      "properties": {
        "spill_id": "sentinel_328",
        "confidence": 0.77
      },
      "geometry": {
        "type": "Polygon",
        "coordinates": [
          [
            [
              72.528711,
              19.076172
            ],
            [
              72.525977,
              19.073438
            ],
            [
              72.525977,
              19.069336
            ],
            [
              72.528711,
              19.066602
            ],
            [
              72.528711,
              19.065234
            ],
            [
              72.530078,
              19.063867
            ],
            [
              72.531445,
              19.063867
            ],
            [
              72.532812,
              19.0625
            ],
            [
              72.539648,
              19.0625
            ],
            [
              72.541016,
              19.061133
            ],
            [
              72.541016,
              19.0625
            ],
            [
              72.542383,
              19.063867
            ],
            [
              72.542383,
              19.065234
            ],
            [
              72.541016,
              19.066602
            ],
            [
              72.541016,
              19.070703
            ],
            [
              72.539648,
              19.07207
            ],
            [
              72.539648,
              19.073438
            ],
            [
              72.538281,
              19.073438
            ],
            [
              72.536914,
              19.074805
            ],
            [
              72.53418,
              19.074805
            ],
            [
              72.532812,
              19.076172
            ],
            [
              72.528711,
              19.076172
            ]
          ]
        ]
      }
    },
    {
      "type": "Feature",
      "properties": {
        "spill_id": "sentinel_328",
        "confidence": 0.77
      },
      "geometry": {
        "type": "Polygon",
        "coordinates": [
          [
            [
              72.800781,
              19.132227
            ],
            [
              72.799414,
              19.130859
            ],
            [
              72.799414,
              19.11582
            ],
            [
              72.803516,
              19.111719
            ],
            [
              72.804883,
              19.111719
            ],
            [
              72.813086,
              19.102148
            ],
            [
              72.81582,
              19.091211
            ],
            [
              72.819922,
              19.088477
            ],
            [
              72.824023,
              19.083008
            ],
            [
              72.822656,
              19.081641
            ],
            [
              72.824023,
              19.080273
            ],
            [
              72.824023,
              19.074805
            ],
            [
              72.826758,
              19.07207
            ],
            [
              72.829492,
              19.07207
            ],
            [
              72.830859,
              19.070703
            ],
            [
              72.834961,
              19.073438
            ],
            [
              72.834961,
              19.078906
            ],
            [
              72.829492,
              19.088477
            ],
            [
              72.829492,
              19.100781
            ],
            [
              72.826758,
              19.10625
            ],
            [
              72.818555,
              19.11582
            ],
            [
              72.817187,
              19.119922
            ],
            [
              72.810352,
              19.129492
            ],
            [
              72.80625,
              19.132227
            ],
            [
              72.800781,
              19.132227
            ]
          ]
        ]
      }
    },
    {
      "type": "Feature",
      "properties": {
        "spill_id": "sentinel_328",
        "confidence": 0.77
      },
      "geometry": {
        "type": "Polygon",
        "coordinates": [
          [
            [
              72.616211,
              19.15
            ],
            [
              72.616211,
              19.148633
            ],
            [
              72.614844,
              19.147266
            ],
            [
              72.614844,
              19.14043
            ],
            [
              72.618945,
              19.134961
            ],
            [
              72.620312,
              19.134961
            ],
            [
              72.62168,
              19.133594
            ],
            [
              72.635352,
              19.133594
            ],
            [
              72.642187,
              19.126758
            ],
            [
              72.643555,
              19.126758
            ],
            [
              72.646289,
              19.124023
            ],
            [
              72.653125,
              19.124023
            ],
            [
              72.654492,
              19.125391
            ],
            [
              72.654492,
              19.130859
            ],
            [
              72.651758,
              19.133594
            ],
            [
              72.650391,
              19.133594
            ],
            [
              72.642187,
              19.141797
            ],
            [
              72.639453,
              19.141797
            ],
            [
              72.638086,
              19.143164
            ],
            [
              72.633984,
              19.144531
            ],
            [
              72.629883,
              19.148633
            ],
            [
              72.629883,
              19.15
            ],
            [
              72.616211,
              19.15
            ]
          ]
        ]
      }
    }
  ]
}