{
  "type": "FeatureCollection",
  "features": [
    {
      "type": "Feature",
      "properties": {
        "spill_id": "sentinel_336",
        "confidence": 0.95
      },
      "geometry": {
        "type": "Polygon",
        "coordinates": [
          [
            [
              72.520508,
              19.15
            ],
            [
              72.541016,
              19.10625
            ],
            [
              72.516406,
              19.070703
            ],
            [
              72.515039,
              19.039258
            ],
            [
              72.5,
              19.031055
            ],
            [
              72.5,
              18.862891
            ],
            [
              72.547852,
              18.851953
            ],
            [
              72.584766,
              18.801367
            ],
            [
              72.848633,
              18.801367
            ],
            [
              72.843164,
              19.15
            ],
            [
              72.802148,
              19.148633
            ],
            [
              72.800781,
              19.077539
            ],
            [
              72.759766,
              19.041992
            ],
            [
              72.722852,
              19.070703
            ],
            [
              72.66543,
              19.085742
            ],
            [
              72.642187,
              19.118555
            ],
            [
              72.623047,
              19.113086
            ],
            [
              72.599805,
              19.076172
            ],
            [
              72.592969,
              19.100781
            ],
            [
              72.558789,
              19.121289
            ],
            [
              72.569727,
              19.15
            ],
            [
              72.520508,
              19.15
            ]
          ]
        ]
      }
    }
  ]
}