{
  "type": "FeatureCollection",
  "features": [
    {
      "type": "Feature",
      "properties": {
        "spill_id": "sentinel_179",
        "confidence": 0.81
      },
      "geometry": {
        "type": "Polygon",
        "coordinates": [
          [
            [
              72.848633,
              18.864258
            ],
            [
              72.845898,
              18.864258
            ],
            [
              72.843164,
              18.861523
            ],
            [
              72.841797,
              18.861523
            ],
            [
              72.841797,
              18.857422
            ],
            [
              72.839062,
              18.85332
            ],
            [
              72.839062,
              18.849219
            ],
            [
              72.836328,
              18.845117
            ],
            [
              72.836328,
              18.842383
            ],
            [
              72.837695,
              18.841016
            ],
            [
              72.837695,
              18.836914
            ],
            [
              72.843164,
              18.828711
            ],
            [
              72.84043,
              18.825977
            ],
            [
              72.837695,
              18.825977
            ],
            [
              72.833594,
              18.828711
            ],
            [
              72.829492,
              18.828711
            ],
            [
              72.829492,
              18.825977
            ],
            [
              72.830859,
              18.824609
            ],
            [
              72.833594,
              18.824609
            ],
            [
              72.839062,
              18.819141
            ],
            [
              72.841797,
              18.817773
            ],
            [
              72.843164,
              18.819141
            ],
            [
              72.848633,
              18.819141
            ],
            [
              72.848633,
              18.864258
            ]
          ]
        ]
      }
    },
    {
      "type": "Feature",
      "properties": {
        "spill_id": "sentinel_179",
        "confidence": 0.81
      },
      "geometry": {
        "type": "Polygon",
        "coordinates": [
          [
            [
              72.521875,
              19.059766
            ],
            [
              72.519141,
              19.059766
            ],
            [
              72.517773,
              19.058398
            ],
            [
              72.516406,
              19.058398
            ],
            [
              72.516406,
              19.057031
            ],
            [
              72.515039,
              19.055664
            ],
            [
              72.515039,
              19.046094
            ],
            [
              72.513672,
              19.044727
            ],
            [
              72.513672,
              19.043359
            ],
            [
              72.515039,
              19.041992
            ],
            [
              72.515039,
              19.039258
            ],
            [
              72.516406,
              19.037891
            ],
            [
              72.515039,
              19.036523
            ],
            [
              72.515039,
              19.035156
            ],
            [
              72.512305,
              19.032422
            ],
            [
              72.512305,
              19.031055
            ],
            [
              72.513672,
              19.029687
            ],
            [
              72.513672,
              19.02832
            ],
            [
              72.516406,
              19.02832
            ],
            [
              72.516406,
              19.031055
            ],
            [
              72.517773,
              19.032422
            ],
            [
              72.517773,
              19.039258
            ],
            [
              72.520508,
              19.041992
            ],
            [
              72.520508,
              19.043359
            ],
            [
              72.521875,
              19.044727
            ],
            [
              72.521875,
              19.047461
            ],
            [
              72.523242,
              19.048828
            ],
            [
              72.523242,
              19.058398
            ],
            [
              72.521875,
              19.059766
            ]
          ]
        ]
      }
    },
    {
      "type": "Feature",
      "properties": {
        "spill_id": "sentinel_179",
        "confidence": 0.81
      },
      "geometry": {
        "type": "Polygon",
        "coordinates": [
          [
            [
              72.848633,
              19.087109
            ],
            [
              72.804883,
              19.104883
            ],
            [
              72.743359,
              19.007812
            ],
            [
              72.688672,
              19.043359
            ],
            [
              72.699609,
              18.999609
            ],
            [
              72.677734,
              18.994141
            ],
            [
              72.661328,
              18.96543
            ],
            [
              72.5875,
              18.939453
            ],
            [
              72.620312,
              18.882031
            ],
            [
              72.599805,
              18.862891
            ],
            [
              72.591602,
              18.908008
            ],
            [
              72.564258,
              18.920312
            ],
            [
              72.571094,
              18.985938
            ],
            [
              72.554688,
              18.968164
            ],
            [
              72.556055,
              18.932617
            ],
            [
              72.539648,
              18.924414
            ],
            [
              72.525977,
              18.942188
            ],
            [
              72.528711,
              18.998242
            ],
            [
              72.5,
              19.01875
            ],
            [
              72.512305,
              18.916211
            ],
            [
              72.5,
              18.895703
            ],
            [
              72.512305,
              18.872461
            ],
            [
              72.5,
              18.801367
            ],
            [
              72.627148,
              18.801367
            ],
            [
              72.617578,
              18.816406
            ],
            [
              72.628516,
              18.830078
            ],
            [
              72.659961,
              18.819141
            ],
            [
              72.669531,
              18.832812
            ],
            [
              72.681836,
              18.801367
            ],
            [
              72.700977,
              18.802734
            ],
            [
              72.717383,
              18.830078
            ],
            [
              72.748828,
              18.802734
            ],
            [
              72.770703,
              18.836914
            ],
            [
              72.795312,
              18.831445
            ],
            [
              72.800781,
              18.85332
            ],
            [
              72.825391,
              18.851953
            ],
            [
              72.848633,
              18.879297
            ],
            [
              72.848633,
              19.087109
            ]
          ]
        ]
      }
    },
    {
      "type": "Feature",
      "properties": {
        "spill_id": "sentinel_179",
        "confidence": 0.81
      },
      "geometry": {
        "type": "Polygon",
        "coordinates": [
          [
            [
              72.516406,
              19.117188
            ],
            [
              72.515039,
              19.11582
            ],
            [
              72.513672,
              19.11582
            ],
            [
              72.515039,
              19.114453
            ],
            [
              72.515039,
              19.108984
            ],
            [
              72.516406,
              19.107617
            ],
            [
              72.516406,
              19.103516
            ],
            [
              72.517773,
              19.102148
            ],
            [
              72.517773,
              19.099414
            ],
            [
              72.519141,
              19.098047
            ],
            [
              72.519141,
              19.093945
            ],
            [
              72.520508,
              19.093945
            ],
            [
              72.521875,
              19.092578
            ],
            [
              72.524609,
              19.095312
            ],
            [
              72.524609,
              19.09668
            ],
            [
              72.525977,
              19.098047
            ],
            [
              72.528711,
              19.098047
            ],
            [
              72.527344,
              19.099414
            ],
            [
              72.527344,
              19.102148
            ],
            [
              72.524609,
              19.104883
            ],
            [
              72.524609,
              19.10625
            ],
            [
              72.523242,
              19.107617
            ],
            [
              72.523242,
              19.108984
            ],
            [
              72.521875,
              19.110352
            ],
            [
              72.521875,
              19.111719
            ],
            [
              72.520508,
              19.113086
            ],
            [
              72.520508,
              19.114453
            ],
            [
              72.519141,
              19.11582
            ],
            [
              72.517773,
              19.11582
            ],
            [
              72.516406,
              19.117188
            ]
          ]
        ]
      }
    },
    {
      "type": "Feature",
      "properties": {
        "spill_id": "sentinel_179",
        "confidence": 0.81
      },
      "geometry": {
        "type": "Polygon",
        "coordinates": [
          [
            [
              72.513672,
              19.15
            ],
            [
              72.512305,
              19.148633
            ],
            [
              72.512305,
              19.147266
            ],
            [
              72.510938,
              19.145898
            ],
            [
              72.510938,
              19.14043
            ],
            [
              72.512305,
              19.139062
            ],
            [
              72.512305,
              19.137695
            ],
            [
              72.519141,
              19.130859
            ],
            [
              72.520508,
              19.130859
            ],
            [
              72.521875,
              19.129492
            ],
            [
              72.524609,
              19.129492
            ],
            [
              72.525977,
              19.130859
            ],
            [
              72.527344,
              19.130859
            ],
            [
              72.530078,
              19.133594
            ],
            [
              72.530078,
              19.14043
            ],
            [
              72.527344,
              19.143164
            ],
            [
              72.527344,
              19.144531
            ],
            [
              72.523242,
              19.148633
            ],
            [
              72.523242,
              19.15
            ],
            [
              72.513672,
              19.15
            ]
          ]
        ]
      }
    }
  ]
}