{
  "type": "FeatureCollection",
  "features": [
    {
      "type": "Feature",
      "properties": {
        "spill_id": "sentinel_413",
        "confidence": 0.99
      },
      "geometry": {
        "type": "Polygon",
        "coordinates": [
          [
            [
              72.5,
              19.15
            ],
            [
              72.5,
              18.821875
            ],
            [
              72.556055,
              18.847852
            ],
            [
              72.655859,
              18.869727
            ],
            [
              72.705078,
              18.864258
            ],
            [
              72.747461,
              18.873828
            ],
            [
              72.787109,
              18.84375
            ],
            [
              72.848633,
              18.858789
            ],
            [
              72.848633,
              19.15
            ],
            [
              72.5,
              19.15
            ]
          ]
        ]
      }
    }
  ]
}