{
  "type": "FeatureCollection",
  "features": [
    {
      "type": "Feature",
      "properties": {
        "spill_id": "sentinel_581",
        "confidence": 0.87
      },
      "geometry": {
        "type": "Polygon",
        "coordinates": [
          [
            [
              72.5,
              18.98457
            ],
            [
              72.5,
              18.962695
            ],
            [
              72.501367,
              18.961328
            ],
            [
              72.508203,
              18.961328
            ],
            [
              72.510938,
              18.964062
            ],
            [
              72.512305,
              18.964062
            ],
            [
              72.516406,
              18.968164
            ],
            [
              72.516406,
              18.969531
            ],
            [
              72.517773,
              18.970898
            ],
            [
              72.517773,
              18.972266
            ],
            [
              72.519141,
              18.973633
            ],
            [
              72.519141,
              18.975
            ],
            [
              72.520508,
              18.976367
            ],
            [
              72.517773,
              18.979102
            ],
            [
              72.516406,
              18.979102
            ],
            [
              72.515039,
              18.980469
            ],
            [
              72.508203,
              18.980469
            ],
            [
              72.506836,
              18.981836
            ],
            [
              72.504102,
              18.981836
            ],
            [
              72.501367,
              18.98457
            ],
            [
              72.5,
              18.98457
            ]
          ]
        ]
      }
    },
    {
      "type": "Feature",
      "properties": {
        "spill_id": "sentinel_581",
        "confidence": 0.87
      },
      "geometry": {
        "type": "Polygon",
        "coordinates": [
          [
            [
              72.5,
              19.084375
            ],
            [
              72.5,
              19.037891
            ],
            [
              72.516406,
              19.043359
            ],
            [
              72.525977,
              19.035156
            ],
            [
              72.517773,
              19.021484
            ],
            [
              72.5,
              19.016016
            ],
            [
              72.506836,
              18.996875
            ],
            [
              72.525977,
              18.981836
            ],
            [
              72.546484,
              18.981836
            ],
            [
              72.588867,
              18.94082
            ],
            [
              72.620312,
              18.932617
            ],
            [
              72.64082,
              18.899805
            ],
            [
              72.685938,
              18.94082
            ],
            [
              72.740625,
              18.927148
            ],
            [
              72.741992,
              18.94082
            ],
            [
              72.731055,
              18.947656
            ],
            [
              72.748828,
              18.954492
            ],
            [
              72.833594,
              18.888867
            ],
            [
              72.848633,
              18.886133
            ],
            [
              72.845898,
              19.011914
            ],
            [
              72.800781,
              19.005078
            ],
            [
              72.635352,
              19.050195
            ],
            [
              72.628516,
              19.063867
            ],
            [
              72.601172,
              19.076172
            ],
            [
              72.5,
              19.084375
            ]
          ]
        ]
      }
    },
    {
      "type": "Feature",
      "properties": {
        "spill_id": "sentinel_581",
        "confidence": 0.87
      },
      "geometry": {
        "type": "Polygon",
        "coordinates": [
          [
            [
              72.833594,
              19.15
            ],
            [
              72.833594,
              19.148633
            ],
            [
              72.836328,
              19.145898
            ],
            [
              72.836328,
              19.144531
            ],
            [
              72.84043,
              19.14043
            ],
            [
              72.845898,
              19.14043
            ],
            [
              72.847266,
              19.141797
            ],
            [
              72.848633,
              19.141797
            ],
            [
              72.848633,
              19.15
            ],
            [
              72.833594,
              19.15
            ]
          ]
        ]
      }
    }
  ]
}