{
  "type": "FeatureCollection",
  "features": [
    {
      "type": "Feature",
      "properties": {
        "spill_id": "sentinel_229",
        "confidence": 0.83
      },
      "geometry": {
        "type": "Polygon",
        "coordinates": [
          [
            [
              72.550586,
              18.876562
            ],
            [
              72.54375,
              18.873828
            ],
            [
              72.535547,
              18.87793
            ],
            [
              72.532812,
              18.876562
            ],
            [
              72.531445,
              18.869727
            ],
            [
              72.528711,
              18.866992
            ],
            [
              72.521875,
              18.865625
            ],
            [
              72.517773,
              18.861523
            ],
            [
              72.512305,
              18.845117
            ],
            [
              72.505469,
              18.838281
            ],
            [
              72.5,
              18.835547
            ],
            [
              72.5,
              18.825977
            ],
            [
              72.508203,
              18.816406
            ],
            [
              72.510938,
              18.815039
            ],
            [
              72.516406,
              18.816406
            ],
            [
              72.519141,
              18.819141
            ],
            [
              72.524609,
              18.831445
            ],
            [
              72.54375,
              18.847852
            ],
            [
              72.549219,
              18.854688
            ],
            [
              72.551953,
              18.860156
            ],
            [
              72.550586,
              18.864258
            ],
            [
              72.551953,
              18.875195
            ],
            [
              72.550586,
              18.876562
            ]
          ]
        ]
      }
    },
    {
      "type": "Feature",
      "properties": {
        "spill_id": "sentinel_229",
        "confidence": 0.83
      },
      "geometry": {
        "type": "Polygon",
        "coordinates": [
          [
            [
              72.603906,
              18.890234
            ],
            [
              72.595703,
              18.8875
            ],
            [
              72.57793,
              18.85332
            ],
            [
              72.566992,
              18.841016
            ],
            [
              72.549219,
              18.830078
            ],
            [
              72.539648,
              18.810938
            ],
            [
              72.524609,
              18.812305
            ],
            [
              72.523242,
              18.80957
            ],
            [
              72.527344,
              18.801367
            ],
            [
              72.542383,
              18.802734
            ],
            [
              72.558789,
              18.820508
            ],
            [
              72.565625,
              18.821875
            ],
            [
              72.582031,
              18.838281
            ],
            [
              72.599805,
              18.869727
            ],
            [
              72.605273,
              18.883398
            ],
            [
              72.603906,
              18.890234
            ]
          ]
        ]
      }
    },
    {
      "type": "Feature",
      "properties": {
        "spill_id": "sentinel_229",
        "confidence": 0.83
      },
      "geometry": {
        "type": "Polygon",
        "coordinates": [
          [
            [
              72.848633,
              18.908008
            ],
            [
              72.837695,
              18.906641
            ],
            [
              72.826758,
              18.891602
            ],
            [
              72.811719,
              18.879297
            ],
            [
              72.80625,
              18.862891
            ],
            [
              72.798047,
              18.854688
            ],
            [
              72.793945,
              18.828711
            ],
            [
              72.784375,
              18.828711
            ],
            [
              72.773438,
              18.815039
            ],
            [
              72.763867,
              18.816406
            ],
            [
              72.726953,
              18.80957
            ],
            [
              72.722852,
              18.806836
            ],
            [
              72.722852,
              18.802734
            ],
            [
              72.807617,
              18.801367
            ],
            [
              72.819922,
              18.813672
            ],
            [
              72.822656,
              18.824609
            ],
            [
              72.848633,
              18.849219
            ],
            [
              72.848633,
              18.908008
            ]
          ]
        ]
      }
    },
    {
      "type": "Feature",
      "properties": {
        "spill_id": "sentinel_229",
        "confidence": 0.83
      },
      "geometry": {
        "type": "Polygon",
        "coordinates": [
          [
            [
              72.551953,
              18.944922
            ],
            [
              72.550586,
              18.944922
            ],
            [
              72.549219,
              18.946289
            ],
            [
              72.541016,
              18.946289
            ],
            [
              72.539648,
              18.944922
            ],
            [
              72.535547,
              18.944922
            ],
            [
              72.53418,
              18.943555
            ],
            [
              72.530078,
              18.943555
            ],
            [
              72.527344,
              18.94082
            ],
            [
              72.527344,
              18.936719
            ],
            [
              72.523242,
              18.93125
            ],
            [
              72.523242,
              18.924414
            ],
            [
              72.525977,
              18.92168
            ],
            [
              72.525977,
              18.918945
            ],
            [
              72.527344,
              18.917578
            ],
            [
              72.527344,
              18.916211
            ],
            [
              72.525977,
              18.914844
            ],
            [
              72.525977,
              18.910742
            ],
            [
              72.527344,
              18.909375
            ],
            [
              72.531445,
              18.909375
            ],
            [
              72.532812,
              18.910742
            ],
            [
              72.536914,
              18.912109
            ],
            [
              72.538281,
              18.913477
            ],
            [
              72.538281,
              18.914844
            ],
            [
              72.54375,
              18.920312
            ],
            [
              72.545117,
              18.920312
            ],
            [
              72.547852,
              18.923047
            ],
            [
              72.549219,
              18.923047
            ],
            [
              72.549219,
              18.924414
            ],
            [
              72.551953,
              18.927148
            ],
            [
              72.551953,
              18.93125
            ],
            [
              72.55332,
              18.932617
            ],
            [
              72.55332,
              18.942188
            ],
            [
              72.551953,
              18.943555
            ],
            [
              72.551953,
              18.944922
            ]
          ]
        ]
      }
    },
    {
      "type": "Feature",
      "properties": {
        "spill_id": "sentinel_229",
        "confidence": 0.83
      },
      "geometry": {
        "type": "Polygon",
        "coordinates": [
          [
            [
              72.848633,
              19.01875
            ],
            [
              72.833594,
              19.01875
            ],
            [
              72.825391,
              19.029687
            ],
            [
              72.819922,
              19.029687
            ],
            [
              72.788477,
              19.007812
            ],
            [
              72.761133,
              18.998242
            ],
            [
              72.741992,
              18.977734
            ],
            [
              72.706445,
              18.979102
            ],
            [
              72.688672,
              18.955859
            ],
            [
              72.662695,
              18.947656
            ],
            [
              72.64082,
              18.93125
            ],
            [
              72.635352,
              18.917578
            ],
            [
              72.711914,
              18.951758
            ],
            [
              72.748828,
              18.976367
            ],
            [
              72.788477,
              18.988672
            ],
            [
              72.829492,
              19.017383
            ],
            [
              72.837695,
              19.00918
            ],
            [
              72.845898,
              19.007812
            ],
            [
              72.848633,
              19.01875
            ]
          ]
        ]
      }
    },
    {
      "type": "Feature",
      "properties": {
        "spill_id": "sentinel_229",
        "confidence": 0.83
      },
      "geometry": {
        "type": "Polygon",
        "coordinates": [
          [
            [
              72.521875,
              19.110352
            ],
            [
              72.517773,
              19.107617
            ],
            [
              72.516406,
              19.100781
            ],
            [
              72.517773,
              19.099414
            ],
            [
              72.519141,
              19.085742
            ],
            [
              72.524609,
              19.073438
            ],
            [
              72.525977,
              19.065234
            ],
            [
              72.515039,
              19.051562
            ],
            [
              72.515039,
              19.039258
            ],
            [
              72.517773,
              19.029687
            ],
            [
              72.523242,
              19.024219
            ],
            [
              72.527344,
              19.024219
            ],
            [
              72.53418,
              19.035156
            ],
            [
              72.532812,
              19.05293
            ],
            [
              72.542383,
              19.0625
            ],
            [
              72.545117,
              19.073438
            ],
            [
              72.54375,
              19.074805
            ],
            [
              72.542383,
              19.092578
            ],
            [
              72.539648,
              19.102148
            ],
            [
              72.53418,
              19.107617
            ],
            [
              72.528711,
              19.110352
            ],
            [
              72.521875,
              19.110352
            ]
          ]
        ]
      }
    },
    {
      "type": "Feature",
      "properties": {
        "spill_id": "sentinel_229",
        "confidence": 0.83
      },
      "geometry": {
        "type": "Polygon",
        "coordinates": [
          [
            [
              72.848633,
              19.11582
            ],
            [
              72.841797,
              19.117188
            ],
            [
              72.822656,
              19.104883
            ],
            [
              72.819922,
              19.098047
            ],
            [
              72.80625,
              19.085742
            ],
            [
              72.804883,
              19.081641
            ],
            [
              72.795312,
              19.070703
            ],
            [
              72.785742,
              19.0625
            ],
            [
              72.780273,
              19.055664
            ],
            [
              72.778906,
              19.050195
            ],
            [
              72.778906,
              19.039258
            ],
            [
              72.781641,
              19.036523
            ],
            [
              72.788477,
              19.037891
            ],
            [
              72.800781,
              19.050195
            ],
            [
              72.804883,
              19.051562
            ],
            [
              72.822656,
              19.067969
            ],
            [
              72.829492,
              19.070703
            ],
            [
              72.833594,
              19.074805
            ],
            [
              72.841797,
              19.09668
            ],
            [
              72.848633,
              19.10625
            ],
            [
              72.848633,
              19.11582
            ]
          ]
        ]
      }
    },
    {
      "type": "Feature",
      "properties": {
        "spill_id": "sentinel_229",
        "confidence": 0.83
      },
      "geometry": {
        "type": "Polygon",
        "coordinates": [
          [
            [
              72.722852,
              19.108984
            ],
            [
              72.705078,
              19.117188
            ],
            [
              72.680469,
              19.113086
            ],
            [
              72.672266,
              19.119922
            ],
            [
              72.657227,
              19.093945
            ],
            [
              72.638086,
              19.084375
            ],
            [
              72.654492,
              19.066602
            ],
            [
              72.658594,
              19.054297
            ],
            [
              72.643555,
              19.020117
            ],
            [
              72.642187,
              18.995508
            ],
            [
              72.632617,
              18.980469
            ],
            [
              72.625781,
              18.953125
            ],
            [
              72.617578,
              18.953125
            ],
            [
              72.613477,
              18.947656
            ],
            [
              72.618945,
              18.94082
            ],
            [
              72.633984,
              18.942188
            ],
            [
              72.632617,
              18.950391
            ],
            [
              72.654492,
              18.979102
            ],
            [
              72.659961,
              18.992773
            ],
            [
              72.659961,
              19.007812
            ],
            [
              72.672266,
              19.020117
            ],
            [
              72.670898,
              19.029687
            ],
            [
              72.680469,
              19.046094
            ],
            [
              72.696875,
              19.05293
            ],
            [
              72.721484,
              19.073438
            ],
            [
              72.71875,
              19.084375
            ],
            [
              72.726953,
              19.092578
            ],
            [
              72.722852,
              19.108984
            ]
          ]
        ]
      }
    },
    {
      "type": "Feature",
      "properties": {
        "spill_id": "sentinel_229",
        "confidence": 0.83
      },
      "geometry": {
        "type": "Polygon",
        "coordinates": [
          [
            [
              72.670898,
              19.139062
            ],
            [
              72.669531,
              19.139062
            ],
            [
              72.668164,
              19.14043
            ],
            [
              72.659961,
              19.14043
            ],
            [
              72.658594,
              19.139062
            ],
            [
              72.655859,
              19.139062
            ],
            [
              72.654492,
              19.137695
            ],
            [
              72.650391,
              19.137695
            ],
            [
              72.649023,
              19.136328
            ],
            [
              72.644922,
              19.136328
            ],
            [
              72.643555,
              19.134961
            ],
            [
              72.64082,
              19.134961
            ],
            [
              72.636719,
              19.130859
            ],
            [
              72.636719,
              19.124023
            ],
            [
              72.638086,
              19.122656
            ],
            [
              72.638086,
              19.121289
            ],
            [
              72.639453,
              19.121289
            ],
            [
              72.64082,
              19.119922
            ],
            [
              72.646289,
              19.119922
            ],
            [
              72.647656,
              19.121289
            ],
            [
              72.651758,
              19.121289
            ],
            [
              72.653125,
              19.122656
            ],
            [
              72.664062,
              19.122656
            ],
            [
              72.66543,
              19.124023
            ],
            [
              72.666797,
              19.124023
            ],
            [
              72.666797,
              19.125391
            ],
            [
              72.669531,
              19.129492
            ],
            [
              72.669531,
              19.132227
            ],
            [
              72.670898,
              19.133594
            ],
            [
              72.670898,
              19.139062
            ]
          ]
        ]
      }
    }
  ]
}