{
  "type": "FeatureCollection",
  "features": [
    {
      "type": "Feature",
      "properties": {
        "spill_id": "sentinel_168",
        "confidence": 0.94
      },
      "geometry": {
        "type": "Polygon",
        "coordinates": [
          [
            [
              72.792578,
              18.813672
            ],
            [
              72.791211,
              18.812305
            ],
            [
              72.788477,
              18.812305
            ],
            [
              72.787109,
              18.810938
            ],
            [
              72.784375,
              18.810938
            ],
            [
              72.780273,
              18.806836
            ],
            [
              72.780273,
              18.805469
            ],
            [
              72.778906,
              18.804102
            ],
            [
              72.778906,
              18.802734
            ],
            [
              72.780273,
              18.801367
            ],
            [
              72.793945,
              18.801367
            ],
            [
              72.795312,
              18.802734
            ],
            [
              72.793945,
              18.804102
            ],
            [
              72.793945,
              18.810938
            ],
            [
              72.792578,
              18.812305
            ],
            [
              72.792578,
              18.813672
            ]
          ]
        ]
      }
    },
    {
      "type": "Feature",
      "properties": {
        "spill_id": "sentinel_168",
        "confidence": 0.94
      },
      "geometry": {
        "type": "Polygon",
        "coordinates": [
          [
            [
              72.614844,
              18.813672
            ],
            [
              72.613477,
              18.812305
            ],
            [
              72.610742,
              18.812305
            ],
            [
              72.609375,
              18.810938
            ],
            [
              72.608008,
              18.810938
            ],
            [
              72.606641,
              18.80957
            ],
            [
              72.606641,
              18.802734
            ],
            [
              72.608008,
              18.801367
            ],
            [
              72.616211,
              18.801367
            ],
            [
              72.617578,
              18.802734
            ],
            [
              72.617578,
              18.804102
            ],
            [
              72.618945,
              18.805469
            ],
            [
              72.617578,
              18.806836
            ],
            [
              72.617578,
              18.80957
            ],
            [
              72.616211,
              18.810938
            ],
            [
              72.616211,
              18.812305
            ],
            [
              72.614844,
              18.813672
            ]
          ]
        ]
      }
    },
    {
      "type": "Feature",
      "properties": {
        "spill_id": "sentinel_168",
        "confidence": 0.94
      },
      "geometry": {
        "type": "Polygon",
        "coordinates": [
          [
            [
              72.675,
              18.804102
            ],
            [
              72.675,
              18.802734
            ],
            [
              72.676367,
              18.801367
            ],
            [
              72.68457,
              18.801367
            ],
            [
              72.685938,
              18.802734
            ],
            [
              72.688672,
              18.802734
            ],
            [
              72.690039,
              18.801367
            ],
            [
              72.713281,
              18.801367
            ],
            [
              72.713281,
              18.808203
            ],
            [
              72.707812,
              18.815039
            ],
            [
              72.707812,
              18.817773
            ],
            [
              72.706445,
              18.819141
            ],
            [
              72.706445,
              18.821875
            ],
            [
              72.705078,
              18.823242
            ],
            [
              72.705078,
              18.824609
            ],
            [
              72.694141,
              18.824609
            ],
            [
              72.690039,
              18.819141
            ],
            [
              72.690039,
              18.812305
            ],
            [
              72.687305,
              18.808203
            ],
            [
              72.687305,
              18.804102
            ],
            [
              72.685938,
              18.802734
            ],
            [
              72.68457,
              18.804102
            ],
            [
              72.68457,
              18.805469
            ],
            [
              72.677734,
              18.805469
            ],
            [
              72.676367,
              18.804102
            ],
            [
              72.675,
              18.804102
            ]
          ]
        ]
      }
    },
    {
      "type": "Feature",
      "properties": {
        "spill_id": "sentinel_168",
        "confidence": 0.94
      },
      "geometry": {
        "type": "Polygon",
        "coordinates": [
          [
            [
              72.761133,
              18.866992
            ],
            [
              72.761133,
              18.857422
            ],
            [
              72.763867,
              18.854688
            ],
            [
              72.763867,
              18.85332
            ],
            [
              72.765234,
              18.85332
            ],
            [
              72.769336,
              18.850586
            ],
            [
              72.774805,
              18.850586
            ],
            [
              72.776172,
              18.849219
            ],
            [
              72.777539,
              18.850586
            ],
            [
              72.780273,
              18.850586
            ],
            [
              72.781641,
              18.851953
            ],
            [
              72.783008,
              18.851953
            ],
            [
              72.789844,
              18.856055
            ],
            [
              72.788477,
              18.857422
            ],
            [
              72.788477,
              18.861523
            ],
            [
              72.789844,
              18.862891
            ],
            [
              72.789844,
              18.871094
            ],
            [
              72.788477,
              18.872461
            ],
            [
              72.783008,
              18.872461
            ],
            [
              72.781641,
              18.873828
            ],
            [
              72.767969,
              18.873828
            ],
            [
              72.765234,
              18.871094
            ],
            [
              72.763867,
              18.871094
            ],
            [
              72.763867,
              18.869727
            ],
            [
              72.761133,
              18.866992
            ]
          ]
        ]
      }
    },
    {
      "type": "Feature",
      "properties": {
        "spill_id": "sentinel_168",
        "confidence": 0.94
      },
      "geometry": {
        "type": "Polygon",
        "coordinates": [
          [
            [
              72.84043,
              18.942188
            ],
            [
              72.834961,
              18.939453
            ],
            [
              72.830859,
              18.939453
            ],
            [
              72.825391,
              18.933984
            ],
            [
              72.824023,
              18.93125
            ],
            [
              72.824023,
              18.925781
            ],
            [
              72.819922,
              18.918945
            ],
            [
              72.818555,
              18.912109
            ],
            [
              72.821289,
              18.906641
            ],
            [
              72.828125,
              18.899805
            ],
            [
              72.829492,
              18.895703
            ],
            [
              72.832227,
              18.892969
            ],
            [
              72.837695,
              18.890234
            ],
            [
              72.843164,
              18.890234
            ],
            [
              72.845898,
              18.888867
            ],
            [
              72.848633,
              18.890234
            ],
            [
              72.848633,
              18.942188
            ],
            [
              72.84043,
              18.942188
            ]
          ]
        ]
      }
    },
    {
      "type": "Feature",
      "properties": {
        "spill_id": "sentinel_168",
        "confidence": 0.94
      },
      "geometry": {
        "type": "Polygon",
        "coordinates": [
          [
            [
              72.5,
              19.15
            ],
            [
              72.5,
              18.876562
            ],
            [
              72.531445,
              18.94082
            ],
            [
              72.576562,
              18.96543
            ],
            [
              72.586133,
              18.938086
            ],
            [
              72.560156,
              18.916211
            ],
            [
              72.560156,
              18.884766
            ],
            [
              72.54375,
              18.884766
            ],
            [
              72.541016,
              18.866992
            ],
            [
              72.564258,
              18.864258
            ],
            [
              72.5875,
              18.899805
            ],
            [
              72.624414,
              18.819141
            ],
            [
              72.657227,
              18.813672
            ],
            [
              72.664062,
              18.832812
            ],
            [
              72.633984,
              18.846484
            ],
            [
              72.623047,
              18.869727
            ],
            [
              72.628516,
              18.927148
            ],
            [
              72.657227,
              18.96543
            ],
            [
              72.658594,
              18.938086
            ],
            [
              72.713281,
              18.958594
            ],
            [
              72.754297,
              18.898438
            ],
            [
              72.787109,
              18.906641
            ],
            [
              72.751562,
              18.925781
            ],
            [
              72.757031,
              18.954492
            ],
            [
              72.833594,
              18.96543
            ],
            [
              72.844531,
              18.947656
            ],
            [
              72.848633,
              19.15
            ],
            [
              72.5,
              19.15
            ]
          ]
        ]
      }
    }
  ]
}