{
  "type": "FeatureCollection",
  "features": [
    {
      "type": "Feature",
      "properties": {
        "spill_id": "sentinel_566",
        "confidence": 0.73
      },
      "geometry": {
        "type": "Polygon",
        "coordinates": [
          [
            [
              72.50957,
              18.819141
            ],
            [
              72.50957,
              18.80957
            ],
            [
              72.508203,
              18.808203
            ],
            [
              72.508203,
              18.806836
            ],
            [
              72.50957,
              18.805469
            ],
            [
              72.50957,
              18.802734
            ],
            [
              72.510938,
              18.801367
            ],
            [
              72.539648,
              18.801367
            ],
            [
              72.54375,
              18.805469
            ],
            [
              72.549219,
              18.805469
            ],
            [
              72.550586,
              18.806836
            ],
            [
              72.550586,
              18.810938
            ],
            [
              72.545117,
              18.816406
            ],
            [
              72.539648,
              18.816406
            ],
            [
              72.536914,
              18.813672
            ],
            [
              72.531445,
              18.813672
            ],
            [
              72.530078,
              18.815039
            ],
            [
              72.527344,
              18.815039
            ],
            [
              72.525977,
              18.816406
            ],
            [
              72.519141,
              18.816406
            ],
            [
              72.517773,
              18.817773
            ],
            [
              72.515039,
              18.817773
            ],
            [
              72.513672,
              18.819141
            ],
            [
              72.50957,
              18.819141
            ]
          ]
        ]
      }
    },
    {
      "type": "Feature",
      "properties": {
        "spill_id": "sentinel_566",
        "confidence": 0.73
      },
      "geometry": {
        "type": "Polygon",
        "coordinates": [
          [
            [
              72.609375,
              18.950391
            ],
            [
              72.609375,
              18.949023
            ],
            [
              72.606641,
              18.946289
            ],
            [
              72.606641,
              18.944922
            ],
            [
              72.605273,
              18.943555
            ],
            [
              72.605273,
              18.94082
            ],
            [
              72.603906,
              18.939453
            ],
            [
              72.603906,
              18.938086
            ],
            [
              72.605273,
              18.936719
            ],
            [
              72.605273,
              18.933984
            ],
            [
              72.606641,
              18.932617
            ],
            [
              72.606641,
              18.929883
            ],
            [
              72.608008,
              18.928516
            ],
            [
              72.608008,
              18.925781
            ],
            [
              72.609375,
              18.924414
            ],
            [
              72.609375,
              18.923047
            ],
            [
              72.612109,
              18.920312
            ],
            [
              72.613477,
              18.920312
            ],
            [
              72.617578,
              18.916211
            ],
            [
              72.618945,
              18.916211
            ],
            [
              72.620312,
              18.917578
            ],
            [
              72.620312,
              18.918945
            ],
            [
              72.618945,
              18.920312
            ],
            [
              72.618945,
              18.923047
            ],
            [
              72.616211,
              18.927148
            ],
            [
              72.616211,
              18.93125
            ],
            [
              72.614844,
              18.932617
            ],
            [
              72.614844,
              18.942188
            ],
            [
              72.616211,
              18.943555
            ],
            [
              72.616211,
              18.946289
            ],
            [
              72.613477,
              18.950391
            ],
            [
              72.609375,
              18.950391
            ]
          ]
        ]
      }
    },
    {
      "type": "Feature",
      "properties": {
        "spill_id": "sentinel_566",
        "confidence": 0.73
      },
      "geometry": {
        "type": "Polygon",
        "coordinates": [
          [
            [
              72.601172,
              19.063867
            ],
            [
              72.601172,
              19.048828
            ],
            [
              72.602539,
              19.047461
            ],
            [
              72.608008,
              19.047461
            ],
            [
              72.609375,
              19.048828
            ],
            [
              72.610742,
              19.048828
            ],
            [
              72.612109,
              19.050195
            ],
            [
              72.612109,
              19.051562
            ],
            [
              72.613477,
              19.05293
            ],
            [
              72.612109,
              19.054297
            ],
            [
              72.612109,
              19.057031
            ],
            [
              72.608008,
              19.061133
            ],
            [
              72.608008,
              19.0625
            ],
            [
              72.606641,
              19.0625
            ],
            [
              72.605273,
              19.063867
            ],
            [
              72.601172,
              19.063867
            ]
          ]
        ]
      }
    },
    {
      "type": "Feature",
      "properties": {
        "spill_id": "sentinel_566",
        "confidence": 0.73
      },
      "geometry": {
        "type": "Polygon",
        "coordinates": [
          [
            [
              72.538281,
              19.089844
            ],
            [
              72.536914,
              19.088477
            ],
            [
              72.54375,
              19.080273
            ],
            [
              72.547852,
              19.067969
            ],
            [
              72.554688,
              19.059766
            ],
            [
              72.557422,
              19.058398
            ],
            [
              72.561523,
              19.051562
            ],
            [
              72.561523,
              19.043359
            ],
            [
              72.558789,
              19.037891
            ],
            [
              72.560156,
              19.026953
            ],
            [
              72.565625,
              19.020117
            ],
            [
              72.568359,
              19.020117
            ],
            [
              72.573828,
              19.026953
            ],
            [
              72.575195,
              19.041992
            ],
            [
              72.569727,
              19.050195
            ],
            [
              72.566992,
              19.061133
            ],
            [
              72.558789,
              19.069336
            ],
            [
              72.557422,
              19.073438
            ],
            [
              72.547852,
              19.083008
            ],
            [
              72.546484,
              19.083008
            ],
            [
              72.542383,
              19.088477
            ],
            [
              72.538281,
              19.089844
            ]
          ]
        ]
      }
    }
  ]
}