{
  "type": "FeatureCollection",
  "features": [
    {
      "type": "Feature",
      "properties": {
        "spill_id": "sentinel_331",
        "confidence": 0.72
      },
      "geometry": {
        "type": "Polygon",
        "coordinates": [
          [
            [
              72.803516,
              18.801367
            ],
            [
              72.844531,
              18.801367
            ],
            [
              72.848633,
              18.805469
            ],
            [
              72.848633,
              18.817773
            ],
            [
              72.844531,
              18.817773
            ],
            [
              72.843164,
              18.819141
            ],
            [
              72.836328,
              18.819141
            ],
            [
              72.834961,
              18.817773
            ],
            [
              72.832227,
              18.817773
            ],
            [
              72.830859,
              18.819141
            ],
            [
              72.821289,
              18.819141
            ],
            [
              72.819922,
              18.817773
            ],
            [
              72.817187,
              18.817773
            ],
            [
              72.804883,
              18.80957
            ],
            [
              72.804883,
              18.805469
            ],
            [
              72.803516,
              18.804102
            ],
            [
              72.803516,
              18.801367
            ]
          ]
        ]
      }
    },
    {
      "type": "Feature",
      "properties": {
        "spill_id": "sentinel_331",
        "confidence": 0.72
      },
      "geometry": {
        "type": "Polygon",
        "coordinates": [
          [
            [
              72.584766,
              18.860156
            ],
            [
              72.584766,
              18.856055
            ],
            [
              72.588867,
              18.851953
            ],
            [
              72.590234,
              18.851953
            ],
            [
              72.591602,
              18.850586
            ],
            [
              72.592969,
              18.851953
            ],
            [
              72.594336,
              18.850586
            ],
            [
              72.601172,
              18.850586
            ],
            [
              72.602539,
              18.851953
            ],
            [
              72.603906,
              18.851953
            ],
            [
              72.605273,
              18.85332
            ],
            [
              72.606641,
              18.85332
            ],
            [
              72.606641,
              18.854688
            ],
            [
              72.608008,
              18.856055
            ],
            [
              72.608008,
              18.857422
            ],
            [
              72.609375,
              18.858789
            ],
            [
              72.609375,
              18.862891
            ],
            [
              72.606641,
              18.865625
            ],
            [
              72.605273,
              18.865625
            ],
            [
              72.603906,
              18.866992
            ],
            [
              72.602539,
              18.866992
            ],
            [
              72.601172,
              18.868359
            ],
            [
              72.594336,
              18.868359
            ],
            [
              72.592969,
              18.866992
            ],
            [
              72.591602,
              18.866992
            ],
            [
              72.590234,
              18.865625
            ],
            [
              72.588867,
              18.865625
            ],
            [
              72.586133,
              18.862891
            ],
            [
              72.586133,
              18.861523
            ],
            [
              72.584766,
              18.860156
            ]
          ]
        ]
      }
    },
    {
      "type": "Feature",
      "properties": {
        "spill_id": "sentinel_331",
        "confidence": 0.72
      },
      "geometry": {
        "type": "Polygon",
        "coordinates": [
          [
            [
              72.603906,
              19.10625
            ],
            [
              72.603906,
              19.104883
            ],
            [
              72.605273,
              19.103516
            ],
            [
              72.605273,
              19.100781
            ],
            [
              72.608008,
              19.098047
            ],
            [
              72.609375,
              19.098047
            ],
            [
              72.610742,
              19.09668
            ],
            [
              72.617578,
              19.09668
            ],
            [
              72.618945,
              19.098047
            ],
            [
              72.620312,
              19.098047
            ],
            [
              72.623047,
              19.100781
            ],
            [
              72.623047,
              19.102148
            ],
            [
              72.624414,
              19.103516
            ],
            [
              72.624414,
              19.10625
            ],
            [
              72.623047,
              19.107617
            ],
            [
              72.62168,
              19.107617
            ],
            [
              72.620312,
              19.108984
            ],
            [
              72.618945,
              19.108984
            ],
            [
              72.617578,
              19.110352
            ],
            [
              72.613477,
              19.110352
            ],
            [
              72.612109,
              19.108984
            ],
            [
              72.610742,
              19.108984
            ],
            [
              72.609375,
              19.110352
            ],
            [
              72.606641,
              19.110352
            ],
            [
              72.605273,
              19.108984
            ],
            [
              72.605273,
              19.107617
            ],
            [
              72.603906,
              19.10625
            ]
          ]
        ]
      }
    }
  ]
}