{
  "type": "FeatureCollection",
  "features": [
    {
      "type": "Feature",
      "properties": {
        "spill_id": "sentinel_699",
        "confidence": 0.9
      },
      "geometry": {
        "type": "Polygon",
        "coordinates": [
          [
            [
              72.744727,
              19.15
            ],
            [
              72.737891,
              19.145898
            ],
            [
              72.743359,
              19.130859
            ],
            [
              72.758398,
              19.121289
            ],
            [
              72.776172,
              19.121289
            ],
            [
              72.783008,
              19.103516
            ],
            [
              72.795312,
              19.099414
            ],
            [
              72.813086,
              19.073438
            ],
            [
              72.79668,
              19.032422
            ],
            [
              72.79668,
              18.977734
            ],
            [
              72.741992,
              18.918945
            ],
            [
              72.759766,
              18.894336
            ],
            [
              72.791211,
              18.873828
            ],
            [
              72.803516,
              18.838281
            ],
            [
              72.834961,
              18.812305
            ],
            [
              72.848633,
              18.820508
            ],
            [
              72.848633,
              19.15
            ],
            [
              72.744727,
              19.15
            ]
          ]
        ]
      }
    }
  ]
}