{
  "type": "FeatureCollection",
  "features": [
    {
      "type": "Feature",
      "properties": {
        "spill_id": "sentinel_606",
        "confidence": 0.9
      },
      "geometry": {
        "type": "Polygon",
        "coordinates": [
          [
            [
              72.695508,
              18.825977
            ],
            [
              72.691406,
              18.821875
            ],
            [
              72.691406,
              18.820508
            ],
            [
              72.694141,
              18.817773
            ],
            [
              72.699609,
              18.817773
            ],
            [
              72.700977,
              18.819141
            ],
            [
              72.700977,
              18.820508
            ],
            [
              72.702344,
              18.821875
            ],
            [
              72.702344,
              18.824609
            ],
            [
              72.700977,
              18.825977
            ],
            [
              72.695508,
              18.825977
            ]
          ]
        ]
      }
    },
    {
      "type": "Feature",
      "properties": {
        "spill_id": "sentinel_606",
        "confidence": 0.9
      },
      "geometry": {
        "type": "Polygon",
        "coordinates": [
          [
            [
              72.843164,
              18.939453
            ],
            [
              72.837695,
              18.939453
            ],
            [
              72.829492,
              18.928516
            ],
            [
              72.826758,
              18.899805
            ],
            [
              72.819922,
              18.882031
            ],
            [
              72.810352,
              18.872461
            ],
            [
              72.810352,
              18.860156
            ],
            [
              72.799414,
              18.84375
            ],
            [
              72.798047,
              18.831445
            ],
            [
              72.789844,
              18.819141
            ],
            [
              72.788477,
              18.804102
            ],
            [
              72.791211,
              18.801367
            ],
            [
              72.803516,
              18.802734
            ],
            [
              72.819922,
              18.824609
            ],
            [
              72.832227,
              18.847852
            ],
            [
              72.830859,
              18.860156
            ],
            [
              72.833594,
              18.866992
            ],
            [
              72.843164,
              18.876562
            ],
            [
              72.843164,
              18.886133
            ],
            [
              72.848633,
              18.895703
            ],
            [
              72.848633,
              18.935352
            ],
            [
              72.843164,
              18.939453
            ]
          ]
        ]
      }
    },
    {
      "type": "Feature",
      "properties": {
        "spill_id": "sentinel_606",
        "confidence": 0.9
      },
      "geometry": {
        "type": "Polygon",
        "coordinates": [
          [
            [
              72.506836,
              18.950391
            ],
            [
              72.506836,
              18.946289
            ],
            [
              72.512305,
              18.946289
            ],
            [
              72.513672,
              18.944922
            ],
            [
              72.513672,
              18.943555
            ],
            [
              72.515039,
              18.942188
            ],
            [
              72.515039,
              18.94082
            ],
            [
              72.519141,
              18.94082
            ],
            [
              72.521875,
              18.943555
            ],
            [
              72.521875,
              18.944922
            ],
            [
              72.523242,
              18.946289
            ],
            [
              72.523242,
              18.947656
            ],
            [
              72.524609,
              18.949023
            ],
            [
              72.524609,
              18.953125
            ],
            [
              72.523242,
              18.954492
            ],
            [
              72.519141,
              18.954492
            ],
            [
              72.517773,
              18.953125
            ],
            [
              72.516406,
              18.954492
            ],
            [
              72.513672,
              18.954492
            ],
            [
              72.512305,
              18.953125
            ],
            [
              72.510938,
              18.953125
            ],
            [
              72.50957,
              18.951758
            ],
            [
              72.508203,
              18.951758
            ],
            [
              72.506836,
              18.950391
            ]
          ]
        ]
      }
    },
    {
      "type": "Feature",
      "properties": {
        "spill_id": "sentinel_606",
        "confidence": 0.9
      },
      "geometry": {
        "type": "Polygon",
        "coordinates": [
          [
            [
              72.848633,
              19.15
            ],
            [
              72.696875,
              19.15
            ],
            [
              72.695508,
              19.059766
            ],
            [
              72.664062,
              19.003711
            ],
            [
              72.66543,
              18.994141
            ],
            [
              72.675,
              18.992773
            ],
            [
              72.695508,
              19.022852
            ],
            [
              72.691406,
              18.970898
            ],
            [
              72.711914,
              18.98457
            ],
            [
              72.713281,
              19.098047
            ],
            [
              72.724219,
              19.110352
            ],
            [
              72.740625,
              19.110352
            ],
            [
              72.763867,
              19.080273
            ],
            [
              72.781641,
              19.081641
            ],
            [
              72.795312,
              19.07207
            ],
            [
              72.765234,
              18.987305
            ],
            [
              72.770703,
              18.985938
            ],
            [
              72.795312,
              19.007812
            ],
            [
              72.807617,
              19.033789
            ],
            [
              72.826758,
              19.044727
            ],
            [
              72.824023,
              19.058398
            ],
            [
              72.829492,
              19.047461
            ],
            [
              72.839062,
              19.047461
            ],
            [
              72.848633,
              19.0625
            ],
            [
              72.848633,
              19.15
            ]
          ]
        ]
      }
    },
    {
      "type": "Feature",
      "properties": {
        "spill_id": "sentinel_606",
        "confidence": 0.9
      },
      "geometry": {
        "type": "Polygon",
        "coordinates": [
          [
            [
              72.5,
              19.15
            ],
            [
              72.5,
              19.057031
            ],
            [
              72.532812,
              19.046094
            ],
            [
              72.554688,
              19.044727
            ],
            [
              72.573828,
              19.058398
            ],
            [
              72.57793,
              19.066602
            ],
            [
              72.579297,
              19.081641
            ],
            [
              72.584766,
              19.087109
            ],
            [
              72.583398,
              19.10625
            ],
            [
              72.573828,
              19.121289
            ],
            [
              72.575195,
              19.15
            ],
            [
              72.5,
              19.15
            ]
          ]
        ]
      }
    }
  ]
}