{
  "type": "FeatureCollection",
  "features": [
    {
      "type": "Feature",
      "properties": {
        "spill_id": "sentinel_91",
        "confidence": 0.85
      },
      "geometry": {
        "type": "Polygon",
        "coordinates": [
          [
            [
              72.591602,
              18.830078
            ],
            [
              72.590234,
              18.830078
            ],
            [
              72.5875,
              18.832812
            ],
            [
              72.584766,
              18.832812
            ],
            [
              72.583398,
              18.83418
            ],
            [
              72.579297,
              18.83418
            ],
            [
              72.57793,
              18.835547
            ],
            [
              72.576562,
              18.83418
            ],
            [
              72.572461,
              18.832812
            ],
            [
              72.572461,
              18.831445
            ],
            [
              72.569727,
              18.827344
            ],
            [
              72.569727,
              18.824609
            ],
            [
              72.568359,
              18.823242
            ],
            [
              72.568359,
              18.819141
            ],
            [
              72.566992,
              18.817773
            ],
            [
              72.566992,
              18.808203
            ],
            [
              72.565625,
              18.806836
            ],
            [
              72.565625,
              18.802734
            ],
            [
              72.566992,
              18.801367
            ],
            [
              72.584766,
              18.801367
            ],
            [
              72.586133,
              18.802734
            ],
            [
              72.586133,
              18.804102
            ],
            [
              72.5875,
              18.805469
            ],
            [
              72.5875,
              18.80957
            ],
            [
              72.590234,
              18.812305
            ],
            [
              72.590234,
              18.816406
            ],
            [
              72.591602,
              18.817773
            ],
            [
              72.591602,
              18.820508
            ],
            [
              72.592969,
              18.821875
            ],
            [
              72.592969,
              18.828711
            ],
            [
              72.591602,
              18.830078
            ]
          ]
        ]
      }
    },
    {
      "type": "Feature",
      "properties": {
        "spill_id": "sentinel_91",
        "confidence": 0.85
      },
      "geometry": {
        "type": "Polygon",
        "coordinates": [
          [
            [
              72.568359,
              18.935352
            ],
            [
              72.565625,
              18.938086
            ],
            [
              72.564258,
              18.938086
            ],
            [
              72.562891,
              18.936719
            ],
            [
              72.560156,
              18.936719
            ],
            [
              72.558789,
              18.935352
            ],
            [
              72.558789,
              18.932617
            ],
            [
              72.554688,
              18.928516
            ],
            [
              72.554688,
              18.927148
            ],
            [
              72.556055,
              18.925781
            ],
            [
              72.557422,
              18.927148
            ],
            [
              72.562891,
              18.927148
            ],
            [
              72.564258,
              18.928516
            ],
            [
              72.566992,
              18.928516
            ],
            [
              72.568359,
              18.929883
            ],
            [
              72.568359,
              18.935352
            ]
          ]
        ]
      }
    },
    {
      "type": "Feature",
      "properties": {
        "spill_id": "sentinel_91",
        "confidence": 0.85
      },
      "geometry": {
        "type": "Polygon",
        "coordinates": [
          [
            [
              72.569727,
              18.987305
            ],
            [
              72.569727,
              18.98457
            ],
            [
              72.571094,
              18.98457
            ],
            [
              72.575195,
              18.981836
            ],
            [
              72.579297,
              18.981836
            ],
            [
              72.580664,
              18.980469
            ],
            [
              72.586133,
              18.980469
            ],
            [
              72.5875,
              18.979102
            ],
            [
              72.590234,
              18.979102
            ],
            [
              72.591602,
              18.977734
            ],
            [
              72.595703,
              18.977734
            ],
            [
              72.595703,
              18.980469
            ],
            [
              72.59707,
              18.981836
            ],
            [
              72.59707,
              18.98457
            ],
            [
              72.598438,
              18.985938
            ],
            [
              72.595703,
              18.990039
            ],
            [
              72.595703,
              18.992773
            ],
            [
              72.594336,
              18.994141
            ],
            [
              72.594336,
              18.998242
            ],
            [
              72.592969,
              18.999609
            ],
            [
              72.588867,
              18.999609
            ],
            [
              72.586133,
              19.002344
            ],
            [
              72.583398,
              19.002344
            ],
            [
              72.579297,
              18.998242
            ],
            [
              72.579297,
              18.996875
            ],
            [
              72.575195,
              18.992773
            ],
            [
              72.573828,
              18.992773
            ],
            [
              72.571094,
              18.990039
            ],
            [
              72.571094,
              18.988672
            ],
            [
              72.569727,
              18.987305
            ]
          ]
        ]
      }
    },
    {
      "type": "Feature",
      "properties": {
        "spill_id": "sentinel_91",
        "confidence": 0.85
      },
      "geometry": {
        "type": "Polygon",
        "coordinates": [
          [
            [
              72.681836,
              19.091211
            ],
            [
              72.679102,
              19.088477
            ],
            [
              72.676367,
              19.088477
            ],
            [
              72.675,
              19.087109
            ],
            [
              72.675,
              19.084375
            ],
            [
              72.676367,
              19.083008
            ],
            [
              72.676367,
              19.081641
            ],
            [
              72.679102,
              19.078906
            ],
            [
              72.679102,
              19.077539
            ],
            [
              72.680469,
              19.076172
            ],
            [
              72.68457,
              19.076172
            ],
            [
              72.685938,
              19.077539
            ],
            [
              72.685938,
              19.080273
            ],
            [
              72.687305,
              19.081641
            ],
            [
              72.687305,
              19.087109
            ],
            [
              72.685938,
              19.088477
            ],
            [
              72.685938,
              19.091211
            ],
            [
              72.681836,
              19.091211
            ]
          ]
        ]
      }
    },
    {
      "type": "Feature",
      "properties": {
        "spill_id": "sentinel_91",
        "confidence": 0.85
      },
      "geometry": {
        "type": "Polygon",
        "coordinates": [
          [
            [
              72.618945,
              19.091211
            ],
            [
              72.618945,
              19.087109
            ],
            [
              72.613477,
              19.081641
            ],
            [
              72.606641,
              19.080273
            ],
            [
              72.599805,
              19.069336
            ],
            [
              72.601172,
              19.054297
            ],
            [
              72.594336,
              19.047461
            ],
            [
              72.588867,
              19.029687
            ],
            [
              72.590234,
              19.00918
            ],
            [
              72.599805,
              19.003711
            ],
            [
              72.609375,
              19.007812
            ],
            [
              72.610742,
              19.014648
            ],
            [
              72.620312,
              19.022852
            ],
            [
              72.62168,
              19.026953
            ],
            [
              72.633984,
              19.040625
            ],
            [
              72.638086,
              19.054297
            ],
            [
              72.632617,
              19.059766
            ],
            [
              72.635352,
              19.063867
            ],
            [
              72.642187,
              19.067969
            ],
            [
              72.642187,
              19.078906
            ],
            [
              72.638086,
              19.083008
            ],
            [
              72.627148,
              19.085742
            ],
            [
              72.618945,
              19.091211
            ]
          ]
        ]
      }
    },
    {
      "type": "Feature",
      "properties": {
        "spill_id": "sentinel_91",
        "confidence": 0.85
      },
      "geometry": {
        "type": "Polygon",
        "coordinates": [
          [
            [
              72.608008,
              19.133594
            ],
            [
              72.601172,
              19.133594
            ],
            [
              72.601172,
              19.132227
            ],
            [
              72.598438,
              19.130859
            ],
            [
              72.598438,
              19.128125
            ],
            [
              72.59707,
              19.126758
            ],
            [
              72.59707,
              19.117188
            ],
            [
              72.599805,
              19.111719
            ],
            [
              72.598438,
              19.108984
            ],
            [
              72.590234,
              19.102148
            ],
            [
              72.590234,
              19.09668
            ],
            [
              72.59707,
              19.088477
            ],
            [
              72.59707,
              19.087109
            ],
            [
              72.601172,
              19.087109
            ],
            [
              72.603906,
              19.089844
            ],
            [
              72.608008,
              19.089844
            ],
            [
              72.613477,
              19.093945
            ],
            [
              72.620312,
              19.093945
            ],
            [
              72.620312,
              19.095312
            ],
            [
              72.625781,
              19.099414
            ],
            [
              72.625781,
              19.108984
            ],
            [
              72.624414,
              19.111719
            ],
            [
              72.62168,
              19.114453
            ],
            [
              72.618945,
              19.114453
            ],
            [
              72.614844,
              19.118555
            ],
            [
              72.616211,
              19.121289
            ],
            [
              72.616211,
              19.126758
            ],
            [
              72.614844,
              19.129492
            ],
            [
              72.612109,
              19.129492
            ],
            [
              72.608008,
              19.133594
            ]
          ]
        ]
      }
    },
    {
      "type": "Feature",
      "properties": {
        "spill_id": "sentinel_91",
        "confidence": 0.85
      },
      "geometry": {
        "type": "Polygon",
        "coordinates": [
          [
            [
              72.691406,
              19.141797
            ],
            [
              72.683203,
              19.141797
            ],
            [
              72.679102,
              19.137695
            ],
            [
              72.679102,
              19.126758
            ],
            [
              72.676367,
              19.122656
            ],
            [
              72.676367,
              19.117188
            ],
            [
              72.675,
              19.11582
            ],
            [
              72.675,
              19.114453
            ],
            [
              72.676367,
              19.113086
            ],
            [
              72.676367,
              19.108984
            ],
            [
              72.677734,
              19.107617
            ],
            [
              72.683203,
              19.107617
            ],
            [
              72.68457,
              19.10625
            ],
            [
              72.687305,
              19.10625
            ],
            [
              72.688672,
              19.107617
            ],
            [
              72.688672,
              19.108984
            ],
            [
              72.692773,
              19.113086
            ],
            [
              72.694141,
              19.113086
            ],
            [
              72.696875,
              19.11582
            ],
            [
              72.696875,
              19.118555
            ],
            [
              72.699609,
              19.122656
            ],
            [
              72.699609,
              19.128125
            ],
            [
              72.698242,
              19.129492
            ],
            [
              72.698242,
              19.132227
            ],
            [
              72.696875,
              19.133594
            ],
            [
              72.696875,
              19.137695
            ],
            [
              72.695508,
              19.139062
            ],
            [
              72.695508,
              19.14043
            ],
            [
              72.692773,
              19.14043
            ],
            [
              72.691406,
              19.141797
            ]
          ]
        ]
      }
    },
    {
      "type": "Feature",
      "properties": {
        "spill_id": "sentinel_91",
        "confidence": 0.85
      },
      "geometry": {
        "type": "Polygon",
        "coordinates": [
          [
            [
              72.848633,
              19.15
            ],
            [
              72.787109,
              19.15
            ],
            [
              72.780273,
              19.129492
            ],
            [
              72.765234,
              19.122656
            ],
            [
              72.777539,
              19.099414
            ],
            [
              72.743359,
              19.089844
            ],
            [
              72.743359,
              19.036523
            ],
            [
              72.681836,
              19.005078
            ],
            [
              72.692773,
              18.977734
            ],
            [
              72.680469,
              18.961328
            ],
            [
              72.64082,
              18.995508
            ],
            [
              72.610742,
              18.981836
            ],
            [
              72.616211,
              18.958594
            ],
            [
              72.639453,
              18.943555
            ],
            [
              72.647656,
              18.913477
            ],
            [
              72.707812,
              18.85332
            ],
            [
              72.679102,
              18.835547
            ],
            [
              72.681836,
              18.80957
            ],
            [
              72.695508,
              18.801367
            ],
            [
              72.757031,
              18.801367
            ],
            [
              72.759766,
              18.84375
            ],
            [
              72.791211,
              18.841016
            ],
            [
              72.800781,
              18.85332
            ],
            [
              72.800781,
              18.831445
            ],
            [
              72.769336,
              18.819141
            ],
            [
              72.789844,
              18.801367
            ],
            [
              72.848633,
              18.801367
            ],
            [
              72.848633,
              19.15
            ]
          ]
        ]
      }
    },
    {
      "type": "Feature",
      "properties": {
        "spill_id": "sentinel_91",
        "confidence": 0.85
      },
      "geometry": {
        "type": "Polygon",
        "coordinates": [
          [
            [
              72.746094,
              19.148633
            ],
            [
              72.747461,
              19.147266
            ],
            [
              72.747461,
              19.136328
            ],
            [
              72.750195,
              19.132227
            ],
            [
              72.750195,
              19.129492
            ],
            [
              72.759766,
              19.129492
            ],
            [
              72.761133,
              19.130859
            ],
            [
              72.763867,
              19.130859
            ],
            [
              72.765234,
              19.132227
            ],
            [
              72.766602,
              19.132227
            ],
            [
              72.769336,
              19.134961
            ],
            [
              72.770703,
              19.134961
            ],
            [
              72.770703,
              19.136328
            ],
            [
              72.773438,
              19.139062
            ],
            [
              72.773438,
              19.141797
            ],
            [
              72.77207,
              19.141797
            ],
            [
              72.770703,
              19.143164
            ],
            [
              72.770703,
              19.144531
            ],
            [
              72.769336,
              19.144531
            ],
            [
              72.765234,
              19.148633
            ],
            [
              72.765234,
              19.15
            ],
            [
              72.747461,
              19.15
            ],
            [
              72.746094,
              19.148633
            ]
          ]
        ]
      }
    }
  ]
}