{
  "type": "FeatureCollection",
  "features": [
    {
      "type": "Feature",
      "properties": {
        "spill_id": "sentinel_308",
        "confidence": 0.88
      },
      "geometry": {
        "type": "Polygon",
        "coordinates": [
          [
            [
              72.792578,
              18.835547
            ],
            [
              72.791211,
              18.835547
            ],
            [
              72.791211,
              18.831445
            ],
            [
              72.787109,
              18.827344
            ],
            [
              72.785742,
              18.827344
            ],
            [
              72.784375,
              18.825977
            ],
            [
              72.783008,
              18.825977
            ],
            [
              72.781641,
              18.824609
            ],
            [
              72.780273,
              18.824609
            ],
            [
              72.780273,
              18.823242
            ],
            [
              72.778906,
              18.821875
            ],
            [
              72.778906,
              18.816406
            ],
            [
              72.781641,
              18.813672
            ],
            [
              72.783008,
              18.813672
            ],
            [
              72.784375,
              18.812305
            ],
            [
              72.787109,
              18.812305
            ],
            [
              72.788477,
              18.813672
            ],
            [
              72.789844,
              18.813672
            ],
            [
              72.789844,
              18.815039
            ],
            [
              72.791211,
              18.816406
            ],
            [
              72.791211,
              18.817773
            ],
            [
              72.792578,
              18.819141
            ],
            [
              72.792578,
              18.832812
            ],
            [
              72.793945,
              18.83418
            ],
            [
              72.792578,
              18.835547
            ]
          ]
        ]
      }
    },
    {
      "type": "Feature",
      "properties": {
        "spill_id": "sentinel_308",
        "confidence": 0.88
      },
      "geometry": {
        "type": "Polygon",
        "coordinates": [
          [
            [
              72.755664,
              18.861523
            ],
            [
              72.759766,
              18.857422
            ],
            [
              72.774805,
              18.857422
            ],
            [
              72.776172,
              18.858789
            ],
            [
              72.777539,
              18.858789
            ],
            [
              72.778906,
              18.860156
            ],
            [
              72.780273,
              18.860156
            ],
            [
              72.781641,
              18.861523
            ],
            [
              72.783008,
              18.861523
            ],
            [
              72.784375,
              18.862891
            ],
            [
              72.784375,
              18.864258
            ],
            [
              72.785742,
              18.865625
            ],
            [
              72.784375,
              18.866992
            ],
            [
              72.784375,
              18.868359
            ],
            [
              72.781641,
              18.871094
            ],
            [
              72.7625,
              18.871094
            ],
            [
              72.761133,
              18.869727
            ],
            [
              72.759766,
              18.869727
            ],
            [
              72.757031,
              18.866992
            ],
            [
              72.757031,
              18.865625
            ],
            [
              72.755664,
              18.864258
            ],
            [
              72.755664,
              18.861523
            ]
          ]
        ]
      }
    },
    {
      "type": "Feature",
      "properties": {
        "spill_id": "sentinel_308",
        "confidence": 0.88
      },
      "geometry": {
        "type": "Polygon",
        "coordinates": [
          [
            [
              72.813086,
              19.02832
            ],
            [
              72.813086,
              19.026953
            ],
            [
              72.811719,
              19.025586
            ],
            [
              72.811719,
              19.01875
            ],
            [
              72.817187,
              19.013281
            ],
            [
              72.819922,
              19.013281
            ],
            [
              72.821289,
              19.011914
            ],
            [
              72.832227,
              19.011914
            ],
            [
              72.841797,
              19.006445
            ],
            [
              72.847266,
              19.006445
            ],
            [
              72.848633,
              19.007812
            ],
            [
              72.848633,
              19.022852
            ],
            [
              72.847266,
              19.022852
            ],
            [
              72.836328,
              19.033789
            ],
            [
              72.834961,
              19.033789
            ],
            [
              72.830859,
              19.036523
            ],
            [
              72.826758,
              19.036523
            ],
            [
              72.825391,
              19.037891
            ],
            [
              72.821289,
              19.033789
            ],
            [
              72.819922,
              19.033789
            ],
            [
              72.813086,
              19.02832
            ]
          ]
        ]
      }
    },
    {
      "type": "Feature",
      "properties": {
        "spill_id": "sentinel_308",
        "confidence": 0.88
      },
      "geometry": {
        "type": "Polygon",
        "coordinates": [
          [
            [
              72.778906,
              19.083008
            ],
            [
              72.776172,
              19.080273
            ],
            [
              72.776172,
              19.073438
            ],
            [
              72.777539,
              19.07207
            ],
            [
              72.777539,
              19.069336
            ],
            [
              72.778906,
              19.067969
            ],
            [
              72.778906,
              19.066602
            ],
            [
              72.783008,
              19.0625
            ],
            [
              72.792578,
              19.0625
            ],
            [
              72.793945,
              19.063867
            ],
            [
              72.795312,
              19.063867
            ],
            [
              72.795312,
              19.065234
            ],
            [
              72.79668,
              19.066602
            ],
            [
              72.795312,
              19.067969
            ],
            [
              72.795312,
              19.070703
            ],
            [
              72.793945,
              19.07207
            ],
            [
              72.793945,
              19.073438
            ],
            [
              72.788477,
              19.078906
            ],
            [
              72.787109,
              19.078906
            ],
            [
              72.784375,
              19.081641
            ],
            [
              72.781641,
              19.081641
            ],
            [
              72.780273,
              19.083008
            ],
            [
              72.778906,
              19.083008
            ]
          ]
        ]
      }
    },
    {
      "type": "Feature",
      "properties": {
        "spill_id": "sentinel_308",
        "confidence": 0.88
      },
      "geometry": {
        "type": "Polygon",
        "coordinates": [
          [
            [
              72.690039,
              19.085742
            ],
            [
              72.687305,
              19.083008
            ],
            [
              72.687305,
              19.070703
            ],
            [
              72.685938,
              19.069336
            ],
            [
              72.685938,
              19.066602
            ],
            [
              72.687305,
              19.065234
            ],
            [
              72.687305,
              19.063867
            ],
            [
              72.688672,
              19.063867
            ],
            [
              72.690039,
              19.0625
            ],
            [
              72.694141,
              19.0625
            ],
            [
              72.695508,
              19.063867
            ],
            [
              72.696875,
              19.063867
            ],
            [
              72.698242,
              19.065234
            ],
            [
              72.699609,
              19.065234
            ],
            [
              72.703711,
              19.069336
            ],
            [
              72.703711,
              19.070703
            ],
            [
              72.705078,
              19.07207
            ],
            [
              72.705078,
              19.074805
            ],
            [
              72.703711,
              19.076172
            ],
            [
              72.703711,
              19.078906
            ],
            [
              72.698242,
              19.084375
            ],
            [
              72.695508,
              19.084375
            ],
            [
              72.694141,
              19.085742
            ],
            [
              72.690039,
              19.085742
            ]
          ]
        ]
      }
    },
    {
      "type": "Feature",
      "properties": {
        "spill_id": "sentinel_308",
        "confidence": 0.88
      },
      "geometry": {
        "type": "Polygon",
        "coordinates": [
          [
            [
              72.561523,
              19.103516
            ],
            [
              72.541016,
              19.092578
            ],
            [
              72.550586,
              19.057031
            ],
            [
              72.542383,
              19.026953
            ],
            [
              72.516406,
              19.057031
            ],
            [
              72.5,
              19.057031
            ],
            [
              72.5,
              18.951758
            ],
            [
              72.523242,
              18.899805
            ],
            [
              72.5,
              18.905273
            ],
            [
              72.5,
              18.849219
            ],
            [
              72.53418,
              18.836914
            ],
            [
              72.502734,
              18.827344
            ],
            [
              72.506836,
              18.801367
            ],
            [
              72.535547,
              18.801367
            ],
            [
              72.536914,
              18.827344
            ],
            [
              72.549219,
              18.831445
            ],
            [
              72.538281,
              18.932617
            ],
            [
              72.517773,
              18.947656
            ],
            [
              72.521875,
              18.983203
            ],
            [
              72.547852,
              18.96543
            ],
            [
              72.565625,
              18.968164
            ],
            [
              72.569727,
              18.888867
            ],
            [
              72.605273,
              18.815039
            ],
            [
              72.624414,
              18.835547
            ],
            [
              72.602539,
              18.916211
            ],
            [
              72.610742,
              18.961328
            ],
            [
              72.635352,
              18.962695
            ],
            [
              72.679102,
              18.912109
            ],
            [
              72.694141,
              18.918945
            ],
            [
              72.685938,
              18.954492
            ],
            [
              72.664062,
              18.961328
            ],
            [
              72.639453,
              18.996875
            ],
            [
              72.610742,
              18.966797
            ],
            [
              72.5875,
              18.961328
            ],
            [
              72.576562,
              18.998242
            ],
            [
              72.586133,
              19.043359
            ],
            [
              72.561523,
              19.103516
            ]
          ]
        ]
      }
    },
    {
      "type": "Feature",
      "properties": {
        "spill_id": "sentinel_308",
        "confidence": 0.88
      },
      "geometry": {
        "type": "Polygon",
        "coordinates": [
          [
            [
              72.705078,
              19.15
            ],
            [
              72.732422,
              19.085742
            ],
            [
              72.743359,
              19.073438
            ],
            [
              72.75293,
              19.078906
            ],
            [
              72.746094,
              19.093945
            ],
            [
              72.754297,
              19.10625
            ],
            [
              72.780273,
              19.104883
            ],
            [
              72.79668,
              19.119922
            ],
            [
              72.807617,
              19.111719
            ],
            [
              72.819922,
              19.091211
            ],
            [
              72.848633,
              19.088477
            ],
            [
              72.848633,
              19.110352
            ],
            [
              72.841797,
              19.125391
            ],
            [
              72.832227,
              19.132227
            ],
            [
              72.847266,
              19.145898
            ],
            [
              72.847266,
              19.15
            ],
            [
              72.795312,
              19.15
            ],
            [
              72.793945,
              19.130859
            ],
            [
              72.777539,
              19.126758
            ],
            [
              72.747461,
              19.136328
            ],
            [
              72.731055,
              19.15
            ],
            [
              72.705078,
              19.15
            ]
          ]
        ]
      }
    }
  ]
}