{
  "type": "FeatureCollection",
  "features": [
    {
      "type": "Feature",
      "properties": {
        "spill_id": "sentinel_437",
        "confidence": 0.84
      },
      "geometry": {
        "type": "Polygon",
        "coordinates": [
          [
            [
              72.717383,
              18.866992
            ],
            [
              72.720117,
              18.854688
            ],
            [
              72.711914,
              18.846484
            ],
            [
              72.717383,
              18.835547
            ],
            [
              72.726953,
              18.832812
            ],
            [
              72.755664,
              18.816406
            ],
            [
              72.773438,
              18.801367
            ],
            [
              72.79668,
              18.801367
            ],
            [
              72.798047,
              18.802734
            ],
            [
              72.798047,
              18.80957
            ],
            [
              72.792578,
              18.815039
            ],
            [
              72.785742,
              18.825977
            ],
            [
              72.767969,
              18.830078
            ],
            [
              72.7625,
              18.835547
            ],
            [
              72.761133,
              18.841016
            ],
            [
              72.754297,
              18.846484
            ],
            [
              72.751562,
              18.854688
            ],
            [
              72.735156,
              18.865625
            ],
            [
              72.724219,
              18.865625
            ],
            [
              72.71875,
              18.868359
            ],
            [
              72.717383,
              18.866992
            ]
          ]
        ]
      }
    },
    {
      "type": "Feature",
      "properties": {
        "spill_id": "sentinel_437",
        "confidence": 0.84
      },
      "geometry": {
        "type": "Polygon",
        "coordinates": [
          [
            [
              72.5,
              18.902539
            ],
            [
              72.5,
              18.856055
            ],
            [
              72.516406,
              18.847852
            ],
            [
              72.521875,
              18.838281
            ],
            [
              72.519141,
              18.80957
            ],
            [
              72.527344,
              18.801367
            ],
            [
              72.541016,
              18.801367
            ],
            [
              72.54375,
              18.805469
            ],
            [
              72.54375,
              18.830078
            ],
            [
              72.539648,
              18.841016
            ],
            [
              72.53418,
              18.849219
            ],
            [
              72.530078,
              18.861523
            ],
            [
              72.519141,
              18.873828
            ],
            [
              72.515039,
              18.888867
            ],
            [
              72.508203,
              18.895703
            ],
            [
              72.506836,
              18.899805
            ],
            [
              72.5,
              18.902539
            ]
          ]
        ]
      }
    },
    {
      "type": "Feature",
      "properties": {
        "spill_id": "sentinel_437",
        "confidence": 0.84
      },
      "geometry": {
        "type": "Polygon",
        "coordinates": [
          [
            [
              72.5,
              18.959961
            ],
            [
              72.5,
              18.943555
            ],
            [
              72.501367,
              18.943555
            ],
            [
              72.502734,
              18.942188
            ],
            [
              72.504102,
              18.942188
            ],
            [
              72.505469,
              18.94082
            ],
            [
              72.515039,
              18.94082
            ],
            [
              72.516406,
              18.942188
            ],
            [
              72.517773,
              18.942188
            ],
            [
              72.517773,
              18.943555
            ],
            [
              72.519141,
              18.944922
            ],
            [
              72.519141,
              18.950391
            ],
            [
              72.516406,
              18.953125
            ],
            [
              72.515039,
              18.953125
            ],
            [
              72.510938,
              18.957227
            ],
            [
              72.50957,
              18.957227
            ],
            [
              72.508203,
              18.958594
            ],
            [
              72.506836,
              18.958594
            ],
            [
              72.505469,
              18.959961
            ],
            [
              72.5,
              18.959961
            ]
          ]
        ]
      }
    },
    {
      "type": "Feature",
      "properties": {
        "spill_id": "sentinel_437",
        "confidence": 0.84
      },
      "geometry": {
        "type": "Polygon",
        "coordinates": [
          [
            [
              72.79668,
              18.977734
            ],
            [
              72.792578,
              18.973633
            ],
            [
              72.792578,
              18.972266
            ],
            [
              72.789844,
              18.969531
            ],
            [
              72.789844,
              18.968164
            ],
            [
              72.791211,
              18.966797
            ],
            [
              72.791211,
              18.962695
            ],
            [
              72.795312,
              18.958594
            ],
            [
              72.799414,
              18.958594
            ],
            [
              72.800781,
              18.959961
            ],
            [
              72.800781,
              18.961328
            ],
            [
              72.802148,
              18.962695
            ],
            [
              72.803516,
              18.962695
            ],
            [
              72.804883,
              18.961328
            ],
            [
              72.804883,
              18.959961
            ],
            [
              72.808984,
              18.959961
            ],
            [
              72.808984,
              18.961328
            ],
            [
              72.810352,
              18.962695
            ],
            [
              72.810352,
              18.964062
            ],
            [
              72.811719,
              18.96543
            ],
            [
              72.811719,
              18.968164
            ],
            [
              72.810352,
              18.969531
            ],
            [
              72.810352,
              18.972266
            ],
            [
              72.808984,
              18.973633
            ],
            [
              72.803516,
              18.973633
            ],
            [
              72.800781,
              18.976367
            ],
            [
              72.799414,
              18.976367
            ],
            [
              72.798047,
              18.977734
            ],
            [
              72.79668,
              18.977734
            ]
          ]
        ]
      }
    },
    {
      "type": "Feature",
      "properties": {
        "spill_id": "sentinel_437",
        "confidence": 0.84
      },
      "geometry": {
        "type": "Polygon",
        "coordinates": [
          [
            [
              72.848633,
              19.078906
            ],
            [
              72.844531,
              19.078906
            ],
            [
              72.84043,
              19.074805
            ],
            [
              72.84043,
              19.069336
            ],
            [
              72.841797,
              19.067969
            ],
            [
              72.845898,
              19.067969
            ],
            [
              72.847266,
              19.069336
            ],
            [
              72.848633,
              19.069336
            ],
            [
              72.848633,
              19.078906
            ]
          ]
        ]
      }
    },
    {
      "type": "Feature",
      "properties": {
        "spill_id": "sentinel_437",
        "confidence": 0.84
      },
      "geometry": {
        "type": "Polygon",
        "coordinates": [
          [
            [
              72.535547,
              19.081641
            ],
            [
              72.532812,
              19.078906
            ],
            [
              72.532812,
              19.070703
            ],
            [
              72.536914,
              19.066602
            ],
            [
              72.54375,
              19.066602
            ],
            [
              72.547852,
              19.070703
            ],
            [
              72.547852,
              19.07207
            ],
            [
              72.549219,
              19.073438
            ],
            [
              72.549219,
              19.077539
            ],
            [
              72.547852,
              19.078906
            ],
            [
              72.542383,
              19.078906
            ],
            [
              72.541016,
              19.080273
            ],
            [
              72.538281,
              19.080273
            ],
            [
              72.536914,
              19.081641
            ],
            [
              72.535547,
              19.081641
            ]
          ]
        ]
      }
    },
    {
      "type": "Feature",
      "properties": {
        "spill_id": "sentinel_437",
        "confidence": 0.84
      },
      "geometry": {
        "type": "Polygon",
        "coordinates": [
          [
            [
              72.592969,
              19.117188
            ],
            [
              72.571094,
              19.098047
            ],
            [
              72.583398,
              19.069336
            ],
            [
              72.566992,
              19.043359
            ],
            [
              72.528711,
              19.036523
            ],
            [
              72.560156,
              19.002344
            ],
            [
              72.54375,
              18.969531
            ],
            [
              72.566992,
              18.947656
            ],
            [
              72.568359,
              18.920312
            ],
            [
              72.623047,
              18.910742
            ],
            [
              72.646289,
              18.872461
            ],
            [
              72.63125,
              18.831445
            ],
            [
              72.685938,
              18.801367
            ],
            [
              72.696875,
              18.817773
            ],
            [
              72.675,
              18.846484
            ],
            [
              72.690039,
              18.872461
            ],
            [
              72.710547,
              18.879297
            ],
            [
              72.714648,
              18.923047
            ],
            [
              72.691406,
              18.958594
            ],
            [
              72.669531,
              19.033789
            ],
            [
              72.655859,
              19.035156
            ],
            [
              72.629883,
              19.00918
            ],
            [
              72.676367,
              18.955859
            ],
            [
              72.687305,
              18.920312
            ],
            [
              72.666797,
              18.899805
            ],
            [
              72.646289,
              18.920312
            ],
            [
              72.620312,
              18.920312
            ],
            [
              72.614844,
              18.947656
            ],
            [
              72.598438,
              18.959961
            ],
            [
              72.598438,
              18.991406
            ],
            [
              72.575195,
              19.010547
            ],
            [
              72.595703,
              19.021484
            ],
            [
              72.616211,
              19.05293
            ],
            [
              72.614844,
              19.09668
            ],
            [
              72.592969,
              19.117188
            ]
          ]
        ]
      }
    },
    {
      "type": "Feature",
      "properties": {
        "spill_id": "sentinel_437",
        "confidence": 0.84
      },
      "geometry": {
        "type": "Polygon",
        "coordinates": [
          [
            [
              72.5,
              19.144531
            ],
            [
              72.5,
              19.132227
            ],
            [
              72.504102,
              19.132227
            ],
            [
              72.505469,
              19.130859
            ],
            [
              72.506836,
              19.130859
            ],
            [
              72.508203,
              19.132227
            ],
            [
              72.50957,
              19.132227
            ],
            [
              72.513672,
              19.136328
            ],
            [
              72.513672,
              19.14043
            ],
            [
              72.512305,
              19.14043
            ],
            [
              72.510938,
              19.141797
            ],
            [
              72.506836,
              19.141797
            ],
            [
              72.505469,
              19.143164
            ],
            [
              72.504102,
              19.143164
            ],
            [
              72.502734,
              19.144531
            ],
            [
              72.501367,
              19.143164
            ],
            [
              72.5,
              19.144531
            ]
          ]
        ]
      }
    },
    {
      "type": "Feature",
      "properties": {
        "spill_id": "sentinel_437",
        "confidence": 0.84
      },
      "geometry": {
        "type": "Polygon",
        "coordinates": [
          [
            [
              72.834961,
              19.15
            ],
            [
              72.834961,
              19.145898
            ],
            [
              72.836328,
              19.144531
            ],
            [
              72.836328,
              19.139062
            ],
            [
              72.837695,
              19.137695
            ],
            [
              72.837695,
              19.136328
            ],
            [
              72.839062,
              19.136328
            ],
            [
              72.84043,
              19.134961
            ],
            [
              72.843164,
              19.134961
            ],
            [
              72.844531,
              19.133594
            ],
            [
              72.848633,
              19.133594
            ],
            [
              72.848633,
              19.145898
            ],
            [
              72.847266,
              19.145898
            ],
            [
              72.844531,
              19.148633
            ],
            [
              72.844531,
              19.15
            ],
            [
              72.834961,
              19.15
            ]
          ]
        ]
      }
    },
    {
      "type": "Feature",
      "properties": {
        "spill_id": "sentinel_437",
        "confidence": 0.84
      },
      "geometry": {
        "type": "Polygon",
        "coordinates": [
          [
            [
              72.651758,
              19.15
            ],
            [
              72.654492,
              19.14043
            ],
            [
              72.664062,
              19.132227
            ],
            [
              72.66543,
              19.128125
            ],
            [
              72.659961,
              19.117188
            ],
            [
              72.659961,
              19.110352
            ],
            [
              72.672266,
              19.099414
            ],
            [
              72.679102,
              19.098047
            ],
            [
              72.685938,
              19.103516
            ],
            [
              72.70918,
              19.103516
            ],
            [
              72.722852,
              19.092578
            ],
            [
              72.72832,
              19.092578
            ],
            [
              72.741992,
              19.098047
            ],
            [
              72.747461,
              19.098047
            ],
            [
              72.754297,
              19.102148
            ],
            [
              72.75293,
              19.108984
            ],
            [
              72.726953,
              19.113086
            ],
            [
              72.713281,
              19.129492
            ],
            [
              72.702344,
              19.15
            ],
            [
              72.651758,
              19.15
            ]
          ]
        ]
      }
    }
  ]
}