{
  "type": "FeatureCollection",
  "features": [
    {
      "type": "Feature",
      "properties": {
        "spill_id": "sentinel_113",
        "confidence": 0.86
      },
      "geometry": {
        "type": "Polygon",
        "coordinates": [
          [
            [
              72.848633,
              19.15
            ],
            [
              72.698242,
              19.15
            ],
            [
              72.694141,
              19.124023
            ],
            [
              72.654492,
              19.122656
            ],
            [
              72.668164,
              19.093945
            ],
            [
              72.707812,
              19.129492
            ],
            [
              72.725586,
              19.124023
            ],
            [
              72.739258,
              19.102148
            ],
            [
              72.717383,
              19.0625
            ],
            [
              72.673633,
              19.061133
            ],
            [
              72.670898,
              19.088477
            ],
            [
              72.658594,
              19.083008
            ],
            [
              72.643555,
              19.110352
            ],
            [
              72.591602,
              19.083008
            ],
            [
              72.595703,
              19.069336
            ],
            [
              72.636719,
              19.069336
            ],
            [
              72.646289,
              19.029687
            ],
            [
              72.612109,
              19.037891
            ],
            [
              72.595703,
              19.016016
            ],
            [
              72.55332,
              19.025586
            ],
            [
              72.536914,
              18.970898
            ],
            [
              72.5,
              18.991406
            ],
            [
              72.5,
              18.801367
            ],
            [
              72.848633,
              18.801367
            ],
            [
              72.848633,
              19.15
            ]
          ]
        ]
      }
    },
    {
      "type": "Feature",
      "properties": {
        "spill_id": "sentinel_113",
        "confidence": 0.86
      },
      "geometry": {
        "type": "Polygon",
        "coordinates": [
          [
            [
              72.602539,
              19.15
            ],
            [
              72.535547,
              19.15
            ],
            [
              72.53418,
              19.144531
            ],
            [
              72.525977,
              19.15
            ],
            [
              72.5,
              19.147266
            ],
            [
              72.5,
              19.083008
            ],
            [
              72.506836,
              19.069336
            ],
            [
              72.512305,
              19.07207
            ],
            [
              72.519141,
              19.063867
            ],
            [
              72.512305,
              19.048828
            ],
            [
              72.50957,
              19.061133
            ],
            [
              72.5,
              19.066602
            ],
            [
              72.5,
              19.024219
            ],
            [
              72.512305,
              19.02832
            ],
            [
              72.521875,
              19.020117
            ],
            [
              72.531445,
              19.032422
            ],
            [
              72.547852,
              19.020117
            ],
            [
              72.546484,
              19.02832
            ],
            [
              72.562891,
              19.036523
            ],
            [
              72.564258,
              19.050195
            ],
            [
              72.554688,
              19.05293
            ],
            [
              72.532812,
              19.046094
            ],
            [
              72.524609,
              19.061133
            ],
            [
              72.538281,
              19.076172
            ],
            [
              72.546484,
              19.076172
            ],
            [
              72.546484,
              19.088477
            ],
            [
              72.541016,
              19.095312
            ],
            [
              72.54375,
              19.107617
            ],
            [
              72.564258,
              19.124023
            ],
            [
              72.57793,
              19.121289
            ],
            [
              72.586133,
              19.136328
            ],
            [
              72.598438,
              19.129492
            ],
            [
              72.602539,
              19.147266
            ],
            [
              72.598438,
              19.148633
            ],
            [
              72.602539,
              19.15
            ]
          ]
        ]
      }
    }
  ]
}