{
  "type": "FeatureCollection",
  "features": [
    {
      "type": "Feature",
      "properties": {
        "spill_id": "sentinel_624",
        "confidence": 0.8
      },
      "geometry": {
        "type": "Polygon",
        "coordinates": [
          [
            [
              72.53418,
              18.835547
            ],
            [
              72.525977,
              18.835547
            ],
            [
              72.524609,
              18.836914
            ],
            [
              72.523242,
              18.835547
            ],
            [
              72.521875,
              18.835547
            ],
            [
              72.521875,
              18.83418
            ],
            [
              72.520508,
              18.832812
            ],
            [
              72.520508,
              18.827344
            ],
            [
              72.519141,
              18.825977
            ],
            [
              72.519141,
              18.821875
            ],
            [
              72.521875,
              18.819141
            ],
            [
              72.523242,
              18.819141
            ],
            [
              72.524609,
              18.817773
            ],
            [
              72.53418,
              18.827344
            ],
            [
              72.53418,
              18.831445
            ],
            [
              72.535547,
              18.832812
            ],
            [
              72.53418,
              18.83418
            ],
            [
              72.53418,
              18.835547
            ]
          ]
        ]
      }
    },
    {
      "type": "Feature",
      "properties": {
        "spill_id": "sentinel_624",
        "confidence": 0.8
      },
      "geometry": {
        "type": "Polygon",
        "coordinates": [
          [
            [
              72.545117,
              18.909375
            ],
            [
              72.532812,
              18.909375
            ],
            [
              72.521875,
              18.905273
            ],
            [
              72.512305,
              18.89707
            ],
            [
              72.505469,
              18.89707
            ],
            [
              72.5,
              18.894336
            ],
            [
              72.5,
              18.868359
            ],
            [
              72.502734,
              18.864258
            ],
            [
              72.502734,
              18.856055
            ],
            [
              72.504102,
              18.854688
            ],
            [
              72.50957,
              18.85332
            ],
            [
              72.512305,
              18.850586
            ],
            [
              72.516406,
              18.849219
            ],
            [
              72.520508,
              18.850586
            ],
            [
              72.528711,
              18.858789
            ],
            [
              72.538281,
              18.8875
            ],
            [
              72.546484,
              18.899805
            ],
            [
              72.546484,
              18.908008
            ],
            [
              72.545117,
              18.909375
            ]
          ]
        ]
      }
    },
    {
      "type": "Feature",
      "properties": {
        "spill_id": "sentinel_624",
        "confidence": 0.8
      },
      "geometry": {
        "type": "Polygon",
        "coordinates": [
          [
            [
              72.550586,
              18.927148
            ],
            [
              72.550586,
              18.925781
            ],
            [
              72.551953,
              18.924414
            ],
            [
              72.55332,
              18.924414
            ],
            [
              72.554688,
              18.923047
            ],
            [
              72.556055,
              18.923047
            ],
            [
              72.557422,
              18.92168
            ],
            [
              72.560156,
              18.92168
            ],
            [
              72.561523,
              18.923047
            ],
            [
              72.561523,
              18.925781
            ],
            [
              72.558789,
              18.928516
            ],
            [
              72.556055,
              18.928516
            ],
            [
              72.554688,
              18.929883
            ],
            [
              72.55332,
              18.929883
            ],
            [
              72.550586,
              18.927148
            ]
          ]
        ]
      }
    },
    {
      "type": "Feature",
      "properties": {
        "spill_id": "sentinel_624",
        "confidence": 0.8
      },
      "geometry": {
        "type": "Polygon",
        "coordinates": [
          [
            [
              72.5875,
              18.866992
            ],
            [
              72.602539,
              18.857422
            ],
            [
              72.623047,
              18.883398
            ],
            [
              72.633984,
              18.886133
            ],
            [
              72.676367,
              18.866992
            ],
            [
              72.694141,
              18.869727
            ],
            [
              72.713281,
              18.860156
            ],
            [
              72.735156,
              18.876562
            ],
            [
              72.763867,
              18.876562
            ],
            [
              72.776172,
              18.894336
            ],
            [
              72.818555,
              18.895703
            ],
            [
              72.822656,
              18.906641
            ],
            [
              72.807617,
              18.918945
            ],
            [
              72.776172,
              18.914844
            ],
            [
              72.726953,
              18.89707
            ],
            [
              72.710547,
              18.882031
            ],
            [
              72.669531,
              18.899805
            ],
            [
              72.655859,
              18.916211
            ],
            [
              72.657227,
              18.93125
            ],
            [
              72.669531,
              18.943555
            ],
            [
              72.691406,
              18.949023
            ],
            [
              72.700977,
              18.964062
            ],
            [
              72.690039,
              18.969531
            ],
            [
              72.668164,
              18.957227
            ],
            [
              72.657227,
              18.961328
            ],
            [
              72.66543,
              19.026953
            ],
            [
              72.651758,
              19.010547
            ],
            [
              72.646289,
              18.977734
            ],
            [
              72.635352,
              18.962695
            ],
            [
              72.59707,
              18.942188
            ],
            [
              72.601172,
              18.932617
            ],
            [
              72.62168,
              18.929883
            ],
            [
              72.623047,
              18.92168
            ],
            [
              72.5875,
              18.866992
            ]
          ]
        ]
      }
    },
    {
      "type": "Feature",
      "properties": {
        "spill_id": "sentinel_624",
        "confidence": 0.8
      },
      "geometry": {
        "type": "Polygon",
        "coordinates": [
          [
            [
              72.837695,
              19.058398
            ],
            [
              72.825391,
              19.054297
            ],
            [
              72.80625,
              19.01875
            ],
            [
              72.802148,
              18.992773
            ],
            [
              72.79668,
              18.985938
            ],
            [
              72.785742,
              18.983203
            ],
            [
              72.787109,
              18.975
            ],
            [
              72.781641,
              18.950391
            ],
            [
              72.765234,
              18.935352
            ],
            [
              72.765234,
              18.928516
            ],
            [
              72.800781,
              18.957227
            ],
            [
              72.80625,
              18.958594
            ],
            [
              72.822656,
              18.975
            ],
            [
              72.848633,
              18.98457
            ],
            [
              72.848633,
              18.995508
            ],
            [
              72.833594,
              19.000977
            ],
            [
              72.834961,
              19.006445
            ],
            [
              72.843164,
              19.011914
            ],
            [
              72.844531,
              19.021484
            ],
            [
              72.84043,
              19.025586
            ],
            [
              72.833594,
              19.025586
            ],
            [
              72.828125,
              19.032422
            ],
            [
              72.832227,
              19.047461
            ],
            [
              72.843164,
              19.054297
            ],
            [
              72.837695,
              19.058398
            ]
          ]
        ]
      }
    },
    {
      "type": "Feature",
      "properties": {
        "spill_id": "sentinel_624",
        "confidence": 0.8
      },
      "geometry": {
        "type": "Polygon",
        "coordinates": [
          [
            [
              72.68457,
              19.129492
            ],
            [
              72.680469,
              19.124023
            ],
            [
              72.680469,
              19.108984
            ],
            [
              72.68457,
              19.095312
            ],
            [
              72.680469,
              19.066602
            ],
            [
              72.683203,
              19.063867
            ],
            [
              72.691406,
              19.073438
            ],
            [
              72.70918,
              19.083008
            ],
            [
              72.71875,
              19.078906
            ],
            [
              72.729688,
              19.067969
            ],
            [
              72.735156,
              19.067969
            ],
            [
              72.736523,
              19.069336
            ],
            [
              72.735156,
              19.083008
            ],
            [
              72.726953,
              19.091211
            ],
            [
              72.721484,
              19.092578
            ],
            [
              72.695508,
              19.113086
            ],
            [
              72.694141,
              19.128125
            ],
            [
              72.68457,
              19.129492
            ]
          ]
        ]
      }
    },
    {
      "type": "Feature",
      "properties": {
        "spill_id": "sentinel_624",
        "confidence": 0.8
      },
      "geometry": {
        "type": "Polygon",
        "coordinates": [
          [
            [
              72.655859,
              19.15
            ],
            [
              72.655859,
              19.145898
            ],
            [
              72.657227,
              19.144531
            ],
            [
              72.658594,
              19.144531
            ],
            [
              72.662695,
              19.14043
            ],
            [
              72.662695,
              19.139062
            ],
            [
              72.672266,
              19.139062
            ],
            [
              72.673633,
              19.14043
            ],
            [
              72.673633,
              19.145898
            ],
            [
              72.670898,
              19.148633
            ],
            [
              72.670898,
              19.15
            ],
            [
              72.655859,
              19.15
            ]
          ]
        ]
      }
    }
  ]
}