{
  "type": "FeatureCollection",
  "features": [
    {
      "type": "Feature",
      "properties": {
        "spill_id": "sentinel_704",
        "confidence": 0.76
      },
      "geometry": {
        "type": "Polygon",
        "coordinates": [
          [
            [
              72.845898,
              18.821875
            ],
            [
              72.845898,
              18.816406
            ],
            [
              72.844531,
              18.815039
            ],
            [
              72.844531,
              18.813672
            ],
            [
              72.839062,
              18.808203
            ],
            [
              72.839062,
              18.806836
            ],
            [
              72.834961,
              18.802734
            ],
            [
              72.834961,
              18.801367
            ],
            [
              72.844531,
              18.801367
            ],
            [
              72.848633,
              18.805469
            ],
            [
              72.848633,
              18.813672
            ],
            [
              72.847266,
              18.815039
            ],
            [
              72.847266,
              18.816406
            ],
            [
              72.845898,
              18.817773
            ],
            [
              72.845898,
              18.821875
            ]
          ]
        ]
      }
    },
    {
      "type": "Feature",
      "properties": {
        "spill_id": "sentinel_704",
        "confidence": 0.76
      },
      "geometry": {
        "type": "Polygon",
        "coordinates": [
          [
            [
              72.662695,
              18.857422
            ],
            [
              72.659961,
              18.854688
            ],
            [
              72.658594,
              18.854688
            ],
            [
              72.658594,
              18.851953
            ],
            [
              72.654492,
              18.847852
            ],
            [
              72.654492,
              18.838281
            ],
            [
              72.655859,
              18.836914
            ],
            [
              72.657227,
              18.832812
            ],
            [
              72.658594,
              18.832812
            ],
            [
              72.661328,
              18.830078
            ],
            [
              72.661328,
              18.828711
            ],
            [
              72.662695,
              18.827344
            ],
            [
              72.666797,
              18.827344
            ],
            [
              72.669531,
              18.830078
            ],
            [
              72.670898,
              18.83418
            ],
            [
              72.673633,
              18.836914
            ],
            [
              72.673633,
              18.850586
            ],
            [
              72.675,
              18.851953
            ],
            [
              72.675,
              18.854688
            ],
            [
              72.668164,
              18.854688
            ],
            [
              72.66543,
              18.857422
            ],
            [
              72.662695,
              18.857422
            ]
          ]
        ]
      }
    },
    {
      "type": "Feature",
      "properties": {
        "spill_id": "sentinel_704",
        "confidence": 0.76
      },
      "geometry": {
        "type": "Polygon",
        "coordinates": [
          [
            [
              72.845898,
              18.892969
            ],
            [
              72.841797,
              18.891602
            ],
            [
              72.837695,
              18.886133
            ],
            [
              72.837695,
              18.876562
            ],
            [
              72.84043,
              18.873828
            ],
            [
              72.84043,
              18.871094
            ],
            [
              72.843164,
              18.866992
            ],
            [
              72.843164,
              18.861523
            ],
            [
              72.844531,
              18.860156
            ],
            [
              72.844531,
              18.858789
            ],
            [
              72.841797,
              18.857422
            ],
            [
              72.841797,
              18.856055
            ],
            [
              72.839062,
              18.85332
            ],
            [
              72.837695,
              18.847852
            ],
            [
              72.836328,
              18.846484
            ],
            [
              72.836328,
              18.836914
            ],
            [
              72.839062,
              18.835547
            ],
            [
              72.845898,
              18.835547
            ],
            [
              72.845898,
              18.836914
            ],
            [
              72.848633,
              18.839648
            ],
            [
              72.848633,
              18.854688
            ],
            [
              72.844531,
              18.860156
            ],
            [
              72.848633,
              18.868359
            ],
            [
              72.848633,
              18.891602
            ],
            [
              72.845898,
              18.892969
            ]
          ]
        ]
      }
    },
    {
      "type": "Feature",
      "properties": {
        "spill_id": "sentinel_704",
        "confidence": 0.76
      },
      "geometry": {
        "type": "Polygon",
        "coordinates": [
          [
            [
              72.706445,
              18.988672
            ],
            [
              72.702344,
              18.988672
            ],
            [
              72.700977,
              18.987305
            ],
            [
              72.691406,
              18.987305
            ],
            [
              72.690039,
              18.985938
            ],
            [
              72.688672,
              18.985938
            ],
            [
              72.688672,
              18.98457
            ],
            [
              72.687305,
              18.983203
            ],
            [
              72.687305,
              18.979102
            ],
            [
              72.68457,
              18.976367
            ],
            [
              72.68457,
              18.972266
            ],
            [
              72.685938,
              18.972266
            ],
            [
              72.687305,
              18.970898
            ],
            [
              72.688672,
              18.970898
            ],
            [
              72.690039,
              18.969531
            ],
            [
              72.692773,
              18.969531
            ],
            [
              72.694141,
              18.968164
            ],
            [
              72.695508,
              18.969531
            ],
            [
              72.698242,
              18.969531
            ],
            [
              72.699609,
              18.970898
            ],
            [
              72.699609,
              18.975
            ],
            [
              72.700977,
              18.976367
            ],
            [
              72.700977,
              18.977734
            ],
            [
              72.702344,
              18.979102
            ],
            [
              72.702344,
              18.983203
            ],
            [
              72.703711,
              18.98457
            ],
            [
              72.705078,
              18.98457
            ],
            [
              72.705078,
              18.985938
            ],
            [
              72.706445,
              18.987305
            ],
            [
              72.706445,
              18.988672
            ]
          ]
        ]
      }
    },
    {
      "type": "Feature",
      "properties": {
        "spill_id": "sentinel_704",
        "confidence": 0.76
      },
      "geometry": {
        "type": "Polygon",
        "coordinates": [
          [
            [
              72.720117,
              19.017383
            ],
            [
              72.71875,
              19.01875
            ],
            [
              72.717383,
              19.01875
            ],
            [
              72.714648,
              19.021484
            ],
            [
              72.710547,
              19.021484
            ],
            [
              72.70918,
              19.020117
            ],
            [
              72.705078,
              19.020117
            ],
            [
              72.703711,
              19.01875
            ],
            [
              72.699609,
              19.01875
            ],
            [
              72.698242,
              19.017383
            ],
            [
              72.698242,
              19.00918
            ],
            [
              72.699609,
              19.00918
            ],
            [
              72.700977,
              19.007812
            ],
            [
              72.70918,
              19.007812
            ],
            [
              72.711914,
              19.010547
            ],
            [
              72.713281,
              19.010547
            ],
            [
              72.713281,
              19.011914
            ],
            [
              72.716016,
              19.014648
            ],
            [
              72.717383,
              19.014648
            ],
            [
              72.720117,
              19.017383
            ]
          ]
        ]
      }
    },
    {
      "type": "Feature",
      "properties": {
        "spill_id": "sentinel_704",
        "confidence": 0.76
      },
      "geometry": {
        "type": "Polygon",
        "coordinates": [
          [
            [
              72.802148,
              19.031055
            ],
            [
              72.807617,
              19.026953
            ],
            [
              72.821289,
              19.025586
            ],
            [
              72.822656,
              19.026953
            ],
            [
              72.828125,
              19.02832
            ],
            [
              72.828125,
              19.029687
            ],
            [
              72.833594,
              19.035156
            ],
            [
              72.839062,
              19.035156
            ],
            [
              72.84043,
              19.036523
            ],
            [
              72.845898,
              19.033789
            ],
            [
              72.848633,
              19.036523
            ],
            [
              72.848633,
              19.051562
            ],
            [
              72.84043,
              19.050195
            ],
            [
              72.833594,
              19.046094
            ],
            [
              72.828125,
              19.051562
            ],
            [
              72.828125,
              19.054297
            ],
            [
              72.825391,
              19.057031
            ],
            [
              72.817187,
              19.057031
            ],
            [
              72.813086,
              19.054297
            ],
            [
              72.813086,
              19.051562
            ],
            [
              72.808984,
              19.047461
            ],
            [
              72.808984,
              19.046094
            ],
            [
              72.803516,
              19.041992
            ],
            [
              72.803516,
              19.039258
            ],
            [
              72.802148,
              19.037891
            ],
            [
              72.802148,
              19.031055
            ]
          ]
        ]
      }
    },
    {
      "type": "Feature",
      "properties": {
        "spill_id": "sentinel_704",
        "confidence": 0.76
      },
      "geometry": {
        "type": "Polygon",
        "coordinates": [
          [
            [
              72.501367,
              19.15
            ],
            [
              72.5,
              18.801367
            ],
            [
              72.616211,
              18.802734
            ],
            [
              72.609375,
              18.823242
            ],
            [
              72.557422,
              18.828711
            ],
            [
              72.546484,
              18.860156
            ],
            [
              72.561523,
              18.87793
            ],
            [
              72.59707,
              18.850586
            ],
            [
              72.617578,
              18.864258
            ],
            [
              72.608008,
              18.895703
            ],
            [
              72.569727,
              18.879297
            ],
            [
              72.557422,
              18.895703
            ],
            [
              72.612109,
              18.955859
            ],
            [
              72.675,
              18.988672
            ],
            [
              72.677734,
              19.007812
            ],
            [
              72.562891,
              18.957227
            ],
            [
              72.528711,
              18.972266
            ],
            [
              72.524609,
              18.992773
            ],
            [
              72.547852,
              19.003711
            ],
            [
              72.539648,
              19.039258
            ],
            [
              72.591602,
              19.077539
            ],
            [
              72.613477,
              19.05293
            ],
            [
              72.608008,
              19.067969
            ],
            [
              72.625781,
              19.069336
            ],
            [
              72.63125,
              19.09668
            ],
            [
              72.698242,
              19.100781
            ],
            [
              72.724219,
              19.15
            ],
            [
              72.501367,
              19.15
            ]
          ]
        ]
      }
    }
  ]
}