{
  "type": "FeatureCollection",
  "features": [
    {
      "type": "Feature",
      "properties": {
        "spill_id": "sentinel_812",
        "confidence": 0.88
      },
      "geometry": {
        "type": "Polygon",
        "coordinates": [
          [
            [
              72.763867,
              18.953125
            ],
            [
              72.761133,
              18.955859
            ],
            [
              72.761133,
              18.957227
            ],
            [
              72.759766,
              18.958594
            ],
            [
              72.747461,
              18.958594
            ],
            [
              72.743359,
              18.955859
            ],
            [
              72.740625,
              18.955859
            ],
            [
              72.739258,
              18.954492
            ],
            [
              72.736523,
              18.954492
            ],
            [
              72.735156,
              18.953125
            ],
            [
              72.733789,
              18.953125
            ],
            [
              72.731055,
              18.950391
            ],
            [
              72.731055,
              18.943555
            ],
            [
              72.735156,
              18.939453
            ],
            [
              72.740625,
              18.939453
            ],
            [
              72.741992,
              18.94082
            ],
            [
              72.744727,
              18.94082
            ],
            [
              72.746094,
              18.942188
            ],
            [
              72.75293,
              18.942188
            ],
            [
              72.754297,
              18.943555
            ],
            [
              72.757031,
              18.943555
            ],
            [
              72.758398,
              18.944922
            ],
            [
              72.759766,
              18.944922
            ],
            [
              72.763867,
              18.949023
            ],
            [
              72.763867,
              18.953125
            ]
          ]
        ]
      }
    },
    {
      "type": "Feature",
      "properties": {
        "spill_id": "sentinel_812",
        "confidence": 0.88
      },
      "geometry": {
        "type": "Polygon",
        "coordinates": [
          [
            [
              72.5,
              19.102148
            ],
            [
              72.5,
              19.021484
            ],
            [
              72.513672,
              19.016016
            ],
            [
              72.523242,
              18.987305
            ],
            [
              72.558789,
              18.966797
            ],
            [
              72.573828,
              18.947656
            ],
            [
              72.592969,
              18.946289
            ],
            [
              72.610742,
              18.910742
            ],
            [
              72.63125,
              18.910742
            ],
            [
              72.638086,
              18.903906
            ],
            [
              72.632617,
              18.864258
            ],
            [
              72.659961,
              18.875195
            ],
            [
              72.675,
              18.871094
            ],
            [
              72.688672,
              18.886133
            ],
            [
              72.692773,
              18.917578
            ],
            [
              72.713281,
              18.943555
            ],
            [
              72.68457,
              18.943555
            ],
            [
              72.662695,
              18.932617
            ],
            [
              72.639453,
              18.962695
            ],
            [
              72.639453,
              18.987305
            ],
            [
              72.657227,
              19.007812
            ],
            [
              72.646289,
              19.025586
            ],
            [
              72.669531,
              19.055664
            ],
            [
              72.639453,
              19.05293
            ],
            [
              72.618945,
              19.021484
            ],
            [
              72.601172,
              19.011914
            ],
            [
              72.525977,
              19.047461
            ],
            [
              72.50957,
              19.069336
            ],
            [
              72.512305,
              19.087109
            ],
            [
              72.5,
              19.102148
            ]
          ]
        ]
      }
    },
    {
      "type": "Feature",
      "properties": {
        "spill_id": "sentinel_812",
        "confidence": 0.88
      },
      "geometry": {
        "type": "Polygon",
        "coordinates": [
          [
            [
              72.562891,
              19.11582
            ],
            [
              72.561523,
              19.114453
            ],
            [
              72.560156,
              19.114453
            ],
            [
              72.557422,
              19.111719
            ],
            [
              72.557422,
              19.110352
            ],
            [
              72.556055,
              19.108984
            ],
            [
              72.556055,
              19.102148
            ],
            [
              72.561523,
              19.09668
            ],
            [
              72.569727,
              19.09668
            ],
            [
              72.573828,
              19.100781
            ],
            [
              72.573828,
              19.113086
            ],
            [
              72.571094,
              19.11582
            ],
            [
              72.562891,
              19.11582
            ]
          ]
        ]
      }
    },
    {
      "type": "Feature",
      "properties": {
        "spill_id": "sentinel_812",
        "confidence": 0.88
      },
      "geometry": {
        "type": "Polygon",
        "coordinates": [
          [
            [
              72.84043,
              19.15
            ],
            [
              72.81582,
              19.15
            ],
            [
              72.792578,
              19.133594
            ],
            [
              72.789844,
              19.114453
            ],
            [
              72.716016,
              19.083008
            ],
            [
              72.700977,
              19.059766
            ],
            [
              72.722852,
              19.021484
            ],
            [
              72.72832,
              18.980469
            ],
            [
              72.7625,
              19.013281
            ],
            [
              72.783008,
              19.000977
            ],
            [
              72.785742,
              18.966797
            ],
            [
              72.777539,
              18.94082
            ],
            [
              72.789844,
              18.93125
            ],
            [
              72.789844,
              18.942188
            ],
            [
              72.799414,
              18.946289
            ],
            [
              72.804883,
              18.918945
            ],
            [
              72.798047,
              18.888867
            ],
            [
              72.750195,
              18.847852
            ],
            [
              72.731055,
              18.801367
            ],
            [
              72.814453,
              18.801367
            ],
            [
              72.848633,
              18.820508
            ],
            [
              72.848633,
              18.842383
            ],
            [
              72.836328,
              18.849219
            ],
            [
              72.848633,
              18.862891
            ],
            [
              72.848633,
              19.125391
            ],
            [
              72.84043,
              19.15
            ]
          ]
        ]
      }
    },
    {
      "type": "Feature",
      "properties": {
        "spill_id": "sentinel_812",
        "confidence": 0.88
      },
      "geometry": {
        "type": "Polygon",
        "coordinates": [
          [
            [
              72.788477,
              19.15
            ],
            [
              72.770703,
              19.15
            ],
            [
              72.769336,
              19.148633
            ],
            [
              72.767969,
              19.144531
            ],
            [
              72.765234,
              19.141797
            ],
            [
              72.765234,
              19.14043
            ],
            [
              72.7625,
              19.137695
            ],
            [
              72.7625,
              19.136328
            ],
            [
              72.761133,
              19.134961
            ],
            [
              72.761133,
              19.128125
            ],
            [
              72.7625,
              19.126758
            ],
            [
              72.7625,
              19.124023
            ],
            [
              72.763867,
              19.122656
            ],
            [
              72.763867,
              19.119922
            ],
            [
              72.766602,
              19.119922
            ],
            [
              72.769336,
              19.122656
            ],
            [
              72.770703,
              19.122656
            ],
            [
              72.777539,
              19.129492
            ],
            [
              72.778906,
              19.129492
            ],
            [
              72.784375,
              19.134961
            ],
            [
              72.784375,
              19.136328
            ],
            [
              72.785742,
              19.137695
            ],
            [
              72.787109,
              19.137695
            ],
            [
              72.787109,
              19.139062
            ],
            [
              72.788477,
              19.14043
            ],
            [
              72.788477,
              19.143164
            ],
            [
              72.789844,
              19.144531
            ],
            [
              72.789844,
              19.145898
            ],
            [
              72.788477,
              19.147266
            ],
            [
              72.788477,
              19.15
            ]
          ]
        ]
      }
    },
    {
      "type": "Feature",
      "properties": {
        "spill_id": "sentinel_812",
        "confidence": 0.88
      },
      "geometry": {
        "type": "Polygon",
        "coordinates": [
          [
            [
              72.661328,
              19.15
            ],
            [
              72.659961,
              19.147266
            ],
            [
              72.659961,
              19.130859
            ],
            [
              72.658594,
              19.129492
            ],
            [
              72.658594,
              19.121289
            ],
            [
              72.662695,
              19.114453
            ],
            [
              72.670898,
              19.10625
            ],
            [
              72.673633,
              19.104883
            ],
            [
              72.677734,
              19.104883
            ],
            [
              72.679102,
              19.103516
            ],
            [
              72.683203,
              19.103516
            ],
            [
              72.696875,
              19.108984
            ],
            [
              72.702344,
              19.118555
            ],
            [
              72.703711,
              19.125391
            ],
            [
              72.698242,
              19.136328
            ],
            [
              72.692773,
              19.141797
            ],
            [
              72.690039,
              19.15
            ],
            [
              72.661328,
              19.15
            ]
          ]
        ]
      }
    }
  ]
}