{
  "type": "FeatureCollection",
  "features": [
    {
      "type": "Feature",
      "properties": {
        "spill_id": "sentinel_619",
        "confidence": 0.86
      },
      "geometry": {
        "type": "Polygon",
        "coordinates": [
          [
            [
              72.700977,
              18.85332
            ],
            [
              72.698242,
              18.850586
            ],
            [
              72.698242,
              18.847852
            ],
            [
              72.699609,
              18.846484
            ],
            [
              72.699609,
              18.845117
            ],
            [
              72.706445,
              18.838281
            ],
            [
              72.706445,
              18.835547
            ],
            [
              72.707812,
              18.83418
            ],
            [
              72.707812,
              18.832812
            ],
            [
              72.710547,
              18.830078
            ],
            [
              72.711914,
              18.830078
            ],
            [
              72.713281,
              18.828711
            ],
            [
              72.714648,
              18.830078
            ],
            [
              72.716016,
              18.830078
            ],
            [
              72.716016,
              18.831445
            ],
            [
              72.717383,
              18.832812
            ],
            [
              72.717383,
              18.83418
            ],
            [
              72.71875,
              18.835547
            ],
            [
              72.71875,
              18.839648
            ],
            [
              72.717383,
              18.841016
            ],
            [
              72.717383,
              18.842383
            ],
            [
              72.710547,
              18.849219
            ],
            [
              72.710547,
              18.850586
            ],
            [
              72.70918,
              18.851953
            ],
            [
              72.707812,
              18.851953
            ],
            [
              72.706445,
              18.85332
            ],
            [
              72.700977,
              18.85332
            ]
          ]
        ]
      }
    },
    {
      "type": "Feature",
      "properties": {
        "spill_id": "sentinel_619",
        "confidence": 0.86
      },
      "geometry": {
        "type": "Polygon",
        "coordinates": [
          [
            [
              72.677734,
              18.94082
            ],
            [
              72.685938,
              18.929883
            ],
            [
              72.687305,
              18.924414
            ],
            [
              72.694141,
              18.917578
            ],
            [
              72.702344,
              18.913477
            ],
            [
              72.711914,
              18.914844
            ],
            [
              72.713281,
              18.917578
            ],
            [
              72.711914,
              18.933984
            ],
            [
              72.716016,
              18.939453
            ],
            [
              72.722852,
              18.943555
            ],
            [
              72.739258,
              18.943555
            ],
            [
              72.75293,
              18.935352
            ],
            [
              72.7625,
              18.935352
            ],
            [
              72.769336,
              18.939453
            ],
            [
              72.769336,
              18.944922
            ],
            [
              72.765234,
              18.950391
            ],
            [
              72.746094,
              18.957227
            ],
            [
              72.729688,
              18.959961
            ],
            [
              72.71875,
              18.959961
            ],
            [
              72.700977,
              18.953125
            ],
            [
              72.692773,
              18.953125
            ],
            [
              72.679102,
              18.947656
            ],
            [
              72.677734,
              18.94082
            ]
          ]
        ]
      }
    },
    {
      "type": "Feature",
      "properties": {
        "spill_id": "sentinel_619",
        "confidence": 0.86
      },
      "geometry": {
        "type": "Polygon",
        "coordinates": [
          [
            [
              72.828125,
              18.98457
            ],
            [
              72.828125,
              18.981836
            ],
            [
              72.830859,
              18.977734
            ],
            [
              72.825391,
              18.972266
            ],
            [
              72.825391,
              18.970898
            ],
            [
              72.826758,
              18.969531
            ],
            [
              72.825391,
              18.968164
            ],
            [
              72.828125,
              18.96543
            ],
            [
              72.829492,
              18.96543
            ],
            [
              72.830859,
              18.964062
            ],
            [
              72.834961,
              18.964062
            ],
            [
              72.837695,
              18.961328
            ],
            [
              72.839062,
              18.961328
            ],
            [
              72.84043,
              18.959961
            ],
            [
              72.848633,
              18.959961
            ],
            [
              72.848633,
              18.973633
            ],
            [
              72.839062,
              18.983203
            ],
            [
              72.836328,
              18.983203
            ],
            [
              72.834961,
              18.98457
            ],
            [
              72.828125,
              18.98457
            ]
          ]
        ]
      }
    },
    {
      "type": "Feature",
      "properties": {
        "spill_id": "sentinel_619",
        "confidence": 0.86
      },
      "geometry": {
        "type": "Polygon",
        "coordinates": [
          [
            [
              72.669531,
              18.991406
            ],
            [
              72.654492,
              19.010547
            ],
            [
              72.636719,
              19.007812
            ],
            [
              72.608008,
              19.017383
            ],
            [
              72.582031,
              19.016016
            ],
            [
              72.566992,
              19.005078
            ],
            [
              72.558789,
              18.985938
            ],
            [
              72.527344,
              18.938086
            ],
            [
              72.517773,
              18.93125
            ],
            [
              72.5,
              18.928516
            ],
            [
              72.5,
              18.918945
            ],
            [
              72.524609,
              18.917578
            ],
            [
              72.536914,
              18.924414
            ],
            [
              72.550586,
              18.939453
            ],
            [
              72.561523,
              18.969531
            ],
            [
              72.571094,
              18.981836
            ],
            [
              72.584766,
              18.970898
            ],
            [
              72.592969,
              18.972266
            ],
            [
              72.591602,
              18.979102
            ],
            [
              72.580664,
              18.985938
            ],
            [
              72.5875,
              18.992773
            ],
            [
              72.613477,
              18.994141
            ],
            [
              72.649023,
              18.977734
            ],
            [
              72.669531,
              18.991406
            ]
          ]
        ]
      }
    },
    {
      "type": "Feature",
      "properties": {
        "spill_id": "sentinel_619",
        "confidence": 0.86
      },
      "geometry": {
        "type": "Polygon",
        "coordinates": [
          [
            [
              72.706445,
              19.054297
            ],
            [
              72.706445,
              19.048828
            ],
            [
              72.717383,
              19.041992
            ],
            [
              72.735156,
              19.026953
            ],
            [
              72.751562,
              19.01875
            ],
            [
              72.774805,
              19.016016
            ],
            [
              72.802148,
              18.994141
            ],
            [
              72.813086,
              18.988672
            ],
            [
              72.824023,
              18.987305
            ],
            [
              72.822656,
              18.992773
            ],
            [
              72.808984,
              19.003711
            ],
            [
              72.799414,
              19.007812
            ],
            [
              72.787109,
              19.017383
            ],
            [
              72.765234,
              19.025586
            ],
            [
              72.743359,
              19.051562
            ],
            [
              72.724219,
              19.058398
            ],
            [
              72.714648,
              19.058398
            ],
            [
              72.706445,
              19.054297
            ]
          ]
        ]
      }
    },
    {
      "type": "Feature",
      "properties": {
        "spill_id": "sentinel_619",
        "confidence": 0.86
      },
      "geometry": {
        "type": "Polygon",
        "coordinates": [
          [
            [
              72.819922,
              19.102148
            ],
            [
              72.819922,
              19.095312
            ],
            [
              72.821289,
              19.095312
            ],
            [
              72.825391,
              19.091211
            ],
            [
              72.826758,
              19.091211
            ],
            [
              72.828125,
              19.089844
            ],
            [
              72.832227,
              19.089844
            ],
            [
              72.833594,
              19.088477
            ],
            [
              72.834961,
              19.088477
            ],
            [
              72.839062,
              19.092578
            ],
            [
              72.843164,
              19.092578
            ],
            [
              72.843164,
              19.095312
            ],
            [
              72.841797,
              19.09668
            ],
            [
              72.84043,
              19.09668
            ],
            [
              72.837695,
              19.099414
            ],
            [
              72.836328,
              19.099414
            ],
            [
              72.833594,
              19.102148
            ],
            [
              72.832227,
              19.102148
            ],
            [
              72.830859,
              19.103516
            ],
            [
              72.826758,
              19.103516
            ],
            [
              72.825391,
              19.104883
            ],
            [
              72.822656,
              19.104883
            ],
            [
              72.819922,
              19.102148
            ]
          ]
        ]
      }
    },
    {
      "type": "Feature",
      "properties": {
        "spill_id": "sentinel_619",
        "confidence": 0.86
      },
      "geometry": {
        "type": "Polygon",
        "coordinates": [
          [
            [
              72.5,
              19.119922
            ],
            [
              72.5,
              19.107617
            ],
            [
              72.501367,
              19.107617
            ],
            [
              72.502734,
              19.10625
            ],
            [
              72.502734,
              19.103516
            ],
            [
              72.504102,
              19.102148
            ],
            [
              72.505469,
              19.098047
            ],
            [
              72.510938,
              19.092578
            ],
            [
              72.512305,
              19.092578
            ],
            [
              72.513672,
              19.091211
            ],
            [
              72.521875,
              19.091211
            ],
            [
              72.523242,
              19.092578
            ],
            [
              72.524609,
              19.092578
            ],
            [
              72.524609,
              19.093945
            ],
            [
              72.527344,
              19.09668
            ],
            [
              72.527344,
              19.098047
            ],
            [
              72.523242,
              19.102148
            ],
            [
              72.520508,
              19.102148
            ],
            [
              72.516406,
              19.10625
            ],
            [
              72.515039,
              19.10625
            ],
            [
              72.513672,
              19.107617
            ],
            [
              72.513672,
              19.108984
            ],
            [
              72.510938,
              19.111719
            ],
            [
              72.50957,
              19.11582
            ],
            [
              72.505469,
              19.119922
            ],
            [
              72.5,
              19.119922
            ]
          ]
        ]
      }
    },
    {
      "type": "Feature",
      "properties": {
        "spill_id": "sentinel_619",
        "confidence": 0.86
      },
      "geometry": {
        "type": "Polygon",
        "coordinates": [
          [
            [
              72.614844,
              19.137695
            ],
            [
              72.612109,
              19.133594
            ],
            [
              72.612109,
              19.124023
            ],
            [
              72.616211,
              19.117188
            ],
            [
              72.616211,
              19.114453
            ],
            [
              72.617578,
              19.113086
            ],
            [
              72.617578,
              19.108984
            ],
            [
              72.624414,
              19.102148
            ],
            [
              72.628516,
              19.100781
            ],
            [
              72.635352,
              19.095312
            ],
            [
              72.642187,
              19.095312
            ],
            [
              72.643555,
              19.093945
            ],
            [
              72.646289,
              19.093945
            ],
            [
              72.644922,
              19.09668
            ],
            [
              72.644922,
              19.099414
            ],
            [
              72.64082,
              19.10625
            ],
            [
              72.64082,
              19.108984
            ],
            [
              72.638086,
              19.114453
            ],
            [
              72.635352,
              19.117188
            ],
            [
              72.635352,
              19.118555
            ],
            [
              72.628516,
              19.124023
            ],
            [
              72.625781,
              19.130859
            ],
            [
              72.62168,
              19.134961
            ],
            [
              72.618945,
              19.136328
            ],
            [
              72.616211,
              19.136328
            ],
            [
              72.614844,
              19.137695
            ]
          ]
        ]
      }
    },
    {
      "type": "Feature",
      "properties": {
        "spill_id": "sentinel_619",
        "confidence": 0.86
      },
      "geometry": {
        "type": "Polygon",
        "coordinates": [
          [
            [
              72.649023,
              19.139062
            ],
            [
              72.670898,
              19.11582
            ],
            [
              72.683203,
              19.114453
            ],
            [
              72.692773,
              19.119922
            ],
            [
              72.711914,
              19.107617
            ],
            [
              72.740625,
              19.107617
            ],
            [
              72.755664,
              19.103516
            ],
            [
              72.774805,
              19.118555
            ],
            [
              72.787109,
              19.118555
            ],
            [
              72.803516,
              19.126758
            ],
            [
              72.81582,
              19.144531
            ],
            [
              72.814453,
              19.15
            ],
            [
              72.750195,
              19.15
            ],
            [
              72.732422,
              19.14043
            ],
            [
              72.725586,
              19.143164
            ],
            [
              72.720117,
              19.15
            ],
            [
              72.650391,
              19.15
            ],
            [
              72.649023,
              19.139062
            ]
          ]
        ]
      }
    },
    {
      "type": "Feature",
      "properties": {
        "spill_id": "sentinel_619",
        "confidence": 0.86
      },
      "geometry": {
        "type": "Polygon",
        "coordinates": [
          [
            [
              72.527344,
              19.148633
            ],
            [
              72.527344,
              19.14043
            ],
            [
              72.530078,
              19.137695
            ],
            [
              72.530078,
              19.136328
            ],
            [
              72.539648,
              19.130859
            ],
            [
              72.542383,
              19.128125
            ],
            [
              72.542383,
              19.126758
            ],
            [
              72.547852,
              19.122656
            ],
            [
              72.556055,
              19.121289
            ],
            [
              72.557422,
              19.119922
            ],
            [
              72.562891,
              19.119922
            ],
            [
              72.564258,
              19.121289
            ],
            [
              72.566992,
              19.121289
            ],
            [
              72.568359,
              19.122656
            ],
            [
              72.571094,
              19.122656
            ],
            [
              72.576562,
              19.125391
            ],
            [
              72.57793,
              19.128125
            ],
            [
              72.57793,
              19.130859
            ],
            [
              72.573828,
              19.136328
            ],
            [
              72.564258,
              19.141797
            ],
            [
              72.560156,
              19.141797
            ],
            [
              72.558789,
              19.143164
            ],
            [
              72.55332,
              19.144531
            ],
            [
              72.549219,
              19.148633
            ],
            [
              72.549219,
              19.15
            ],
            [
              72.528711,
              19.15
            ],
            [
              72.527344,
              19.148633
            ]
          ]
        ]
      }
    }
  ]
}