{
  "type": "FeatureCollection",
  "features": [
    {
      "type": "Feature",
      "properties": {
        "spill_id": "sentinel_109",
        "confidence": 0.83
      },
      "geometry": {
        "type": "Polygon",
        "coordinates": [
          [
            [
              72.848633,
              18.820508
            ],
            [
              72.841797,
              18.820508
            ],
            [
              72.84043,
              18.819141
            ],
            [
              72.839062,
              18.819141
            ],
            [
              72.839062,
              18.817773
            ],
            [
              72.837695,
              18.816406
            ],
            [
              72.837695,
              18.815039
            ],
            [
              72.834961,
              18.812305
            ],
            [
              72.830859,
              18.812305
            ],
            [
              72.829492,
              18.810938
            ],
            [
              72.828125,
              18.810938
            ],
            [
              72.826758,
              18.80957
            ],
            [
              72.825391,
              18.80957
            ],
            [
              72.822656,
              18.806836
            ],
            [
              72.822656,
              18.805469
            ],
            [
              72.821289,
              18.804102
            ],
            [
              72.821289,
              18.802734
            ],
            [
              72.822656,
              18.801367
            ],
            [
              72.833594,
              18.801367
            ],
            [
              72.833594,
              18.802734
            ],
            [
              72.836328,
              18.805469
            ],
            [
              72.836328,
              18.806836
            ],
            [
              72.837695,
              18.808203
            ],
            [
              72.847266,
              18.808203
            ],
            [
              72.848633,
              18.80957
            ],
            [
              72.848633,
              18.820508
            ]
          ]
        ]
      }
    },
    {
      "type": "Feature",
      "properties": {
        "spill_id": "sentinel_109",
        "confidence": 0.83
      },
      "geometry": {
        "type": "Polygon",
        "coordinates": [
          [
            [
              72.668164,
              18.815039
            ],
            [
              72.670898,
              18.80957
            ],
            [
              72.716016,
              18.80957
            ],
            [
              72.726953,
              18.812305
            ],
            [
              72.736523,
              18.820508
            ],
            [
              72.744727,
              18.824609
            ],
            [
              72.747461,
              18.830078
            ],
            [
              72.740625,
              18.835547
            ],
            [
              72.735156,
              18.835547
            ],
            [
              72.720117,
              18.841016
            ],
            [
              72.713281,
              18.841016
            ],
            [
              72.702344,
              18.846484
            ],
            [
              72.685938,
              18.846484
            ],
            [
              72.68457,
              18.84375
            ],
            [
              72.68457,
              18.838281
            ],
            [
              72.687305,
              18.832812
            ],
            [
              72.685938,
              18.825977
            ],
            [
              72.679102,
              18.820508
            ],
            [
              72.670898,
              18.819141
            ],
            [
              72.668164,
              18.815039
            ]
          ]
        ]
      }
    },
    {
      "type": "Feature",
      "properties": {
        "spill_id": "sentinel_109",
        "confidence": 0.83
      },
      "geometry": {
        "type": "Polygon",
        "coordinates": [
          [
            [
              72.654492,
              18.951758
            ],
            [
              72.650391,
              18.951758
            ],
            [
              72.647656,
              18.949023
            ],
            [
              72.644922,
              18.949023
            ],
            [
              72.643555,
              18.947656
            ],
            [
              72.638086,
              18.947656
            ],
            [
              72.636719,
              18.946289
            ],
            [
              72.636719,
              18.932617
            ],
            [
              72.638086,
              18.93125
            ],
            [
              72.638086,
              18.927148
            ],
            [
              72.64082,
              18.924414
            ],
            [
              72.647656,
              18.924414
            ],
            [
              72.649023,
              18.923047
            ],
            [
              72.650391,
              18.924414
            ],
            [
              72.653125,
              18.924414
            ],
            [
              72.655859,
              18.927148
            ],
            [
              72.655859,
              18.93125
            ],
            [
              72.657227,
              18.932617
            ],
            [
              72.657227,
              18.94082
            ],
            [
              72.655859,
              18.942188
            ],
            [
              72.655859,
              18.944922
            ],
            [
              72.657227,
              18.946289
            ],
            [
              72.655859,
              18.947656
            ],
            [
              72.655859,
              18.950391
            ],
            [
              72.654492,
              18.951758
            ]
          ]
        ]
      }
    },
    {
      "type": "Feature",
      "properties": {
        "spill_id": "sentinel_109",
        "confidence": 0.83
      },
      "geometry": {
        "type": "Polygon",
        "coordinates": [
          [
            [
              72.603906,
              18.970898
            ],
            [
              72.595703,
              18.970898
            ],
            [
              72.595703,
              18.969531
            ],
            [
              72.592969,
              18.966797
            ],
            [
              72.592969,
              18.96543
            ],
            [
              72.591602,
              18.964062
            ],
            [
              72.591602,
              18.962695
            ],
            [
              72.590234,
              18.961328
            ],
            [
              72.590234,
              18.955859
            ],
            [
              72.592969,
              18.953125
            ],
            [
              72.599805,
              18.953125
            ],
            [
              72.601172,
              18.954492
            ],
            [
              72.602539,
              18.954492
            ],
            [
              72.605273,
              18.957227
            ],
            [
              72.605273,
              18.958594
            ],
            [
              72.606641,
              18.959961
            ],
            [
              72.606641,
              18.962695
            ],
            [
              72.608008,
              18.964062
            ],
            [
              72.608008,
              18.968164
            ],
            [
              72.606641,
              18.969531
            ],
            [
              72.605273,
              18.969531
            ],
            [
              72.603906,
              18.970898
            ]
          ]
        ]
      }
    },
    {
      "type": "Feature",
      "properties": {
        "spill_id": "sentinel_109",
        "confidence": 0.83
      },
      "geometry": {
        "type": "Polygon",
        "coordinates": [
          [
            [
              72.714648,
              18.988672
            ],
            [
              72.713281,
              18.987305
            ],
            [
              72.713281,
              18.985938
            ],
            [
              72.711914,
              18.98457
            ],
            [
              72.711914,
              18.983203
            ],
            [
              72.70918,
              18.979102
            ],
            [
              72.70918,
              18.972266
            ],
            [
              72.711914,
              18.969531
            ],
            [
              72.711914,
              18.968164
            ],
            [
              72.714648,
              18.96543
            ],
            [
              72.716016,
              18.96543
            ],
            [
              72.717383,
              18.964062
            ],
            [
              72.725586,
              18.964062
            ],
            [
              72.729688,
              18.968164
            ],
            [
              72.729688,
              18.969531
            ],
            [
              72.732422,
              18.972266
            ],
            [
              72.732422,
              18.976367
            ],
            [
              72.731055,
              18.977734
            ],
            [
              72.731055,
              18.979102
            ],
            [
              72.721484,
              18.988672
            ],
            [
              72.714648,
              18.988672
            ]
          ]
        ]
      }
    },
    {
      "type": "Feature",
      "properties": {
        "spill_id": "sentinel_109",
        "confidence": 0.83
      },
      "geometry": {
        "type": "Polygon",
        "coordinates": [
          [
            [
              72.84043,
              19.133594
            ],
            [
              72.828125,
              19.133594
            ],
            [
              72.803516,
              19.104883
            ],
            [
              72.780273,
              19.099414
            ],
            [
              72.766602,
              19.069336
            ],
            [
              72.789844,
              19.073438
            ],
            [
              72.795312,
              19.050195
            ],
            [
              72.767969,
              19.01875
            ],
            [
              72.755664,
              19.025586
            ],
            [
              72.747461,
              19.01875
            ],
            [
              72.751562,
              18.972266
            ],
            [
              72.774805,
              18.966797
            ],
            [
              72.808984,
              18.917578
            ],
            [
              72.795312,
              18.899805
            ],
            [
              72.785742,
              18.905273
            ],
            [
              72.783008,
              18.920312
            ],
            [
              72.770703,
              18.918945
            ],
            [
              72.763867,
              18.905273
            ],
            [
              72.766602,
              18.882031
            ],
            [
              72.814453,
              18.839648
            ],
            [
              72.848633,
              18.84375
            ],
            [
              72.848633,
              19.020117
            ],
            [
              72.822656,
              19.007812
            ],
            [
              72.810352,
              19.021484
            ],
            [
              72.848633,
              19.051562
            ],
            [
              72.848633,
              19.091211
            ],
            [
              72.836328,
              19.110352
            ],
            [
              72.844531,
              19.125391
            ],
            [
              72.84043,
              19.133594
            ]
          ]
        ]
      }
    },
    {
      "type": "Feature",
      "properties": {
        "spill_id": "sentinel_109",
        "confidence": 0.83
      },
      "geometry": {
        "type": "Polygon",
        "coordinates": [
          [
            [
              72.71875,
              19.144531
            ],
            [
              72.716016,
              19.144531
            ],
            [
              72.714648,
              19.143164
            ],
            [
              72.713281,
              19.143164
            ],
            [
              72.713281,
              19.139062
            ],
            [
              72.711914,
              19.137695
            ],
            [
              72.711914,
              19.132227
            ],
            [
              72.707812,
              19.128125
            ],
            [
              72.706445,
              19.128125
            ],
            [
              72.705078,
              19.126758
            ],
            [
              72.705078,
              19.119922
            ],
            [
              72.699609,
              19.114453
            ],
            [
              72.698242,
              19.114453
            ],
            [
              72.696875,
              19.113086
            ],
            [
              72.698242,
              19.108984
            ],
            [
              72.699609,
              19.108984
            ],
            [
              72.700977,
              19.107617
            ],
            [
              72.702344,
              19.108984
            ],
            [
              72.703711,
              19.108984
            ],
            [
              72.706445,
              19.117188
            ],
            [
              72.711914,
              19.122656
            ],
            [
              72.711914,
              19.125391
            ],
            [
              72.713281,
              19.126758
            ],
            [
              72.713281,
              19.129492
            ],
            [
              72.71875,
              19.134961
            ],
            [
              72.71875,
              19.136328
            ],
            [
              72.720117,
              19.137695
            ],
            [
              72.720117,
              19.143164
            ],
            [
              72.71875,
              19.144531
            ]
          ]
        ]
      }
    }
  ]
}