{
  "type": "FeatureCollection",
  "features": [
    {
      "type": "Feature",
      "properties": {
        "spill_id": "sentinel_329",
        "confidence": 0.87
      },
      "geometry": {
        "type": "Polygon",
        "coordinates": [
          [
            [
              72.5,
              19.15
            ],
            [
              72.5,
              18.801367
            ],
            [
              72.848633,
              18.802734
            ],
            [
              72.848633,
              18.985938
            ],
            [
              72.720117,
              19.01875
            ],
            [
              72.759766,
              19.0625
            ],
            [
              72.716016,
              19.055664
            ],
            [
              72.707812,
              19.065234
            ],
            [
              72.724219,
              19.083008
            ],
            [
              72.844531,
              19.078906
            ],
            [
              72.848633,
              19.15
            ],
            [
              72.5,
              19.15
            ]
          ]
        ]
      }
    }
  ]
}