{
  "type": "FeatureCollection",
  "features": [
    {
      "type": "Feature",
      "properties": {
        "spill_id": "sentinel_238",
        "confidence": 0.84
      },
      "geometry": {
        "type": "Polygon",
        "coordinates": [
          [
            [
              72.751562,
              18.806836
            ],
            [
              72.751562,
              18.804102
            ],
            [
              72.754297,
              18.801367
            ],
            [
              72.783008,
              18.801367
            ],
            [
              72.785742,
              18.805469
            ],
            [
              72.785742,
              18.806836
            ],
            [
              72.781641,
              18.810938
            ],
            [
              72.780273,
              18.810938
            ],
            [
              72.778906,
              18.812305
            ],
            [
              72.776172,
              18.812305
            ],
            [
              72.774805,
              18.813672
            ],
            [
              72.765234,
              18.813672
            ],
            [
              72.763867,
              18.815039
            ],
            [
              72.761133,
              18.815039
            ],
            [
              72.759766,
              18.813672
            ],
            [
              72.755664,
              18.813672
            ],
            [
              72.754297,
              18.812305
            ],
            [
              72.754297,
              18.810938
            ],
            [
              72.751562,
              18.806836
            ]
          ]
        ]
      }
    },
    {
      "type": "Feature",
      "properties": {
        "spill_id": "sentinel_238",
        "confidence": 0.84
      },
      "geometry": {
        "type": "Polygon",
        "coordinates": [
          [
            [
              72.791211,
              18.827344
            ],
            [
              72.788477,
              18.824609
            ],
            [
              72.788477,
              18.820508
            ],
            [
              72.791211,
              18.817773
            ],
            [
              72.791211,
              18.812305
            ],
            [
              72.792578,
              18.810938
            ],
            [
              72.795312,
              18.810938
            ],
            [
              72.795312,
              18.813672
            ],
            [
              72.793945,
              18.815039
            ],
            [
              72.793945,
              18.816406
            ],
            [
              72.792578,
              18.817773
            ],
            [
              72.793945,
              18.819141
            ],
            [
              72.795312,
              18.819141
            ],
            [
              72.79668,
              18.820508
            ],
            [
              72.79668,
              18.824609
            ],
            [
              72.795312,
              18.825977
            ],
            [
              72.792578,
              18.825977
            ],
            [
              72.791211,
              18.827344
            ]
          ]
        ]
      }
    },
    {
      "type": "Feature",
      "properties": {
        "spill_id": "sentinel_238",
        "confidence": 0.84
      },
      "geometry": {
        "type": "Polygon",
        "coordinates": [
          [
            [
              72.575195,
              18.850586
            ],
            [
              72.573828,
              18.849219
            ],
            [
              72.573828,
              18.847852
            ],
            [
              72.575195,
              18.846484
            ],
            [
              72.575195,
              18.845117
            ],
            [
              72.576562,
              18.84375
            ],
            [
              72.576562,
              18.842383
            ],
            [
              72.57793,
              18.841016
            ],
            [
              72.57793,
              18.839648
            ],
            [
              72.582031,
              18.835547
            ],
            [
              72.583398,
              18.836914
            ],
            [
              72.584766,
              18.835547
            ],
            [
              72.584766,
              18.836914
            ],
            [
              72.586133,
              18.838281
            ],
            [
              72.584766,
              18.839648
            ],
            [
              72.584766,
              18.841016
            ],
            [
              72.583398,
              18.842383
            ],
            [
              72.583398,
              18.849219
            ],
            [
              72.580664,
              18.851953
            ],
            [
              72.57793,
              18.851953
            ],
            [
              72.576562,
              18.850586
            ],
            [
              72.575195,
              18.850586
            ]
          ]
        ]
      }
    },
    {
      "type": "Feature",
      "properties": {
        "spill_id": "sentinel_238",
        "confidence": 0.84
      },
      "geometry": {
        "type": "Polygon",
        "coordinates": [
          [
            [
              72.632617,
              18.865625
            ],
            [
              72.63125,
              18.864258
            ],
            [
              72.63125,
              18.862891
            ],
            [
              72.629883,
              18.861523
            ],
            [
              72.629883,
              18.858789
            ],
            [
              72.63125,
              18.857422
            ],
            [
              72.63125,
              18.856055
            ],
            [
              72.632617,
              18.856055
            ],
            [
              72.633984,
              18.854688
            ],
            [
              72.636719,
              18.854688
            ],
            [
              72.638086,
              18.85332
            ],
            [
              72.642187,
              18.857422
            ],
            [
              72.642187,
              18.864258
            ],
            [
              72.64082,
              18.865625
            ],
            [
              72.632617,
              18.865625
            ]
          ]
        ]
      }
    },
    {
      "type": "Feature",
      "properties": {
        "spill_id": "sentinel_238",
        "confidence": 0.84
      },
      "geometry": {
        "type": "Polygon",
        "coordinates": [
          [
            [
              72.599805,
              18.871094
            ],
            [
              72.601172,
              18.860156
            ],
            [
              72.609375,
              18.85332
            ],
            [
              72.609375,
              18.825977
            ],
            [
              72.606641,
              18.823242
            ],
            [
              72.609375,
              18.815039
            ],
            [
              72.616211,
              18.821875
            ],
            [
              72.628516,
              18.820508
            ],
            [
              72.646289,
              18.80957
            ],
            [
              72.653125,
              18.801367
            ],
            [
              72.725586,
              18.801367
            ],
            [
              72.722852,
              18.808203
            ],
            [
              72.703711,
              18.821875
            ],
            [
              72.695508,
              18.821875
            ],
            [
              72.68457,
              18.813672
            ],
            [
              72.677734,
              18.816406
            ],
            [
              72.650391,
              18.846484
            ],
            [
              72.64082,
              18.847852
            ],
            [
              72.636719,
              18.841016
            ],
            [
              72.632617,
              18.841016
            ],
            [
              72.628516,
              18.845117
            ],
            [
              72.625781,
              18.857422
            ],
            [
              72.617578,
              18.865625
            ],
            [
              72.614844,
              18.876562
            ],
            [
              72.608008,
              18.876562
            ],
            [
              72.599805,
              18.871094
            ]
          ]
        ]
      }
    },
    {
      "type": "Feature",
      "properties": {
        "spill_id": "sentinel_238",
        "confidence": 0.84
      },
      "geometry": {
        "type": "Polygon",
        "coordinates": [
          [
            [
              72.536914,
              18.938086
            ],
            [
              72.532812,
              18.938086
            ],
            [
              72.531445,
              18.936719
            ],
            [
              72.530078,
              18.936719
            ],
            [
              72.528711,
              18.935352
            ],
            [
              72.528711,
              18.932617
            ],
            [
              72.530078,
              18.93125
            ],
            [
              72.530078,
              18.928516
            ],
            [
              72.532812,
              18.925781
            ],
            [
              72.53418,
              18.927148
            ],
            [
              72.536914,
              18.927148
            ],
            [
              72.536914,
              18.928516
            ],
            [
              72.538281,
              18.929883
            ],
            [
              72.538281,
              18.936719
            ],
            [
              72.536914,
              18.938086
            ]
          ]
        ]
      }
    },
    {
      "type": "Feature",
      "properties": {
        "spill_id": "sentinel_238",
        "confidence": 0.84
      },
      "geometry": {
        "type": "Polygon",
        "coordinates": [
          [
            [
              72.613477,
              18.942188
            ],
            [
              72.612109,
              18.933984
            ],
            [
              72.618945,
              18.912109
            ],
            [
              72.63125,
              18.892969
            ],
            [
              72.664062,
              18.871094
            ],
            [
              72.672266,
              18.85332
            ],
            [
              72.687305,
              18.835547
            ],
            [
              72.696875,
              18.828711
            ],
            [
              72.711914,
              18.830078
            ],
            [
              72.71875,
              18.823242
            ],
            [
              72.722852,
              18.823242
            ],
            [
              72.724219,
              18.827344
            ],
            [
              72.710547,
              18.845117
            ],
            [
              72.711914,
              18.857422
            ],
            [
              72.700977,
              18.861523
            ],
            [
              72.66543,
              18.895703
            ],
            [
              72.650391,
              18.917578
            ],
            [
              72.642187,
              18.916211
            ],
            [
              72.625781,
              18.925781
            ],
            [
              72.620312,
              18.93125
            ],
            [
              72.620312,
              18.939453
            ],
            [
              72.613477,
              18.942188
            ]
          ]
        ]
      }
    },
    {
      "type": "Feature",
      "properties": {
        "spill_id": "sentinel_238",
        "confidence": 0.84
      },
      "geometry": {
        "type": "Polygon",
        "coordinates": [
          [
            [
              72.822656,
              18.944922
            ],
            [
              72.821289,
              18.943555
            ],
            [
              72.821289,
              18.936719
            ],
            [
              72.828125,
              18.929883
            ],
            [
              72.829492,
              18.929883
            ],
            [
              72.830859,
              18.928516
            ],
            [
              72.832227,
              18.928516
            ],
            [
              72.833594,
              18.927148
            ],
            [
              72.836328,
              18.927148
            ],
            [
              72.839062,
              18.929883
            ],
            [
              72.839062,
              18.932617
            ],
            [
              72.837695,
              18.933984
            ],
            [
              72.837695,
              18.935352
            ],
            [
              72.836328,
              18.936719
            ],
            [
              72.836328,
              18.938086
            ],
            [
              72.830859,
              18.943555
            ],
            [
              72.829492,
              18.943555
            ],
            [
              72.828125,
              18.944922
            ],
            [
              72.822656,
              18.944922
            ]
          ]
        ]
      }
    },
    {
      "type": "Feature",
      "properties": {
        "spill_id": "sentinel_238",
        "confidence": 0.84
      },
      "geometry": {
        "type": "Polygon",
        "coordinates": [
          [
            [
              72.713281,
              18.94082
            ],
            [
              72.716016,
              18.932617
            ],
            [
              72.720117,
              18.928516
            ],
            [
              72.72832,
              18.924414
            ],
            [
              72.731055,
              18.924414
            ],
            [
              72.737891,
              18.920312
            ],
            [
              72.741992,
              18.920312
            ],
            [
              72.743359,
              18.918945
            ],
            [
              72.75293,
              18.920312
            ],
            [
              72.755664,
              18.92168
            ],
            [
              72.758398,
              18.925781
            ],
            [
              72.758398,
              18.928516
            ],
            [
              72.754297,
              18.932617
            ],
            [
              72.754297,
              18.939453
            ],
            [
              72.750195,
              18.946289
            ],
            [
              72.746094,
              18.946289
            ],
            [
              72.740625,
              18.943555
            ],
            [
              72.732422,
              18.949023
            ],
            [
              72.72832,
              18.949023
            ],
            [
              72.726953,
              18.950391
            ],
            [
              72.724219,
              18.950391
            ],
            [
              72.716016,
              18.946289
            ],
            [
              72.713281,
              18.94082
            ]
          ]
        ]
      }
    },
    {
      "type": "Feature",
      "properties": {
        "spill_id": "sentinel_238",
        "confidence": 0.84
      },
      "geometry": {
        "type": "Polygon",
        "coordinates": [
          [
            [
              72.7625,
              19.15
            ],
            [
              72.759766,
              19.143164
            ],
            [
              72.7625,
              19.119922
            ],
            [
              72.776172,
              19.093945
            ],
            [
              72.787109,
              19.061133
            ],
            [
              72.79668,
              19.055664
            ],
            [
              72.80625,
              19.069336
            ],
            [
              72.811719,
              19.069336
            ],
            [
              72.828125,
              19.059766
            ],
            [
              72.847266,
              19.055664
            ],
            [
              72.848633,
              19.076172
            ],
            [
              72.845898,
              19.077539
            ],
            [
              72.843164,
              19.091211
            ],
            [
              72.833594,
              19.095312
            ],
            [
              72.826758,
              19.102148
            ],
            [
              72.819922,
              19.100781
            ],
            [
              72.814453,
              19.092578
            ],
            [
              72.80625,
              19.089844
            ],
            [
              72.798047,
              19.091211
            ],
            [
              72.785742,
              19.108984
            ],
            [
              72.792578,
              19.125391
            ],
            [
              72.780273,
              19.136328
            ],
            [
              72.773438,
              19.15
            ],
            [
              72.7625,
              19.15
            ]
          ]
        ]
      }
    }
  ]
}