{
  "type": "FeatureCollection",
  "features": [
    {
      "type": "Feature",
      "properties": {
        "spill_id": "sentinel_506",
        "confidence": 0.86
      },
      "geometry": {
        "type": "Polygon",
        "coordinates": [
          [
            [
              72.843164,
              18.936719
            ],
            [
              72.834961,
              18.935352
            ],
            [
              72.817187,
              18.89707
            ],
            [
              72.807617,
              18.886133
            ],
            [
              72.793945,
              18.858789
            ],
            [
              72.793945,
              18.851953
            ],
            [
              72.803516,
              18.846484
            ],
            [
              72.810352,
              18.836914
            ],
            [
              72.808984,
              18.80957
            ],
            [
              72.814453,
              18.801367
            ],
            [
              72.845898,
              18.801367
            ],
            [
              72.848633,
              18.804102
            ],
            [
              72.848633,
              18.84375
            ],
            [
              72.834961,
              18.850586
            ],
            [
              72.832227,
              18.854688
            ],
            [
              72.839062,
              18.865625
            ],
            [
              72.848633,
              18.868359
            ],
            [
              72.848633,
              18.933984
            ],
            [
              72.843164,
              18.936719
            ]
          ]
        ]
      }
    },
    {
      "type": "Feature",
      "properties": {
        "spill_id": "sentinel_506",
        "confidence": 0.86
      },
      "geometry": {
        "type": "Polygon",
        "coordinates": [
          [
            [
              72.705078,
              18.988672
            ],
            [
              72.702344,
              18.985938
            ],
            [
              72.702344,
              18.983203
            ],
            [
              72.706445,
              18.979102
            ],
            [
              72.706445,
              18.977734
            ],
            [
              72.707812,
              18.976367
            ],
            [
              72.713281,
              18.976367
            ],
            [
              72.714648,
              18.977734
            ],
            [
              72.714648,
              18.979102
            ],
            [
              72.716016,
              18.980469
            ],
            [
              72.716016,
              18.981836
            ],
            [
              72.717383,
              18.983203
            ],
            [
              72.717383,
              18.98457
            ],
            [
              72.716016,
              18.985938
            ],
            [
              72.716016,
              18.987305
            ],
            [
              72.707812,
              18.987305
            ],
            [
              72.706445,
              18.988672
            ],
            [
              72.705078,
              18.988672
            ]
          ]
        ]
      }
    },
    {
      "type": "Feature",
      "properties": {
        "spill_id": "sentinel_506",
        "confidence": 0.86
      },
      "geometry": {
        "type": "Polygon",
        "coordinates": [
          [
            [
              72.845898,
              19.058398
            ],
            [
              72.789844,
              19.026953
            ],
            [
              72.77207,
              19.005078
            ],
            [
              72.761133,
              18.943555
            ],
            [
              72.750195,
              18.93125
            ],
            [
              72.748828,
              18.908008
            ],
            [
              72.725586,
              18.873828
            ],
            [
              72.726953,
              18.85332
            ],
            [
              72.707812,
              18.827344
            ],
            [
              72.70918,
              18.812305
            ],
            [
              72.721484,
              18.80957
            ],
            [
              72.740625,
              18.841016
            ],
            [
              72.754297,
              18.85332
            ],
            [
              72.755664,
              18.869727
            ],
            [
              72.766602,
              18.886133
            ],
            [
              72.77207,
              18.906641
            ],
            [
              72.795312,
              18.927148
            ],
            [
              72.791211,
              18.962695
            ],
            [
              72.81582,
              19.007812
            ],
            [
              72.844531,
              19.032422
            ],
            [
              72.848633,
              19.043359
            ],
            [
              72.845898,
              19.058398
            ]
          ]
        ]
      }
    }
  ]
}