{
  "type": "FeatureCollection",
  "features": [
    {
      "type": "Feature",
      "properties": {
        "spill_id": "sentinel_116",
        "confidence": 0.8
      },
      "geometry": {
        "type": "Polygon",
        "coordinates": [
          [
            [
              72.700977,
              19.083008
            ],
            [
              72.720117,
              19.074805
            ],
            [
              72.725586,
              19.085742
            ],
            [
              72.737891,
              19.087109
            ],
            [
              72.740625,
              19.089844
            ],
            [
              72.741992,
              19.100781
            ],
            [
              72.750195,
              19.108984
            ],
            [
              72.766602,
              19.111719
            ],
            [
              72.770703,
              19.11582
            ],
            [
              72.789844,
              19.124023
            ],
            [
              72.791211,
              19.130859
            ],
            [
              72.802148,
              19.141797
            ],
            [
              72.802148,
              19.15
            ],
            [
              72.724219,
              19.15
            ],
            [
              72.71875,
              19.132227
            ],
            [
              72.725586,
              19.124023
            ],
            [
              72.726953,
              19.118555
            ],
            [
              72.700977,
              19.10625
            ],
            [
              72.700977,
              19.098047
            ],
            [
              72.698242,
              19.093945
            ],
            [
              72.700977,
              19.083008
            ]
          ]
        ]
      }
    },
    {
      "type": "Feature",
      "properties": {
        "spill_id": "sentinel_116",
        "confidence": 0.8
      },
      "geometry": {
        "type": "Polygon",
        "coordinates": [
          [
            [
              72.687305,
              19.15
            ],
            [
              72.666797,
              19.15
            ],
            [
              72.666797,
              19.148633
            ],
            [
              72.670898,
              19.144531
            ],
            [
              72.670898,
              19.139062
            ],
            [
              72.672266,
              19.137695
            ],
            [
              72.672266,
              19.136328
            ],
            [
              72.673633,
              19.134961
            ],
            [
              72.673633,
              19.133594
            ],
            [
              72.675,
              19.132227
            ],
            [
              72.675,
              19.130859
            ],
            [
              72.676367,
              19.132227
            ],
            [
              72.676367,
              19.133594
            ],
            [
              72.685938,
              19.143164
            ],
            [
              72.685938,
              19.145898
            ],
            [
              72.687305,
              19.147266
            ],
            [
              72.687305,
              19.15
            ]
          ]
        ]
      }
    },
    {
      "type": "Feature",
      "properties": {
        "spill_id": "sentinel_116",
        "confidence": 0.8
      },
      "geometry": {
        "type": "Polygon",
        "coordinates": [
          [
            [
              72.5,
              19.147266
            ],
            [
              72.5,
              19.113086
            ],
            [
              72.528711,
              19.095312
            ],
            [
              72.5,
              19.077539
            ],
            [
              72.512305,
              18.980469
            ],
            [
              72.5,
              18.842383
            ],
            [
              72.561523,
              18.87793
            ],
            [
              72.5875,
              18.838281
            ],
            [
              72.513672,
              18.801367
            ],
            [
              72.848633,
              18.804102
            ],
            [
              72.848633,
              18.884766
            ],
            [
              72.785742,
              18.858789
            ],
            [
              72.793945,
              18.883398
            ],
            [
              72.848633,
              18.899805
            ],
            [
              72.848633,
              19.085742
            ],
            [
              72.817187,
              19.089844
            ],
            [
              72.735156,
              19.039258
            ],
            [
              72.666797,
              19.050195
            ],
            [
              72.657227,
              19.010547
            ],
            [
              72.605273,
              18.985938
            ],
            [
              72.628516,
              18.946289
            ],
            [
              72.560156,
              18.8875
            ],
            [
              72.592969,
              18.977734
            ],
            [
              72.576562,
              19.007812
            ],
            [
              72.606641,
              19.041992
            ],
            [
              72.606641,
              19.113086
            ],
            [
              72.628516,
              19.15
            ],
            [
              72.546484,
              19.118555
            ],
            [
              72.531445,
              19.15
            ],
            [
              72.5,
              19.147266
            ]
          ]
        ]
      }
    }
  ]
}