{
  "type": "FeatureCollection",
  "features": [
    {
      "type": "Feature",
      "properties": {
        "spill_id": "sentinel_607",
        "confidence": 0.85
      },
      "geometry": {
        "type": "Polygon",
        "coordinates": [
          [
            [
              72.565625,
              18.828711
            ],
            [
              72.565625,
              18.824609
            ],
            [
              72.568359,
              18.821875
            ],
            [
              72.579297,
              18.821875
            ],
            [
              72.579297,
              18.825977
            ],
            [
              72.57793,
              18.827344
            ],
            [
              72.573828,
              18.827344
            ],
            [
              72.572461,
              18.828711
            ],
            [
              72.565625,
              18.828711
            ]
          ]
        ]
      }
    },
    {
      "type": "Feature",
      "properties": {
        "spill_id": "sentinel_607",
        "confidence": 0.85
      },
      "geometry": {
        "type": "Polygon",
        "coordinates": [
          [
            [
              72.706445,
              18.875195
            ],
            [
              72.707812,
              18.873828
            ],
            [
              72.707812,
              18.872461
            ],
            [
              72.711914,
              18.868359
            ],
            [
              72.713281,
              18.868359
            ],
            [
              72.720117,
              18.861523
            ],
            [
              72.72832,
              18.861523
            ],
            [
              72.732422,
              18.865625
            ],
            [
              72.733789,
              18.865625
            ],
            [
              72.735156,
              18.864258
            ],
            [
              72.737891,
              18.864258
            ],
            [
              72.739258,
              18.862891
            ],
            [
              72.741992,
              18.862891
            ],
            [
              72.743359,
              18.864258
            ],
            [
              72.746094,
              18.864258
            ],
            [
              72.750195,
              18.866992
            ],
            [
              72.750195,
              18.871094
            ],
            [
              72.748828,
              18.871094
            ],
            [
              72.747461,
              18.872461
            ],
            [
              72.737891,
              18.872461
            ],
            [
              72.733789,
              18.869727
            ],
            [
              72.724219,
              18.869727
            ],
            [
              72.722852,
              18.871094
            ],
            [
              72.71875,
              18.871094
            ],
            [
              72.714648,
              18.875195
            ],
            [
              72.713281,
              18.875195
            ],
            [
              72.711914,
              18.876562
            ],
            [
              72.707812,
              18.876562
            ],
            [
              72.706445,
              18.875195
            ]
          ]
        ]
      }
    },
    {
      "type": "Feature",
      "properties": {
        "spill_id": "sentinel_607",
        "confidence": 0.85
      },
      "geometry": {
        "type": "Polygon",
        "coordinates": [
          [
            [
              72.658594,
              18.942188
            ],
            [
              72.658594,
              18.93125
            ],
            [
              72.669531,
              18.925781
            ],
            [
              72.670898,
              18.918945
            ],
            [
              72.699609,
              18.888867
            ],
            [
              72.703711,
              18.890234
            ],
            [
              72.710547,
              18.909375
            ],
            [
              72.724219,
              18.918945
            ],
            [
              72.741992,
              18.914844
            ],
            [
              72.769336,
              18.895703
            ],
            [
              72.792578,
              18.888867
            ],
            [
              72.802148,
              18.891602
            ],
            [
              72.802148,
              18.89707
            ],
            [
              72.791211,
              18.903906
            ],
            [
              72.774805,
              18.905273
            ],
            [
              72.765234,
              18.909375
            ],
            [
              72.755664,
              18.925781
            ],
            [
              72.747461,
              18.932617
            ],
            [
              72.731055,
              18.935352
            ],
            [
              72.721484,
              18.93125
            ],
            [
              72.70918,
              18.93125
            ],
            [
              72.690039,
              18.942188
            ],
            [
              72.677734,
              18.942188
            ],
            [
              72.669531,
              18.946289
            ],
            [
              72.658594,
              18.942188
            ]
          ]
        ]
      }
    },
    {
      "type": "Feature",
      "properties": {
        "spill_id": "sentinel_607",
        "confidence": 0.85
      },
      "geometry": {
        "type": "Polygon",
        "coordinates": [
          [
            [
              72.628516,
              19.01875
            ],
            [
              72.63125,
              19.010547
            ],
            [
              72.651758,
              19.005078
            ],
            [
              72.651758,
              18.995508
            ],
            [
              72.658594,
              18.977734
            ],
            [
              72.653125,
              18.975
            ],
            [
              72.632617,
              18.975
            ],
            [
              72.627148,
              18.972266
            ],
            [
              72.629883,
              18.968164
            ],
            [
              72.651758,
              18.961328
            ],
            [
              72.657227,
              18.954492
            ],
            [
              72.666797,
              18.955859
            ],
            [
              72.673633,
              18.949023
            ],
            [
              72.707812,
              18.96543
            ],
            [
              72.705078,
              18.990039
            ],
            [
              72.692773,
              18.996875
            ],
            [
              72.687305,
              18.995508
            ],
            [
              72.680469,
              18.98457
            ],
            [
              72.66543,
              18.972266
            ],
            [
              72.658594,
              18.975
            ],
            [
              72.659961,
              18.979102
            ],
            [
              72.668164,
              18.983203
            ],
            [
              72.676367,
              19.000977
            ],
            [
              72.688672,
              19.000977
            ],
            [
              72.691406,
              19.003711
            ],
            [
              72.68457,
              19.01875
            ],
            [
              72.657227,
              19.024219
            ],
            [
              72.642187,
              19.024219
            ],
            [
              72.628516,
              19.01875
            ]
          ]
        ]
      }
    },
    {
      "type": "Feature",
      "properties": {
        "spill_id": "sentinel_607",
        "confidence": 0.85
      },
      "geometry": {
        "type": "Polygon",
        "coordinates": [
          [
            [
              72.512305,
              19.05293
            ],
            [
              72.512305,
              19.047461
            ],
            [
              72.513672,
              19.046094
            ],
            [
              72.515039,
              19.046094
            ],
            [
              72.516406,
              19.044727
            ],
            [
              72.517773,
              19.046094
            ],
            [
              72.524609,
              19.046094
            ],
            [
              72.523242,
              19.047461
            ],
            [
              72.523242,
              19.051562
            ],
            [
              72.520508,
              19.054297
            ],
            [
              72.513672,
              19.054297
            ],
            [
              72.512305,
              19.05293
            ]
          ]
        ]
      }
    },
    {
      "type": "Feature",
      "properties": {
        "spill_id": "sentinel_607",
        "confidence": 0.85
      },
      "geometry": {
        "type": "Polygon",
        "coordinates": [
          [
            [
              72.5,
              19.088477
            ],
            [
              72.5,
              19.07207
            ],
            [
              72.504102,
              19.070703
            ],
            [
              72.531445,
              19.070703
            ],
            [
              72.536914,
              19.067969
            ],
            [
              72.54375,
              19.070703
            ],
            [
              72.55332,
              19.070703
            ],
            [
              72.560156,
              19.061133
            ],
            [
              72.576562,
              19.0625
            ],
            [
              72.579297,
              19.063867
            ],
            [
              72.582031,
              19.069336
            ],
            [
              72.582031,
              19.081641
            ],
            [
              72.579297,
              19.087109
            ],
            [
              72.572461,
              19.089844
            ],
            [
              72.565625,
              19.089844
            ],
            [
              72.560156,
              19.087109
            ],
            [
              72.546484,
              19.085742
            ],
            [
              72.539648,
              19.083008
            ],
            [
              72.520508,
              19.084375
            ],
            [
              72.512305,
              19.091211
            ],
            [
              72.505469,
              19.091211
            ],
            [
              72.5,
              19.088477
            ]
          ]
        ]
      }
    },
    {
      "type": "Feature",
      "properties": {
        "spill_id": "sentinel_607",
        "confidence": 0.85
      },
      "geometry": {
        "type": "Polygon",
        "coordinates": [
          [
            [
              72.538281,
              19.119922
            ],
            [
              72.538281,
              19.117188
            ],
            [
              72.54375,
              19.111719
            ],
            [
              72.545117,
              19.111719
            ],
            [
              72.546484,
              19.110352
            ],
            [
              72.550586,
              19.110352
            ],
            [
              72.551953,
              19.108984
            ],
            [
              72.55332,
              19.108984
            ],
            [
              72.554688,
              19.110352
            ],
            [
              72.560156,
              19.110352
            ],
            [
              72.561523,
              19.111719
            ],
            [
              72.564258,
              19.111719
            ],
            [
              72.565625,
              19.113086
            ],
            [
              72.568359,
              19.113086
            ],
            [
              72.568359,
              19.114453
            ],
            [
              72.569727,
              19.11582
            ],
            [
              72.569727,
              19.118555
            ],
            [
              72.568359,
              19.118555
            ],
            [
              72.566992,
              19.119922
            ],
            [
              72.560156,
              19.119922
            ],
            [
              72.558789,
              19.121289
            ],
            [
              72.541016,
              19.121289
            ],
            [
              72.539648,
              19.119922
            ],
            [
              72.538281,
              19.119922
            ]
          ]
        ]
      }
    },
    {
      "type": "Feature",
      "properties": {
        "spill_id": "sentinel_607",
        "confidence": 0.85
      },
      "geometry": {
        "type": "Polygon",
        "coordinates": [
          [
            [
              72.613477,
              19.073438
            ],
            [
              72.635352,
              19.054297
            ],
            [
              72.68457,
              19.080273
            ],
            [
              72.714648,
              19.070703
            ],
            [
              72.700977,
              19.065234
            ],
            [
              72.703711,
              19.057031
            ],
            [
              72.725586,
              19.069336
            ],
            [
              72.757031,
              19.061133
            ],
            [
              72.784375,
              19.024219
            ],
            [
              72.810352,
              19.014648
            ],
            [
              72.830859,
              18.996875
            ],
            [
              72.848633,
              19.000977
            ],
            [
              72.848633,
              19.020117
            ],
            [
              72.826758,
              19.017383
            ],
            [
              72.799414,
              19.041992
            ],
            [
              72.788477,
              19.066602
            ],
            [
              72.795312,
              19.07207
            ],
            [
              72.847266,
              19.067969
            ],
            [
              72.848633,
              19.100781
            ],
            [
              72.808984,
              19.121289
            ],
            [
              72.79668,
              19.121289
            ],
            [
              72.783008,
              19.133594
            ],
            [
              72.773438,
              19.121289
            ],
            [
              72.751562,
              19.129492
            ],
            [
              72.724219,
              19.126758
            ],
            [
              72.688672,
              19.134961
            ],
            [
              72.664062,
              19.121289
            ],
            [
              72.643555,
              19.125391
            ],
            [
              72.64082,
              19.092578
            ],
            [
              72.613477,
              19.073438
            ]
          ]
        ]
      }
    },
    {
      "type": "Feature",
      "properties": {
        "spill_id": "sentinel_607",
        "confidence": 0.85
      },
      "geometry": {
        "type": "Polygon",
        "coordinates": [
          [
            [
              72.729688,
              19.145898
            ],
            [
              72.72832,
              19.147266
            ],
            [
              72.725586,
              19.147266
            ],
            [
              72.724219,
              19.145898
            ],
            [
              72.722852,
              19.145898
            ],
            [
              72.721484,
              19.144531
            ],
            [
              72.721484,
              19.143164
            ],
            [
              72.720117,
              19.141797
            ],
            [
              72.720117,
              19.139062
            ],
            [
              72.72832,
              19.139062
            ],
            [
              72.729688,
              19.14043
            ],
            [
              72.729688,
              19.145898
            ]
          ]
        ]
      }
    }
  ]
}