{
  "type": "FeatureCollection",
  "features": [
    {
      "type": "Feature",
      "properties": {
        "spill_id": "sentinel_494",
        "confidence": 0.87
      },
      "geometry": {
        "type": "Polygon",
        "coordinates": [
          [
            [
              72.505469,
              18.958594
            ],
            [
              72.502734,
              18.955859
            ],
            [
              72.5,
              18.955859
            ],
            [
              72.5,
              18.933984
            ],
            [
              72.506836,
              18.929883
            ],
            [
              72.516406,
              18.929883
            ],
            [
              72.519141,
              18.932617
            ],
            [
              72.519141,
              18.933984
            ],
            [
              72.523242,
              18.938086
            ],
            [
              72.523242,
              18.943555
            ],
            [
              72.524609,
              18.944922
            ],
            [
              72.524609,
              18.951758
            ],
            [
              72.521875,
              18.954492
            ],
            [
              72.521875,
              18.955859
            ],
            [
              72.520508,
              18.955859
            ],
            [
              72.519141,
              18.957227
            ],
            [
              72.515039,
              18.957227
            ],
            [
              72.513672,
              18.958594
            ],
            [
              72.505469,
              18.958594
            ]
          ]
        ]
      }
    },
    {
      "type": "Feature",
      "properties": {
        "spill_id": "sentinel_494",
        "confidence": 0.87
      },
      "geometry": {
        "type": "Polygon",
        "coordinates": [
          [
            [
              72.521875,
              19.033789
            ],
            [
              72.520508,
              19.035156
            ],
            [
              72.517773,
              19.035156
            ],
            [
              72.516406,
              19.033789
            ],
            [
              72.513672,
              19.033789
            ],
            [
              72.512305,
              19.032422
            ],
            [
              72.508203,
              19.032422
            ],
            [
              72.506836,
              19.031055
            ],
            [
              72.501367,
              19.031055
            ],
            [
              72.5,
              19.032422
            ],
            [
              72.5,
              19.016016
            ],
            [
              72.506836,
              19.016016
            ],
            [
              72.510938,
              19.020117
            ],
            [
              72.512305,
              19.020117
            ],
            [
              72.513672,
              19.021484
            ],
            [
              72.516406,
              19.021484
            ],
            [
              72.520508,
              19.025586
            ],
            [
              72.520508,
              19.026953
            ],
            [
              72.521875,
              19.02832
            ],
            [
              72.521875,
              19.033789
            ]
          ]
        ]
      }
    },
    {
      "type": "Feature",
      "properties": {
        "spill_id": "sentinel_494",
        "confidence": 0.87
      },
      "geometry": {
        "type": "Polygon",
        "coordinates": [
          [
            [
              72.669531,
              19.15
            ],
            [
              72.664062,
              19.065234
            ],
            [
              72.546484,
              19.025586
            ],
            [
              72.538281,
              18.98457
            ],
            [
              72.551953,
              18.955859
            ],
            [
              72.616211,
              18.990039
            ],
            [
              72.614844,
              19.029687
            ],
            [
              72.628516,
              19.035156
            ],
            [
              72.647656,
              19.005078
            ],
            [
              72.618945,
              18.957227
            ],
            [
              72.657227,
              18.959961
            ],
            [
              72.694141,
              19.007812
            ],
            [
              72.713281,
              18.981836
            ],
            [
              72.695508,
              18.958594
            ],
            [
              72.711914,
              18.961328
            ],
            [
              72.71875,
              18.943555
            ],
            [
              72.566992,
              18.84375
            ],
            [
              72.546484,
              18.849219
            ],
            [
              72.535547,
              18.87793
            ],
            [
              72.550586,
              18.910742
            ],
            [
              72.530078,
              18.914844
            ],
            [
              72.5,
              18.8875
            ],
            [
              72.5,
              18.857422
            ],
            [
              72.561523,
              18.824609
            ],
            [
              72.66543,
              18.847852
            ],
            [
              72.650391,
              18.801367
            ],
            [
              72.848633,
              18.801367
            ],
            [
              72.848633,
              19.15
            ],
            [
              72.669531,
              19.15
            ]
          ]
        ]
      }
    },
    {
      "type": "Feature",
      "properties": {
        "spill_id": "sentinel_494",
        "confidence": 0.87
      },
      "geometry": {
        "type": "Polygon",
        "coordinates": [
          [
            [
              72.5,
              19.117188
            ],
            [
              72.516406,
              19.117188
            ],
            [
              72.524609,
              19.114453
            ],
            [
              72.53418,
              19.119922
            ],
            [
              72.539648,
              19.117188
            ],
            [
              72.541016,
              19.122656
            ],
            [
              72.545117,
              19.126758
            ],
            [
              72.55332,
              19.128125
            ],
            [
              72.560156,
              19.132227
            ],
            [
              72.573828,
              19.124023
            ],
            [
              72.584766,
              19.129492
            ],
            [
              72.592969,
              19.139062
            ],
            [
              72.608008,
              19.14043
            ],
            [
              72.610742,
              19.143164
            ],
            [
              72.612109,
              19.15
            ],
            [
              72.513672,
              19.15
            ],
            [
              72.513672,
              19.147266
            ],
            [
              72.50957,
              19.147266
            ],
            [
              72.5,
              19.137695
            ],
            [
              72.5,
              19.117188
            ]
          ]
        ]
      }
    }
  ]
}