{
  "type": "FeatureCollection",
  "features": [
    {
      "type": "Feature",
      "properties": {
        "spill_id": "sentinel_385",
        "confidence": 0.69
      },
      "geometry": {
        "type": "Polygon",
        "coordinates": [
          [
            [
              72.785742,
              18.821875
            ],
            [
              72.785742,
              18.812305
            ],
            [
              72.787109,
              18.810938
            ],
            [
              72.787109,
              18.80957
            ],
            [
              72.789844,
              18.806836
            ],
            [
              72.791211,
              18.806836
            ],
            [
              72.800781,
              18.801367
            ],
            [
              72.828125,
              18.801367
            ],
            [
              72.828125,
              18.802734
            ],
            [
              72.829492,
              18.804102
            ],
            [
              72.829492,
              18.806836
            ],
            [
              72.828125,
              18.808203
            ],
            [
              72.821289,
              18.810938
            ],
            [
              72.81582,
              18.816406
            ],
            [
              72.814453,
              18.820508
            ],
            [
              72.808984,
              18.824609
            ],
            [
              72.788477,
              18.824609
            ],
            [
              72.785742,
              18.821875
            ]
          ]
        ]
      }
    },
    {
      "type": "Feature",
      "properties": {
        "spill_id": "sentinel_385",
        "confidence": 0.69
      },
      "geometry": {
        "type": "Polygon",
        "coordinates": [
          [
            [
              72.5,
              19.02832
            ],
            [
              72.5,
              19.01875
            ],
            [
              72.501367,
              19.01875
            ],
            [
              72.502734,
              19.017383
            ],
            [
              72.504102,
              19.017383
            ],
            [
              72.505469,
              19.016016
            ],
            [
              72.508203,
              19.016016
            ],
            [
              72.512305,
              19.020117
            ],
            [
              72.512305,
              19.024219
            ],
            [
              72.510938,
              19.025586
            ],
            [
              72.510938,
              19.026953
            ],
            [
              72.50957,
              19.026953
            ],
            [
              72.508203,
              19.02832
            ],
            [
              72.5,
              19.02832
            ]
          ]
        ]
      }
    },
    {
      "type": "Feature",
      "properties": {
        "spill_id": "sentinel_385",
        "confidence": 0.69
      },
      "geometry": {
        "type": "Polygon",
        "coordinates": [
          [
            [
              72.659961,
              19.055664
            ],
            [
              72.659961,
              19.054297
            ],
            [
              72.658594,
              19.05293
            ],
            [
              72.658594,
              19.051562
            ],
            [
              72.659961,
              19.050195
            ],
            [
              72.659961,
              19.047461
            ],
            [
              72.661328,
              19.046094
            ],
            [
              72.661328,
              19.043359
            ],
            [
              72.659961,
              19.041992
            ],
            [
              72.661328,
              19.040625
            ],
            [
              72.661328,
              19.039258
            ],
            [
              72.662695,
              19.039258
            ],
            [
              72.664062,
              19.037891
            ],
            [
              72.66543,
              19.037891
            ],
            [
              72.666797,
              19.039258
            ],
            [
              72.666797,
              19.041992
            ],
            [
              72.66543,
              19.043359
            ],
            [
              72.670898,
              19.048828
            ],
            [
              72.670898,
              19.05293
            ],
            [
              72.669531,
              19.054297
            ],
            [
              72.666797,
              19.054297
            ],
            [
              72.66543,
              19.055664
            ],
            [
              72.659961,
              19.055664
            ]
          ]
        ]
      }
    },
    {
      "type": "Feature",
      "properties": {
        "spill_id": "sentinel_385",
        "confidence": 0.69
      },
      "geometry": {
        "type": "Polygon",
        "coordinates": [
          [
            [
              72.598438,
              19.07207
            ],
            [
              72.595703,
              19.067969
            ],
            [
              72.595703,
              19.059766
            ],
            [
              72.59707,
              19.058398
            ],
            [
              72.599805,
              19.058398
            ],
            [
              72.601172,
              19.057031
            ],
            [
              72.605273,
              19.057031
            ],
            [
              72.608008,
              19.054297
            ],
            [
              72.608008,
              19.046094
            ],
            [
              72.609375,
              19.044727
            ],
            [
              72.609375,
              19.041992
            ],
            [
              72.612109,
              19.039258
            ],
            [
              72.613477,
              19.040625
            ],
            [
              72.614844,
              19.039258
            ],
            [
              72.616211,
              19.039258
            ],
            [
              72.616211,
              19.040625
            ],
            [
              72.618945,
              19.043359
            ],
            [
              72.618945,
              19.044727
            ],
            [
              72.620312,
              19.046094
            ],
            [
              72.620312,
              19.051562
            ],
            [
              72.618945,
              19.05293
            ],
            [
              72.618945,
              19.057031
            ],
            [
              72.620312,
              19.058398
            ],
            [
              72.620312,
              19.061133
            ],
            [
              72.618945,
              19.0625
            ],
            [
              72.618945,
              19.063867
            ],
            [
              72.612109,
              19.066602
            ],
            [
              72.608008,
              19.070703
            ],
            [
              72.606641,
              19.070703
            ],
            [
              72.605273,
              19.07207
            ],
            [
              72.598438,
              19.07207
            ]
          ]
        ]
      }
    },
    {
      "type": "Feature",
      "properties": {
        "spill_id": "sentinel_385",
        "confidence": 0.69
      },
      "geometry": {
        "type": "Polygon",
        "coordinates": [
          [
            [
              72.62168,
              19.15
            ],
            [
              72.620312,
              19.143164
            ],
            [
              72.623047,
              19.139062
            ],
            [
              72.623047,
              19.136328
            ],
            [
              72.625781,
              19.132227
            ],
            [
              72.633984,
              19.128125
            ],
            [
              72.638086,
              19.124023
            ],
            [
              72.64082,
              19.118555
            ],
            [
              72.646289,
              19.117188
            ],
            [
              72.649023,
              19.114453
            ],
            [
              72.649023,
              19.111719
            ],
            [
              72.653125,
              19.107617
            ],
            [
              72.657227,
              19.09668
            ],
            [
              72.661328,
              19.092578
            ],
            [
              72.672266,
              19.09668
            ],
            [
              72.672266,
              19.10625
            ],
            [
              72.666797,
              19.11582
            ],
            [
              72.653125,
              19.118555
            ],
            [
              72.649023,
              19.126758
            ],
            [
              72.643555,
              19.129492
            ],
            [
              72.635352,
              19.139062
            ],
            [
              72.63125,
              19.15
            ],
            [
              72.62168,
              19.15
            ]
          ]
        ]
      }
    },
    {
      "type": "Feature",
      "properties": {
        "spill_id": "sentinel_385",
        "confidence": 0.69
      },
      "geometry": {
        "type": "Polygon",
        "coordinates": [
          [
            [
              72.5,
              19.122656
            ],
            [
              72.506836,
              19.117188
            ],
            [
              72.50957,
              19.118555
            ],
            [
              72.512305,
              19.11582
            ],
            [
              72.515039,
              19.11582
            ],
            [
              72.519141,
              19.121289
            ],
            [
              72.519141,
              19.122656
            ],
            [
              72.523242,
              19.126758
            ],
            [
              72.527344,
              19.128125
            ],
            [
              72.530078,
              19.130859
            ],
            [
              72.531445,
              19.137695
            ],
            [
              72.53418,
              19.14043
            ],
            [
              72.539648,
              19.143164
            ],
            [
              72.539648,
              19.147266
            ],
            [
              72.538281,
              19.15
            ],
            [
              72.502734,
              19.15
            ],
            [
              72.502734,
              19.148633
            ],
            [
              72.5,
              19.145898
            ],
            [
              72.5,
              19.14043
            ],
            [
              72.501367,
              19.139062
            ],
            [
              72.5,
              19.137695
            ],
            [
              72.5,
              19.122656
            ]
          ]
        ]
      }
    }
  ]
}