{
  "type": "FeatureCollection",
  "features": [
    {
      "type": "Feature",
      "properties": {
        "spill_id": "sentinel_340",
        "confidence": 0.8
      },
      "geometry": {
        "type": "Polygon",
        "coordinates": [
          [
            [
              72.515039,
              18.841016
            ],
            [
              72.50957,
              18.835547
            ],
            [
              72.50957,
              18.83418
            ],
            [
              72.508203,
              18.832812
            ],
            [
              72.508203,
              18.828711
            ],
            [
              72.506836,
              18.827344
            ],
            [
              72.506836,
              18.823242
            ],
            [
              72.50957,
              18.820508
            ],
            [
              72.50957,
              18.819141
            ],
            [
              72.510938,
              18.819141
            ],
            [
              72.520508,
              18.810938
            ],
            [
              72.523242,
              18.810938
            ],
            [
              72.524609,
              18.80957
            ],
            [
              72.525977,
              18.810938
            ],
            [
              72.528711,
              18.810938
            ],
            [
              72.530078,
              18.812305
            ],
            [
              72.531445,
              18.812305
            ],
            [
              72.53418,
              18.815039
            ],
            [
              72.53418,
              18.817773
            ],
            [
              72.535547,
              18.819141
            ],
            [
              72.535547,
              18.825977
            ],
            [
              72.53418,
              18.827344
            ],
            [
              72.53418,
              18.831445
            ],
            [
              72.532812,
              18.832812
            ],
            [
              72.532812,
              18.83418
            ],
            [
              72.527344,
              18.839648
            ],
            [
              72.525977,
              18.839648
            ],
            [
              72.524609,
              18.841016
            ],
            [
              72.515039,
              18.841016
            ]
          ]
        ]
      }
    },
    {
      "type": "Feature",
      "properties": {
        "spill_id": "sentinel_340",
        "confidence": 0.8
      },
      "geometry": {
        "type": "Polygon",
        "coordinates": [
          [
            [
              72.839062,
              18.898438
            ],
            [
              72.839062,
              18.89707
            ],
            [
              72.837695,
              18.895703
            ],
            [
              72.837695,
              18.8875
            ],
            [
              72.839062,
              18.886133
            ],
            [
              72.84043,
              18.886133
            ],
            [
              72.843164,
              18.883398
            ],
            [
              72.847266,
              18.883398
            ],
            [
              72.848633,
              18.884766
            ],
            [
              72.848633,
              18.898438
            ],
            [
              72.847266,
              18.899805
            ],
            [
              72.844531,
              18.899805
            ],
            [
              72.843164,
              18.898438
            ],
            [
              72.839062,
              18.898438
            ]
          ]
        ]
      }
    },
    {
      "type": "Feature",
      "properties": {
        "spill_id": "sentinel_340",
        "confidence": 0.8
      },
      "geometry": {
        "type": "Polygon",
        "coordinates": [
          [
            [
              72.81582,
              18.903906
            ],
            [
              72.814453,
              18.902539
            ],
            [
              72.814453,
              18.901172
            ],
            [
              72.813086,
              18.899805
            ],
            [
              72.813086,
              18.895703
            ],
            [
              72.814453,
              18.894336
            ],
            [
              72.814453,
              18.892969
            ],
            [
              72.81582,
              18.891602
            ],
            [
              72.81582,
              18.890234
            ],
            [
              72.817187,
              18.890234
            ],
            [
              72.819922,
              18.8875
            ],
            [
              72.826758,
              18.8875
            ],
            [
              72.828125,
              18.888867
            ],
            [
              72.829492,
              18.888867
            ],
            [
              72.830859,
              18.890234
            ],
            [
              72.830859,
              18.892969
            ],
            [
              72.832227,
              18.894336
            ],
            [
              72.832227,
              18.899805
            ],
            [
              72.830859,
              18.901172
            ],
            [
              72.830859,
              18.902539
            ],
            [
              72.829492,
              18.902539
            ],
            [
              72.828125,
              18.903906
            ],
            [
              72.819922,
              18.903906
            ],
            [
              72.818555,
              18.905273
            ],
            [
              72.817187,
              18.903906
            ],
            [
              72.81582,
              18.903906
            ]
          ]
        ]
      }
    },
    {
      "type": "Feature",
      "properties": {
        "spill_id": "sentinel_340",
        "confidence": 0.8
      },
      "geometry": {
        "type": "Polygon",
        "coordinates": [
          [
            [
              72.795312,
              18.93125
            ],
            [
              72.791211,
              18.928516
            ],
            [
              72.791211,
              18.925781
            ],
            [
              72.789844,
              18.924414
            ],
            [
              72.789844,
              18.920312
            ],
            [
              72.788477,
              18.918945
            ],
            [
              72.788477,
              18.909375
            ],
            [
              72.789844,
              18.908008
            ],
            [
              72.789844,
              18.906641
            ],
            [
              72.791211,
              18.905273
            ],
            [
              72.791211,
              18.903906
            ],
            [
              72.793945,
              18.901172
            ],
            [
              72.799414,
              18.901172
            ],
            [
              72.804883,
              18.906641
            ],
            [
              72.804883,
              18.908008
            ],
            [
              72.80625,
              18.909375
            ],
            [
              72.80625,
              18.925781
            ],
            [
              72.803516,
              18.929883
            ],
            [
              72.79668,
              18.929883
            ],
            [
              72.795312,
              18.93125
            ]
          ]
        ]
      }
    },
    {
      "type": "Feature",
      "properties": {
        "spill_id": "sentinel_340",
        "confidence": 0.8
      },
      "geometry": {
        "type": "Polygon",
        "coordinates": [
          [
            [
              72.5,
              19.07207
            ],
            [
              72.5,
              19.044727
            ],
            [
              72.508203,
              19.041992
            ],
            [
              72.512305,
              19.037891
            ],
            [
              72.512305,
              19.036523
            ],
            [
              72.520508,
              19.029687
            ],
            [
              72.530078,
              19.029687
            ],
            [
              72.535547,
              19.033789
            ],
            [
              72.538281,
              19.044727
            ],
            [
              72.547852,
              19.05293
            ],
            [
              72.549219,
              19.055664
            ],
            [
              72.549219,
              19.059766
            ],
            [
              72.546484,
              19.0625
            ],
            [
              72.54375,
              19.0625
            ],
            [
              72.538281,
              19.065234
            ],
            [
              72.53418,
              19.065234
            ],
            [
              72.528711,
              19.067969
            ],
            [
              72.515039,
              19.069336
            ],
            [
              72.513672,
              19.070703
            ],
            [
              72.502734,
              19.070703
            ],
            [
              72.5,
              19.07207
            ]
          ]
        ]
      }
    },
    {
      "type": "Feature",
      "properties": {
        "spill_id": "sentinel_340",
        "confidence": 0.8
      },
      "geometry": {
        "type": "Polygon",
        "coordinates": [
          [
            [
              72.586133,
              19.065234
            ],
            [
              72.584766,
              19.0625
            ],
            [
              72.586133,
              19.057031
            ],
            [
              72.591602,
              19.05293
            ],
            [
              72.598438,
              19.051562
            ],
            [
              72.616211,
              19.035156
            ],
            [
              72.62168,
              19.024219
            ],
            [
              72.633984,
              19.016016
            ],
            [
              72.643555,
              18.999609
            ],
            [
              72.653125,
              18.996875
            ],
            [
              72.661328,
              19.002344
            ],
            [
              72.664062,
              19.007812
            ],
            [
              72.661328,
              19.024219
            ],
            [
              72.653125,
              19.035156
            ],
            [
              72.653125,
              19.040625
            ],
            [
              72.64082,
              19.063867
            ],
            [
              72.633984,
              19.065234
            ],
            [
              72.623047,
              19.07207
            ],
            [
              72.599805,
              19.073438
            ],
            [
              72.586133,
              19.065234
            ]
          ]
        ]
      }
    },
    {
      "type": "Feature",
      "properties": {
        "spill_id": "sentinel_340",
        "confidence": 0.8
      },
      "geometry": {
        "type": "Polygon",
        "coordinates": [
          [
            [
              72.780273,
              19.087109
            ],
            [
              72.773438,
              19.077539
            ],
            [
              72.766602,
              19.077539
            ],
            [
              72.761133,
              19.07207
            ],
            [
              72.761133,
              19.061133
            ],
            [
              72.79668,
              18.987305
            ],
            [
              72.793945,
              18.972266
            ],
            [
              72.800781,
              18.964062
            ],
            [
              72.808984,
              18.961328
            ],
            [
              72.814453,
              18.964062
            ],
            [
              72.821289,
              18.980469
            ],
            [
              72.825391,
              18.954492
            ],
            [
              72.834961,
              18.949023
            ],
            [
              72.848633,
              18.950391
            ],
            [
              72.848633,
              19.00918
            ],
            [
              72.844531,
              19.011914
            ],
            [
              72.836328,
              19.002344
            ],
            [
              72.832227,
              19.002344
            ],
            [
              72.822656,
              19.00918
            ],
            [
              72.807617,
              19.00918
            ],
            [
              72.80625,
              19.022852
            ],
            [
              72.791211,
              19.021484
            ],
            [
              72.788477,
              19.024219
            ],
            [
              72.799414,
              19.043359
            ],
            [
              72.792578,
              19.051562
            ],
            [
              72.79668,
              19.069336
            ],
            [
              72.791211,
              19.085742
            ],
            [
              72.780273,
              19.087109
            ]
          ]
        ]
      }
    },
    {
      "type": "Feature",
      "properties": {
        "spill_id": "sentinel_340",
        "confidence": 0.8
      },
      "geometry": {
        "type": "Polygon",
        "coordinates": [
          [
            [
              72.789844,
              19.126758
            ],
            [
              72.789844,
              19.122656
            ],
            [
              72.792578,
              19.11582
            ],
            [
              72.792578,
              19.108984
            ],
            [
              72.798047,
              19.102148
            ],
            [
              72.807617,
              19.103516
            ],
            [
              72.814453,
              19.111719
            ],
            [
              72.821289,
              19.114453
            ],
            [
              72.826758,
              19.119922
            ],
            [
              72.845898,
              19.117188
            ],
            [
              72.848633,
              19.118555
            ],
            [
              72.848633,
              19.15
            ],
            [
              72.799414,
              19.15
            ],
            [
              72.798047,
              19.147266
            ],
            [
              72.798047,
              19.143164
            ],
            [
              72.799414,
              19.141797
            ],
            [
              72.791211,
              19.132227
            ],
            [
              72.791211,
              19.128125
            ],
            [
              72.789844,
              19.126758
            ]
          ]
        ]
      }
    },
    {
      "type": "Feature",
      "properties": {
        "spill_id": "sentinel_340",
        "confidence": 0.8
      },
      "geometry": {
        "type": "Polygon",
        "coordinates": [
          [
            [
              72.716016,
              19.15
            ],
            [
              72.721484,
              19.05293
            ],
            [
              72.683203,
              19.085742
            ],
            [
              72.654492,
              19.091211
            ],
            [
              72.685938,
              19.022852
            ],
            [
              72.68457,
              18.916211
            ],
            [
              72.668164,
              18.917578
            ],
            [
              72.628516,
              18.872461
            ],
            [
              72.639453,
              18.854688
            ],
            [
              72.613477,
              18.801367
            ],
            [
              72.659961,
              18.801367
            ],
            [
              72.672266,
              18.819141
            ],
            [
              72.700977,
              18.813672
            ],
            [
              72.707812,
              18.801367
            ],
            [
              72.746094,
              18.801367
            ],
            [
              72.754297,
              18.827344
            ],
            [
              72.773438,
              18.801367
            ],
            [
              72.839062,
              18.801367
            ],
            [
              72.845898,
              18.810938
            ],
            [
              72.822656,
              18.835547
            ],
            [
              72.819922,
              18.858789
            ],
            [
              72.755664,
              18.84375
            ],
            [
              72.77207,
              18.880664
            ],
            [
              72.75293,
              18.903906
            ],
            [
              72.785742,
              18.932617
            ],
            [
              72.755664,
              18.990039
            ],
            [
              72.736523,
              18.998242
            ],
            [
              72.746094,
              18.96543
            ],
            [
              72.724219,
              18.988672
            ],
            [
              72.739258,
              19.013281
            ],
            [
              72.717383,
              19.047461
            ],
            [
              72.747461,
              19.059766
            ],
            [
              72.733789,
              19.15
            ],
            [
              72.716016,
              19.15
            ]
          ]
        ]
      }
    },
    {
      "type": "Feature",
      "properties": {
        "spill_id": "sentinel_340",
        "confidence": 0.8
      },
      "geometry": {
        "type": "Polygon",
        "coordinates": [
          [
            [
              72.658594,
              19.15
            ],
            [
              72.666797,
              19.141797
            ],
            [
              72.666797,
              19.14043
            ],
            [
              72.672266,
              19.14043
            ],
            [
              72.673633,
              19.141797
            ],
            [
              72.673633,
              19.145898
            ],
            [
              72.672266,
              19.147266
            ],
            [
              72.672266,
              19.15
            ],
            [
              72.658594,
              19.15
            ]
          ]
        ]
      }
    }
  ]
}