{
  "type": "FeatureCollection",
  "features": [
    {
      "type": "Feature",
      "properties": {
        "spill_id": "sentinel_659",
        "confidence": 0.8
      },
      "geometry": {
        "type": "Polygon",
        "coordinates": [
          [
            [
              72.769336,
              18.830078
            ],
            [
              72.766602,
              18.827344
            ],
            [
              72.767969,
              18.825977
            ],
            [
              72.767969,
              18.824609
            ],
            [
              72.773438,
              18.819141
            ],
            [
              72.773438,
              18.816406
            ],
            [
              72.77207,
              18.815039
            ],
            [
              72.77207,
              18.810938
            ],
            [
              72.773438,
              18.80957
            ],
            [
              72.773438,
              18.808203
            ],
            [
              72.774805,
              18.808203
            ],
            [
              72.776172,
              18.806836
            ],
            [
              72.777539,
              18.806836
            ],
            [
              72.778906,
              18.808203
            ],
            [
              72.780273,
              18.808203
            ],
            [
              72.780273,
              18.80957
            ],
            [
              72.781641,
              18.810938
            ],
            [
              72.781641,
              18.813672
            ],
            [
              72.780273,
              18.815039
            ],
            [
              72.780273,
              18.816406
            ],
            [
              72.778906,
              18.816406
            ],
            [
              72.777539,
              18.817773
            ],
            [
              72.774805,
              18.817773
            ],
            [
              72.773438,
              18.819141
            ],
            [
              72.773438,
              18.820508
            ],
            [
              72.776172,
              18.823242
            ],
            [
              72.776172,
              18.824609
            ],
            [
              72.777539,
              18.825977
            ],
            [
              72.777539,
              18.827344
            ],
            [
              72.776172,
              18.828711
            ],
            [
              72.776172,
              18.830078
            ],
            [
              72.769336,
              18.830078
            ]
          ]
        ]
      }
    },
    {
      "type": "Feature",
      "properties": {
        "spill_id": "sentinel_659",
        "confidence": 0.8
      },
      "geometry": {
        "type": "Polygon",
        "coordinates": [
          [
            [
              72.558789,
              18.850586
            ],
            [
              72.551953,
              18.850586
            ],
            [
              72.547852,
              18.847852
            ],
            [
              72.545117,
              18.841016
            ],
            [
              72.545117,
              18.835547
            ],
            [
              72.541016,
              18.825977
            ],
            [
              72.538281,
              18.823242
            ],
            [
              72.53418,
              18.823242
            ],
            [
              72.530078,
              18.816406
            ],
            [
              72.521875,
              18.825977
            ],
            [
              72.513672,
              18.824609
            ],
            [
              72.510938,
              18.817773
            ],
            [
              72.505469,
              18.815039
            ],
            [
              72.502734,
              18.810938
            ],
            [
              72.508203,
              18.805469
            ],
            [
              72.515039,
              18.805469
            ],
            [
              72.520508,
              18.801367
            ],
            [
              72.547852,
              18.801367
            ],
            [
              72.550586,
              18.804102
            ],
            [
              72.551953,
              18.810938
            ],
            [
              72.558789,
              18.821875
            ],
            [
              72.558789,
              18.828711
            ],
            [
              72.560156,
              18.830078
            ],
            [
              72.560156,
              18.845117
            ],
            [
              72.558789,
              18.846484
            ],
            [
              72.558789,
              18.850586
            ]
          ]
        ]
      }
    },
    {
      "type": "Feature",
      "properties": {
        "spill_id": "sentinel_659",
        "confidence": 0.8
      },
      "geometry": {
        "type": "Polygon",
        "coordinates": [
          [
            [
              72.618945,
              18.854688
            ],
            [
              72.614844,
              18.854688
            ],
            [
              72.613477,
              18.850586
            ],
            [
              72.601172,
              18.838281
            ],
            [
              72.601172,
              18.836914
            ],
            [
              72.595703,
              18.830078
            ],
            [
              72.594336,
              18.821875
            ],
            [
              72.588867,
              18.813672
            ],
            [
              72.588867,
              18.80957
            ],
            [
              72.590234,
              18.808203
            ],
            [
              72.590234,
              18.804102
            ],
            [
              72.591602,
              18.801367
            ],
            [
              72.601172,
              18.801367
            ],
            [
              72.603906,
              18.806836
            ],
            [
              72.606641,
              18.80957
            ],
            [
              72.608008,
              18.815039
            ],
            [
              72.610742,
              18.820508
            ],
            [
              72.613477,
              18.823242
            ],
            [
              72.620312,
              18.836914
            ],
            [
              72.620312,
              18.85332
            ],
            [
              72.618945,
              18.854688
            ]
          ]
        ]
      }
    },
    {
      "type": "Feature",
      "properties": {
        "spill_id": "sentinel_659",
        "confidence": 0.8
      },
      "geometry": {
        "type": "Polygon",
        "coordinates": [
          [
            [
              72.747461,
              18.943555
            ],
            [
              72.740625,
              18.942188
            ],
            [
              72.731055,
              18.932617
            ],
            [
              72.72832,
              18.916211
            ],
            [
              72.721484,
              18.910742
            ],
            [
              72.721484,
              18.894336
            ],
            [
              72.714648,
              18.883398
            ],
            [
              72.700977,
              18.879297
            ],
            [
              72.694141,
              18.884766
            ],
            [
              72.687305,
              18.884766
            ],
            [
              72.666797,
              18.866992
            ],
            [
              72.666797,
              18.860156
            ],
            [
              72.673633,
              18.856055
            ],
            [
              72.692773,
              18.872461
            ],
            [
              72.703711,
              18.872461
            ],
            [
              72.707812,
              18.868359
            ],
            [
              72.706445,
              18.858789
            ],
            [
              72.691406,
              18.841016
            ],
            [
              72.688672,
              18.827344
            ],
            [
              72.675,
              18.80957
            ],
            [
              72.675,
              18.804102
            ],
            [
              72.679102,
              18.801367
            ],
            [
              72.700977,
              18.820508
            ],
            [
              72.721484,
              18.845117
            ],
            [
              72.739258,
              18.884766
            ],
            [
              72.741992,
              18.902539
            ],
            [
              72.75293,
              18.918945
            ],
            [
              72.747461,
              18.943555
            ]
          ]
        ]
      }
    },
    {
      "type": "Feature",
      "properties": {
        "spill_id": "sentinel_659",
        "confidence": 0.8
      },
      "geometry": {
        "type": "Polygon",
        "coordinates": [
          [
            [
              72.774805,
              19.02832
            ],
            [
              72.767969,
              19.025586
            ],
            [
              72.758398,
              19.016016
            ],
            [
              72.757031,
              19.016016
            ],
            [
              72.751562,
              19.010547
            ],
            [
              72.751562,
              19.007812
            ],
            [
              72.750195,
              19.006445
            ],
            [
              72.750195,
              19.003711
            ],
            [
              72.748828,
              19.002344
            ],
            [
              72.748828,
              18.988672
            ],
            [
              72.750195,
              18.987305
            ],
            [
              72.757031,
              18.988672
            ],
            [
              72.7625,
              18.992773
            ],
            [
              72.763867,
              18.992773
            ],
            [
              72.767969,
              18.998242
            ],
            [
              72.767969,
              18.999609
            ],
            [
              72.773438,
              19.005078
            ],
            [
              72.773438,
              19.006445
            ],
            [
              72.774805,
              19.007812
            ],
            [
              72.774805,
              19.011914
            ],
            [
              72.776172,
              19.013281
            ],
            [
              72.776172,
              19.026953
            ],
            [
              72.774805,
              19.02832
            ]
          ]
        ]
      }
    },
    {
      "type": "Feature",
      "properties": {
        "spill_id": "sentinel_659",
        "confidence": 0.8
      },
      "geometry": {
        "type": "Polygon",
        "coordinates": [
          [
            [
              72.63125,
              19.087109
            ],
            [
              72.614844,
              19.080273
            ],
            [
              72.59707,
              19.051562
            ],
            [
              72.580664,
              19.041992
            ],
            [
              72.579297,
              19.014648
            ],
            [
              72.55332,
              18.970898
            ],
            [
              72.542383,
              18.969531
            ],
            [
              72.539648,
              18.979102
            ],
            [
              72.527344,
              18.985938
            ],
            [
              72.512305,
              18.979102
            ],
            [
              72.506836,
              18.958594
            ],
            [
              72.532812,
              18.950391
            ],
            [
              72.538281,
              18.929883
            ],
            [
              72.528711,
              18.912109
            ],
            [
              72.50957,
              18.910742
            ],
            [
              72.502734,
              18.899805
            ],
            [
              72.5,
              18.847852
            ],
            [
              72.505469,
              18.847852
            ],
            [
              72.516406,
              18.862891
            ],
            [
              72.545117,
              18.872461
            ],
            [
              72.558789,
              18.8875
            ],
            [
              72.561523,
              18.912109
            ],
            [
              72.569727,
              18.928516
            ],
            [
              72.568359,
              18.950391
            ],
            [
              72.584766,
              18.987305
            ],
            [
              72.598438,
              18.999609
            ],
            [
              72.612109,
              19.067969
            ],
            [
              72.627148,
              19.077539
            ],
            [
              72.63125,
              19.087109
            ]
          ]
        ]
      }
    },
    {
      "type": "Feature",
      "properties": {
        "spill_id": "sentinel_659",
        "confidence": 0.8
      },
      "geometry": {
        "type": "Polygon",
        "coordinates": [
          [
            [
              72.841797,
              19.133594
            ],
            [
              72.821289,
              19.132227
            ],
            [
              72.819922,
              19.119922
            ],
            [
              72.814453,
              19.111719
            ],
            [
              72.808984,
              19.095312
            ],
            [
              72.792578,
              19.07207
            ],
            [
              72.789844,
              19.0625
            ],
            [
              72.784375,
              19.054297
            ],
            [
              72.783008,
              19.047461
            ],
            [
              72.784375,
              19.039258
            ],
            [
              72.791211,
              19.039258
            ],
            [
              72.802148,
              19.050195
            ],
            [
              72.810352,
              19.069336
            ],
            [
              72.811719,
              19.084375
            ],
            [
              72.825391,
              19.100781
            ],
            [
              72.837695,
              19.107617
            ],
            [
              72.843164,
              19.122656
            ],
            [
              72.841797,
              19.133594
            ]
          ]
        ]
      }
    }
  ]
}