{
  "type": "FeatureCollection",
  "features": [
    {
      "type": "Feature",
      "properties": {
        "spill_id": "sentinel_528",
        "confidence": 0.69
      },
      "geometry": {
        "type": "Polygon",
        "coordinates": [
          [
            [
              72.743359,
              19.114453
            ],
            [
              72.746094,
              19.111719
            ],
            [
              72.755664,
              19.111719
            ],
            [
              72.757031,
              19.113086
            ],
            [
              72.759766,
              19.113086
            ],
            [
              72.761133,
              19.111719
            ],
            [
              72.761133,
              19.108984
            ],
            [
              72.7625,
              19.107617
            ],
            [
              72.761133,
              19.104883
            ],
            [
              72.75293,
              19.100781
            ],
            [
              72.75293,
              19.098047
            ],
            [
              72.757031,
              19.09668
            ],
            [
              72.758398,
              19.093945
            ],
            [
              72.759766,
              19.09668
            ],
            [
              72.765234,
              19.093945
            ],
            [
              72.776172,
              19.095312
            ],
            [
              72.780273,
              19.099414
            ],
            [
              72.783008,
              19.104883
            ],
            [
              72.781641,
              19.110352
            ],
            [
              72.780273,
              19.111719
            ],
            [
              72.770703,
              19.111719
            ],
            [
              72.770703,
              19.108984
            ],
            [
              72.769336,
              19.107617
            ],
            [
              72.766602,
              19.110352
            ],
            [
              72.767969,
              19.111719
            ],
            [
              72.765234,
              19.114453
            ],
            [
              72.765234,
              19.11582
            ],
            [
              72.7625,
              19.11582
            ],
            [
              72.759766,
              19.113086
            ],
            [
              72.754297,
              19.117188
            ],
            [
              72.75293,
              19.11582
            ],
            [
              72.746094,
              19.117188
            ],
            [
              72.743359,
              19.114453
            ]
          ]
        ]
      }
    },
    {
      "type": "Feature",
      "properties": {
        "spill_id": "sentinel_528",
        "confidence": 0.69
      },
      "geometry": {
        "type": "Polygon",
        "coordinates": [
          [
            [
              72.538281,
              19.15
            ],
            [
              72.549219,
              19.010547
            ],
            [
              72.5,
              18.964062
            ],
            [
              72.5,
              18.917578
            ],
            [
              72.703711,
              18.876562
            ],
            [
              72.758398,
              18.850586
            ],
            [
              72.766602,
              18.801367
            ],
            [
              72.847266,
              18.802734
            ],
            [
              72.848633,
              19.10625
            ],
            [
              72.821289,
              19.081641
            ],
            [
              72.836328,
              19.006445
            ],
            [
              72.807617,
              19.00918
            ],
            [
              72.836328,
              18.961328
            ],
            [
              72.781641,
              18.901172
            ],
            [
              72.706445,
              18.958594
            ],
            [
              72.741992,
              18.959961
            ],
            [
              72.798047,
              19.003711
            ],
            [
              72.774805,
              19.031055
            ],
            [
              72.795312,
              19.054297
            ],
            [
              72.7625,
              19.0625
            ],
            [
              72.720117,
              19.121289
            ],
            [
              72.757031,
              19.15
            ],
            [
              72.636719,
              19.15
            ],
            [
              72.629883,
              19.11582
            ],
            [
              72.612109,
              19.121289
            ],
            [
              72.628516,
              19.15
            ],
            [
              72.538281,
              19.15
            ]
          ]
        ]
      }
    }
  ]
}