{
  "type": "FeatureCollection",
  "features": [
    {
      "type": "Feature",
      "properties": {
        "spill_id": "sentinel_106",
        "confidence": 0.87
      },
      "geometry": {
        "type": "Polygon",
        "coordinates": [
          [
            [
              72.558789,
              18.812305
            ],
            [
              72.557422,
              18.813672
            ],
            [
              72.556055,
              18.813672
            ],
            [
              72.554688,
              18.815039
            ],
            [
              72.551953,
              18.815039
            ],
            [
              72.550586,
              18.813672
            ],
            [
              72.547852,
              18.813672
            ],
            [
              72.545117,
              18.810938
            ],
            [
              72.542383,
              18.810938
            ],
            [
              72.541016,
              18.80957
            ],
            [
              72.541016,
              18.805469
            ],
            [
              72.539648,
              18.804102
            ],
            [
              72.539648,
              18.802734
            ],
            [
              72.541016,
              18.801367
            ],
            [
              72.560156,
              18.801367
            ],
            [
              72.561523,
              18.802734
            ],
            [
              72.560156,
              18.804102
            ],
            [
              72.560156,
              18.806836
            ],
            [
              72.558789,
              18.808203
            ],
            [
              72.558789,
              18.812305
            ]
          ]
        ]
      }
    },
    {
      "type": "Feature",
      "properties": {
        "spill_id": "sentinel_106",
        "confidence": 0.87
      },
      "geometry": {
        "type": "Polygon",
        "coordinates": [
          [
            [
              72.5,
              19.15
            ],
            [
              72.5,
              18.927148
            ],
            [
              72.512305,
              18.936719
            ],
            [
              72.516406,
              18.908008
            ],
            [
              72.542383,
              18.912109
            ],
            [
              72.562891,
              18.856055
            ],
            [
              72.573828,
              18.85332
            ],
            [
              72.5875,
              18.880664
            ],
            [
              72.628516,
              18.886133
            ],
            [
              72.651758,
              18.875195
            ],
            [
              72.688672,
              18.820508
            ],
            [
              72.679102,
              18.801367
            ],
            [
              72.844531,
              18.801367
            ],
            [
              72.848633,
              18.83418
            ],
            [
              72.808984,
              18.836914
            ],
            [
              72.788477,
              18.860156
            ],
            [
              72.822656,
              18.876562
            ],
            [
              72.848633,
              18.864258
            ],
            [
              72.848633,
              18.983203
            ],
            [
              72.800781,
              19.000977
            ],
            [
              72.778906,
              19.031055
            ],
            [
              72.811719,
              19.037891
            ],
            [
              72.810352,
              19.05293
            ],
            [
              72.848633,
              19.035156
            ],
            [
              72.847266,
              19.15
            ],
            [
              72.5,
              19.15
            ]
          ]
        ]
      }
    }
  ]
}