{
  "type": "FeatureCollection",
  "features": [
    {
      "type": "Feature",
      "properties": {
        "spill_id": "sentinel_410",
        "confidence": 0.83
      },
      "geometry": {
        "type": "Polygon",
        "coordinates": [
          [
            [
              72.729688,
              18.836914
            ],
            [
              72.729688,
              18.835547
            ],
            [
              72.72832,
              18.83418
            ],
            [
              72.729688,
              18.832812
            ],
            [
              72.729688,
              18.830078
            ],
            [
              72.731055,
              18.828711
            ],
            [
              72.731055,
              18.827344
            ],
            [
              72.732422,
              18.825977
            ],
            [
              72.732422,
              18.824609
            ],
            [
              72.737891,
              18.819141
            ],
            [
              72.737891,
              18.817773
            ],
            [
              72.739258,
              18.819141
            ],
            [
              72.740625,
              18.819141
            ],
            [
              72.740625,
              18.820508
            ],
            [
              72.741992,
              18.821875
            ],
            [
              72.740625,
              18.823242
            ],
            [
              72.740625,
              18.824609
            ],
            [
              72.739258,
              18.825977
            ],
            [
              72.739258,
              18.827344
            ],
            [
              72.736523,
              18.830078
            ],
            [
              72.736523,
              18.831445
            ],
            [
              72.732422,
              18.835547
            ],
            [
              72.731055,
              18.835547
            ],
            [
              72.729688,
              18.836914
            ]
          ]
        ]
      }
    },
    {
      "type": "Feature",
      "properties": {
        "spill_id": "sentinel_410",
        "confidence": 0.83
      },
      "geometry": {
        "type": "Polygon",
        "coordinates": [
          [
            [
              72.541016,
              19.044727
            ],
            [
              72.53418,
              19.043359
            ],
            [
              72.527344,
              19.037891
            ],
            [
              72.524609,
              19.024219
            ],
            [
              72.528711,
              19.010547
            ],
            [
              72.516406,
              19.010547
            ],
            [
              72.512305,
              19.003711
            ],
            [
              72.5,
              18.999609
            ],
            [
              72.5,
              18.994141
            ],
            [
              72.504102,
              18.994141
            ],
            [
              72.516406,
              18.981836
            ],
            [
              72.517773,
              18.96543
            ],
            [
              72.521875,
              18.955859
            ],
            [
              72.539648,
              18.944922
            ],
            [
              72.547852,
              18.944922
            ],
            [
              72.551953,
              18.951758
            ],
            [
              72.551953,
              18.969531
            ],
            [
              72.554688,
              18.975
            ],
            [
              72.550586,
              18.988672
            ],
            [
              72.550586,
              19.000977
            ],
            [
              72.546484,
              19.011914
            ],
            [
              72.549219,
              19.026953
            ],
            [
              72.547852,
              19.037891
            ],
            [
              72.550586,
              19.039258
            ],
            [
              72.557422,
              19.036523
            ],
            [
              72.558789,
              19.040625
            ],
            [
              72.541016,
              19.044727
            ]
          ]
        ]
      }
    },
    {
      "type": "Feature",
      "properties": {
        "spill_id": "sentinel_410",
        "confidence": 0.83
      },
      "geometry": {
        "type": "Polygon",
        "coordinates": [
          [
            [
              72.799414,
              19.059766
            ],
            [
              72.792578,
              19.059766
            ],
            [
              72.791211,
              19.051562
            ],
            [
              72.799414,
              19.00918
            ],
            [
              72.787109,
              18.929883
            ],
            [
              72.759766,
              18.906641
            ],
            [
              72.758398,
              18.899805
            ],
            [
              72.732422,
              18.872461
            ],
            [
              72.724219,
              18.868359
            ],
            [
              72.722852,
              18.858789
            ],
            [
              72.729688,
              18.847852
            ],
            [
              72.743359,
              18.849219
            ],
            [
              72.744727,
              18.862891
            ],
            [
              72.763867,
              18.87793
            ],
            [
              72.778906,
              18.89707
            ],
            [
              72.803516,
              18.910742
            ],
            [
              72.808984,
              18.918945
            ],
            [
              72.80625,
              18.936719
            ],
            [
              72.807617,
              18.962695
            ],
            [
              72.813086,
              18.977734
            ],
            [
              72.813086,
              19.02832
            ],
            [
              72.799414,
              19.059766
            ]
          ]
        ]
      }
    },
    {
      "type": "Feature",
      "properties": {
        "spill_id": "sentinel_410",
        "confidence": 0.83
      },
      "geometry": {
        "type": "Polygon",
        "coordinates": [
          [
            [
              72.690039,
              19.15
            ],
            [
              72.673633,
              19.15
            ],
            [
              72.666797,
              19.111719
            ],
            [
              72.646289,
              19.098047
            ],
            [
              72.628516,
              19.103516
            ],
            [
              72.62168,
              19.076172
            ],
            [
              72.601172,
              19.058398
            ],
            [
              72.572461,
              19.0625
            ],
            [
              72.566992,
              19.057031
            ],
            [
              72.565625,
              19.036523
            ],
            [
              72.590234,
              19.022852
            ],
            [
              72.586133,
              18.995508
            ],
            [
              72.592969,
              18.985938
            ],
            [
              72.606641,
              18.985938
            ],
            [
              72.612109,
              19.005078
            ],
            [
              72.606641,
              19.024219
            ],
            [
              72.62168,
              19.050195
            ],
            [
              72.64082,
              19.037891
            ],
            [
              72.64082,
              19.02832
            ],
            [
              72.625781,
              19.017383
            ],
            [
              72.628516,
              19.003711
            ],
            [
              72.655859,
              19.014648
            ],
            [
              72.673633,
              19.037891
            ],
            [
              72.687305,
              19.017383
            ],
            [
              72.688672,
              18.995508
            ],
            [
              72.699609,
              18.995508
            ],
            [
              72.705078,
              19.017383
            ],
            [
              72.691406,
              19.05293
            ],
            [
              72.679102,
              19.061133
            ],
            [
              72.655859,
              19.05293
            ],
            [
              72.642187,
              19.076172
            ],
            [
              72.647656,
              19.088477
            ],
            [
              72.661328,
              19.066602
            ],
            [
              72.669531,
              19.067969
            ],
            [
              72.675,
              19.087109
            ],
            [
              72.688672,
              19.100781
            ],
            [
              72.695508,
              19.128125
            ],
            [
              72.690039,
              19.15
            ]
          ]
        ]
      }
    }
  ]
}