{
  "type": "FeatureCollection",
  "features": [
    {
      "type": "Feature",
      "properties": {
        "spill_id": "sentinel_118",
        "confidence": 0.84
      },
      "geometry": {
        "type": "Polygon",
        "coordinates": [
          [
            [
              72.741992,
              18.805469
            ],
            [
              72.740625,
              18.812305
            ],
            [
              72.721484,
              18.825977
            ],
            [
              72.710547,
              18.824609
            ],
            [
              72.694141,
              18.806836
            ],
            [
              72.685938,
              18.810938
            ],
            [
              72.670898,
              18.80957
            ],
            [
              72.666797,
              18.812305
            ],
            [
              72.643555,
              18.815039
            ],
            [
              72.629883,
              18.821875
            ],
            [
              72.602539,
              18.821875
            ],
            [
              72.598438,
              18.816406
            ],
            [
              72.598438,
              18.808203
            ],
            [
              72.609375,
              18.801367
            ],
            [
              72.740625,
              18.801367
            ],
            [
              72.741992,
              18.805469
            ]
          ]
        ]
      }
    },
    {
      "type": "Feature",
      "properties": {
        "spill_id": "sentinel_118",
        "confidence": 0.84
      },
      "geometry": {
        "type": "Polygon",
        "coordinates": [
          [
            [
              72.848633,
              18.84375
            ],
            [
              72.847266,
              18.84375
            ],
            [
              72.845898,
              18.845117
            ],
            [
              72.844531,
              18.84375
            ],
            [
              72.841797,
              18.84375
            ],
            [
              72.84043,
              18.842383
            ],
            [
              72.839062,
              18.842383
            ],
            [
              72.839062,
              18.841016
            ],
            [
              72.836328,
              18.838281
            ],
            [
              72.834961,
              18.838281
            ],
            [
              72.832227,
              18.835547
            ],
            [
              72.832227,
              18.832812
            ],
            [
              72.833594,
              18.831445
            ],
            [
              72.843164,
              18.831445
            ],
            [
              72.844531,
              18.832812
            ],
            [
              72.847266,
              18.832812
            ],
            [
              72.848633,
              18.83418
            ],
            [
              72.848633,
              18.84375
            ]
          ]
        ]
      }
    },
    {
      "type": "Feature",
      "properties": {
        "spill_id": "sentinel_118",
        "confidence": 0.84
      },
      "geometry": {
        "type": "Polygon",
        "coordinates": [
          [
            [
              72.539648,
              18.847852
            ],
            [
              72.539648,
              18.84375
            ],
            [
              72.538281,
              18.842383
            ],
            [
              72.538281,
              18.838281
            ],
            [
              72.539648,
              18.836914
            ],
            [
              72.539648,
              18.835547
            ],
            [
              72.54375,
              18.832812
            ],
            [
              72.55332,
              18.831445
            ],
            [
              72.558789,
              18.825977
            ],
            [
              72.560156,
              18.825977
            ],
            [
              72.561523,
              18.824609
            ],
            [
              72.571094,
              18.824609
            ],
            [
              72.575195,
              18.828711
            ],
            [
              72.575195,
              18.830078
            ],
            [
              72.576562,
              18.831445
            ],
            [
              72.576562,
              18.836914
            ],
            [
              72.57793,
              18.838281
            ],
            [
              72.57793,
              18.849219
            ],
            [
              72.573828,
              18.851953
            ],
            [
              72.566992,
              18.851953
            ],
            [
              72.565625,
              18.85332
            ],
            [
              72.557422,
              18.85332
            ],
            [
              72.556055,
              18.851953
            ],
            [
              72.54375,
              18.851953
            ],
            [
              72.539648,
              18.847852
            ]
          ]
        ]
      }
    },
    {
      "type": "Feature",
      "properties": {
        "spill_id": "sentinel_118",
        "confidence": 0.84
      },
      "geometry": {
        "type": "Polygon",
        "coordinates": [
          [
            [
              72.5,
              18.890234
            ],
            [
              72.5,
              18.864258
            ],
            [
              72.502734,
              18.861523
            ],
            [
              72.504102,
              18.861523
            ],
            [
              72.50957,
              18.857422
            ],
            [
              72.513672,
              18.857422
            ],
            [
              72.515039,
              18.856055
            ],
            [
              72.519141,
              18.856055
            ],
            [
              72.520508,
              18.857422
            ],
            [
              72.521875,
              18.857422
            ],
            [
              72.532812,
              18.871094
            ],
            [
              72.532812,
              18.875195
            ],
            [
              72.531445,
              18.876562
            ],
            [
              72.531445,
              18.87793
            ],
            [
              72.530078,
              18.879297
            ],
            [
              72.525977,
              18.880664
            ],
            [
              72.521875,
              18.884766
            ],
            [
              72.520508,
              18.884766
            ],
            [
              72.519141,
              18.886133
            ],
            [
              72.515039,
              18.886133
            ],
            [
              72.513672,
              18.8875
            ],
            [
              72.508203,
              18.8875
            ],
            [
              72.506836,
              18.888867
            ],
            [
              72.502734,
              18.888867
            ],
            [
              72.501367,
              18.890234
            ],
            [
              72.5,
              18.890234
            ]
          ]
        ]
      }
    },
    {
      "type": "Feature",
      "properties": {
        "spill_id": "sentinel_118",
        "confidence": 0.84
      },
      "geometry": {
        "type": "Polygon",
        "coordinates": [
          [
            [
              72.784375,
              18.903906
            ],
            [
              72.777539,
              18.903906
            ],
            [
              72.776172,
              18.905273
            ],
            [
              72.773438,
              18.905273
            ],
            [
              72.77207,
              18.903906
            ],
            [
              72.770703,
              18.903906
            ],
            [
              72.770703,
              18.902539
            ],
            [
              72.769336,
              18.901172
            ],
            [
              72.766602,
              18.894336
            ],
            [
              72.761133,
              18.888867
            ],
            [
              72.761133,
              18.8875
            ],
            [
              72.759766,
              18.886133
            ],
            [
              72.759766,
              18.880664
            ],
            [
              72.758398,
              18.879297
            ],
            [
              72.758398,
              18.87793
            ],
            [
              72.761133,
              18.875195
            ],
            [
              72.761133,
              18.872461
            ],
            [
              72.767969,
              18.872461
            ],
            [
              72.770703,
              18.875195
            ],
            [
              72.770703,
              18.876562
            ],
            [
              72.773438,
              18.880664
            ],
            [
              72.774805,
              18.880664
            ],
            [
              72.776172,
              18.882031
            ],
            [
              72.781641,
              18.882031
            ],
            [
              72.784375,
              18.884766
            ],
            [
              72.784375,
              18.886133
            ],
            [
              72.785742,
              18.8875
            ],
            [
              72.785742,
              18.891602
            ],
            [
              72.787109,
              18.892969
            ],
            [
              72.787109,
              18.89707
            ],
            [
              72.788477,
              18.898438
            ],
            [
              72.788477,
              18.899805
            ],
            [
              72.784375,
              18.903906
            ]
          ]
        ]
      }
    },
    {
      "type": "Feature",
      "properties": {
        "spill_id": "sentinel_118",
        "confidence": 0.84
      },
      "geometry": {
        "type": "Polygon",
        "coordinates": [
          [
            [
              72.565625,
              18.998242
            ],
            [
              72.562891,
              18.998242
            ],
            [
              72.561523,
              18.996875
            ],
            [
              72.560156,
              18.996875
            ],
            [
              72.551953,
              18.988672
            ],
            [
              72.551953,
              18.987305
            ],
            [
              72.547852,
              18.983203
            ],
            [
              72.547852,
              18.979102
            ],
            [
              72.550586,
              18.975
            ],
            [
              72.550586,
              18.972266
            ],
            [
              72.55332,
              18.969531
            ],
            [
              72.55332,
              18.968164
            ],
            [
              72.554688,
              18.968164
            ],
            [
              72.557422,
              18.96543
            ],
            [
              72.564258,
              18.96543
            ],
            [
              72.566992,
              18.968164
            ],
            [
              72.568359,
              18.968164
            ],
            [
              72.568359,
              18.969531
            ],
            [
              72.571094,
              18.973633
            ],
            [
              72.571094,
              18.985938
            ],
            [
              72.568359,
              18.990039
            ],
            [
              72.568359,
              18.994141
            ],
            [
              72.565625,
              18.996875
            ],
            [
              72.565625,
              18.998242
            ]
          ]
        ]
      }
    },
    {
      "type": "Feature",
      "properties": {
        "spill_id": "sentinel_118",
        "confidence": 0.84
      },
      "geometry": {
        "type": "Polygon",
        "coordinates": [
          [
            [
              72.542383,
              19.095312
            ],
            [
              72.562891,
              19.073438
            ],
            [
              72.588867,
              19.084375
            ],
            [
              72.594336,
              19.040625
            ],
            [
              72.629883,
              19.032422
            ],
            [
              72.598438,
              18.98457
            ],
            [
              72.579297,
              18.995508
            ],
            [
              72.591602,
              18.938086
            ],
            [
              72.562891,
              18.92168
            ],
            [
              72.556055,
              18.886133
            ],
            [
              72.572461,
              18.89707
            ],
            [
              72.598438,
              18.866992
            ],
            [
              72.654492,
              18.87793
            ],
            [
              72.694141,
              18.864258
            ],
            [
              72.695508,
              18.94082
            ],
            [
              72.751562,
              18.906641
            ],
            [
              72.780273,
              18.920312
            ],
            [
              72.810352,
              18.961328
            ],
            [
              72.821289,
              18.935352
            ],
            [
              72.795312,
              18.936719
            ],
            [
              72.791211,
              18.92168
            ],
            [
              72.819922,
              18.891602
            ],
            [
              72.848633,
              18.891602
            ],
            [
              72.844531,
              19.15
            ],
            [
              72.783008,
              19.111719
            ],
            [
              72.77207,
              19.118555
            ],
            [
              72.791211,
              19.147266
            ],
            [
              72.765234,
              19.15
            ],
            [
              72.7625,
              19.129492
            ],
            [
              72.720117,
              19.102148
            ],
            [
              72.691406,
              19.111719
            ],
            [
              72.683203,
              19.148633
            ],
            [
              72.666797,
              19.15
            ],
            [
              72.654492,
              19.118555
            ],
            [
              72.598438,
              19.099414
            ],
            [
              72.557422,
              19.110352
            ],
            [
              72.542383,
              19.095312
            ]
          ]
        ]
      }
    },
    {
      "type": "Feature",
      "properties": {
        "spill_id": "sentinel_118",
        "confidence": 0.84
      },
      "geometry": {
        "type": "Polygon",
        "coordinates": [
          [
            [
              72.5,
              19.087109
            ],
            [
              72.521875,
              19.088477
            ],
            [
              72.530078,
              19.095312
            ],
            [
              72.531445,
              19.104883
            ],
            [
              72.538281,
              19.11582
            ],
            [
              72.551953,
              19.118555
            ],
            [
              72.562891,
              19.125391
            ],
            [
              72.575195,
              19.118555
            ],
            [
              72.591602,
              19.121289
            ],
            [
              72.599805,
              19.126758
            ],
            [
              72.617578,
              19.125391
            ],
            [
              72.628516,
              19.139062
            ],
            [
              72.629883,
              19.147266
            ],
            [
              72.628516,
              19.15
            ],
            [
              72.5,
              19.145898
            ],
            [
              72.5,
              19.113086
            ],
            [
              72.516406,
              19.108984
            ],
            [
              72.520508,
              19.103516
            ],
            [
              72.516406,
              19.099414
            ],
            [
              72.5,
              19.102148
            ],
            [
              72.5,
              19.087109
            ]
          ]
        ]
      }
    }
  ]
}