{
  "type": "FeatureCollection",
  "features": [
    {
      "type": "Feature",
      "properties": {
        "spill_id": "sentinel_217",
        "confidence": 0.75
      },
      "geometry": {
        "type": "Polygon",
        "coordinates": [
          [
            [
              72.624414,
              18.836914
            ],
            [
              72.625781,
              18.831445
            ],
            [
              72.629883,
              18.828711
            ],
            [
              72.632617,
              18.821875
            ],
            [
              72.642187,
              18.80957
            ],
            [
              72.64082,
              18.806836
            ],
            [
              72.642187,
              18.802734
            ],
            [
              72.644922,
              18.801367
            ],
            [
              72.650391,
              18.801367
            ],
            [
              72.654492,
              18.804102
            ],
            [
              72.659961,
              18.804102
            ],
            [
              72.664062,
              18.801367
            ],
            [
              72.683203,
              18.801367
            ],
            [
              72.68457,
              18.805469
            ],
            [
              72.680469,
              18.810938
            ],
            [
              72.673633,
              18.813672
            ],
            [
              72.670898,
              18.816406
            ],
            [
              72.668164,
              18.816406
            ],
            [
              72.664062,
              18.819141
            ],
            [
              72.661328,
              18.819141
            ],
            [
              72.646289,
              18.825977
            ],
            [
              72.638086,
              18.832812
            ],
            [
              72.635352,
              18.832812
            ],
            [
              72.629883,
              18.836914
            ],
            [
              72.624414,
              18.836914
            ]
          ]
        ]
      }
    },
    {
      "type": "Feature",
      "properties": {
        "spill_id": "sentinel_217",
        "confidence": 0.75
      },
      "geometry": {
        "type": "Polygon",
        "coordinates": [
          [
            [
              72.677734,
              18.891602
            ],
            [
              72.677734,
              18.890234
            ],
            [
              72.676367,
              18.888867
            ],
            [
              72.677734,
              18.8875
            ],
            [
              72.677734,
              18.884766
            ],
            [
              72.679102,
              18.883398
            ],
            [
              72.685938,
              18.883398
            ],
            [
              72.685938,
              18.8875
            ],
            [
              72.681836,
              18.891602
            ],
            [
              72.677734,
              18.891602
            ]
          ]
        ]
      }
    },
    {
      "type": "Feature",
      "properties": {
        "spill_id": "sentinel_217",
        "confidence": 0.75
      },
      "geometry": {
        "type": "Polygon",
        "coordinates": [
          [
            [
              72.780273,
              18.918945
            ],
            [
              72.785742,
              18.912109
            ],
            [
              72.798047,
              18.909375
            ],
            [
              72.813086,
              18.898438
            ],
            [
              72.81582,
              18.898438
            ],
            [
              72.818555,
              18.895703
            ],
            [
              72.821289,
              18.895703
            ],
            [
              72.824023,
              18.892969
            ],
            [
              72.829492,
              18.891602
            ],
            [
              72.833594,
              18.888867
            ],
            [
              72.841797,
              18.8875
            ],
            [
              72.839062,
              18.892969
            ],
            [
              72.832227,
              18.895703
            ],
            [
              72.822656,
              18.903906
            ],
            [
              72.808984,
              18.910742
            ],
            [
              72.800781,
              18.917578
            ],
            [
              72.798047,
              18.917578
            ],
            [
              72.793945,
              18.920312
            ],
            [
              72.785742,
              18.920312
            ],
            [
              72.784375,
              18.92168
            ],
            [
              72.780273,
              18.918945
            ]
          ]
        ]
      }
    },
    {
      "type": "Feature",
      "properties": {
        "spill_id": "sentinel_217",
        "confidence": 0.75
      },
      "geometry": {
        "type": "Polygon",
        "coordinates": [
          [
            [
              72.750195,
              18.939453
            ],
            [
              72.744727,
              18.942188
            ],
            [
              72.733789,
              18.943555
            ],
            [
              72.725586,
              18.936719
            ],
            [
              72.713281,
              18.93125
            ],
            [
              72.707812,
              18.93125
            ],
            [
              72.702344,
              18.933984
            ],
            [
              72.696875,
              18.933984
            ],
            [
              72.699609,
              18.929883
            ],
            [
              72.699609,
              18.918945
            ],
            [
              72.703711,
              18.913477
            ],
            [
              72.70918,
              18.910742
            ],
            [
              72.721484,
              18.899805
            ],
            [
              72.731055,
              18.899805
            ],
            [
              72.732422,
              18.901172
            ],
            [
              72.735156,
              18.901172
            ],
            [
              72.739258,
              18.905273
            ],
            [
              72.744727,
              18.914844
            ],
            [
              72.743359,
              18.924414
            ],
            [
              72.750195,
              18.929883
            ],
            [
              72.75293,
              18.933984
            ],
            [
              72.75293,
              18.936719
            ],
            [
              72.750195,
              18.939453
            ]
          ]
        ]
      }
    },
    {
      "type": "Feature",
      "properties": {
        "spill_id": "sentinel_217",
        "confidence": 0.75
      },
      "geometry": {
        "type": "Polygon",
        "coordinates": [
          [
            [
              72.572461,
              18.994141
            ],
            [
              72.573828,
              18.991406
            ],
            [
              72.583398,
              18.987305
            ],
            [
              72.5875,
              18.976367
            ],
            [
              72.599805,
              18.96543
            ],
            [
              72.594336,
              18.959961
            ],
            [
              72.594336,
              18.955859
            ],
            [
              72.601172,
              18.950391
            ],
            [
              72.605273,
              18.950391
            ],
            [
              72.610742,
              18.959961
            ],
            [
              72.620312,
              18.958594
            ],
            [
              72.628516,
              18.954492
            ],
            [
              72.633984,
              18.954492
            ],
            [
              72.643555,
              18.958594
            ],
            [
              72.649023,
              18.966797
            ],
            [
              72.646289,
              18.970898
            ],
            [
              72.636719,
              18.975
            ],
            [
              72.625781,
              18.972266
            ],
            [
              72.616211,
              18.973633
            ],
            [
              72.606641,
              18.980469
            ],
            [
              72.599805,
              18.981836
            ],
            [
              72.59707,
              18.98457
            ],
            [
              72.598438,
              18.988672
            ],
            [
              72.59707,
              18.992773
            ],
            [
              72.588867,
              18.994141
            ],
            [
              72.579297,
              18.999609
            ],
            [
              72.575195,
              18.994141
            ],
            [
              72.572461,
              18.994141
            ]
          ]
        ]
      }
    },
    {
      "type": "Feature",
      "properties": {
        "spill_id": "sentinel_217",
        "confidence": 0.75
      },
      "geometry": {
        "type": "Polygon",
        "coordinates": [
          [
            [
              72.721484,
              19.025586
            ],
            [
              72.720117,
              19.024219
            ],
            [
              72.71875,
              19.024219
            ],
            [
              72.71875,
              19.021484
            ],
            [
              72.717383,
              19.020117
            ],
            [
              72.71875,
              19.01875
            ],
            [
              72.71875,
              19.016016
            ],
            [
              72.720117,
              19.014648
            ],
            [
              72.721484,
              19.014648
            ],
            [
              72.722852,
              19.013281
            ],
            [
              72.724219,
              19.013281
            ],
            [
              72.725586,
              19.014648
            ],
            [
              72.724219,
              19.016016
            ],
            [
              72.724219,
              19.022852
            ],
            [
              72.722852,
              19.024219
            ],
            [
              72.722852,
              19.025586
            ],
            [
              72.721484,
              19.025586
            ]
          ]
        ]
      }
    },
    {
      "type": "Feature",
      "properties": {
        "spill_id": "sentinel_217",
        "confidence": 0.75
      },
      "geometry": {
        "type": "Polygon",
        "coordinates": [
          [
            [
              72.792578,
              19.020117
            ],
            [
              72.785742,
              19.025586
            ],
            [
              72.770703,
              19.026953
            ],
            [
              72.769336,
              19.024219
            ],
            [
              72.763867,
              19.020117
            ],
            [
              72.751562,
              19.01875
            ],
            [
              72.750195,
              19.017383
            ],
            [
              72.750195,
              19.014648
            ],
            [
              72.751562,
              19.013281
            ],
            [
              72.747461,
              19.010547
            ],
            [
              72.741992,
              19.010547
            ],
            [
              72.736523,
              19.013281
            ],
            [
              72.732422,
              19.013281
            ],
            [
              72.731055,
              19.011914
            ],
            [
              72.732422,
              19.00918
            ],
            [
              72.733789,
              19.00918
            ],
            [
              72.739258,
              19.003711
            ],
            [
              72.75293,
              19.000977
            ],
            [
              72.754297,
              19.002344
            ],
            [
              72.757031,
              19.002344
            ],
            [
              72.758398,
              19.005078
            ],
            [
              72.757031,
              19.007812
            ],
            [
              72.758398,
              19.00918
            ],
            [
              72.763867,
              19.00918
            ],
            [
              72.765234,
              19.007812
            ],
            [
              72.776172,
              19.007812
            ],
            [
              72.777539,
              19.006445
            ],
            [
              72.787109,
              19.006445
            ],
            [
              72.789844,
              19.007812
            ],
            [
              72.792578,
              19.011914
            ],
            [
              72.792578,
              19.020117
            ]
          ]
        ]
      }
    },
    {
      "type": "Feature",
      "properties": {
        "spill_id": "sentinel_217",
        "confidence": 0.75
      },
      "geometry": {
        "type": "Polygon",
        "coordinates": [
          [
            [
              72.594336,
              19.044727
            ],
            [
              72.598438,
              19.037891
            ],
            [
              72.616211,
              19.031055
            ],
            [
              72.614844,
              19.013281
            ],
            [
              72.609375,
              19.007812
            ],
            [
              72.627148,
              18.988672
            ],
            [
              72.636719,
              18.987305
            ],
            [
              72.659961,
              18.995508
            ],
            [
              72.668164,
              18.987305
            ],
            [
              72.670898,
              18.972266
            ],
            [
              72.680469,
              18.961328
            ],
            [
              72.669531,
              18.958594
            ],
            [
              72.669531,
              18.951758
            ],
            [
              72.68457,
              18.939453
            ],
            [
              72.694141,
              18.939453
            ],
            [
              72.700977,
              18.958594
            ],
            [
              72.699609,
              18.969531
            ],
            [
              72.706445,
              18.981836
            ],
            [
              72.726953,
              18.975
            ],
            [
              72.746094,
              18.988672
            ],
            [
              72.739258,
              18.998242
            ],
            [
              72.724219,
              18.999609
            ],
            [
              72.716016,
              19.007812
            ],
            [
              72.68457,
              19.010547
            ],
            [
              72.661328,
              19.021484
            ],
            [
              72.642187,
              19.022852
            ],
            [
              72.635352,
              19.029687
            ],
            [
              72.616211,
              19.033789
            ],
            [
              72.608008,
              19.044727
            ],
            [
              72.594336,
              19.044727
            ]
          ]
        ]
      }
    },
    {
      "type": "Feature",
      "properties": {
        "spill_id": "sentinel_217",
        "confidence": 0.75
      },
      "geometry": {
        "type": "Polygon",
        "coordinates": [
          [
            [
              72.705078,
              19.043359
            ],
            [
              72.707812,
              19.039258
            ],
            [
              72.70918,
              19.039258
            ],
            [
              72.711914,
              19.036523
            ],
            [
              72.713281,
              19.036523
            ],
            [
              72.714648,
              19.035156
            ],
            [
              72.71875,
              19.033789
            ],
            [
              72.721484,
              19.031055
            ],
            [
              72.722852,
              19.031055
            ],
            [
              72.725586,
              19.02832
            ],
            [
              72.726953,
              19.02832
            ],
            [
              72.72832,
              19.026953
            ],
            [
              72.731055,
              19.026953
            ],
            [
              72.732422,
              19.025586
            ],
            [
              72.735156,
              19.025586
            ],
            [
              72.737891,
              19.029687
            ],
            [
              72.737891,
              19.031055
            ],
            [
              72.736523,
              19.032422
            ],
            [
              72.736523,
              19.036523
            ],
            [
              72.732422,
              19.040625
            ],
            [
              72.731055,
              19.040625
            ],
            [
              72.72832,
              19.043359
            ],
            [
              72.72832,
              19.044727
            ],
            [
              72.726953,
              19.046094
            ],
            [
              72.721484,
              19.046094
            ],
            [
              72.720117,
              19.047461
            ],
            [
              72.716016,
              19.047461
            ],
            [
              72.714648,
              19.046094
            ],
            [
              72.707812,
              19.046094
            ],
            [
              72.705078,
              19.043359
            ]
          ]
        ]
      }
    },
    {
      "type": "Feature",
      "properties": {
        "spill_id": "sentinel_217",
        "confidence": 0.75
      },
      "geometry": {
        "type": "Polygon",
        "coordinates": [
          [
            [
              72.655859,
              19.055664
            ],
            [
              72.655859,
              19.05293
            ],
            [
              72.658594,
              19.048828
            ],
            [
              72.664062,
              19.046094
            ],
            [
              72.666797,
              19.046094
            ],
            [
              72.668164,
              19.044727
            ],
            [
              72.675,
              19.043359
            ],
            [
              72.677734,
              19.040625
            ],
            [
              72.680469,
              19.040625
            ],
            [
              72.681836,
              19.039258
            ],
            [
              72.685938,
              19.039258
            ],
            [
              72.687305,
              19.040625
            ],
            [
              72.694141,
              19.040625
            ],
            [
              72.696875,
              19.041992
            ],
            [
              72.696875,
              19.044727
            ],
            [
              72.694141,
              19.047461
            ],
            [
              72.691406,
              19.048828
            ],
            [
              72.688672,
              19.048828
            ],
            [
              72.687305,
              19.050195
            ],
            [
              72.68457,
              19.050195
            ],
            [
              72.683203,
              19.051562
            ],
            [
              72.680469,
              19.051562
            ],
            [
              72.675,
              19.057031
            ],
            [
              72.676367,
              19.058398
            ],
            [
              72.676367,
              19.061133
            ],
            [
              72.677734,
              19.063867
            ],
            [
              72.676367,
              19.066602
            ],
            [
              72.673633,
              19.067969
            ],
            [
              72.664062,
              19.067969
            ],
            [
              72.662695,
              19.066602
            ],
            [
              72.664062,
              19.065234
            ],
            [
              72.662695,
              19.063867
            ],
            [
              72.662695,
              19.059766
            ],
            [
              72.655859,
              19.055664
            ]
          ]
        ]
      }
    },
    {
      "type": "Feature",
      "properties": {
        "spill_id": "sentinel_217",
        "confidence": 0.75
      },
      "geometry": {
        "type": "Polygon",
        "coordinates": [
          [
            [
              72.729688,
              19.067969
            ],
            [
              72.729688,
              19.065234
            ],
            [
              72.731055,
              19.065234
            ],
            [
              72.735156,
              19.059766
            ],
            [
              72.735156,
              19.055664
            ],
            [
              72.733789,
              19.054297
            ],
            [
              72.733789,
              19.050195
            ],
            [
              72.735156,
              19.048828
            ],
            [
              72.740625,
              19.048828
            ],
            [
              72.741992,
              19.050195
            ],
            [
              72.751562,
              19.050195
            ],
            [
              72.75293,
              19.048828
            ],
            [
              72.7625,
              19.048828
            ],
            [
              72.763867,
              19.050195
            ],
            [
              72.765234,
              19.048828
            ],
            [
              72.767969,
              19.050195
            ],
            [
              72.765234,
              19.057031
            ],
            [
              72.761133,
              19.061133
            ],
            [
              72.761133,
              19.063867
            ],
            [
              72.763867,
              19.065234
            ],
            [
              72.765234,
              19.067969
            ],
            [
              72.765234,
              19.070703
            ],
            [
              72.7625,
              19.074805
            ],
            [
              72.759766,
              19.074805
            ],
            [
              72.758398,
              19.076172
            ],
            [
              72.75293,
              19.076172
            ],
            [
              72.751562,
              19.077539
            ],
            [
              72.746094,
              19.077539
            ],
            [
              72.744727,
              19.076172
            ],
            [
              72.744727,
              19.067969
            ],
            [
              72.741992,
              19.065234
            ],
            [
              72.729688,
              19.067969
            ]
          ]
        ]
      }
    },
    {
      "type": "Feature",
      "properties": {
        "spill_id": "sentinel_217",
        "confidence": 0.75
      },
      "geometry": {
        "type": "Polygon",
        "coordinates": [
          [
            [
              72.650391,
              19.126758
            ],
            [
              72.655859,
              19.119922
            ],
            [
              72.655859,
              19.118555
            ],
            [
              72.662695,
              19.118555
            ],
            [
              72.673633,
              19.113086
            ],
            [
              72.679102,
              19.107617
            ],
            [
              72.683203,
              19.10625
            ],
            [
              72.685938,
              19.103516
            ],
            [
              72.688672,
              19.103516
            ],
            [
              72.690039,
              19.102148
            ],
            [
              72.702344,
              19.102148
            ],
            [
              72.705078,
              19.103516
            ],
            [
              72.703711,
              19.104883
            ],
            [
              72.703711,
              19.107617
            ],
            [
              72.692773,
              19.113086
            ],
            [
              72.688672,
              19.113086
            ],
            [
              72.687305,
              19.114453
            ],
            [
              72.681836,
              19.114453
            ],
            [
              72.676367,
              19.117188
            ],
            [
              72.673633,
              19.119922
            ],
            [
              72.672266,
              19.119922
            ],
            [
              72.664062,
              19.128125
            ],
            [
              72.661328,
              19.128125
            ],
            [
              72.659961,
              19.129492
            ],
            [
              72.654492,
              19.129492
            ],
            [
              72.650391,
              19.126758
            ]
          ]
        ]
      }
    },
    {
      "type": "Feature",
      "properties": {
        "spill_id": "sentinel_217",
        "confidence": 0.75
      },
      "geometry": {
        "type": "Polygon",
        "coordinates": [
          [
            [
              72.70918,
              19.141797
            ],
            [
              72.71875,
              19.129492
            ],
            [
              72.731055,
              19.121289
            ],
            [
              72.751562,
              19.117188
            ],
            [
              72.769336,
              19.09668
            ],
            [
              72.79668,
              19.089844
            ],
            [
              72.810352,
              19.074805
            ],
            [
              72.818555,
              19.070703
            ],
            [
              72.824023,
              19.070703
            ],
            [
              72.834961,
              19.078906
            ],
            [
              72.845898,
              19.078906
            ],
            [
              72.848633,
              19.081641
            ],
            [
              72.848633,
              19.087109
            ],
            [
              72.843164,
              19.09668
            ],
            [
              72.819922,
              19.107617
            ],
            [
              72.803516,
              19.122656
            ],
            [
              72.765234,
              19.137695
            ],
            [
              72.75293,
              19.15
            ],
            [
              72.713281,
              19.15
            ],
            [
              72.70918,
              19.141797
            ]
          ]
        ]
      }
    },
    {
      "type": "Feature",
      "properties": {
        "spill_id": "sentinel_217",
        "confidence": 0.75
      },
      "geometry": {
        "type": "Polygon",
        "coordinates": [
          [
            [
              72.661328,
              19.14043
            ],
            [
              72.66543,
              19.136328
            ],
            [
              72.670898,
              19.136328
            ],
            [
              72.672266,
              19.137695
            ],
            [
              72.673633,
              19.137695
            ],
            [
              72.675,
              19.139062
            ],
            [
              72.676367,
              19.139062
            ],
            [
              72.677734,
              19.14043
            ],
            [
              72.685938,
              19.14043
            ],
            [
              72.687305,
              19.141797
            ],
            [
              72.687305,
              19.143164
            ],
            [
              72.680469,
              19.15
            ],
            [
              72.669531,
              19.15
            ],
            [
              72.664062,
              19.144531
            ],
            [
              72.662695,
              19.144531
            ],
            [
              72.662695,
              19.143164
            ],
            [
              72.661328,
              19.141797
            ],
            [
              72.661328,
              19.14043
            ]
          ]
        ]
      }
    }
  ]
}