{
  "type": "FeatureCollection",
  "features": [
    {
      "type": "Feature",
      "properties": {
        "spill_id": "sentinel_160",
        "confidence": 0.77
      },
      "geometry": {
        "type": "Polygon",
        "coordinates": [
          [
            [
              72.501367,
              19.15
            ],
            [
              72.5,
              18.801367
            ],
            [
              72.632617,
              18.801367
            ],
            [
              72.643555,
              18.813672
            ],
            [
              72.654492,
              18.801367
            ],
            [
              72.844531,
              18.801367
            ],
            [
              72.848633,
              18.847852
            ],
            [
              72.828125,
              18.862891
            ],
            [
              72.848633,
              18.868359
            ],
            [
              72.848633,
              18.886133
            ],
            [
              72.787109,
              18.883398
            ],
            [
              72.774805,
              18.905273
            ],
            [
              72.729688,
              18.916211
            ],
            [
              72.710547,
              18.955859
            ],
            [
              72.7625,
              18.979102
            ],
            [
              72.766602,
              18.943555
            ],
            [
              72.793945,
              18.962695
            ],
            [
              72.848633,
              18.927148
            ],
            [
              72.848633,
              19.15
            ],
            [
              72.591602,
              19.15
            ],
            [
              72.586133,
              19.132227
            ],
            [
              72.55332,
              19.15
            ],
            [
              72.501367,
              19.15
            ]
          ]
        ]
      }
    }
  ]
}