{
  "type": "FeatureCollection",
  "features": [
    {
      "type": "Feature",
      "properties": {
        "spill_id": "sentinel_287",
        "confidence": 0.75
      },
      "geometry": {
        "type": "Polygon",
        "coordinates": [
          [
            [
              72.837695,
              18.808203
            ],
            [
              72.836328,
              18.80957
            ],
            [
              72.833594,
              18.80957
            ],
            [
              72.832227,
              18.808203
            ],
            [
              72.829492,
              18.808203
            ],
            [
              72.828125,
              18.806836
            ],
            [
              72.828125,
              18.802734
            ],
            [
              72.829492,
              18.801367
            ],
            [
              72.837695,
              18.801367
            ],
            [
              72.839062,
              18.802734
            ],
            [
              72.837695,
              18.804102
            ],
            [
              72.839062,
              18.805469
            ],
            [
              72.837695,
              18.806836
            ],
            [
              72.837695,
              18.808203
            ]
          ]
        ]
      }
    },
    {
      "type": "Feature",
      "properties": {
        "spill_id": "sentinel_287",
        "confidence": 0.75
      },
      "geometry": {
        "type": "Polygon",
        "coordinates": [
          [
            [
              72.612109,
              18.820508
            ],
            [
              72.610742,
              18.821875
            ],
            [
              72.609375,
              18.821875
            ],
            [
              72.608008,
              18.820508
            ],
            [
              72.603906,
              18.820508
            ],
            [
              72.599805,
              18.816406
            ],
            [
              72.599805,
              18.815039
            ],
            [
              72.601172,
              18.813672
            ],
            [
              72.608008,
              18.813672
            ],
            [
              72.612109,
              18.817773
            ],
            [
              72.612109,
              18.820508
            ]
          ]
        ]
      }
    },
    {
      "type": "Feature",
      "properties": {
        "spill_id": "sentinel_287",
        "confidence": 0.75
      },
      "geometry": {
        "type": "Polygon",
        "coordinates": [
          [
            [
              72.614844,
              18.846484
            ],
            [
              72.613477,
              18.835547
            ],
            [
              72.627148,
              18.823242
            ],
            [
              72.644922,
              18.816406
            ],
            [
              72.647656,
              18.812305
            ],
            [
              72.646289,
              18.80957
            ],
            [
              72.651758,
              18.801367
            ],
            [
              72.725586,
              18.802734
            ],
            [
              72.711914,
              18.819141
            ],
            [
              72.691406,
              18.820508
            ],
            [
              72.628516,
              18.854688
            ],
            [
              72.62168,
              18.846484
            ],
            [
              72.614844,
              18.846484
            ]
          ]
        ]
      }
    },
    {
      "type": "Feature",
      "properties": {
        "spill_id": "sentinel_287",
        "confidence": 0.75
      },
      "geometry": {
        "type": "Polygon",
        "coordinates": [
          [
            [
              72.644922,
              19.103516
            ],
            [
              72.643555,
              19.103516
            ],
            [
              72.642187,
              19.104883
            ],
            [
              72.639453,
              19.104883
            ],
            [
              72.638086,
              19.10625
            ],
            [
              72.635352,
              19.10625
            ],
            [
              72.633984,
              19.104883
            ],
            [
              72.63125,
              19.104883
            ],
            [
              72.629883,
              19.103516
            ],
            [
              72.628516,
              19.103516
            ],
            [
              72.628516,
              19.102148
            ],
            [
              72.627148,
              19.100781
            ],
            [
              72.627148,
              19.09668
            ],
            [
              72.628516,
              19.09668
            ],
            [
              72.629883,
              19.095312
            ],
            [
              72.635352,
              19.095312
            ],
            [
              72.636719,
              19.09668
            ],
            [
              72.638086,
              19.09668
            ],
            [
              72.64082,
              19.099414
            ],
            [
              72.642187,
              19.099414
            ],
            [
              72.643555,
              19.100781
            ],
            [
              72.643555,
              19.102148
            ],
            [
              72.644922,
              19.103516
            ]
          ]
        ]
      }
    }
  ]
}