{
  "type": "FeatureCollection",
  "features": [
    {
      "type": "Feature",
      "properties": {
        "spill_id": "sentinel_618",
        "confidence": 0.86
      },
      "geometry": {
        "type": "Polygon",
        "coordinates": [
          [
            [
              72.785742,
              18.994141
            ],
            [
              72.783008,
              18.994141
            ],
            [
              72.781641,
              18.995508
            ],
            [
              72.780273,
              18.994141
            ],
            [
              72.778906,
              18.995508
            ],
            [
              72.776172,
              18.995508
            ],
            [
              72.774805,
              18.994141
            ],
            [
              72.767969,
              18.991406
            ],
            [
              72.761133,
              18.98457
            ],
            [
              72.761133,
              18.983203
            ],
            [
              72.758398,
              18.980469
            ],
            [
              72.758398,
              18.975
            ],
            [
              72.759766,
              18.973633
            ],
            [
              72.761133,
              18.969531
            ],
            [
              72.765234,
              18.96543
            ],
            [
              72.766602,
              18.96543
            ],
            [
              72.770703,
              18.962695
            ],
            [
              72.77207,
              18.964062
            ],
            [
              72.773438,
              18.964062
            ],
            [
              72.773438,
              18.96543
            ],
            [
              72.774805,
              18.966797
            ],
            [
              72.777539,
              18.973633
            ],
            [
              72.780273,
              18.976367
            ],
            [
              72.781641,
              18.980469
            ],
            [
              72.785742,
              18.98457
            ],
            [
              72.787109,
              18.98457
            ],
            [
              72.789844,
              18.988672
            ],
            [
              72.788477,
              18.990039
            ],
            [
              72.788477,
              18.991406
            ],
            [
              72.785742,
              18.994141
            ]
          ]
        ]
      }
    },
    {
      "type": "Feature",
      "properties": {
        "spill_id": "sentinel_618",
        "confidence": 0.86
      },
      "geometry": {
        "type": "Polygon",
        "coordinates": [
          [
            [
              72.690039,
              19.07207
            ],
            [
              72.688672,
              19.073438
            ],
            [
              72.687305,
              19.073438
            ],
            [
              72.685938,
              19.074805
            ],
            [
              72.681836,
              19.074805
            ],
            [
              72.680469,
              19.073438
            ],
            [
              72.677734,
              19.073438
            ],
            [
              72.675,
              19.070703
            ],
            [
              72.675,
              19.065234
            ],
            [
              72.673633,
              19.063867
            ],
            [
              72.673633,
              19.061133
            ],
            [
              72.676367,
              19.061133
            ],
            [
              72.677734,
              19.059766
            ],
            [
              72.680469,
              19.0625
            ],
            [
              72.681836,
              19.0625
            ],
            [
              72.683203,
              19.063867
            ],
            [
              72.68457,
              19.063867
            ],
            [
              72.688672,
              19.067969
            ],
            [
              72.688672,
              19.069336
            ],
            [
              72.690039,
              19.070703
            ],
            [
              72.690039,
              19.07207
            ]
          ]
        ]
      }
    },
    {
      "type": "Feature",
      "properties": {
        "spill_id": "sentinel_618",
        "confidence": 0.86
      },
      "geometry": {
        "type": "Polygon",
        "coordinates": [
          [
            [
              72.848633,
              19.141797
            ],
            [
              72.847266,
              19.141797
            ],
            [
              72.845898,
              19.14043
            ],
            [
              72.84043,
              19.14043
            ],
            [
              72.839062,
              19.139062
            ],
            [
              72.837695,
              19.139062
            ],
            [
              72.829492,
              19.130859
            ],
            [
              72.829492,
              19.125391
            ],
            [
              72.828125,
              19.124023
            ],
            [
              72.828125,
              19.122656
            ],
            [
              72.829492,
              19.121289
            ],
            [
              72.829492,
              19.119922
            ],
            [
              72.833594,
              19.11582
            ],
            [
              72.834961,
              19.11582
            ],
            [
              72.837695,
              19.113086
            ],
            [
              72.848633,
              19.113086
            ],
            [
              72.848633,
              19.141797
            ]
          ]
        ]
      }
    },
    {
      "type": "Feature",
      "properties": {
        "spill_id": "sentinel_618",
        "confidence": 0.86
      },
      "geometry": {
        "type": "Polygon",
        "coordinates": [
          [
            [
              72.5,
              19.129492
            ],
            [
              72.5,
              18.802734
            ],
            [
              72.586133,
              18.841016
            ],
            [
              72.594336,
              18.816406
            ],
            [
              72.565625,
              18.801367
            ],
            [
              72.705078,
              18.801367
            ],
            [
              72.721484,
              18.819141
            ],
            [
              72.737891,
              18.808203
            ],
            [
              72.832227,
              18.957227
            ],
            [
              72.817187,
              18.962695
            ],
            [
              72.783008,
              18.932617
            ],
            [
              72.763867,
              18.884766
            ],
            [
              72.711914,
              18.830078
            ],
            [
              72.673633,
              18.825977
            ],
            [
              72.668164,
              18.841016
            ],
            [
              72.724219,
              18.888867
            ],
            [
              72.675,
              18.864258
            ],
            [
              72.647656,
              18.899805
            ],
            [
              72.673633,
              18.980469
            ],
            [
              72.658594,
              19.021484
            ],
            [
              72.576562,
              18.957227
            ],
            [
              72.664062,
              19.081641
            ],
            [
              72.670898,
              19.15
            ],
            [
              72.550586,
              19.15
            ],
            [
              72.516406,
              19.124023
            ],
            [
              72.5,
              19.129492
            ]
          ]
        ]
      }
    }
  ]
}