{
  "type": "FeatureCollection",
  "features": [
    {
      "type": "Feature",
      "properties": {
        "spill_id": "sentinel_388",
        "confidence": 0.85
      },
      "geometry": {
        "type": "Polygon",
        "coordinates": [
          [
            [
              72.603906,
              18.824609
            ],
            [
              72.602539,
              18.823242
            ],
            [
              72.601172,
              18.823242
            ],
            [
              72.601172,
              18.821875
            ],
            [
              72.599805,
              18.820508
            ],
            [
              72.599805,
              18.812305
            ],
            [
              72.602539,
              18.80957
            ],
            [
              72.609375,
              18.80957
            ],
            [
              72.610742,
              18.810938
            ],
            [
              72.612109,
              18.810938
            ],
            [
              72.612109,
              18.812305
            ],
            [
              72.614844,
              18.815039
            ],
            [
              72.614844,
              18.817773
            ],
            [
              72.616211,
              18.819141
            ],
            [
              72.616211,
              18.821875
            ],
            [
              72.613477,
              18.824609
            ],
            [
              72.603906,
              18.824609
            ]
          ]
        ]
      }
    },
    {
      "type": "Feature",
      "properties": {
        "spill_id": "sentinel_388",
        "confidence": 0.85
      },
      "geometry": {
        "type": "Polygon",
        "coordinates": [
          [
            [
              72.761133,
              19.085742
            ],
            [
              72.757031,
              19.080273
            ],
            [
              72.761133,
              19.047461
            ],
            [
              72.748828,
              19.00918
            ],
            [
              72.770703,
              18.995508
            ],
            [
              72.776172,
              18.976367
            ],
            [
              72.791211,
              18.962695
            ],
            [
              72.793945,
              18.94082
            ],
            [
              72.785742,
              18.928516
            ],
            [
              72.784375,
              18.888867
            ],
            [
              72.798047,
              18.827344
            ],
            [
              72.829492,
              18.801367
            ],
            [
              72.848633,
              18.801367
            ],
            [
              72.848633,
              18.816406
            ],
            [
              72.807617,
              18.847852
            ],
            [
              72.800781,
              18.860156
            ],
            [
              72.819922,
              18.925781
            ],
            [
              72.819922,
              18.944922
            ],
            [
              72.832227,
              18.973633
            ],
            [
              72.848633,
              18.98457
            ],
            [
              72.848633,
              19.043359
            ],
            [
              72.79668,
              19.02832
            ],
            [
              72.784375,
              19.031055
            ],
            [
              72.777539,
              19.044727
            ],
            [
              72.788477,
              19.063867
            ],
            [
              72.787109,
              19.073438
            ],
            [
              72.776172,
              19.085742
            ],
            [
              72.761133,
              19.085742
            ]
          ]
        ]
      }
    }
  ]
}