{
  "type": "FeatureCollection",
  "features": [
    {
      "type": "Feature",
      "properties": {
        "spill_id": "sentinel_829",
        "confidence": 0.88
      },
      "geometry": {
        "type": "Polygon",
        "coordinates": [
          [
            [
              72.5,
              18.938086
            ],
            [
              72.5,
              18.801367
            ],
            [
              72.633984,
              18.801367
            ],
            [
              72.64082,
              18.825977
            ],
            [
              72.661328,
              18.838281
            ],
            [
              72.687305,
              18.842383
            ],
            [
              72.702344,
              18.825977
            ],
            [
              72.726953,
              18.841016
            ],
            [
              72.707812,
              18.841016
            ],
            [
              72.698242,
              18.850586
            ],
            [
              72.679102,
              18.85332
            ],
            [
              72.673633,
              18.864258
            ],
            [
              72.655859,
              18.868359
            ],
            [
              72.635352,
              18.842383
            ],
            [
              72.613477,
              18.831445
            ],
            [
              72.594336,
              18.831445
            ],
            [
              72.592969,
              18.847852
            ],
            [
              72.633984,
              18.886133
            ],
            [
              72.653125,
              18.892969
            ],
            [
              72.655859,
              18.908008
            ],
            [
              72.642187,
              18.906641
            ],
            [
              72.63125,
              18.891602
            ],
            [
              72.603906,
              18.884766
            ],
            [
              72.590234,
              18.892969
            ],
            [
              72.564258,
              18.890234
            ],
            [
              72.557422,
              18.903906
            ],
            [
              72.564258,
              18.912109
            ],
            [
              72.551953,
              18.914844
            ],
            [
              72.528711,
              18.936719
            ],
            [
              72.513672,
              18.942188
            ],
            [
              72.5,
              18.938086
            ]
          ]
        ]
      }
    },
    {
      "type": "Feature",
      "properties": {
        "spill_id": "sentinel_829",
        "confidence": 0.88
      },
      "geometry": {
        "type": "Polygon",
        "coordinates": [
          [
            [
              72.629883,
              19.013281
            ],
            [
              72.628516,
              19.014648
            ],
            [
              72.62168,
              19.014648
            ],
            [
              72.620312,
              19.013281
            ],
            [
              72.613477,
              19.013281
            ],
            [
              72.610742,
              19.010547
            ],
            [
              72.609375,
              19.010547
            ],
            [
              72.609375,
              19.00918
            ],
            [
              72.602539,
              19.002344
            ],
            [
              72.601172,
              19.002344
            ],
            [
              72.601172,
              19.000977
            ],
            [
              72.599805,
              18.999609
            ],
            [
              72.599805,
              18.998242
            ],
            [
              72.601172,
              18.996875
            ],
            [
              72.601172,
              18.994141
            ],
            [
              72.602539,
              18.994141
            ],
            [
              72.603906,
              18.992773
            ],
            [
              72.608008,
              18.992773
            ],
            [
              72.612109,
              18.995508
            ],
            [
              72.612109,
              18.998242
            ],
            [
              72.614844,
              19.000977
            ],
            [
              72.614844,
              19.002344
            ],
            [
              72.616211,
              19.003711
            ],
            [
              72.623047,
              19.003711
            ],
            [
              72.624414,
              19.005078
            ],
            [
              72.628516,
              19.005078
            ],
            [
              72.628516,
              19.006445
            ],
            [
              72.629883,
              19.007812
            ],
            [
              72.628516,
              19.00918
            ],
            [
              72.629883,
              19.010547
            ],
            [
              72.629883,
              19.013281
            ]
          ]
        ]
      }
    },
    {
      "type": "Feature",
      "properties": {
        "spill_id": "sentinel_829",
        "confidence": 0.88
      },
      "geometry": {
        "type": "Polygon",
        "coordinates": [
          [
            [
              72.777539,
              19.058398
            ],
            [
              72.774805,
              19.055664
            ],
            [
              72.773438,
              19.055664
            ],
            [
              72.77207,
              19.054297
            ],
            [
              72.769336,
              19.054297
            ],
            [
              72.767969,
              19.05293
            ],
            [
              72.766602,
              19.05293
            ],
            [
              72.763867,
              19.050195
            ],
            [
              72.763867,
              19.046094
            ],
            [
              72.7625,
              19.044727
            ],
            [
              72.7625,
              19.041992
            ],
            [
              72.763867,
              19.040625
            ],
            [
              72.763867,
              19.039258
            ],
            [
              72.770703,
              19.039258
            ],
            [
              72.774805,
              19.043359
            ],
            [
              72.774805,
              19.046094
            ],
            [
              72.776172,
              19.047461
            ],
            [
              72.776172,
              19.051562
            ],
            [
              72.777539,
              19.05293
            ],
            [
              72.777539,
              19.055664
            ],
            [
              72.776172,
              19.057031
            ],
            [
              72.777539,
              19.058398
            ]
          ]
        ]
      }
    },
    {
      "type": "Feature",
      "properties": {
        "spill_id": "sentinel_829",
        "confidence": 0.88
      },
      "geometry": {
        "type": "Polygon",
        "coordinates": [
          [
            [
              72.576562,
              19.063867
            ],
            [
              72.572461,
              19.066602
            ],
            [
              72.564258,
              19.065234
            ],
            [
              72.557422,
              19.059766
            ],
            [
              72.556055,
              19.048828
            ],
            [
              72.55332,
              19.046094
            ],
            [
              72.546484,
              19.044727
            ],
            [
              72.53418,
              19.032422
            ],
            [
              72.525977,
              19.02832
            ],
            [
              72.513672,
              19.025586
            ],
            [
              72.510938,
              19.022852
            ],
            [
              72.512305,
              19.017383
            ],
            [
              72.517773,
              19.013281
            ],
            [
              72.521875,
              19.013281
            ],
            [
              72.541016,
              19.021484
            ],
            [
              72.545117,
              19.029687
            ],
            [
              72.554688,
              19.037891
            ],
            [
              72.556055,
              19.040625
            ],
            [
              72.554688,
              19.046094
            ],
            [
              72.556055,
              19.047461
            ],
            [
              72.561523,
              19.047461
            ],
            [
              72.57793,
              19.057031
            ],
            [
              72.576562,
              19.063867
            ]
          ]
        ]
      }
    },
    {
      "type": "Feature",
      "properties": {
        "spill_id": "sentinel_829",
        "confidence": 0.88
      },
      "geometry": {
        "type": "Polygon",
        "coordinates": [
          [
            [
              72.717383,
              19.067969
            ],
            [
              72.716016,
              19.067969
            ],
            [
              72.714648,
              19.066602
            ],
            [
              72.713281,
              19.066602
            ],
            [
              72.711914,
              19.065234
            ],
            [
              72.710547,
              19.065234
            ],
            [
              72.710547,
              19.059766
            ],
            [
              72.70918,
              19.058398
            ],
            [
              72.707812,
              19.058398
            ],
            [
              72.707812,
              19.054297
            ],
            [
              72.70918,
              19.054297
            ],
            [
              72.70918,
              19.057031
            ],
            [
              72.710547,
              19.058398
            ],
            [
              72.714648,
              19.058398
            ],
            [
              72.716016,
              19.059766
            ],
            [
              72.717383,
              19.059766
            ],
            [
              72.71875,
              19.061133
            ],
            [
              72.71875,
              19.066602
            ],
            [
              72.717383,
              19.067969
            ]
          ]
        ]
      }
    },
    {
      "type": "Feature",
      "properties": {
        "spill_id": "sentinel_829",
        "confidence": 0.88
      },
      "geometry": {
        "type": "Polygon",
        "coordinates": [
          [
            [
              72.638086,
              19.0625
            ],
            [
              72.636719,
              19.0625
            ],
            [
              72.635352,
              19.063867
            ],
            [
              72.628516,
              19.063867
            ],
            [
              72.625781,
              19.066602
            ],
            [
              72.623047,
              19.066602
            ],
            [
              72.62168,
              19.067969
            ],
            [
              72.620312,
              19.066602
            ],
            [
              72.617578,
              19.066602
            ],
            [
              72.616211,
              19.065234
            ],
            [
              72.616211,
              19.063867
            ],
            [
              72.614844,
              19.0625
            ],
            [
              72.614844,
              19.055664
            ],
            [
              72.613477,
              19.054297
            ],
            [
              72.613477,
              19.05293
            ],
            [
              72.616211,
              19.050195
            ],
            [
              72.617578,
              19.051562
            ],
            [
              72.618945,
              19.051562
            ],
            [
              72.620312,
              19.05293
            ],
            [
              72.623047,
              19.05293
            ],
            [
              72.624414,
              19.054297
            ],
            [
              72.629883,
              19.054297
            ],
            [
              72.63125,
              19.055664
            ],
            [
              72.633984,
              19.055664
            ],
            [
              72.638086,
              19.059766
            ],
            [
              72.638086,
              19.0625
            ]
          ]
        ]
      }
    }
  ]
}