{
  "type": "FeatureCollection",
  "features": [
    {
      "type": "Feature",
      "properties": {
        "spill_id": "sentinel_384",
        "confidence": 0.88
      },
      "geometry": {
        "type": "Polygon",
        "coordinates": [
          [
            [
              72.5,
              18.876562
            ],
            [
              72.5,
              18.801367
            ],
            [
              72.848633,
              18.801367
            ],
            [
              72.848633,
              18.854688
            ],
            [
              72.829492,
              18.864258
            ],
            [
              72.819922,
              18.898438
            ],
            [
              72.808984,
              18.905273
            ],
            [
              72.777539,
              18.891602
            ],
            [
              72.757031,
              18.906641
            ],
            [
              72.741992,
              18.908008
            ],
            [
              72.677734,
              18.875195
            ],
            [
              72.647656,
              18.883398
            ],
            [
              72.646289,
              18.901172
            ],
            [
              72.588867,
              18.909375
            ],
            [
              72.586133,
              18.902539
            ],
            [
              72.602539,
              18.882031
            ],
            [
              72.591602,
              18.864258
            ],
            [
              72.566992,
              18.875195
            ],
            [
              72.5,
              18.876562
            ]
          ]
        ]
      }
    },
    {
      "type": "Feature",
      "properties": {
        "spill_id": "sentinel_384",
        "confidence": 0.88
      },
      "geometry": {
        "type": "Polygon",
        "coordinates": [
          [
            [
              72.598438,
              19.002344
            ],
            [
              72.59707,
              18.999609
            ],
            [
              72.598438,
              18.996875
            ],
            [
              72.616211,
              18.979102
            ],
            [
              72.625781,
              18.976367
            ],
            [
              72.64082,
              18.976367
            ],
            [
              72.642187,
              18.975
            ],
            [
              72.646289,
              18.975
            ],
            [
              72.659961,
              18.962695
            ],
            [
              72.664062,
              18.961328
            ],
            [
              72.670898,
              18.961328
            ],
            [
              72.672266,
              18.962695
            ],
            [
              72.672266,
              18.966797
            ],
            [
              72.669531,
              18.970898
            ],
            [
              72.661328,
              18.975
            ],
            [
              72.655859,
              18.980469
            ],
            [
              72.647656,
              18.983203
            ],
            [
              72.64082,
              18.991406
            ],
            [
              72.633984,
              18.994141
            ],
            [
              72.628516,
              19.002344
            ],
            [
              72.616211,
              19.003711
            ],
            [
              72.614844,
              19.005078
            ],
            [
              72.602539,
              19.005078
            ],
            [
              72.598438,
              19.002344
            ]
          ]
        ]
      }
    }
  ]
}