{
  "type": "FeatureCollection",
  "features": [
    {
      "type": "Feature",
      "properties": {
        "spill_id": "sentinel_784",
        "confidence": 0.83
      },
      "geometry": {
        "type": "Polygon",
        "coordinates": [
          [
            [
              72.685938,
              18.835547
            ],
            [
              72.68457,
              18.83418
            ],
            [
              72.677734,
              18.83418
            ],
            [
              72.676367,
              18.832812
            ],
            [
              72.673633,
              18.832812
            ],
            [
              72.669531,
              18.828711
            ],
            [
              72.668164,
              18.828711
            ],
            [
              72.653125,
              18.813672
            ],
            [
              72.653125,
              18.80957
            ],
            [
              72.651758,
              18.808203
            ],
            [
              72.651758,
              18.806836
            ],
            [
              72.653125,
              18.805469
            ],
            [
              72.653125,
              18.804102
            ],
            [
              72.655859,
              18.801367
            ],
            [
              72.661328,
              18.801367
            ],
            [
              72.664062,
              18.804102
            ],
            [
              72.66543,
              18.804102
            ],
            [
              72.668164,
              18.806836
            ],
            [
              72.669531,
              18.806836
            ],
            [
              72.670898,
              18.808203
            ],
            [
              72.670898,
              18.80957
            ],
            [
              72.672266,
              18.810938
            ],
            [
              72.672266,
              18.813672
            ],
            [
              72.673633,
              18.815039
            ],
            [
              72.675,
              18.819141
            ],
            [
              72.68457,
              18.828711
            ],
            [
              72.68457,
              18.830078
            ],
            [
              72.685938,
              18.831445
            ],
            [
              72.685938,
              18.835547
            ]
          ]
        ]
      }
    },
    {
      "type": "Feature",
      "properties": {
        "spill_id": "sentinel_784",
        "confidence": 0.83
      },
      "geometry": {
        "type": "Polygon",
        "coordinates": [
          [
            [
              72.848633,
              18.899805
            ],
            [
              72.845898,
              18.899805
            ],
            [
              72.844531,
              18.898438
            ],
            [
              72.841797,
              18.898438
            ],
            [
              72.84043,
              18.89707
            ],
            [
              72.839062,
              18.89707
            ],
            [
              72.837695,
              18.895703
            ],
            [
              72.837695,
              18.894336
            ],
            [
              72.834961,
              18.891602
            ],
            [
              72.834961,
              18.884766
            ],
            [
              72.836328,
              18.883398
            ],
            [
              72.837695,
              18.883398
            ],
            [
              72.839062,
              18.882031
            ],
            [
              72.843164,
              18.882031
            ],
            [
              72.844531,
              18.880664
            ],
            [
              72.847266,
              18.880664
            ],
            [
              72.848633,
              18.882031
            ],
            [
              72.848633,
              18.899805
            ]
          ]
        ]
      }
    },
    {
      "type": "Feature",
      "properties": {
        "spill_id": "sentinel_784",
        "confidence": 0.83
      },
      "geometry": {
        "type": "Polygon",
        "coordinates": [
          [
            [
              72.62168,
              18.913477
            ],
            [
              72.610742,
              18.910742
            ],
            [
              72.606641,
              18.906641
            ],
            [
              72.602539,
              18.883398
            ],
            [
              72.590234,
              18.858789
            ],
            [
              72.586133,
              18.84375
            ],
            [
              72.576562,
              18.832812
            ],
            [
              72.566992,
              18.816406
            ],
            [
              72.565625,
              18.808203
            ],
            [
              72.568359,
              18.801367
            ],
            [
              72.590234,
              18.801367
            ],
            [
              72.599805,
              18.812305
            ],
            [
              72.602539,
              18.827344
            ],
            [
              72.625781,
              18.85332
            ],
            [
              72.63125,
              18.865625
            ],
            [
              72.632617,
              18.882031
            ],
            [
              72.64082,
              18.888867
            ],
            [
              72.64082,
              18.89707
            ],
            [
              72.628516,
              18.901172
            ],
            [
              72.62168,
              18.913477
            ]
          ]
        ]
      }
    },
    {
      "type": "Feature",
      "properties": {
        "spill_id": "sentinel_784",
        "confidence": 0.83
      },
      "geometry": {
        "type": "Polygon",
        "coordinates": [
          [
            [
              72.539648,
              19.039258
            ],
            [
              72.532812,
              19.039258
            ],
            [
              72.530078,
              19.036523
            ],
            [
              72.528711,
              19.036523
            ],
            [
              72.527344,
              19.035156
            ],
            [
              72.527344,
              19.032422
            ],
            [
              72.525977,
              19.031055
            ],
            [
              72.525977,
              19.029687
            ],
            [
              72.524609,
              19.02832
            ],
            [
              72.521875,
              19.02832
            ],
            [
              72.521875,
              19.026953
            ],
            [
              72.524609,
              19.024219
            ],
            [
              72.525977,
              19.024219
            ],
            [
              72.527344,
              19.022852
            ],
            [
              72.530078,
              19.022852
            ],
            [
              72.535547,
              19.02832
            ],
            [
              72.535547,
              19.029687
            ],
            [
              72.538281,
              19.032422
            ],
            [
              72.538281,
              19.033789
            ],
            [
              72.541016,
              19.036523
            ],
            [
              72.541016,
              19.037891
            ],
            [
              72.539648,
              19.039258
            ]
          ]
        ]
      }
    },
    {
      "type": "Feature",
      "properties": {
        "spill_id": "sentinel_784",
        "confidence": 0.83
      },
      "geometry": {
        "type": "Polygon",
        "coordinates": [
          [
            [
              72.62168,
              19.114453
            ],
            [
              72.616211,
              19.11582
            ],
            [
              72.605273,
              19.113086
            ],
            [
              72.546484,
              19.108984
            ],
            [
              72.532812,
              19.103516
            ],
            [
              72.515039,
              19.100781
            ],
            [
              72.5,
              19.103516
            ],
            [
              72.5,
              19.074805
            ],
            [
              72.521875,
              19.074805
            ],
            [
              72.530078,
              19.078906
            ],
            [
              72.54375,
              19.091211
            ],
            [
              72.561523,
              19.088477
            ],
            [
              72.575195,
              19.089844
            ],
            [
              72.586133,
              19.093945
            ],
            [
              72.602539,
              19.093945
            ],
            [
              72.617578,
              19.100781
            ],
            [
              72.62168,
              19.114453
            ]
          ]
        ]
      }
    },
    {
      "type": "Feature",
      "properties": {
        "spill_id": "sentinel_784",
        "confidence": 0.83
      },
      "geometry": {
        "type": "Polygon",
        "coordinates": [
          [
            [
              72.848633,
              19.15
            ],
            [
              72.829492,
              19.15
            ],
            [
              72.826758,
              19.124023
            ],
            [
              72.822656,
              19.139062
            ],
            [
              72.763867,
              19.137695
            ],
            [
              72.758398,
              19.15
            ],
            [
              72.71875,
              19.15
            ],
            [
              72.672266,
              19.107617
            ],
            [
              72.703711,
              19.119922
            ],
            [
              72.692773,
              19.095312
            ],
            [
              72.661328,
              19.102148
            ],
            [
              72.638086,
              19.087109
            ],
            [
              72.617578,
              19.089844
            ],
            [
              72.575195,
              19.040625
            ],
            [
              72.566992,
              19.010547
            ],
            [
              72.606641,
              19.041992
            ],
            [
              72.655859,
              19.057031
            ],
            [
              72.741992,
              19.047461
            ],
            [
              72.725586,
              19.031055
            ],
            [
              72.662695,
              19.037891
            ],
            [
              72.614844,
              19.014648
            ],
            [
              72.59707,
              18.985938
            ],
            [
              72.59707,
              18.964062
            ],
            [
              72.608008,
              18.958594
            ],
            [
              72.677734,
              19.011914
            ],
            [
              72.773438,
              19.022852
            ],
            [
              72.802148,
              18.992773
            ],
            [
              72.817187,
              19.00918
            ],
            [
              72.848633,
              19.005078
            ],
            [
              72.848633,
              19.15
            ]
          ]
        ]
      }
    },
    {
      "type": "Feature",
      "properties": {
        "spill_id": "sentinel_784",
        "confidence": 0.83
      },
      "geometry": {
        "type": "Polygon",
        "coordinates": [
          [
            [
              72.588867,
              19.15
            ],
            [
              72.590234,
              19.15
            ],
            [
              72.59707,
              19.143164
            ],
            [
              72.59707,
              19.141797
            ],
            [
              72.599805,
              19.137695
            ],
            [
              72.598438,
              19.133594
            ],
            [
              72.599805,
              19.132227
            ],
            [
              72.602539,
              19.132227
            ],
            [
              72.603906,
              19.130859
            ],
            [
              72.605273,
              19.132227
            ],
            [
              72.610742,
              19.132227
            ],
            [
              72.612109,
              19.133594
            ],
            [
              72.614844,
              19.133594
            ],
            [
              72.616211,
              19.134961
            ],
            [
              72.618945,
              19.134961
            ],
            [
              72.62168,
              19.137695
            ],
            [
              72.623047,
              19.137695
            ],
            [
              72.623047,
              19.139062
            ],
            [
              72.628516,
              19.144531
            ],
            [
              72.628516,
              19.148633
            ],
            [
              72.629883,
              19.15
            ],
            [
              72.588867,
              19.15
            ]
          ]
        ]
      }
    }
  ]
}