{
  "type": "FeatureCollection",
  "features": [
    {
      "type": "Feature",
      "properties": {
        "spill_id": "sentinel_475",
        "confidence": 0.8
      },
      "geometry": {
        "type": "Polygon",
        "coordinates": [
          [
            [
              72.5,
              18.823242
            ],
            [
              72.5,
              18.801367
            ],
            [
              72.568359,
              18.802734
            ],
            [
              72.586133,
              18.810938
            ],
            [
              72.595703,
              18.810938
            ],
            [
              72.608008,
              18.801367
            ],
            [
              72.7625,
              18.801367
            ],
            [
              72.750195,
              18.812305
            ],
            [
              72.732422,
              18.817773
            ],
            [
              72.675,
              18.816406
            ],
            [
              72.613477,
              18.835547
            ],
            [
              72.595703,
              18.836914
            ],
            [
              72.557422,
              18.830078
            ],
            [
              72.527344,
              18.835547
            ],
            [
              72.510938,
              18.824609
            ],
            [
              72.5,
              18.823242
            ]
          ]
        ]
      }
    },
    {
      "type": "Feature",
      "properties": {
        "spill_id": "sentinel_475",
        "confidence": 0.8
      },
      "geometry": {
        "type": "Polygon",
        "coordinates": [
          [
            [
              72.848633,
              19.017383
            ],
            [
              72.84043,
              19.017383
            ],
            [
              72.839062,
              19.016016
            ],
            [
              72.837695,
              19.016016
            ],
            [
              72.834961,
              19.013281
            ],
            [
              72.834961,
              19.011914
            ],
            [
              72.832227,
              19.00918
            ],
            [
              72.832227,
              19.007812
            ],
            [
              72.830859,
              19.006445
            ],
            [
              72.830859,
              19.005078
            ],
            [
              72.829492,
              19.003711
            ],
            [
              72.829492,
              18.999609
            ],
            [
              72.830859,
              18.998242
            ],
            [
              72.830859,
              18.996875
            ],
            [
              72.834961,
              18.992773
            ],
            [
              72.84043,
              18.992773
            ],
            [
              72.841797,
              18.994141
            ],
            [
              72.844531,
              18.994141
            ],
            [
              72.848633,
              18.998242
            ],
            [
              72.848633,
              19.017383
            ]
          ]
        ]
      }
    },
    {
      "type": "Feature",
      "properties": {
        "spill_id": "sentinel_475",
        "confidence": 0.8
      },
      "geometry": {
        "type": "Polygon",
        "coordinates": [
          [
            [
              72.659961,
              19.066602
            ],
            [
              72.664062,
              19.058398
            ],
            [
              72.657227,
              19.050195
            ],
            [
              72.661328,
              19.041992
            ],
            [
              72.666797,
              19.037891
            ],
            [
              72.669531,
              19.02832
            ],
            [
              72.688672,
              19.016016
            ],
            [
              72.700977,
              19.017383
            ],
            [
              72.711914,
              19.007812
            ],
            [
              72.724219,
              19.005078
            ],
            [
              72.72832,
              19.011914
            ],
            [
              72.722852,
              19.017383
            ],
            [
              72.722852,
              19.021484
            ],
            [
              72.731055,
              19.039258
            ],
            [
              72.72832,
              19.054297
            ],
            [
              72.714648,
              19.0625
            ],
            [
              72.702344,
              19.061133
            ],
            [
              72.699609,
              19.057031
            ],
            [
              72.700977,
              19.047461
            ],
            [
              72.706445,
              19.040625
            ],
            [
              72.699609,
              19.031055
            ],
            [
              72.695508,
              19.031055
            ],
            [
              72.672266,
              19.043359
            ],
            [
              72.670898,
              19.055664
            ],
            [
              72.675,
              19.059766
            ],
            [
              72.676367,
              19.069336
            ],
            [
              72.669531,
              19.074805
            ],
            [
              72.659961,
              19.066602
            ]
          ]
        ]
      }
    },
    {
      "type": "Feature",
      "properties": {
        "spill_id": "sentinel_475",
        "confidence": 0.8
      },
      "geometry": {
        "type": "Polygon",
        "coordinates": [
          [
            [
              72.650391,
              19.14043
            ],
            [
              72.649023,
              19.133594
            ],
            [
              72.653125,
              19.125391
            ],
            [
              72.662695,
              19.117188
            ],
            [
              72.662695,
              19.087109
            ],
            [
              72.666797,
              19.080273
            ],
            [
              72.670898,
              19.078906
            ],
            [
              72.676367,
              19.081641
            ],
            [
              72.691406,
              19.095312
            ],
            [
              72.699609,
              19.095312
            ],
            [
              72.71875,
              19.080273
            ],
            [
              72.724219,
              19.080273
            ],
            [
              72.740625,
              19.089844
            ],
            [
              72.740625,
              19.099414
            ],
            [
              72.700977,
              19.113086
            ],
            [
              72.685938,
              19.126758
            ],
            [
              72.677734,
              19.137695
            ],
            [
              72.661328,
              19.143164
            ],
            [
              72.654492,
              19.143164
            ],
            [
              72.650391,
              19.14043
            ]
          ]
        ]
      }
    },
    {
      "type": "Feature",
      "properties": {
        "spill_id": "sentinel_475",
        "confidence": 0.8
      },
      "geometry": {
        "type": "Polygon",
        "coordinates": [
          [
            [
              72.789844,
              19.15
            ],
            [
              72.791211,
              19.141797
            ],
            [
              72.799414,
              19.133594
            ],
            [
              72.799414,
              19.124023
            ],
            [
              72.800781,
              19.122656
            ],
            [
              72.799414,
              19.121289
            ],
            [
              72.802148,
              19.11582
            ],
            [
              72.802148,
              19.092578
            ],
            [
              72.808984,
              19.076172
            ],
            [
              72.808984,
              19.070703
            ],
            [
              72.81582,
              19.063867
            ],
            [
              72.821289,
              19.063867
            ],
            [
              72.826758,
              19.066602
            ],
            [
              72.830859,
              19.073438
            ],
            [
              72.830859,
              19.084375
            ],
            [
              72.826758,
              19.095312
            ],
            [
              72.826758,
              19.102148
            ],
            [
              72.822656,
              19.10625
            ],
            [
              72.813086,
              19.128125
            ],
            [
              72.814453,
              19.144531
            ],
            [
              72.810352,
              19.15
            ],
            [
              72.789844,
              19.15
            ]
          ]
        ]
      }
    },
    {
      "type": "Feature",
      "properties": {
        "spill_id": "sentinel_475",
        "confidence": 0.8
      },
      "geometry": {
        "type": "Polygon",
        "coordinates": [
          [
            [
              72.5,
              19.113086
            ],
            [
              72.502734,
              19.092578
            ],
            [
              72.571094,
              19.089844
            ],
            [
              72.588867,
              19.083008
            ],
            [
              72.594336,
              19.076172
            ],
            [
              72.583398,
              19.054297
            ],
            [
              72.588867,
              19.046094
            ],
            [
              72.601172,
              19.041992
            ],
            [
              72.623047,
              19.043359
            ],
            [
              72.639453,
              19.054297
            ],
            [
              72.623047,
              19.067969
            ],
            [
              72.616211,
              19.081641
            ],
            [
              72.627148,
              19.102148
            ],
            [
              72.627148,
              19.110352
            ],
            [
              72.606641,
              19.124023
            ],
            [
              72.62168,
              19.136328
            ],
            [
              72.609375,
              19.15
            ],
            [
              72.558789,
              19.147266
            ],
            [
              72.530078,
              19.15
            ],
            [
              72.525977,
              19.139062
            ],
            [
              72.536914,
              19.126758
            ],
            [
              72.536914,
              19.118555
            ],
            [
              72.527344,
              19.108984
            ],
            [
              72.5,
              19.113086
            ]
          ]
        ]
      }
    }
  ]
}