{
  "type": "FeatureCollection",
  "features": [
    {
      "type": "Feature",
      "properties": {
        "spill_id": "sentinel_74",
        "confidence": 0.87
      },
      "geometry": {
        "type": "Polygon",
        "coordinates": [
          [
            [
              72.5,
              18.851953
            ],
            [
              72.5,
              18.835547
            ],
            [
              72.505469,
              18.831445
            ],
            [
              72.508203,
              18.824609
            ],
            [
              72.510938,
              18.821875
            ],
            [
              72.517773,
              18.819141
            ],
            [
              72.528711,
              18.819141
            ],
            [
              72.539648,
              18.805469
            ],
            [
              72.551953,
              18.805469
            ],
            [
              72.557422,
              18.80957
            ],
            [
              72.558789,
              18.812305
            ],
            [
              72.557422,
              18.819141
            ],
            [
              72.55332,
              18.824609
            ],
            [
              72.550586,
              18.824609
            ],
            [
              72.546484,
              18.827344
            ],
            [
              72.528711,
              18.827344
            ],
            [
              72.521875,
              18.832812
            ],
            [
              72.517773,
              18.83418
            ],
            [
              72.510938,
              18.841016
            ],
            [
              72.510938,
              18.845117
            ],
            [
              72.506836,
              18.850586
            ],
            [
              72.501367,
              18.850586
            ],
            [
              72.5,
              18.851953
            ]
          ]
        ]
      }
    },
    {
      "type": "Feature",
      "properties": {
        "spill_id": "sentinel_74",
        "confidence": 0.87
      },
      "geometry": {
        "type": "Polygon",
        "coordinates": [
          [
            [
              72.726953,
              18.861523
            ],
            [
              72.722852,
              18.857422
            ],
            [
              72.721484,
              18.857422
            ],
            [
              72.720117,
              18.856055
            ],
            [
              72.720117,
              18.850586
            ],
            [
              72.721484,
              18.849219
            ],
            [
              72.721484,
              18.845117
            ],
            [
              72.722852,
              18.84375
            ],
            [
              72.722852,
              18.841016
            ],
            [
              72.725586,
              18.836914
            ],
            [
              72.725586,
              18.83418
            ],
            [
              72.729688,
              18.827344
            ],
            [
              72.729688,
              18.824609
            ],
            [
              72.732422,
              18.821875
            ],
            [
              72.736523,
              18.821875
            ],
            [
              72.740625,
              18.825977
            ],
            [
              72.740625,
              18.832812
            ],
            [
              72.739258,
              18.83418
            ],
            [
              72.739258,
              18.838281
            ],
            [
              72.737891,
              18.839648
            ],
            [
              72.737891,
              18.84375
            ],
            [
              72.736523,
              18.845117
            ],
            [
              72.736523,
              18.847852
            ],
            [
              72.733789,
              18.851953
            ],
            [
              72.733789,
              18.856055
            ],
            [
              72.732422,
              18.857422
            ],
            [
              72.732422,
              18.858789
            ],
            [
              72.729688,
              18.861523
            ],
            [
              72.726953,
              18.861523
            ]
          ]
        ]
      }
    },
    {
      "type": "Feature",
      "properties": {
        "spill_id": "sentinel_74",
        "confidence": 0.87
      },
      "geometry": {
        "type": "Polygon",
        "coordinates": [
          [
            [
              72.780273,
              18.866992
            ],
            [
              72.778906,
              18.866992
            ],
            [
              72.777539,
              18.868359
            ],
            [
              72.77207,
              18.868359
            ],
            [
              72.770703,
              18.866992
            ],
            [
              72.769336,
              18.866992
            ],
            [
              72.766602,
              18.864258
            ],
            [
              72.766602,
              18.862891
            ],
            [
              72.765234,
              18.861523
            ],
            [
              72.765234,
              18.858789
            ],
            [
              72.763867,
              18.857422
            ],
            [
              72.763867,
              18.851953
            ],
            [
              72.766602,
              18.849219
            ],
            [
              72.767969,
              18.849219
            ],
            [
              72.769336,
              18.850586
            ],
            [
              72.770703,
              18.850586
            ],
            [
              72.776172,
              18.856055
            ],
            [
              72.777539,
              18.856055
            ],
            [
              72.778906,
              18.857422
            ],
            [
              72.780273,
              18.857422
            ],
            [
              72.783008,
              18.860156
            ],
            [
              72.783008,
              18.864258
            ],
            [
              72.780273,
              18.866992
            ]
          ]
        ]
      }
    },
    {
      "type": "Feature",
      "properties": {
        "spill_id": "sentinel_74",
        "confidence": 0.87
      },
      "geometry": {
        "type": "Polygon",
        "coordinates": [
          [
            [
              72.639453,
              19.011914
            ],
            [
              72.633984,
              18.991406
            ],
            [
              72.649023,
              18.980469
            ],
            [
              72.66543,
              18.939453
            ],
            [
              72.66543,
              18.929883
            ],
            [
              72.690039,
              18.892969
            ],
            [
              72.707812,
              18.894336
            ],
            [
              72.711914,
              18.910742
            ],
            [
              72.720117,
              18.923047
            ],
            [
              72.725586,
              18.920312
            ],
            [
              72.729688,
              18.910742
            ],
            [
              72.744727,
              18.902539
            ],
            [
              72.761133,
              18.918945
            ],
            [
              72.7625,
              18.949023
            ],
            [
              72.759766,
              18.951758
            ],
            [
              72.75293,
              18.942188
            ],
            [
              72.737891,
              18.933984
            ],
            [
              72.726953,
              18.933984
            ],
            [
              72.720117,
              18.950391
            ],
            [
              72.702344,
              18.947656
            ],
            [
              72.688672,
              18.939453
            ],
            [
              72.676367,
              18.947656
            ],
            [
              72.677734,
              18.987305
            ],
            [
              72.661328,
              18.995508
            ],
            [
              72.651758,
              19.013281
            ],
            [
              72.639453,
              19.011914
            ]
          ]
        ]
      }
    },
    {
      "type": "Feature",
      "properties": {
        "spill_id": "sentinel_74",
        "confidence": 0.87
      },
      "geometry": {
        "type": "Polygon",
        "coordinates": [
          [
            [
              72.750195,
              19.066602
            ],
            [
              72.748828,
              19.067969
            ],
            [
              72.737891,
              19.067969
            ],
            [
              72.736523,
              19.066602
            ],
            [
              72.729688,
              19.063867
            ],
            [
              72.729688,
              19.0625
            ],
            [
              72.72832,
              19.061133
            ],
            [
              72.725586,
              19.054297
            ],
            [
              72.71875,
              19.047461
            ],
            [
              72.71875,
              19.039258
            ],
            [
              72.722852,
              19.037891
            ],
            [
              72.724219,
              19.039258
            ],
            [
              72.725586,
              19.039258
            ],
            [
              72.72832,
              19.041992
            ],
            [
              72.729688,
              19.041992
            ],
            [
              72.733789,
              19.037891
            ],
            [
              72.735156,
              19.039258
            ],
            [
              72.736523,
              19.039258
            ],
            [
              72.736523,
              19.040625
            ],
            [
              72.739258,
              19.043359
            ],
            [
              72.739258,
              19.046094
            ],
            [
              72.741992,
              19.050195
            ],
            [
              72.741992,
              19.05293
            ],
            [
              72.748828,
              19.059766
            ],
            [
              72.748828,
              19.061133
            ],
            [
              72.750195,
              19.0625
            ],
            [
              72.750195,
              19.066602
            ]
          ]
        ]
      }
    },
    {
      "type": "Feature",
      "properties": {
        "spill_id": "sentinel_74",
        "confidence": 0.87
      },
      "geometry": {
        "type": "Polygon",
        "coordinates": [
          [
            [
              72.716016,
              19.136328
            ],
            [
              72.716016,
              19.128125
            ],
            [
              72.721484,
              19.122656
            ],
            [
              72.740625,
              19.118555
            ],
            [
              72.744727,
              19.104883
            ],
            [
              72.755664,
              19.092578
            ],
            [
              72.766602,
              19.087109
            ],
            [
              72.784375,
              19.088477
            ],
            [
              72.785742,
              19.084375
            ],
            [
              72.781641,
              19.078906
            ],
            [
              72.784375,
              19.069336
            ],
            [
              72.793945,
              19.07207
            ],
            [
              72.80625,
              19.066602
            ],
            [
              72.822656,
              19.066602
            ],
            [
              72.848633,
              19.092578
            ],
            [
              72.848633,
              19.108984
            ],
            [
              72.84043,
              19.111719
            ],
            [
              72.825391,
              19.100781
            ],
            [
              72.818555,
              19.081641
            ],
            [
              72.811719,
              19.080273
            ],
            [
              72.798047,
              19.085742
            ],
            [
              72.808984,
              19.103516
            ],
            [
              72.807617,
              19.119922
            ],
            [
              72.817187,
              19.136328
            ],
            [
              72.813086,
              19.15
            ],
            [
              72.783008,
              19.15
            ],
            [
              72.766602,
              19.139062
            ],
            [
              72.716016,
              19.136328
            ]
          ]
        ]
      }
    },
    {
      "type": "Feature",
      "properties": {
        "spill_id": "sentinel_74",
        "confidence": 0.87
      },
      "geometry": {
        "type": "Polygon",
        "coordinates": [
          [
            [
              72.62168,
              19.147266
            ],
            [
              72.624414,
              19.143164
            ],
            [
              72.625781,
              19.143164
            ],
            [
              72.632617,
              19.137695
            ],
            [
              72.635352,
              19.137695
            ],
            [
              72.636719,
              19.136328
            ],
            [
              72.644922,
              19.136328
            ],
            [
              72.646289,
              19.137695
            ],
            [
              72.651758,
              19.137695
            ],
            [
              72.653125,
              19.139062
            ],
            [
              72.659961,
              19.139062
            ],
            [
              72.661328,
              19.14043
            ],
            [
              72.662695,
              19.14043
            ],
            [
              72.666797,
              19.144531
            ],
            [
              72.666797,
              19.148633
            ],
            [
              72.668164,
              19.15
            ],
            [
              72.62168,
              19.15
            ],
            [
              72.62168,
              19.147266
            ]
          ]
        ]
      }
    },
    {
      "type": "Feature",
      "properties": {
        "spill_id": "sentinel_74",
        "confidence": 0.87
      },
      "geometry": {
        "type": "Polygon",
        "coordinates": [
          [
            [
              72.5,
              19.15
            ],
            [
              72.5,
              19.114453
            ],
            [
              72.517773,
              19.111719
            ],
            [
              72.569727,
              19.073438
            ],
            [
              72.612109,
              19.02832
            ],
            [
              72.639453,
              19.029687
            ],
            [
              72.647656,
              19.050195
            ],
            [
              72.628516,
              19.066602
            ],
            [
              72.591602,
              19.084375
            ],
            [
              72.59707,
              19.095312
            ],
            [
              72.591602,
              19.108984
            ],
            [
              72.586133,
              19.108984
            ],
            [
              72.580664,
              19.100781
            ],
            [
              72.573828,
              19.107617
            ],
            [
              72.573828,
              19.118555
            ],
            [
              72.558789,
              19.128125
            ],
            [
              72.554688,
              19.125391
            ],
            [
              72.554688,
              19.117188
            ],
            [
              72.549219,
              19.114453
            ],
            [
              72.546484,
              19.121289
            ],
            [
              72.549219,
              19.137695
            ],
            [
              72.531445,
              19.139062
            ],
            [
              72.524609,
              19.15
            ],
            [
              72.5,
              19.15
            ]
          ]
        ]
      }
    }
  ]
}