{
  "type": "FeatureCollection",
  "features": [
    {
      "type": "Feature",
      "properties": {
        "spill_id": "sentinel_330",
        "confidence": 0.78
      },
      "geometry": {
        "type": "Polygon",
        "coordinates": [
          [
            [
              72.558789,
              18.916211
            ],
            [
              72.558789,
              18.912109
            ],
            [
              72.560156,
              18.910742
            ],
            [
              72.560156,
              18.908008
            ],
            [
              72.561523,
              18.906641
            ],
            [
              72.561523,
              18.902539
            ],
            [
              72.564258,
              18.898438
            ],
            [
              72.565625,
              18.898438
            ],
            [
              72.566992,
              18.89707
            ],
            [
              72.572461,
              18.89707
            ],
            [
              72.575195,
              18.899805
            ],
            [
              72.582031,
              18.899805
            ],
            [
              72.586133,
              18.902539
            ],
            [
              72.586133,
              18.905273
            ],
            [
              72.5875,
              18.906641
            ],
            [
              72.5875,
              18.910742
            ],
            [
              72.586133,
              18.912109
            ],
            [
              72.586133,
              18.913477
            ],
            [
              72.580664,
              18.913477
            ],
            [
              72.579297,
              18.914844
            ],
            [
              72.57793,
              18.914844
            ],
            [
              72.576562,
              18.916211
            ],
            [
              72.576562,
              18.917578
            ],
            [
              72.572461,
              18.920312
            ],
            [
              72.565625,
              18.920312
            ],
            [
              72.564258,
              18.918945
            ],
            [
              72.561523,
              18.918945
            ],
            [
              72.558789,
              18.916211
            ]
          ]
        ]
      }
    },
    {
      "type": "Feature",
      "properties": {
        "spill_id": "sentinel_330",
        "confidence": 0.78
      },
      "geometry": {
        "type": "Polygon",
        "coordinates": [
          [
            [
              72.628516,
              18.970898
            ],
            [
              72.625781,
              18.968164
            ],
            [
              72.625781,
              18.96543
            ],
            [
              72.624414,
              18.964062
            ],
            [
              72.624414,
              18.961328
            ],
            [
              72.625781,
              18.959961
            ],
            [
              72.625781,
              18.958594
            ],
            [
              72.627148,
              18.957227
            ],
            [
              72.627148,
              18.955859
            ],
            [
              72.628516,
              18.954492
            ],
            [
              72.632617,
              18.954492
            ],
            [
              72.633984,
              18.953125
            ],
            [
              72.635352,
              18.954492
            ],
            [
              72.638086,
              18.954492
            ],
            [
              72.639453,
              18.955859
            ],
            [
              72.639453,
              18.957227
            ],
            [
              72.64082,
              18.958594
            ],
            [
              72.64082,
              18.968164
            ],
            [
              72.639453,
              18.969531
            ],
            [
              72.632617,
              18.969531
            ],
            [
              72.63125,
              18.970898
            ],
            [
              72.628516,
              18.970898
            ]
          ]
        ]
      }
    },
    {
      "type": "Feature",
      "properties": {
        "spill_id": "sentinel_330",
        "confidence": 0.78
      },
      "geometry": {
        "type": "Polygon",
        "coordinates": [
          [
            [
              72.5,
              19.095312
            ],
            [
              72.502734,
              19.095312
            ],
            [
              72.504102,
              19.09668
            ],
            [
              72.505469,
              19.095312
            ],
            [
              72.508203,
              19.095312
            ],
            [
              72.512305,
              19.099414
            ],
            [
              72.513672,
              19.099414
            ],
            [
              72.515039,
              19.100781
            ],
            [
              72.516406,
              19.100781
            ],
            [
              72.517773,
              19.102148
            ],
            [
              72.519141,
              19.100781
            ],
            [
              72.520508,
              19.102148
            ],
            [
              72.521875,
              19.102148
            ],
            [
              72.523242,
              19.103516
            ],
            [
              72.523242,
              19.10625
            ],
            [
              72.513672,
              19.10625
            ],
            [
              72.512305,
              19.104883
            ],
            [
              72.510938,
              19.104883
            ],
            [
              72.50957,
              19.103516
            ],
            [
              72.508203,
              19.103516
            ],
            [
              72.506836,
              19.104883
            ],
            [
              72.501367,
              19.104883
            ],
            [
              72.5,
              19.10625
            ],
            [
              72.5,
              19.095312
            ]
          ]
        ]
      }
    },
    {
      "type": "Feature",
      "properties": {
        "spill_id": "sentinel_330",
        "confidence": 0.78
      },
      "geometry": {
        "type": "Polygon",
        "coordinates": [
          [
            [
              72.658594,
              19.14043
            ],
            [
              72.646289,
              19.141797
            ],
            [
              72.64082,
              19.132227
            ],
            [
              72.62168,
              19.117188
            ],
            [
              72.608008,
              19.117188
            ],
            [
              72.598438,
              19.121289
            ],
            [
              72.591602,
              19.119922
            ],
            [
              72.590234,
              19.110352
            ],
            [
              72.575195,
              19.099414
            ],
            [
              72.564258,
              19.099414
            ],
            [
              72.556055,
              19.092578
            ],
            [
              72.53418,
              19.084375
            ],
            [
              72.531445,
              19.080273
            ],
            [
              72.531445,
              19.070703
            ],
            [
              72.536914,
              19.066602
            ],
            [
              72.560156,
              19.069336
            ],
            [
              72.592969,
              19.078906
            ],
            [
              72.603906,
              19.078906
            ],
            [
              72.624414,
              19.084375
            ],
            [
              72.646289,
              19.104883
            ],
            [
              72.649023,
              19.11582
            ],
            [
              72.658594,
              19.128125
            ],
            [
              72.658594,
              19.14043
            ]
          ]
        ]
      }
    }
  ]
}