{
  "type": "FeatureCollection",
  "features": [
    {
      "type": "Feature",
      "properties": {
        "spill_id": "sentinel_593",
        "confidence": 0.91
      },
      "geometry": {
        "type": "Polygon",
        "coordinates": [
          [
            [
              72.606641,
              19.091211
            ],
            [
              72.560156,
              18.998242
            ],
            [
              72.595703,
              18.949023
            ],
            [
              72.635352,
              18.958594
            ],
            [
              72.646289,
              18.94082
            ],
            [
              72.565625,
              18.923047
            ],
            [
              72.556055,
              18.936719
            ],
            [
              72.5,
              18.946289
            ],
            [
              72.5,
              18.891602
            ],
            [
              72.535547,
              18.865625
            ],
            [
              72.5,
              18.838281
            ],
            [
              72.54375,
              18.801367
            ],
            [
              72.582031,
              18.805469
            ],
            [
              72.572461,
              18.841016
            ],
            [
              72.591602,
              18.832812
            ],
            [
              72.598438,
              18.801367
            ],
            [
              72.848633,
              18.801367
            ],
            [
              72.848633,
              18.995508
            ],
            [
              72.777539,
              19.051562
            ],
            [
              72.795312,
              19.099414
            ],
            [
              72.747461,
              19.081641
            ],
            [
              72.774805,
              18.990039
            ],
            [
              72.766602,
              18.981836
            ],
            [
              72.717383,
              18.994141
            ],
            [
              72.716016,
              19.01875
            ],
            [
              72.669531,
              19.048828
            ],
            [
              72.683203,
              19.087109
            ],
            [
              72.673633,
              19.107617
            ],
            [
              72.638086,
              19.088477
            ],
            [
              72.606641,
              19.091211
            ]
          ]
        ]
      }
    },
    {
      "type": "Feature",
      "properties": {
        "spill_id": "sentinel_593",
        "confidence": 0.91
      },
      "geometry": {
        "type": "Polygon",
        "coordinates": [
          [
            [
              72.751562,
              19.15
            ],
            [
              72.751562,
              19.143164
            ],
            [
              72.755664,
              19.139062
            ],
            [
              72.774805,
              19.132227
            ],
            [
              72.798047,
              19.110352
            ],
            [
              72.79668,
              19.103516
            ],
            [
              72.803516,
              19.09668
            ],
            [
              72.810352,
              19.09668
            ],
            [
              72.818555,
              19.092578
            ],
            [
              72.837695,
              19.066602
            ],
            [
              72.848633,
              19.065234
            ],
            [
              72.848633,
              19.15
            ],
            [
              72.839062,
              19.15
            ],
            [
              72.834961,
              19.133594
            ],
            [
              72.830859,
              19.129492
            ],
            [
              72.818555,
              19.133594
            ],
            [
              72.800781,
              19.134961
            ],
            [
              72.777539,
              19.15
            ],
            [
              72.751562,
              19.15
            ]
          ]
        ]
      }
    }
  ]
}