{
  "type": "FeatureCollection",
  "features": [
    {
      "type": "Feature",
      "properties": {
        "spill_id": "sentinel_171",
        "confidence": 0.87
      },
      "geometry": {
        "type": "Polygon",
        "coordinates": [
          [
            [
              72.834961,
              18.954492
            ],
            [
              72.833594,
              18.953125
            ],
            [
              72.832227,
              18.953125
            ],
            [
              72.830859,
              18.951758
            ],
            [
              72.829492,
              18.951758
            ],
            [
              72.826758,
              18.949023
            ],
            [
              72.825391,
              18.949023
            ],
            [
              72.825391,
              18.947656
            ],
            [
              72.824023,
              18.946289
            ],
            [
              72.825391,
              18.944922
            ],
            [
              72.825391,
              18.943555
            ],
            [
              72.828125,
              18.94082
            ],
            [
              72.830859,
              18.943555
            ],
            [
              72.830859,
              18.944922
            ],
            [
              72.832227,
              18.946289
            ],
            [
              72.832227,
              18.947656
            ],
            [
              72.836328,
              18.951758
            ],
            [
              72.836328,
              18.953125
            ],
            [
              72.834961,
              18.954492
            ]
          ]
        ]
      }
    },
    {
      "type": "Feature",
      "properties": {
        "spill_id": "sentinel_171",
        "confidence": 0.87
      },
      "geometry": {
        "type": "Polygon",
        "coordinates": [
          [
            [
              72.5,
              19.046094
            ],
            [
              72.5,
              19.007812
            ],
            [
              72.538281,
              18.962695
            ],
            [
              72.539648,
              18.950391
            ],
            [
              72.546484,
              18.94082
            ],
            [
              72.561523,
              18.929883
            ],
            [
              72.579297,
              18.927148
            ],
            [
              72.590234,
              18.917578
            ],
            [
              72.612109,
              18.909375
            ],
            [
              72.618945,
              18.910742
            ],
            [
              72.623047,
              18.917578
            ],
            [
              72.62168,
              18.928516
            ],
            [
              72.606641,
              18.94082
            ],
            [
              72.582031,
              18.949023
            ],
            [
              72.575195,
              18.955859
            ],
            [
              72.576562,
              18.968164
            ],
            [
              72.572461,
              18.979102
            ],
            [
              72.551953,
              19.010547
            ],
            [
              72.525977,
              19.039258
            ],
            [
              72.5,
              19.046094
            ]
          ]
        ]
      }
    },
    {
      "type": "Feature",
      "properties": {
        "spill_id": "sentinel_171",
        "confidence": 0.87
      },
      "geometry": {
        "type": "Polygon",
        "coordinates": [
          [
            [
              72.817187,
              19.085742
            ],
            [
              72.817187,
              19.083008
            ],
            [
              72.819922,
              19.080273
            ],
            [
              72.821289,
              19.080273
            ],
            [
              72.822656,
              19.078906
            ],
            [
              72.825391,
              19.078906
            ],
            [
              72.828125,
              19.076172
            ],
            [
              72.829492,
              19.076172
            ],
            [
              72.839062,
              19.066602
            ],
            [
              72.84043,
              19.066602
            ],
            [
              72.841797,
              19.065234
            ],
            [
              72.848633,
              19.065234
            ],
            [
              72.848633,
              19.076172
            ],
            [
              72.847266,
              19.076172
            ],
            [
              72.84043,
              19.083008
            ],
            [
              72.839062,
              19.083008
            ],
            [
              72.834961,
              19.085742
            ],
            [
              72.830859,
              19.085742
            ],
            [
              72.829492,
              19.087109
            ],
            [
              72.818555,
              19.087109
            ],
            [
              72.817187,
              19.085742
            ]
          ]
        ]
      }
    },
    {
      "type": "Feature",
      "properties": {
        "spill_id": "sentinel_171",
        "confidence": 0.87
      },
      "geometry": {
        "type": "Polygon",
        "coordinates": [
          [
            [
              72.793945,
              19.145898
            ],
            [
              72.791211,
              19.143164
            ],
            [
              72.791211,
              19.14043
            ],
            [
              72.789844,
              19.139062
            ],
            [
              72.789844,
              19.133594
            ],
            [
              72.795312,
              19.128125
            ],
            [
              72.798047,
              19.128125
            ],
            [
              72.799414,
              19.129492
            ],
            [
              72.800781,
              19.129492
            ],
            [
              72.802148,
              19.130859
            ],
            [
              72.803516,
              19.130859
            ],
            [
              72.804883,
              19.132227
            ],
            [
              72.804883,
              19.141797
            ],
            [
              72.803516,
              19.143164
            ],
            [
              72.803516,
              19.144531
            ],
            [
              72.798047,
              19.144531
            ],
            [
              72.79668,
              19.145898
            ],
            [
              72.793945,
              19.145898
            ]
          ]
        ]
      }
    },
    {
      "type": "Feature",
      "properties": {
        "spill_id": "sentinel_171",
        "confidence": 0.87
      },
      "geometry": {
        "type": "Polygon",
        "coordinates": [
          [
            [
              72.643555,
              19.15
            ],
            [
              72.643555,
              19.141797
            ],
            [
              72.644922,
              19.14043
            ],
            [
              72.644922,
              19.136328
            ],
            [
              72.646289,
              19.134961
            ],
            [
              72.646289,
              19.133594
            ],
            [
              72.647656,
              19.132227
            ],
            [
              72.653125,
              19.132227
            ],
            [
              72.654492,
              19.133594
            ],
            [
              72.655859,
              19.133594
            ],
            [
              72.655859,
              19.134961
            ],
            [
              72.658594,
              19.137695
            ],
            [
              72.658594,
              19.139062
            ],
            [
              72.661328,
              19.141797
            ],
            [
              72.661328,
              19.143164
            ],
            [
              72.662695,
              19.144531
            ],
            [
              72.662695,
              19.147266
            ],
            [
              72.661328,
              19.148633
            ],
            [
              72.661328,
              19.15
            ],
            [
              72.643555,
              19.15
            ]
          ]
        ]
      }
    }
  ]
}