{
  "type": "FeatureCollection",
  "features": [
    {
      "type": "Feature",
      "properties": {
        "spill_id": "sentinel_770",
        "confidence": 0.91
      },
      "geometry": {
        "type": "Polygon",
        "coordinates": [
          [
            [
              72.609375,
              18.835547
            ],
            [
              72.608008,
              18.83418
            ],
            [
              72.608008,
              18.828711
            ],
            [
              72.609375,
              18.827344
            ],
            [
              72.609375,
              18.824609
            ],
            [
              72.608008,
              18.823242
            ],
            [
              72.608008,
              18.817773
            ],
            [
              72.606641,
              18.816406
            ],
            [
              72.606641,
              18.808203
            ],
            [
              72.608008,
              18.806836
            ],
            [
              72.610742,
              18.806836
            ],
            [
              72.614844,
              18.810938
            ],
            [
              72.614844,
              18.813672
            ],
            [
              72.616211,
              18.815039
            ],
            [
              72.616211,
              18.817773
            ],
            [
              72.617578,
              18.819141
            ],
            [
              72.617578,
              18.821875
            ],
            [
              72.618945,
              18.823242
            ],
            [
              72.618945,
              18.830078
            ],
            [
              72.616211,
              18.832812
            ],
            [
              72.614844,
              18.832812
            ],
            [
              72.613477,
              18.83418
            ],
            [
              72.610742,
              18.83418
            ],
            [
              72.609375,
              18.835547
            ]
          ]
        ]
      }
    },
    {
      "type": "Feature",
      "properties": {
        "spill_id": "sentinel_770",
        "confidence": 0.91
      },
      "geometry": {
        "type": "Polygon",
        "coordinates": [
          [
            [
              72.580664,
              19.15
            ],
            [
              72.57793,
              19.126758
            ],
            [
              72.608008,
              19.113086
            ],
            [
              72.565625,
              19.074805
            ],
            [
              72.609375,
              19.051562
            ],
            [
              72.610742,
              19.020117
            ],
            [
              72.595703,
              19.00918
            ],
            [
              72.588867,
              18.979102
            ],
            [
              72.59707,
              18.962695
            ],
            [
              72.620312,
              18.966797
            ],
            [
              72.625781,
              18.953125
            ],
            [
              72.591602,
              18.912109
            ],
            [
              72.590234,
              18.883398
            ],
            [
              72.605273,
              18.908008
            ],
            [
              72.625781,
              18.912109
            ],
            [
              72.644922,
              18.943555
            ],
            [
              72.661328,
              18.949023
            ],
            [
              72.670898,
              18.914844
            ],
            [
              72.690039,
              18.895703
            ],
            [
              72.673633,
              18.839648
            ],
            [
              72.679102,
              18.801367
            ],
            [
              72.848633,
              18.802734
            ],
            [
              72.848633,
              19.15
            ],
            [
              72.580664,
              19.15
            ]
          ]
        ]
      }
    }
  ]
}