{
  "type": "FeatureCollection",
  "features": [
    {
      "type": "Feature",
      "properties": {
        "spill_id": "sentinel_570",
        "confidence": 0.79
      },
      "geometry": {
        "type": "Polygon",
        "coordinates": [
          [
            [
              72.601172,
              18.835547
            ],
            [
              72.601172,
              18.83418
            ],
            [
              72.602539,
              18.832812
            ],
            [
              72.602539,
              18.831445
            ],
            [
              72.603906,
              18.830078
            ],
            [
              72.603906,
              18.828711
            ],
            [
              72.605273,
              18.827344
            ],
            [
              72.612109,
              18.827344
            ],
            [
              72.613477,
              18.825977
            ],
            [
              72.618945,
              18.825977
            ],
            [
              72.620312,
              18.827344
            ],
            [
              72.62168,
              18.827344
            ],
            [
              72.623047,
              18.828711
            ],
            [
              72.624414,
              18.828711
            ],
            [
              72.625781,
              18.830078
            ],
            [
              72.625781,
              18.831445
            ],
            [
              72.627148,
              18.832812
            ],
            [
              72.625781,
              18.83418
            ],
            [
              72.625781,
              18.835547
            ],
            [
              72.624414,
              18.835547
            ],
            [
              72.623047,
              18.836914
            ],
            [
              72.614844,
              18.836914
            ],
            [
              72.613477,
              18.835547
            ],
            [
              72.610742,
              18.835547
            ],
            [
              72.609375,
              18.836914
            ],
            [
              72.608008,
              18.836914
            ],
            [
              72.606641,
              18.838281
            ],
            [
              72.605273,
              18.836914
            ],
            [
              72.603906,
              18.838281
            ],
            [
              72.601172,
              18.835547
            ]
          ]
        ]
      }
    },
    {
      "type": "Feature",
      "properties": {
        "spill_id": "sentinel_570",
        "confidence": 0.79
      },
      "geometry": {
        "type": "Polygon",
        "coordinates": [
          [
            [
              72.644922,
              18.84375
            ],
            [
              72.646289,
              18.842383
            ],
            [
              72.647656,
              18.842383
            ],
            [
              72.649023,
              18.841016
            ],
            [
              72.650391,
              18.841016
            ],
            [
              72.653125,
              18.838281
            ],
            [
              72.658594,
              18.838281
            ],
            [
              72.659961,
              18.839648
            ],
            [
              72.661328,
              18.839648
            ],
            [
              72.662695,
              18.841016
            ],
            [
              72.662695,
              18.845117
            ],
            [
              72.661328,
              18.846484
            ],
            [
              72.659961,
              18.846484
            ],
            [
              72.658594,
              18.847852
            ],
            [
              72.654492,
              18.847852
            ],
            [
              72.653125,
              18.846484
            ],
            [
              72.647656,
              18.846484
            ],
            [
              72.644922,
              18.84375
            ]
          ]
        ]
      }
    },
    {
      "type": "Feature",
      "properties": {
        "spill_id": "sentinel_570",
        "confidence": 0.79
      },
      "geometry": {
        "type": "Polygon",
        "coordinates": [
          [
            [
              72.68457,
              18.882031
            ],
            [
              72.685938,
              18.861523
            ],
            [
              72.691406,
              18.857422
            ],
            [
              72.703711,
              18.854688
            ],
            [
              72.710547,
              18.845117
            ],
            [
              72.726953,
              18.845117
            ],
            [
              72.737891,
              18.849219
            ],
            [
              72.747461,
              18.849219
            ],
            [
              72.763867,
              18.838281
            ],
            [
              72.785742,
              18.836914
            ],
            [
              72.792578,
              18.831445
            ],
            [
              72.799414,
              18.832812
            ],
            [
              72.799414,
              18.836914
            ],
            [
              72.793945,
              18.846484
            ],
            [
              72.785742,
              18.850586
            ],
            [
              72.773438,
              18.866992
            ],
            [
              72.754297,
              18.883398
            ],
            [
              72.726953,
              18.884766
            ],
            [
              72.714648,
              18.888867
            ],
            [
              72.694141,
              18.8875
            ],
            [
              72.68457,
              18.882031
            ]
          ]
        ]
      }
    },
    {
      "type": "Feature",
      "properties": {
        "spill_id": "sentinel_570",
        "confidence": 0.79
      },
      "geometry": {
        "type": "Polygon",
        "coordinates": [
          [
            [
              72.519141,
              18.902539
            ],
            [
              72.516406,
              18.899805
            ],
            [
              72.516406,
              18.898438
            ],
            [
              72.515039,
              18.89707
            ],
            [
              72.515039,
              18.892969
            ],
            [
              72.516406,
              18.891602
            ],
            [
              72.516406,
              18.890234
            ],
            [
              72.519141,
              18.8875
            ],
            [
              72.523242,
              18.8875
            ],
            [
              72.527344,
              18.891602
            ],
            [
              72.527344,
              18.892969
            ],
            [
              72.528711,
              18.894336
            ],
            [
              72.528711,
              18.898438
            ],
            [
              72.524609,
              18.902539
            ],
            [
              72.519141,
              18.902539
            ]
          ]
        ]
      }
    },
    {
      "type": "Feature",
      "properties": {
        "spill_id": "sentinel_570",
        "confidence": 0.79
      },
      "geometry": {
        "type": "Polygon",
        "coordinates": [
          [
            [
              72.635352,
              18.888867
            ],
            [
              72.627148,
              18.894336
            ],
            [
              72.614844,
              18.895703
            ],
            [
              72.602539,
              18.906641
            ],
            [
              72.583398,
              18.906641
            ],
            [
              72.576562,
              18.902539
            ],
            [
              72.571094,
              18.892969
            ],
            [
              72.569727,
              18.882031
            ],
            [
              72.562891,
              18.873828
            ],
            [
              72.539648,
              18.865625
            ],
            [
              72.513672,
              18.842383
            ],
            [
              72.5,
              18.841016
            ],
            [
              72.5,
              18.830078
            ],
            [
              72.504102,
              18.832812
            ],
            [
              72.505469,
              18.830078
            ],
            [
              72.527344,
              18.842383
            ],
            [
              72.545117,
              18.841016
            ],
            [
              72.557422,
              18.845117
            ],
            [
              72.575195,
              18.861523
            ],
            [
              72.5875,
              18.860156
            ],
            [
              72.605273,
              18.84375
            ],
            [
              72.614844,
              18.839648
            ],
            [
              72.620312,
              18.841016
            ],
            [
              72.64082,
              18.856055
            ],
            [
              72.627148,
              18.868359
            ],
            [
              72.635352,
              18.879297
            ],
            [
              72.635352,
              18.888867
            ]
          ]
        ]
      }
    },
    {
      "type": "Feature",
      "properties": {
        "spill_id": "sentinel_570",
        "confidence": 0.79
      },
      "geometry": {
        "type": "Polygon",
        "coordinates": [
          [
            [
              72.576562,
              19.043359
            ],
            [
              72.572461,
              19.040625
            ],
            [
              72.572461,
              19.039258
            ],
            [
              72.569727,
              19.036523
            ],
            [
              72.569727,
              19.035156
            ],
            [
              72.568359,
              19.033789
            ],
            [
              72.569727,
              19.032422
            ],
            [
              72.569727,
              19.029687
            ],
            [
              72.571094,
              19.02832
            ],
            [
              72.571094,
              19.025586
            ],
            [
              72.573828,
              19.021484
            ],
            [
              72.573828,
              19.017383
            ],
            [
              72.575195,
              19.016016
            ],
            [
              72.575195,
              19.011914
            ],
            [
              72.579297,
              19.00918
            ],
            [
              72.580664,
              19.010547
            ],
            [
              72.582031,
              19.00918
            ],
            [
              72.584766,
              19.00918
            ],
            [
              72.586133,
              19.010547
            ],
            [
              72.590234,
              19.011914
            ],
            [
              72.590234,
              19.013281
            ],
            [
              72.592969,
              19.016016
            ],
            [
              72.592969,
              19.022852
            ],
            [
              72.591602,
              19.024219
            ],
            [
              72.591602,
              19.026953
            ],
            [
              72.590234,
              19.02832
            ],
            [
              72.588867,
              19.032422
            ],
            [
              72.586133,
              19.035156
            ],
            [
              72.586133,
              19.036523
            ],
            [
              72.584766,
              19.037891
            ],
            [
              72.583398,
              19.041992
            ],
            [
              72.582031,
              19.041992
            ],
            [
              72.580664,
              19.043359
            ],
            [
              72.576562,
              19.043359
            ]
          ]
        ]
      }
    }
  ]
}