{
  "type": "FeatureCollection",
  "features": [
    {
      "type": "Feature",
      "properties": {
        "spill_id": "sentinel_747",
        "confidence": 0.77
      },
      "geometry": {
        "type": "Polygon",
        "coordinates": [
          [
            [
              72.811719,
              18.820508
            ],
            [
              72.810352,
              18.820508
            ],
            [
              72.808984,
              18.819141
            ],
            [
              72.808984,
              18.816406
            ],
            [
              72.807617,
              18.815039
            ],
            [
              72.807617,
              18.813672
            ],
            [
              72.80625,
              18.812305
            ],
            [
              72.80625,
              18.808203
            ],
            [
              72.807617,
              18.806836
            ],
            [
              72.811719,
              18.806836
            ],
            [
              72.811719,
              18.808203
            ],
            [
              72.813086,
              18.80957
            ],
            [
              72.813086,
              18.810938
            ],
            [
              72.814453,
              18.812305
            ],
            [
              72.814453,
              18.817773
            ],
            [
              72.811719,
              18.820508
            ]
          ]
        ]
      }
    },
    {
      "type": "Feature",
      "properties": {
        "spill_id": "sentinel_747",
        "confidence": 0.77
      },
      "geometry": {
        "type": "Polygon",
        "coordinates": [
          [
            [
              72.804883,
              18.923047
            ],
            [
              72.803516,
              18.92168
            ],
            [
              72.803516,
              18.918945
            ],
            [
              72.807617,
              18.914844
            ],
            [
              72.808984,
              18.914844
            ],
            [
              72.81582,
              18.908008
            ],
            [
              72.817187,
              18.908008
            ],
            [
              72.818555,
              18.906641
            ],
            [
              72.819922,
              18.906641
            ],
            [
              72.822656,
              18.909375
            ],
            [
              72.822656,
              18.910742
            ],
            [
              72.824023,
              18.912109
            ],
            [
              72.824023,
              18.917578
            ],
            [
              72.822656,
              18.918945
            ],
            [
              72.822656,
              18.923047
            ],
            [
              72.819922,
              18.925781
            ],
            [
              72.811719,
              18.925781
            ],
            [
              72.810352,
              18.924414
            ],
            [
              72.808984,
              18.924414
            ],
            [
              72.807617,
              18.923047
            ],
            [
              72.804883,
              18.923047
            ]
          ]
        ]
      }
    },
    {
      "type": "Feature",
      "properties": {
        "spill_id": "sentinel_747",
        "confidence": 0.77
      },
      "geometry": {
        "type": "Polygon",
        "coordinates": [
          [
            [
              72.750195,
              18.939453
            ],
            [
              72.746094,
              18.935352
            ],
            [
              72.746094,
              18.929883
            ],
            [
              72.750195,
              18.925781
            ],
            [
              72.755664,
              18.925781
            ],
            [
              72.758398,
              18.928516
            ],
            [
              72.759766,
              18.928516
            ],
            [
              72.759766,
              18.929883
            ],
            [
              72.761133,
              18.93125
            ],
            [
              72.761133,
              18.938086
            ],
            [
              72.759766,
              18.939453
            ],
            [
              72.750195,
              18.939453
            ]
          ]
        ]
      }
    },
    {
      "type": "Feature",
      "properties": {
        "spill_id": "sentinel_747",
        "confidence": 0.77
      },
      "geometry": {
        "type": "Polygon",
        "coordinates": [
          [
            [
              72.520508,
              18.942188
            ],
            [
              72.519141,
              18.94082
            ],
            [
              72.519141,
              18.936719
            ],
            [
              72.517773,
              18.935352
            ],
            [
              72.517773,
              18.932617
            ],
            [
              72.515039,
              18.929883
            ],
            [
              72.516406,
              18.929883
            ],
            [
              72.520508,
              18.925781
            ],
            [
              72.521875,
              18.925781
            ],
            [
              72.523242,
              18.924414
            ],
            [
              72.524609,
              18.924414
            ],
            [
              72.525977,
              18.925781
            ],
            [
              72.532812,
              18.925781
            ],
            [
              72.536914,
              18.929883
            ],
            [
              72.536914,
              18.935352
            ],
            [
              72.53418,
              18.938086
            ],
            [
              72.532812,
              18.938086
            ],
            [
              72.531445,
              18.939453
            ],
            [
              72.530078,
              18.939453
            ],
            [
              72.528711,
              18.94082
            ],
            [
              72.527344,
              18.94082
            ],
            [
              72.525977,
              18.942188
            ],
            [
              72.520508,
              18.942188
            ]
          ]
        ]
      }
    },
    {
      "type": "Feature",
      "properties": {
        "spill_id": "sentinel_747",
        "confidence": 0.77
      },
      "geometry": {
        "type": "Polygon",
        "coordinates": [
          [
            [
              72.746094,
              19.114453
            ],
            [
              72.743359,
              19.114453
            ],
            [
              72.741992,
              19.113086
            ],
            [
              72.740625,
              19.113086
            ],
            [
              72.737891,
              19.110352
            ],
            [
              72.737891,
              19.108984
            ],
            [
              72.736523,
              19.107617
            ],
            [
              72.736523,
              19.099414
            ],
            [
              72.737891,
              19.098047
            ],
            [
              72.737891,
              19.093945
            ],
            [
              72.740625,
              19.093945
            ],
            [
              72.743359,
              19.09668
            ],
            [
              72.743359,
              19.098047
            ],
            [
              72.746094,
              19.100781
            ],
            [
              72.746094,
              19.103516
            ],
            [
              72.747461,
              19.104883
            ],
            [
              72.747461,
              19.113086
            ],
            [
              72.746094,
              19.114453
            ]
          ]
        ]
      }
    },
    {
      "type": "Feature",
      "properties": {
        "spill_id": "sentinel_747",
        "confidence": 0.77
      },
      "geometry": {
        "type": "Polygon",
        "coordinates": [
          [
            [
              72.579297,
              19.15
            ],
            [
              72.564258,
              19.134961
            ],
            [
              72.564258,
              19.128125
            ],
            [
              72.571094,
              19.119922
            ],
            [
              72.569727,
              19.111719
            ],
            [
              72.57793,
              19.108984
            ],
            [
              72.588867,
              19.098047
            ],
            [
              72.595703,
              19.098047
            ],
            [
              72.602539,
              19.07207
            ],
            [
              72.599805,
              19.061133
            ],
            [
              72.603906,
              19.059766
            ],
            [
              72.605273,
              19.044727
            ],
            [
              72.594336,
              19.021484
            ],
            [
              72.599805,
              19.011914
            ],
            [
              72.606641,
              19.013281
            ],
            [
              72.602539,
              19.024219
            ],
            [
              72.606641,
              19.02832
            ],
            [
              72.616211,
              19.02832
            ],
            [
              72.623047,
              19.014648
            ],
            [
              72.62168,
              18.995508
            ],
            [
              72.625781,
              18.992773
            ],
            [
              72.636719,
              19.002344
            ],
            [
              72.64082,
              19.017383
            ],
            [
              72.627148,
              19.046094
            ],
            [
              72.628516,
              19.070703
            ],
            [
              72.623047,
              19.070703
            ],
            [
              72.620312,
              19.074805
            ],
            [
              72.614844,
              19.104883
            ],
            [
              72.616211,
              19.14043
            ],
            [
              72.606641,
              19.15
            ],
            [
              72.579297,
              19.15
            ]
          ]
        ]
      }
    }
  ]
}