{
  "type": "FeatureCollection",
  "features": [
    {
      "type": "Feature",
      "properties": {
        "spill_id": "sentinel_146",
        "confidence": 0.78
      },
      "geometry": {
        "type": "Polygon",
        "coordinates": [
          [
            [
              72.5,
              18.883398
            ],
            [
              72.5,
              18.854688
            ],
            [
              72.513672,
              18.850586
            ],
            [
              72.530078,
              18.839648
            ],
            [
              72.54375,
              18.838281
            ],
            [
              72.549219,
              18.841016
            ],
            [
              72.556055,
              18.835547
            ],
            [
              72.571094,
              18.836914
            ],
            [
              72.582031,
              18.831445
            ],
            [
              72.590234,
              18.832812
            ],
            [
              72.5875,
              18.838281
            ],
            [
              72.583398,
              18.838281
            ],
            [
              72.575195,
              18.842383
            ],
            [
              72.571094,
              18.847852
            ],
            [
              72.568359,
              18.846484
            ],
            [
              72.556055,
              18.849219
            ],
            [
              72.551953,
              18.857422
            ],
            [
              72.539648,
              18.857422
            ],
            [
              72.532812,
              18.860156
            ],
            [
              72.519141,
              18.871094
            ],
            [
              72.516406,
              18.87793
            ],
            [
              72.506836,
              18.879297
            ],
            [
              72.5,
              18.883398
            ]
          ]
        ]
      }
    },
    {
      "type": "Feature",
      "properties": {
        "spill_id": "sentinel_146",
        "confidence": 0.78
      },
      "geometry": {
        "type": "Polygon",
        "coordinates": [
          [
            [
              72.572461,
              18.980469
            ],
            [
              72.572461,
              18.979102
            ],
            [
              72.573828,
              18.977734
            ],
            [
              72.573828,
              18.976367
            ],
            [
              72.575195,
              18.975
            ],
            [
              72.575195,
              18.973633
            ],
            [
              72.57793,
              18.970898
            ],
            [
              72.579297,
              18.970898
            ],
            [
              72.582031,
              18.968164
            ],
            [
              72.584766,
              18.968164
            ],
            [
              72.586133,
              18.966797
            ],
            [
              72.5875,
              18.968164
            ],
            [
              72.588867,
              18.968164
            ],
            [
              72.590234,
              18.966797
            ],
            [
              72.591602,
              18.968164
            ],
            [
              72.592969,
              18.968164
            ],
            [
              72.592969,
              18.973633
            ],
            [
              72.591602,
              18.975
            ],
            [
              72.590234,
              18.975
            ],
            [
              72.588867,
              18.976367
            ],
            [
              72.5875,
              18.976367
            ],
            [
              72.586133,
              18.977734
            ],
            [
              72.583398,
              18.977734
            ],
            [
              72.582031,
              18.979102
            ],
            [
              72.579297,
              18.979102
            ],
            [
              72.57793,
              18.977734
            ],
            [
              72.576562,
              18.979102
            ],
            [
              72.576562,
              18.980469
            ],
            [
              72.576562,
              18.979102
            ],
            [
              72.575195,
              18.977734
            ],
            [
              72.573828,
              18.979102
            ],
            [
              72.573828,
              18.980469
            ],
            [
              72.572461,
              18.980469
            ]
          ]
        ]
      }
    },
    {
      "type": "Feature",
      "properties": {
        "spill_id": "sentinel_146",
        "confidence": 0.78
      },
      "geometry": {
        "type": "Polygon",
        "coordinates": [
          [
            [
              72.601172,
              18.912109
            ],
            [
              72.602539,
              18.899805
            ],
            [
              72.618945,
              18.880664
            ],
            [
              72.620312,
              18.85332
            ],
            [
              72.629883,
              18.84375
            ],
            [
              72.625781,
              18.820508
            ],
            [
              72.635352,
              18.801367
            ],
            [
              72.721484,
              18.801367
            ],
            [
              72.732422,
              18.838281
            ],
            [
              72.755664,
              18.845117
            ],
            [
              72.777539,
              18.841016
            ],
            [
              72.811719,
              18.819141
            ],
            [
              72.848633,
              18.835547
            ],
            [
              72.848633,
              18.850586
            ],
            [
              72.776172,
              18.849219
            ],
            [
              72.743359,
              18.868359
            ],
            [
              72.741992,
              18.888867
            ],
            [
              72.729688,
              18.899805
            ],
            [
              72.699609,
              18.899805
            ],
            [
              72.692773,
              18.914844
            ],
            [
              72.696875,
              18.933984
            ],
            [
              72.71875,
              18.953125
            ],
            [
              72.700977,
              19.010547
            ],
            [
              72.687305,
              19.006445
            ],
            [
              72.683203,
              18.990039
            ],
            [
              72.694141,
              18.968164
            ],
            [
              72.679102,
              18.950391
            ],
            [
              72.632617,
              18.92168
            ],
            [
              72.601172,
              18.912109
            ]
          ]
        ]
      }
    },
    {
      "type": "Feature",
      "properties": {
        "spill_id": "sentinel_146",
        "confidence": 0.78
      },
      "geometry": {
        "type": "Polygon",
        "coordinates": [
          [
            [
              72.848633,
              19.029687
            ],
            [
              72.84043,
              19.026953
            ],
            [
              72.821289,
              19.010547
            ],
            [
              72.792578,
              19.003711
            ],
            [
              72.776172,
              18.992773
            ],
            [
              72.774805,
              18.977734
            ],
            [
              72.761133,
              18.959961
            ],
            [
              72.773438,
              18.954492
            ],
            [
              72.774805,
              18.946289
            ],
            [
              72.783008,
              18.936719
            ],
            [
              72.781641,
              18.927148
            ],
            [
              72.769336,
              18.914844
            ],
            [
              72.769336,
              18.906641
            ],
            [
              72.787109,
              18.903906
            ],
            [
              72.789844,
              18.909375
            ],
            [
              72.787109,
              18.92168
            ],
            [
              72.799414,
              18.928516
            ],
            [
              72.803516,
              18.935352
            ],
            [
              72.817187,
              18.924414
            ],
            [
              72.829492,
              18.935352
            ],
            [
              72.833594,
              18.933984
            ],
            [
              72.837695,
              18.943555
            ],
            [
              72.848633,
              18.94082
            ],
            [
              72.848633,
              19.029687
            ]
          ]
        ]
      }
    },
    {
      "type": "Feature",
      "properties": {
        "spill_id": "sentinel_146",
        "confidence": 0.78
      },
      "geometry": {
        "type": "Polygon",
        "coordinates": [
          [
            [
              72.765234,
              19.050195
            ],
            [
              72.75293,
              19.050195
            ],
            [
              72.751562,
              19.051562
            ],
            [
              72.747461,
              19.051562
            ],
            [
              72.741992,
              19.055664
            ],
            [
              72.735156,
              19.050195
            ],
            [
              72.724219,
              19.047461
            ],
            [
              72.721484,
              19.044727
            ],
            [
              72.720117,
              19.044727
            ],
            [
              72.720117,
              19.033789
            ],
            [
              72.733789,
              19.017383
            ],
            [
              72.737891,
              19.017383
            ],
            [
              72.739258,
              19.016016
            ],
            [
              72.748828,
              19.017383
            ],
            [
              72.75293,
              19.021484
            ],
            [
              72.751562,
              19.022852
            ],
            [
              72.751562,
              19.02832
            ],
            [
              72.75293,
              19.031055
            ],
            [
              72.755664,
              19.033789
            ],
            [
              72.7625,
              19.036523
            ],
            [
              72.767969,
              19.041992
            ],
            [
              72.769336,
              19.044727
            ],
            [
              72.765234,
              19.050195
            ]
          ]
        ]
      }
    },
    {
      "type": "Feature",
      "properties": {
        "spill_id": "sentinel_146",
        "confidence": 0.78
      },
      "geometry": {
        "type": "Polygon",
        "coordinates": [
          [
            [
              72.5,
              19.132227
            ],
            [
              72.5,
              19.114453
            ],
            [
              72.535547,
              19.102148
            ],
            [
              72.580664,
              19.051562
            ],
            [
              72.592969,
              19.054297
            ],
            [
              72.620312,
              19.036523
            ],
            [
              72.639453,
              19.055664
            ],
            [
              72.638086,
              19.077539
            ],
            [
              72.691406,
              19.051562
            ],
            [
              72.703711,
              19.085742
            ],
            [
              72.743359,
              19.073438
            ],
            [
              72.759766,
              19.084375
            ],
            [
              72.781641,
              19.081641
            ],
            [
              72.829492,
              19.099414
            ],
            [
              72.848633,
              19.092578
            ],
            [
              72.848633,
              19.110352
            ],
            [
              72.70918,
              19.10625
            ],
            [
              72.703711,
              19.118555
            ],
            [
              72.70918,
              19.129492
            ],
            [
              72.695508,
              19.15
            ],
            [
              72.676367,
              19.15
            ],
            [
              72.679102,
              19.139062
            ],
            [
              72.659961,
              19.111719
            ],
            [
              72.636719,
              19.114453
            ],
            [
              72.616211,
              19.15
            ],
            [
              72.576562,
              19.15
            ],
            [
              72.569727,
              19.118555
            ],
            [
              72.531445,
              19.119922
            ],
            [
              72.5,
              19.132227
            ]
          ]
        ]
      }
    }
  ]
}