{
  "type": "FeatureCollection",
  "features": [
    {
      "type": "Feature",
      "properties": {
        "spill_id": "sentinel_769",
        "confidence": 0.97
      },
      "geometry": {
        "type": "Polygon",
        "coordinates": [
          [
            [
              72.5,
              19.129492
            ],
            [
              72.5,
              18.801367
            ],
            [
              72.848633,
              18.801367
            ],
            [
              72.848633,
              18.953125
            ],
            [
              72.819922,
              18.975
            ],
            [
              72.824023,
              18.985938
            ],
            [
              72.848633,
              18.981836
            ],
            [
              72.848633,
              19.15
            ],
            [
              72.531445,
              19.15
            ],
            [
              72.521875,
              19.128125
            ],
            [
              72.5,
              19.129492
            ]
          ]
        ]
      }
    }
  ]
}