{
  "type": "FeatureCollection",
  "features": [
    {
      "type": "Feature",
      "properties": {
        "spill_id": "sentinel_755",
        "confidence": 0.75
      },
      "geometry": {
        "type": "Polygon",
        "coordinates": [
          [
            [
              72.848633,
              18.864258
            ],
            [
              72.830859,
              18.856055
            ],
            [
              72.814453,
              18.85332
            ],
            [
              72.804883,
              18.847852
            ],
            [
              72.793945,
              18.836914
            ],
            [
              72.758398,
              18.824609
            ],
            [
              72.750195,
              18.812305
            ],
            [
              72.740625,
              18.80957
            ],
            [
              72.736523,
              18.802734
            ],
            [
              72.81582,
              18.801367
            ],
            [
              72.828125,
              18.813672
            ],
            [
              72.84043,
              18.812305
            ],
            [
              72.844531,
              18.805469
            ],
            [
              72.848633,
              18.813672
            ],
            [
              72.848633,
              18.864258
            ]
          ]
        ]
      }
    },
    {
      "type": "Feature",
      "properties": {
        "spill_id": "sentinel_755",
        "confidence": 0.75
      },
      "geometry": {
        "type": "Polygon",
        "coordinates": [
          [
            [
              72.644922,
              18.925781
            ],
            [
              72.639453,
              18.924414
            ],
            [
              72.64082,
              18.892969
            ],
            [
              72.633984,
              18.8875
            ],
            [
              72.63125,
              18.87793
            ],
            [
              72.632617,
              18.862891
            ],
            [
              72.62168,
              18.849219
            ],
            [
              72.616211,
              18.832812
            ],
            [
              72.616211,
              18.810938
            ],
            [
              72.612109,
              18.802734
            ],
            [
              72.633984,
              18.801367
            ],
            [
              72.649023,
              18.831445
            ],
            [
              72.658594,
              18.841016
            ],
            [
              72.66543,
              18.83418
            ],
            [
              72.675,
              18.832812
            ],
            [
              72.688672,
              18.849219
            ],
            [
              72.68457,
              18.861523
            ],
            [
              72.687305,
              18.871094
            ],
            [
              72.685938,
              18.880664
            ],
            [
              72.679102,
              18.884766
            ],
            [
              72.672266,
              18.894336
            ],
            [
              72.66543,
              18.894336
            ],
            [
              72.662695,
              18.89707
            ],
            [
              72.66543,
              18.903906
            ],
            [
              72.664062,
              18.909375
            ],
            [
              72.649023,
              18.918945
            ],
            [
              72.644922,
              18.925781
            ]
          ]
        ]
      }
    },
    {
      "type": "Feature",
      "properties": {
        "spill_id": "sentinel_755",
        "confidence": 0.75
      },
      "geometry": {
        "type": "Polygon",
        "coordinates": [
          [
            [
              72.616211,
              18.999609
            ],
            [
              72.614844,
              18.998242
            ],
            [
              72.616211,
              18.985938
            ],
            [
              72.62168,
              18.979102
            ],
            [
              72.624414,
              18.972266
            ],
            [
              72.624414,
              18.968164
            ],
            [
              72.627148,
              18.962695
            ],
            [
              72.627148,
              18.957227
            ],
            [
              72.629883,
              18.951758
            ],
            [
              72.629883,
              18.94082
            ],
            [
              72.635352,
              18.933984
            ],
            [
              72.64082,
              18.932617
            ],
            [
              72.644922,
              18.935352
            ],
            [
              72.646289,
              18.942188
            ],
            [
              72.647656,
              18.943555
            ],
            [
              72.644922,
              18.950391
            ],
            [
              72.644922,
              18.962695
            ],
            [
              72.64082,
              18.972266
            ],
            [
              72.64082,
              18.985938
            ],
            [
              72.632617,
              18.996875
            ],
            [
              72.627148,
              18.996875
            ],
            [
              72.623047,
              18.999609
            ],
            [
              72.616211,
              18.999609
            ]
          ]
        ]
      }
    },
    {
      "type": "Feature",
      "properties": {
        "spill_id": "sentinel_755",
        "confidence": 0.75
      },
      "geometry": {
        "type": "Polygon",
        "coordinates": [
          [
            [
              72.848633,
              19.00918
            ],
            [
              72.847266,
              19.007812
            ],
            [
              72.837695,
              19.007812
            ],
            [
              72.836328,
              19.006445
            ],
            [
              72.829492,
              19.005078
            ],
            [
              72.826758,
              19.003711
            ],
            [
              72.821289,
              18.998242
            ],
            [
              72.819922,
              18.991406
            ],
            [
              72.824023,
              18.985938
            ],
            [
              72.824023,
              18.981836
            ],
            [
              72.821289,
              18.979102
            ],
            [
              72.821289,
              18.977734
            ],
            [
              72.822656,
              18.977734
            ],
            [
              72.824023,
              18.975
            ],
            [
              72.828125,
              18.970898
            ],
            [
              72.843164,
              18.970898
            ],
            [
              72.844531,
              18.969531
            ],
            [
              72.848633,
              18.972266
            ],
            [
              72.848633,
              19.00918
            ]
          ]
        ]
      }
    },
    {
      "type": "Feature",
      "properties": {
        "spill_id": "sentinel_755",
        "confidence": 0.75
      },
      "geometry": {
        "type": "Polygon",
        "coordinates": [
          [
            [
              72.5,
              19.017383
            ],
            [
              72.5,
              18.872461
            ],
            [
              72.508203,
              18.871094
            ],
            [
              72.524609,
              18.873828
            ],
            [
              72.539648,
              18.884766
            ],
            [
              72.542383,
              18.891602
            ],
            [
              72.542383,
              18.910742
            ],
            [
              72.539648,
              18.918945
            ],
            [
              72.539648,
              18.946289
            ],
            [
              72.53418,
              18.959961
            ],
            [
              72.53418,
              18.98457
            ],
            [
              72.508203,
              19.013281
            ],
            [
              72.5,
              19.017383
            ]
          ]
        ]
      }
    },
    {
      "type": "Feature",
      "properties": {
        "spill_id": "sentinel_755",
        "confidence": 0.75
      },
      "geometry": {
        "type": "Polygon",
        "coordinates": [
          [
            [
              72.598438,
              19.044727
            ],
            [
              72.595703,
              19.041992
            ],
            [
              72.595703,
              19.039258
            ],
            [
              72.594336,
              19.037891
            ],
            [
              72.594336,
              19.036523
            ],
            [
              72.595703,
              19.035156
            ],
            [
              72.59707,
              19.031055
            ],
            [
              72.599805,
              19.02832
            ],
            [
              72.599805,
              19.025586
            ],
            [
              72.601172,
              19.025586
            ],
            [
              72.602539,
              19.024219
            ],
            [
              72.602539,
              19.022852
            ],
            [
              72.610742,
              19.014648
            ],
            [
              72.610742,
              19.013281
            ],
            [
              72.612109,
              19.011914
            ],
            [
              72.616211,
              19.011914
            ],
            [
              72.617578,
              19.010547
            ],
            [
              72.623047,
              19.016016
            ],
            [
              72.623047,
              19.017383
            ],
            [
              72.625781,
              19.021484
            ],
            [
              72.624414,
              19.022852
            ],
            [
              72.624414,
              19.024219
            ],
            [
              72.62168,
              19.024219
            ],
            [
              72.616211,
              19.029687
            ],
            [
              72.616211,
              19.032422
            ],
            [
              72.614844,
              19.033789
            ],
            [
              72.614844,
              19.035156
            ],
            [
              72.613477,
              19.035156
            ],
            [
              72.608008,
              19.040625
            ],
            [
              72.606641,
              19.040625
            ],
            [
              72.605273,
              19.041992
            ],
            [
              72.603906,
              19.046094
            ],
            [
              72.602539,
              19.044727
            ],
            [
              72.598438,
              19.044727
            ]
          ]
        ]
      }
    },
    {
      "type": "Feature",
      "properties": {
        "spill_id": "sentinel_755",
        "confidence": 0.75
      },
      "geometry": {
        "type": "Polygon",
        "coordinates": [
          [
            [
              72.658594,
              19.128125
            ],
            [
              72.655859,
              19.126758
            ],
            [
              72.649023,
              19.118555
            ],
            [
              72.649023,
              19.108984
            ],
            [
              72.654492,
              19.098047
            ],
            [
              72.654492,
              19.093945
            ],
            [
              72.662695,
              19.085742
            ],
            [
              72.668164,
              19.083008
            ],
            [
              72.670898,
              19.083008
            ],
            [
              72.675,
              19.078906
            ],
            [
              72.676367,
              19.078906
            ],
            [
              72.679102,
              19.081641
            ],
            [
              72.679102,
              19.084375
            ],
            [
              72.677734,
              19.085742
            ],
            [
              72.677734,
              19.089844
            ],
            [
              72.679102,
              19.091211
            ],
            [
              72.679102,
              19.093945
            ],
            [
              72.677734,
              19.095312
            ],
            [
              72.677734,
              19.121289
            ],
            [
              72.673633,
              19.128125
            ],
            [
              72.666797,
              19.128125
            ],
            [
              72.66543,
              19.126758
            ],
            [
              72.664062,
              19.128125
            ],
            [
              72.658594,
              19.128125
            ]
          ]
        ]
      }
    },
    {
      "type": "Feature",
      "properties": {
        "spill_id": "sentinel_755",
        "confidence": 0.75
      },
      "geometry": {
        "type": "Polygon",
        "coordinates": [
          [
            [
              72.632617,
              19.15
            ],
            [
              72.633984,
              19.15
            ],
            [
              72.635352,
              19.148633
            ],
            [
              72.635352,
              19.147266
            ],
            [
              72.636719,
              19.145898
            ],
            [
              72.636719,
              19.144531
            ],
            [
              72.638086,
              19.143164
            ],
            [
              72.638086,
              19.14043
            ],
            [
              72.639453,
              19.139062
            ],
            [
              72.639453,
              19.137695
            ],
            [
              72.642187,
              19.137695
            ],
            [
              72.643555,
              19.139062
            ],
            [
              72.644922,
              19.139062
            ],
            [
              72.650391,
              19.144531
            ],
            [
              72.650391,
              19.145898
            ],
            [
              72.651758,
              19.147266
            ],
            [
              72.651758,
              19.15
            ],
            [
              72.632617,
              19.15
            ]
          ]
        ]
      }
    },
    {
      "type": "Feature",
      "properties": {
        "spill_id": "sentinel_755",
        "confidence": 0.75
      },
      "geometry": {
        "type": "Polygon",
        "coordinates": [
          [
            [
              72.501367,
              19.15
            ],
            [
              72.5,
              19.147266
            ],
            [
              72.5,
              19.126758
            ],
            [
              72.502734,
              19.126758
            ],
            [
              72.508203,
              19.122656
            ],
            [
              72.513672,
              19.121289
            ],
            [
              72.524609,
              19.108984
            ],
            [
              72.53418,
              19.10625
            ],
            [
              72.546484,
              19.09668
            ],
            [
              72.551953,
              19.09668
            ],
            [
              72.551953,
              19.100781
            ],
            [
              72.550586,
              19.102148
            ],
            [
              72.551953,
              19.103516
            ],
            [
              72.549219,
              19.107617
            ],
            [
              72.549219,
              19.111719
            ],
            [
              72.55332,
              19.117188
            ],
            [
              72.55332,
              19.122656
            ],
            [
              72.547852,
              19.130859
            ],
            [
              72.550586,
              19.139062
            ],
            [
              72.549219,
              19.14043
            ],
            [
              72.545117,
              19.14043
            ],
            [
              72.542383,
              19.143164
            ],
            [
              72.541016,
              19.147266
            ],
            [
              72.542383,
              19.15
            ],
            [
              72.501367,
              19.15
            ]
          ]
        ]
      }
    }
  ]
}