{
  "type": "FeatureCollection",
  "features": [
    {
      "type": "Feature",
      "properties": {
        "spill_id": "sentinel_634",
        "confidence": 0.93
      },
      "geometry": {
        "type": "Polygon",
        "coordinates": [
          [
            [
              72.821289,
              19.032422
            ],
            [
              72.81582,
              19.02832
            ],
            [
              72.810352,
              19.02832
            ],
            [
              72.811719,
              19.021484
            ],
            [
              72.807617,
              19.017383
            ],
            [
              72.810352,
              19.016016
            ],
            [
              72.821289,
              18.994141
            ],
            [
              72.825391,
              18.991406
            ],
            [
              72.824023,
              18.970898
            ],
            [
              72.821289,
              18.966797
            ],
            [
              72.824023,
              18.962695
            ],
            [
              72.828125,
              18.962695
            ],
            [
              72.834961,
              18.968164
            ],
            [
              72.839062,
              18.962695
            ],
            [
              72.841797,
              18.962695
            ],
            [
              72.845898,
              18.957227
            ],
            [
              72.844531,
              18.946289
            ],
            [
              72.848633,
              18.949023
            ],
            [
              72.848633,
              18.954492
            ],
            [
              72.845898,
              18.955859
            ],
            [
              72.848633,
              18.961328
            ],
            [
              72.848633,
              19.010547
            ],
            [
              72.845898,
              19.014648
            ],
            [
              72.830859,
              19.013281
            ],
            [
              72.824023,
              19.016016
            ],
            [
              72.822656,
              19.024219
            ],
            [
              72.830859,
              19.031055
            ],
            [
              72.821289,
              19.032422
            ]
          ]
        ]
      }
    },
    {
      "type": "Feature",
      "properties": {
        "spill_id": "sentinel_634",
        "confidence": 0.93
      },
      "geometry": {
        "type": "Polygon",
        "coordinates": [
          [
            [
              72.836328,
              19.15
            ],
            [
              72.837695,
              19.148633
            ],
            [
              72.837695,
              19.134961
            ],
            [
              72.834961,
              19.132227
            ],
            [
              72.830859,
              19.130859
            ],
            [
              72.826758,
              19.125391
            ],
            [
              72.825391,
              19.126758
            ],
            [
              72.824023,
              19.125391
            ],
            [
              72.825391,
              19.124023
            ],
            [
              72.828125,
              19.124023
            ],
            [
              72.833594,
              19.126758
            ],
            [
              72.836328,
              19.124023
            ],
            [
              72.836328,
              19.121289
            ],
            [
              72.837695,
              19.119922
            ],
            [
              72.837695,
              19.100781
            ],
            [
              72.839062,
              19.099414
            ],
            [
              72.848633,
              19.098047
            ],
            [
              72.848633,
              19.145898
            ],
            [
              72.845898,
              19.148633
            ],
            [
              72.845898,
              19.15
            ],
            [
              72.836328,
              19.15
            ]
          ]
        ]
      }
    },
    {
      "type": "Feature",
      "properties": {
        "spill_id": "sentinel_634",
        "confidence": 0.93
      },
      "geometry": {
        "type": "Polygon",
        "coordinates": [
          [
            [
              72.5,
              19.15
            ],
            [
              72.5,
              18.801367
            ],
            [
              72.845898,
              18.801367
            ],
            [
              72.848633,
              18.882031
            ],
            [
              72.834961,
              18.876562
            ],
            [
              72.774805,
              18.927148
            ],
            [
              72.787109,
              18.962695
            ],
            [
              72.765234,
              18.976367
            ],
            [
              72.767969,
              19.002344
            ],
            [
              72.736523,
              19.007812
            ],
            [
              72.735156,
              19.044727
            ],
            [
              72.722852,
              19.048828
            ],
            [
              72.751562,
              19.070703
            ],
            [
              72.729688,
              19.114453
            ],
            [
              72.766602,
              19.15
            ],
            [
              72.5,
              19.15
            ]
          ]
        ]
      }
    }
  ]
}