{
  "type": "FeatureCollection",
  "features": [
    {
      "type": "Feature",
      "properties": {
        "spill_id": "sentinel_44",
        "confidence": 0.9
      },
      "geometry": {
        "type": "Polygon",
        "coordinates": [
          [
            [
              72.848633,
              19.107617
            ],
            [
              72.829492,
              19.108984
            ],
            [
              72.793945,
              19.15
            ],
            [
              72.750195,
              19.136328
            ],
            [
              72.700977,
              19.147266
            ],
            [
              72.670898,
              19.139062
            ],
            [
              72.680469,
              19.108984
            ],
            [
              72.714648,
              19.10625
            ],
            [
              72.702344,
              19.080273
            ],
            [
              72.679102,
              19.074805
            ],
            [
              72.670898,
              19.01875
            ],
            [
              72.702344,
              18.975
            ],
            [
              72.680469,
              18.966797
            ],
            [
              72.673633,
              18.981836
            ],
            [
              72.657227,
              18.944922
            ],
            [
              72.586133,
              18.903906
            ],
            [
              72.524609,
              18.92168
            ],
            [
              72.5,
              18.917578
            ],
            [
              72.5,
              18.801367
            ],
            [
              72.844531,
              18.801367
            ],
            [
              72.848633,
              19.107617
            ]
          ]
        ]
      }
    }
  ]
}