{
  "type": "FeatureCollection",
  "features": [
    {
      "type": "Feature",
      "properties": {
        "spill_id": "sentinel_63",
        "confidence": 0.89
      },
      "geometry": {
        "type": "Polygon",
        "coordinates": [
          [
            [
              72.848633,
              18.890234
            ],
            [
              72.799414,
              18.871094
            ],
            [
              72.818555,
              18.906641
            ],
            [
              72.79668,
              18.916211
            ],
            [
              72.750195,
              18.876562
            ],
            [
              72.743359,
              18.847852
            ],
            [
              72.773438,
              18.866992
            ],
            [
              72.778906,
              18.858789
            ],
            [
              72.755664,
              18.841016
            ],
            [
              72.731055,
              18.849219
            ],
            [
              72.724219,
              18.835547
            ],
            [
              72.694141,
              18.841016
            ],
            [
              72.679102,
              18.832812
            ],
            [
              72.668164,
              18.865625
            ],
            [
              72.642187,
              18.862891
            ],
            [
              72.620312,
              18.882031
            ],
            [
              72.613477,
              18.876562
            ],
            [
              72.618945,
              18.862891
            ],
            [
              72.599805,
              18.841016
            ],
            [
              72.562891,
              18.854688
            ],
            [
              72.55332,
              18.835547
            ],
            [
              72.571094,
              18.801367
            ],
            [
              72.628516,
              18.802734
            ],
            [
              72.618945,
              18.83418
            ],
            [
              72.629883,
              18.841016
            ],
            [
              72.653125,
              18.819141
            ],
            [
              72.650391,
              18.801367
            ],
            [
              72.808984,
              18.801367
            ],
            [
              72.814453,
              18.810938
            ],
            [
              72.818555,
              18.801367
            ],
            [
              72.848633,
              18.801367
            ],
            [
              72.848633,
              18.890234
            ]
          ]
        ]
      }
    },
    {
      "type": "Feature",
      "properties": {
        "spill_id": "sentinel_63",
        "confidence": 0.89
      },
      "geometry": {
        "type": "Polygon",
        "coordinates": [
          [
            [
              72.605273,
              18.918945
            ],
            [
              72.586133,
              18.918945
            ],
            [
              72.584766,
              18.917578
            ],
            [
              72.582031,
              18.917578
            ],
            [
              72.576562,
              18.910742
            ],
            [
              72.572461,
              18.909375
            ],
            [
              72.568359,
              18.905273
            ],
            [
              72.566992,
              18.902539
            ],
            [
              72.566992,
              18.89707
            ],
            [
              72.565625,
              18.895703
            ],
            [
              72.566992,
              18.8875
            ],
            [
              72.569727,
              18.884766
            ],
            [
              72.569727,
              18.883398
            ],
            [
              72.571094,
              18.883398
            ],
            [
              72.575195,
              18.879297
            ],
            [
              72.579297,
              18.87793
            ],
            [
              72.580664,
              18.879297
            ],
            [
              72.579297,
              18.883398
            ],
            [
              72.582031,
              18.888867
            ],
            [
              72.588867,
              18.895703
            ],
            [
              72.591602,
              18.89707
            ],
            [
              72.595703,
              18.89707
            ],
            [
              72.59707,
              18.898438
            ],
            [
              72.605273,
              18.914844
            ],
            [
              72.605273,
              18.918945
            ]
          ]
        ]
      }
    },
    {
      "type": "Feature",
      "properties": {
        "spill_id": "sentinel_63",
        "confidence": 0.89
      },
      "geometry": {
        "type": "Polygon",
        "coordinates": [
          [
            [
              72.5,
              18.929883
            ],
            [
              72.5,
              18.895703
            ],
            [
              72.508203,
              18.895703
            ],
            [
              72.50957,
              18.89707
            ],
            [
              72.510938,
              18.89707
            ],
            [
              72.515039,
              18.901172
            ],
            [
              72.516406,
              18.901172
            ],
            [
              72.516406,
              18.902539
            ],
            [
              72.517773,
              18.903906
            ],
            [
              72.519141,
              18.903906
            ],
            [
              72.519141,
              18.905273
            ],
            [
              72.520508,
              18.906641
            ],
            [
              72.521875,
              18.906641
            ],
            [
              72.521875,
              18.908008
            ],
            [
              72.523242,
              18.909375
            ],
            [
              72.523242,
              18.913477
            ],
            [
              72.520508,
              18.916211
            ],
            [
              72.512305,
              18.918945
            ],
            [
              72.50957,
              18.92168
            ],
            [
              72.50957,
              18.925781
            ],
            [
              72.508203,
              18.927148
            ],
            [
              72.506836,
              18.927148
            ],
            [
              72.505469,
              18.928516
            ],
            [
              72.504102,
              18.927148
            ],
            [
              72.5,
              18.929883
            ]
          ]
        ]
      }
    },
    {
      "type": "Feature",
      "properties": {
        "spill_id": "sentinel_63",
        "confidence": 0.89
      },
      "geometry": {
        "type": "Polygon",
        "coordinates": [
          [
            [
              72.844531,
              18.949023
            ],
            [
              72.837695,
              18.942188
            ],
            [
              72.837695,
              18.936719
            ],
            [
              72.834961,
              18.933984
            ],
            [
              72.834961,
              18.929883
            ],
            [
              72.836328,
              18.928516
            ],
            [
              72.836328,
              18.927148
            ],
            [
              72.84043,
              18.927148
            ],
            [
              72.841797,
              18.925781
            ],
            [
              72.843164,
              18.925781
            ],
            [
              72.845898,
              18.923047
            ],
            [
              72.845898,
              18.917578
            ],
            [
              72.845898,
              18.92168
            ],
            [
              72.848633,
              18.924414
            ],
            [
              72.848633,
              18.936719
            ],
            [
              72.845898,
              18.939453
            ],
            [
              72.845898,
              18.946289
            ],
            [
              72.844531,
              18.947656
            ],
            [
              72.844531,
              18.949023
            ]
          ]
        ]
      }
    },
    {
      "type": "Feature",
      "properties": {
        "spill_id": "sentinel_63",
        "confidence": 0.89
      },
      "geometry": {
        "type": "Polygon",
        "coordinates": [
          [
            [
              72.5,
              19.15
            ],
            [
              72.501367,
              18.962695
            ],
            [
              72.515039,
              18.96543
            ],
            [
              72.50957,
              18.98457
            ],
            [
              72.531445,
              19.000977
            ],
            [
              72.55332,
              19.003711
            ],
            [
              72.57793,
              18.981836
            ],
            [
              72.602539,
              18.995508
            ],
            [
              72.618945,
              18.981836
            ],
            [
              72.635352,
              19.00918
            ],
            [
              72.651758,
              19.014648
            ],
            [
              72.666797,
              18.994141
            ],
            [
              72.679102,
              19.005078
            ],
            [
              72.699609,
              18.994141
            ],
            [
              72.711914,
              19.003711
            ],
            [
              72.714648,
              18.990039
            ],
            [
              72.735156,
              19.000977
            ],
            [
              72.748828,
              18.992773
            ],
            [
              72.77207,
              19.020117
            ],
            [
              72.808984,
              19.024219
            ],
            [
              72.822656,
              19.039258
            ],
            [
              72.829492,
              18.990039
            ],
            [
              72.821289,
              18.973633
            ],
            [
              72.826758,
              18.957227
            ],
            [
              72.836328,
              18.961328
            ],
            [
              72.848633,
              19.003711
            ],
            [
              72.848633,
              19.15
            ],
            [
              72.5,
              19.15
            ]
          ]
        ]
      }
    }
  ]
}