{
  "type": "FeatureCollection",
  "features": [
    {
      "type": "Feature",
      "properties": {
        "spill_id": "sentinel_95",
        "confidence": 0.88
      },
      "geometry": {
        "type": "Polygon",
        "coordinates": [
          [
            [
              72.787109,
              18.860156
            ],
            [
              72.787109,
              18.858789
            ],
            [
              72.783008,
              18.854688
            ],
            [
              72.783008,
              18.850586
            ],
            [
              72.784375,
              18.849219
            ],
            [
              72.784375,
              18.847852
            ],
            [
              72.785742,
              18.846484
            ],
            [
              72.785742,
              18.845117
            ],
            [
              72.788477,
              18.842383
            ],
            [
              72.799414,
              18.842383
            ],
            [
              72.800781,
              18.84375
            ],
            [
              72.802148,
              18.84375
            ],
            [
              72.802148,
              18.850586
            ],
            [
              72.799414,
              18.85332
            ],
            [
              72.799414,
              18.854688
            ],
            [
              72.798047,
              18.854688
            ],
            [
              72.792578,
              18.860156
            ],
            [
              72.787109,
              18.860156
            ]
          ]
        ]
      }
    },
    {
      "type": "Feature",
      "properties": {
        "spill_id": "sentinel_95",
        "confidence": 0.88
      },
      "geometry": {
        "type": "Polygon",
        "coordinates": [
          [
            [
              72.776172,
              18.884766
            ],
            [
              72.776172,
              18.880664
            ],
            [
              72.784375,
              18.872461
            ],
            [
              72.784375,
              18.871094
            ],
            [
              72.788477,
              18.871094
            ],
            [
              72.789844,
              18.869727
            ],
            [
              72.792578,
              18.869727
            ],
            [
              72.793945,
              18.871094
            ],
            [
              72.793945,
              18.873828
            ],
            [
              72.788477,
              18.873828
            ],
            [
              72.787109,
              18.875195
            ],
            [
              72.787109,
              18.87793
            ],
            [
              72.781641,
              18.883398
            ],
            [
              72.780273,
              18.883398
            ],
            [
              72.778906,
              18.884766
            ],
            [
              72.776172,
              18.884766
            ]
          ]
        ]
      }
    },
    {
      "type": "Feature",
      "properties": {
        "spill_id": "sentinel_95",
        "confidence": 0.88
      },
      "geometry": {
        "type": "Polygon",
        "coordinates": [
          [
            [
              72.736523,
              18.970898
            ],
            [
              72.736523,
              18.966797
            ],
            [
              72.737891,
              18.96543
            ],
            [
              72.737891,
              18.961328
            ],
            [
              72.739258,
              18.959961
            ],
            [
              72.739258,
              18.957227
            ],
            [
              72.740625,
              18.955859
            ],
            [
              72.740625,
              18.951758
            ],
            [
              72.741992,
              18.950391
            ],
            [
              72.741992,
              18.949023
            ],
            [
              72.743359,
              18.947656
            ],
            [
              72.746094,
              18.947656
            ],
            [
              72.750195,
              18.951758
            ],
            [
              72.750195,
              18.959961
            ],
            [
              72.748828,
              18.961328
            ],
            [
              72.748828,
              18.964062
            ],
            [
              72.741992,
              18.970898
            ],
            [
              72.736523,
              18.970898
            ]
          ]
        ]
      }
    },
    {
      "type": "Feature",
      "properties": {
        "spill_id": "sentinel_95",
        "confidence": 0.88
      },
      "geometry": {
        "type": "Polygon",
        "coordinates": [
          [
            [
              72.703711,
              19.099414
            ],
            [
              72.705078,
              19.098047
            ],
            [
              72.705078,
              19.095312
            ],
            [
              72.706445,
              19.093945
            ],
            [
              72.706445,
              19.092578
            ],
            [
              72.70918,
              19.089844
            ],
            [
              72.710547,
              19.089844
            ],
            [
              72.711914,
              19.088477
            ],
            [
              72.716016,
              19.088477
            ],
            [
              72.717383,
              19.089844
            ],
            [
              72.71875,
              19.089844
            ],
            [
              72.720117,
              19.091211
            ],
            [
              72.720117,
              19.095312
            ],
            [
              72.717383,
              19.098047
            ],
            [
              72.716016,
              19.098047
            ],
            [
              72.713281,
              19.100781
            ],
            [
              72.705078,
              19.100781
            ],
            [
              72.703711,
              19.099414
            ]
          ]
        ]
      }
    },
    {
      "type": "Feature",
      "properties": {
        "spill_id": "sentinel_95",
        "confidence": 0.88
      },
      "geometry": {
        "type": "Polygon",
        "coordinates": [
          [
            [
              72.757031,
              19.111719
            ],
            [
              72.757031,
              19.104883
            ],
            [
              72.758398,
              19.103516
            ],
            [
              72.758398,
              19.100781
            ],
            [
              72.759766,
              19.098047
            ],
            [
              72.767969,
              19.093945
            ],
            [
              72.792578,
              19.093945
            ],
            [
              72.798047,
              19.09668
            ],
            [
              72.804883,
              19.103516
            ],
            [
              72.804883,
              19.110352
            ],
            [
              72.803516,
              19.111719
            ],
            [
              72.795312,
              19.111719
            ],
            [
              72.793945,
              19.110352
            ],
            [
              72.789844,
              19.110352
            ],
            [
              72.788477,
              19.108984
            ],
            [
              72.783008,
              19.108984
            ],
            [
              72.781641,
              19.110352
            ],
            [
              72.774805,
              19.111719
            ],
            [
              72.77207,
              19.114453
            ],
            [
              72.769336,
              19.11582
            ],
            [
              72.766602,
              19.11582
            ],
            [
              72.765234,
              19.117188
            ],
            [
              72.761133,
              19.117188
            ],
            [
              72.757031,
              19.111719
            ]
          ]
        ]
      }
    },
    {
      "type": "Feature",
      "properties": {
        "spill_id": "sentinel_95",
        "confidence": 0.88
      },
      "geometry": {
        "type": "Polygon",
        "coordinates": [
          [
            [
              72.690039,
              19.137695
            ],
            [
              72.690039,
              19.133594
            ],
            [
              72.695508,
              19.126758
            ],
            [
              72.700977,
              19.125391
            ],
            [
              72.711914,
              19.119922
            ],
            [
              72.716016,
              19.119922
            ],
            [
              72.717383,
              19.121289
            ],
            [
              72.726953,
              19.122656
            ],
            [
              72.743359,
              19.130859
            ],
            [
              72.743359,
              19.137695
            ],
            [
              72.741992,
              19.139062
            ],
            [
              72.741992,
              19.141797
            ],
            [
              72.737891,
              19.144531
            ],
            [
              72.735156,
              19.143164
            ],
            [
              72.72832,
              19.134961
            ],
            [
              72.725586,
              19.134961
            ],
            [
              72.724219,
              19.133594
            ],
            [
              72.71875,
              19.134961
            ],
            [
              72.710547,
              19.143164
            ],
            [
              72.707812,
              19.144531
            ],
            [
              72.698242,
              19.144531
            ],
            [
              72.696875,
              19.143164
            ],
            [
              72.694141,
              19.143164
            ],
            [
              72.690039,
              19.137695
            ]
          ]
        ]
      }
    },
    {
      "type": "Feature",
      "properties": {
        "spill_id": "sentinel_95",
        "confidence": 0.88
      },
      "geometry": {
        "type": "Polygon",
        "coordinates": [
          [
            [
              72.5,
              19.15
            ],
            [
              72.5,
              19.129492
            ],
            [
              72.508203,
              19.114453
            ],
            [
              72.508203,
              19.108984
            ],
            [
              72.5,
              19.104883
            ],
            [
              72.5,
              19.085742
            ],
            [
              72.50957,
              19.081641
            ],
            [
              72.545117,
              19.081641
            ],
            [
              72.557422,
              19.087109
            ],
            [
              72.595703,
              19.089844
            ],
            [
              72.612109,
              19.078906
            ],
            [
              72.617578,
              19.078906
            ],
            [
              72.629883,
              19.087109
            ],
            [
              72.643555,
              19.103516
            ],
            [
              72.614844,
              19.125391
            ],
            [
              72.602539,
              19.15
            ],
            [
              72.571094,
              19.15
            ],
            [
              72.562891,
              19.141797
            ],
            [
              72.54375,
              19.143164
            ],
            [
              72.536914,
              19.15
            ],
            [
              72.5,
              19.15
            ]
          ]
        ]
      }
    }
  ]
}