{
  "type": "FeatureCollection",
  "features": [
    {
      "type": "Feature",
      "properties": {
        "spill_id": "sentinel_645",
        "confidence": 0.76
      },
      "geometry": {
        "type": "Polygon",
        "coordinates": [
          [
            [
              72.550586,
              18.838281
            ],
            [
              72.549219,
              18.838281
            ],
            [
              72.547852,
              18.839648
            ],
            [
              72.546484,
              18.839648
            ],
            [
              72.545117,
              18.838281
            ],
            [
              72.542383,
              18.838281
            ],
            [
              72.536914,
              18.832812
            ],
            [
              72.535547,
              18.832812
            ],
            [
              72.531445,
              18.830078
            ],
            [
              72.528711,
              18.830078
            ],
            [
              72.521875,
              18.825977
            ],
            [
              72.521875,
              18.820508
            ],
            [
              72.524609,
              18.816406
            ],
            [
              72.524609,
              18.808203
            ],
            [
              72.527344,
              18.805469
            ],
            [
              72.532812,
              18.805469
            ],
            [
              72.536914,
              18.808203
            ],
            [
              72.536914,
              18.80957
            ],
            [
              72.539648,
              18.813672
            ],
            [
              72.539648,
              18.816406
            ],
            [
              72.541016,
              18.817773
            ],
            [
              72.541016,
              18.820508
            ],
            [
              72.542383,
              18.821875
            ],
            [
              72.54375,
              18.825977
            ],
            [
              72.547852,
              18.830078
            ],
            [
              72.547852,
              18.831445
            ],
            [
              72.550586,
              18.83418
            ],
            [
              72.550586,
              18.835547
            ],
            [
              72.551953,
              18.836914
            ],
            [
              72.550586,
              18.838281
            ]
          ]
        ]
      }
    },
    {
      "type": "Feature",
      "properties": {
        "spill_id": "sentinel_645",
        "confidence": 0.76
      },
      "geometry": {
        "type": "Polygon",
        "coordinates": [
          [
            [
              72.843164,
              18.892969
            ],
            [
              72.84043,
              18.890234
            ],
            [
              72.84043,
              18.883398
            ],
            [
              72.841797,
              18.882031
            ],
            [
              72.843164,
              18.882031
            ],
            [
              72.844531,
              18.880664
            ],
            [
              72.845898,
              18.882031
            ],
            [
              72.847266,
              18.882031
            ],
            [
              72.848633,
              18.883398
            ],
            [
              72.848633,
              18.891602
            ],
            [
              72.845898,
              18.891602
            ],
            [
              72.844531,
              18.892969
            ],
            [
              72.843164,
              18.892969
            ]
          ]
        ]
      }
    },
    {
      "type": "Feature",
      "properties": {
        "spill_id": "sentinel_645",
        "confidence": 0.76
      },
      "geometry": {
        "type": "Polygon",
        "coordinates": [
          [
            [
              72.81582,
              18.947656
            ],
            [
              72.81582,
              18.942188
            ],
            [
              72.817187,
              18.94082
            ],
            [
              72.817187,
              18.938086
            ],
            [
              72.818555,
              18.936719
            ],
            [
              72.818555,
              18.935352
            ],
            [
              72.819922,
              18.935352
            ],
            [
              72.821289,
              18.933984
            ],
            [
              72.826758,
              18.933984
            ],
            [
              72.830859,
              18.929883
            ],
            [
              72.833594,
              18.929883
            ],
            [
              72.834961,
              18.928516
            ],
            [
              72.836328,
              18.928516
            ],
            [
              72.84043,
              18.93125
            ],
            [
              72.84043,
              18.946289
            ],
            [
              72.841797,
              18.947656
            ],
            [
              72.84043,
              18.949023
            ],
            [
              72.84043,
              18.950391
            ],
            [
              72.818555,
              18.950391
            ],
            [
              72.81582,
              18.947656
            ]
          ]
        ]
      }
    },
    {
      "type": "Feature",
      "properties": {
        "spill_id": "sentinel_645",
        "confidence": 0.76
      },
      "geometry": {
        "type": "Polygon",
        "coordinates": [
          [
            [
              72.776172,
              18.961328
            ],
            [
              72.769336,
              18.96543
            ],
            [
              72.7625,
              18.961328
            ],
            [
              72.755664,
              18.935352
            ],
            [
              72.741992,
              18.920312
            ],
            [
              72.72832,
              18.913477
            ],
            [
              72.720117,
              18.903906
            ],
            [
              72.70918,
              18.901172
            ],
            [
              72.661328,
              18.869727
            ],
            [
              72.639453,
              18.864258
            ],
            [
              72.638086,
              18.857422
            ],
            [
              72.64082,
              18.854688
            ],
            [
              72.659961,
              18.856055
            ],
            [
              72.670898,
              18.865625
            ],
            [
              72.691406,
              18.869727
            ],
            [
              72.717383,
              18.884766
            ],
            [
              72.741992,
              18.912109
            ],
            [
              72.763867,
              18.923047
            ],
            [
              72.776172,
              18.936719
            ],
            [
              72.778906,
              18.944922
            ],
            [
              72.776172,
              18.961328
            ]
          ]
        ]
      }
    },
    {
      "type": "Feature",
      "properties": {
        "spill_id": "sentinel_645",
        "confidence": 0.76
      },
      "geometry": {
        "type": "Polygon",
        "coordinates": [
          [
            [
              72.688672,
              18.975
            ],
            [
              72.690039,
              18.970898
            ],
            [
              72.692773,
              18.968164
            ],
            [
              72.694141,
              18.968164
            ],
            [
              72.696875,
              18.96543
            ],
            [
              72.698242,
              18.96543
            ],
            [
              72.705078,
              18.961328
            ],
            [
              72.713281,
              18.961328
            ],
            [
              72.714648,
              18.962695
            ],
            [
              72.721484,
              18.962695
            ],
            [
              72.722852,
              18.964062
            ],
            [
              72.72832,
              18.964062
            ],
            [
              72.729688,
              18.96543
            ],
            [
              72.732422,
              18.96543
            ],
            [
              72.735156,
              18.968164
            ],
            [
              72.735156,
              18.973633
            ],
            [
              72.733789,
              18.975
            ],
            [
              72.726953,
              18.975
            ],
            [
              72.725586,
              18.973633
            ],
            [
              72.716016,
              18.973633
            ],
            [
              72.714648,
              18.975
            ],
            [
              72.703711,
              18.975
            ],
            [
              72.702344,
              18.976367
            ],
            [
              72.699609,
              18.976367
            ],
            [
              72.698242,
              18.977734
            ],
            [
              72.690039,
              18.977734
            ],
            [
              72.690039,
              18.976367
            ],
            [
              72.688672,
              18.975
            ]
          ]
        ]
      }
    },
    {
      "type": "Feature",
      "properties": {
        "spill_id": "sentinel_645",
        "confidence": 0.76
      },
      "geometry": {
        "type": "Polygon",
        "coordinates": [
          [
            [
              72.769336,
              19.00918
            ],
            [
              72.767969,
              19.00918
            ],
            [
              72.766602,
              19.007812
            ],
            [
              72.765234,
              19.007812
            ],
            [
              72.763867,
              19.006445
            ],
            [
              72.7625,
              19.006445
            ],
            [
              72.7625,
              19.003711
            ],
            [
              72.759766,
              19.000977
            ],
            [
              72.759766,
              18.988672
            ],
            [
              72.761133,
              18.987305
            ],
            [
              72.766602,
              18.987305
            ],
            [
              72.769336,
              18.990039
            ],
            [
              72.769336,
              18.991406
            ],
            [
              72.770703,
              18.992773
            ],
            [
              72.770703,
              18.995508
            ],
            [
              72.77207,
              18.996875
            ],
            [
              72.77207,
              19.006445
            ],
            [
              72.769336,
              19.00918
            ]
          ]
        ]
      }
    },
    {
      "type": "Feature",
      "properties": {
        "spill_id": "sentinel_645",
        "confidence": 0.76
      },
      "geometry": {
        "type": "Polygon",
        "coordinates": [
          [
            [
              72.72832,
              19.069336
            ],
            [
              72.726953,
              19.070703
            ],
            [
              72.725586,
              19.070703
            ],
            [
              72.724219,
              19.07207
            ],
            [
              72.721484,
              19.07207
            ],
            [
              72.720117,
              19.073438
            ],
            [
              72.713281,
              19.073438
            ],
            [
              72.710547,
              19.070703
            ],
            [
              72.70918,
              19.070703
            ],
            [
              72.70918,
              19.069336
            ],
            [
              72.706445,
              19.066602
            ],
            [
              72.706445,
              19.063867
            ],
            [
              72.705078,
              19.0625
            ],
            [
              72.705078,
              19.059766
            ],
            [
              72.706445,
              19.058398
            ],
            [
              72.707812,
              19.058398
            ],
            [
              72.70918,
              19.057031
            ],
            [
              72.710547,
              19.057031
            ],
            [
              72.711914,
              19.055664
            ],
            [
              72.713281,
              19.057031
            ],
            [
              72.716016,
              19.057031
            ],
            [
              72.717383,
              19.058398
            ],
            [
              72.71875,
              19.058398
            ],
            [
              72.722852,
              19.0625
            ],
            [
              72.724219,
              19.0625
            ],
            [
              72.72832,
              19.066602
            ],
            [
              72.72832,
              19.069336
            ]
          ]
        ]
      }
    },
    {
      "type": "Feature",
      "properties": {
        "spill_id": "sentinel_645",
        "confidence": 0.76
      },
      "geometry": {
        "type": "Polygon",
        "coordinates": [
          [
            [
              72.5,
              19.085742
            ],
            [
              72.5,
              19.077539
            ],
            [
              72.565625,
              19.061133
            ],
            [
              72.582031,
              19.046094
            ],
            [
              72.572461,
              19.037891
            ],
            [
              72.558789,
              19.037891
            ],
            [
              72.550586,
              19.050195
            ],
            [
              72.532812,
              19.050195
            ],
            [
              72.521875,
              19.044727
            ],
            [
              72.524609,
              19.037891
            ],
            [
              72.542383,
              19.036523
            ],
            [
              72.562891,
              19.021484
            ],
            [
              72.591602,
              19.021484
            ],
            [
              72.601172,
              19.013281
            ],
            [
              72.632617,
              19.011914
            ],
            [
              72.627148,
              19.021484
            ],
            [
              72.602539,
              19.037891
            ],
            [
              72.602539,
              19.044727
            ],
            [
              72.63125,
              19.039258
            ],
            [
              72.66543,
              19.043359
            ],
            [
              72.677734,
              19.036523
            ],
            [
              72.700977,
              19.058398
            ],
            [
              72.695508,
              19.063867
            ],
            [
              72.669531,
              19.066602
            ],
            [
              72.647656,
              19.058398
            ],
            [
              72.610742,
              19.061133
            ],
            [
              72.583398,
              19.069336
            ],
            [
              72.586133,
              19.083008
            ],
            [
              72.582031,
              19.087109
            ],
            [
              72.536914,
              19.093945
            ],
            [
              72.5,
              19.085742
            ]
          ]
        ]
      }
    },
    {
      "type": "Feature",
      "properties": {
        "spill_id": "sentinel_645",
        "confidence": 0.76
      },
      "geometry": {
        "type": "Polygon",
        "coordinates": [
          [
            [
              72.783008,
              19.145898
            ],
            [
              72.778906,
              19.147266
            ],
            [
              72.774805,
              19.144531
            ],
            [
              72.763867,
              19.143164
            ],
            [
              72.750195,
              19.145898
            ],
            [
              72.72832,
              19.14043
            ],
            [
              72.705078,
              19.143164
            ],
            [
              72.702344,
              19.137695
            ],
            [
              72.705078,
              19.132227
            ],
            [
              72.699609,
              19.126758
            ],
            [
              72.694141,
              19.125391
            ],
            [
              72.687305,
              19.128125
            ],
            [
              72.677734,
              19.128125
            ],
            [
              72.675,
              19.126758
            ],
            [
              72.673633,
              19.119922
            ],
            [
              72.680469,
              19.11582
            ],
            [
              72.699609,
              19.117188
            ],
            [
              72.703711,
              19.114453
            ],
            [
              72.711914,
              19.114453
            ],
            [
              72.722852,
              19.124023
            ],
            [
              72.736523,
              19.129492
            ],
            [
              72.748828,
              19.126758
            ],
            [
              72.759766,
              19.128125
            ],
            [
              72.780273,
              19.14043
            ],
            [
              72.783008,
              19.145898
            ]
          ]
        ]
      }
    }
  ]
}