{
  "type": "FeatureCollection",
  "features": [
    {
      "type": "Feature",
      "properties": {
        "spill_id": "sentinel_709",
        "confidence": 0.87
      },
      "geometry": {
        "type": "Polygon",
        "coordinates": [
          [
            [
              72.635352,
              18.80957
            ],
            [
              72.64082,
              18.801367
            ],
            [
              72.770703,
              18.801367
            ],
            [
              72.787109,
              18.823242
            ],
            [
              72.817187,
              18.832812
            ],
            [
              72.845898,
              18.810938
            ],
            [
              72.848633,
              18.831445
            ],
            [
              72.828125,
              18.830078
            ],
            [
              72.819922,
              18.836914
            ],
            [
              72.839062,
              18.87793
            ],
            [
              72.822656,
              18.872461
            ],
            [
              72.808984,
              18.860156
            ],
            [
              72.776172,
              18.860156
            ],
            [
              72.761133,
              18.869727
            ],
            [
              72.75293,
              18.857422
            ],
            [
              72.737891,
              18.851953
            ],
            [
              72.716016,
              18.828711
            ],
            [
              72.705078,
              18.836914
            ],
            [
              72.702344,
              18.883398
            ],
            [
              72.687305,
              18.8875
            ],
            [
              72.679102,
              18.876562
            ],
            [
              72.677734,
              18.860156
            ],
            [
              72.661328,
              18.851953
            ],
            [
              72.635352,
              18.80957
            ]
          ]
        ]
      }
    },
    {
      "type": "Feature",
      "properties": {
        "spill_id": "sentinel_709",
        "confidence": 0.87
      },
      "geometry": {
        "type": "Polygon",
        "coordinates": [
          [
            [
              72.759766,
              18.92168
            ],
            [
              72.757031,
              18.918945
            ],
            [
              72.757031,
              18.914844
            ],
            [
              72.755664,
              18.913477
            ],
            [
              72.755664,
              18.902539
            ],
            [
              72.757031,
              18.901172
            ],
            [
              72.757031,
              18.899805
            ],
            [
              72.759766,
              18.89707
            ],
            [
              72.761133,
              18.89707
            ],
            [
              72.7625,
              18.895703
            ],
            [
              72.766602,
              18.895703
            ],
            [
              72.766602,
              18.89707
            ],
            [
              72.767969,
              18.898438
            ],
            [
              72.767969,
              18.906641
            ],
            [
              72.766602,
              18.908008
            ],
            [
              72.766602,
              18.909375
            ],
            [
              72.763867,
              18.912109
            ],
            [
              72.763867,
              18.913477
            ],
            [
              72.7625,
              18.914844
            ],
            [
              72.7625,
              18.918945
            ],
            [
              72.759766,
              18.92168
            ]
          ]
        ]
      }
    },
    {
      "type": "Feature",
      "properties": {
        "spill_id": "sentinel_709",
        "confidence": 0.87
      },
      "geometry": {
        "type": "Polygon",
        "coordinates": [
          [
            [
              72.848633,
              19.122656
            ],
            [
              72.814453,
              19.15
            ],
            [
              72.792578,
              19.15
            ],
            [
              72.776172,
              19.118555
            ],
            [
              72.7625,
              19.126758
            ],
            [
              72.767969,
              19.15
            ],
            [
              72.744727,
              19.15
            ],
            [
              72.732422,
              19.122656
            ],
            [
              72.705078,
              19.130859
            ],
            [
              72.710547,
              19.102148
            ],
            [
              72.732422,
              19.104883
            ],
            [
              72.735156,
              19.077539
            ],
            [
              72.664062,
              19.010547
            ],
            [
              72.633984,
              19.013281
            ],
            [
              72.635352,
              18.994141
            ],
            [
              72.662695,
              18.990039
            ],
            [
              72.676367,
              18.949023
            ],
            [
              72.628516,
              18.912109
            ],
            [
              72.580664,
              18.920312
            ],
            [
              72.573828,
              18.985938
            ],
            [
              72.547852,
              18.987305
            ],
            [
              72.528711,
              19.00918
            ],
            [
              72.542383,
              19.048828
            ],
            [
              72.562891,
              19.061133
            ],
            [
              72.558789,
              19.088477
            ],
            [
              72.502734,
              19.061133
            ],
            [
              72.5,
              18.949023
            ],
            [
              72.516406,
              18.899805
            ],
            [
              72.5,
              18.883398
            ],
            [
              72.5,
              18.801367
            ],
            [
              72.612109,
              18.801367
            ],
            [
              72.620312,
              18.860156
            ],
            [
              72.711914,
              18.964062
            ],
            [
              72.746094,
              18.975
            ],
            [
              72.781641,
              19.013281
            ],
            [
              72.848633,
              19.036523
            ],
            [
              72.848633,
              19.122656
            ]
          ]
        ]
      }
    }
  ]
}