{
  "type": "FeatureCollection",
  "features": [
    {
      "type": "Feature",
      "properties": {
        "spill_id": "sentinel_246",
        "confidence": 0.82
      },
      "geometry": {
        "type": "Polygon",
        "coordinates": [
          [
            [
              72.620312,
              18.85332
            ],
            [
              72.618945,
              18.851953
            ],
            [
              72.616211,
              18.851953
            ],
            [
              72.614844,
              18.85332
            ],
            [
              72.612109,
              18.85332
            ],
            [
              72.612109,
              18.846484
            ],
            [
              72.610742,
              18.845117
            ],
            [
              72.609375,
              18.845117
            ],
            [
              72.608008,
              18.84375
            ],
            [
              72.606641,
              18.84375
            ],
            [
              72.606641,
              18.838281
            ],
            [
              72.609375,
              18.835547
            ],
            [
              72.609375,
              18.83418
            ],
            [
              72.610742,
              18.832812
            ],
            [
              72.610742,
              18.831445
            ],
            [
              72.612109,
              18.830078
            ],
            [
              72.614844,
              18.830078
            ],
            [
              72.616211,
              18.831445
            ],
            [
              72.617578,
              18.831445
            ],
            [
              72.618945,
              18.832812
            ],
            [
              72.620312,
              18.832812
            ],
            [
              72.62168,
              18.83418
            ],
            [
              72.62168,
              18.847852
            ],
            [
              72.623047,
              18.849219
            ],
            [
              72.623047,
              18.850586
            ],
            [
              72.620312,
              18.85332
            ]
          ]
        ]
      }
    },
    {
      "type": "Feature",
      "properties": {
        "spill_id": "sentinel_246",
        "confidence": 0.82
      },
      "geometry": {
        "type": "Polygon",
        "coordinates": [
          [
            [
              72.848633,
              18.961328
            ],
            [
              72.84043,
              18.957227
            ],
            [
              72.824023,
              18.920312
            ],
            [
              72.830859,
              18.902539
            ],
            [
              72.829492,
              18.879297
            ],
            [
              72.819922,
              18.87793
            ],
            [
              72.80625,
              18.868359
            ],
            [
              72.795312,
              18.850586
            ],
            [
              72.804883,
              18.815039
            ],
            [
              72.798047,
              18.805469
            ],
            [
              72.799414,
              18.801367
            ],
            [
              72.80625,
              18.802734
            ],
            [
              72.808984,
              18.812305
            ],
            [
              72.822656,
              18.801367
            ],
            [
              72.845898,
              18.801367
            ],
            [
              72.848633,
              18.804102
            ],
            [
              72.848633,
              18.812305
            ],
            [
              72.839062,
              18.817773
            ],
            [
              72.837695,
              18.825977
            ],
            [
              72.828125,
              18.836914
            ],
            [
              72.836328,
              18.854688
            ],
            [
              72.837695,
              18.869727
            ],
            [
              72.848633,
              18.873828
            ],
            [
              72.848633,
              18.961328
            ]
          ]
        ]
      }
    },
    {
      "type": "Feature",
      "properties": {
        "spill_id": "sentinel_246",
        "confidence": 0.82
      },
      "geometry": {
        "type": "Polygon",
        "coordinates": [
          [
            [
              72.836328,
              19.15
            ],
            [
              72.767969,
              19.15
            ],
            [
              72.75293,
              19.055664
            ],
            [
              72.705078,
              19.026953
            ],
            [
              72.687305,
              19.043359
            ],
            [
              72.720117,
              19.074805
            ],
            [
              72.732422,
              19.15
            ],
            [
              72.690039,
              19.15
            ],
            [
              72.616211,
              19.047461
            ],
            [
              72.551953,
              19.006445
            ],
            [
              72.513672,
              19.063867
            ],
            [
              72.531445,
              19.092578
            ],
            [
              72.5,
              19.092578
            ],
            [
              72.5,
              18.801367
            ],
            [
              72.547852,
              18.801367
            ],
            [
              72.576562,
              18.823242
            ],
            [
              72.557422,
              18.861523
            ],
            [
              72.599805,
              18.903906
            ],
            [
              72.676367,
              18.891602
            ],
            [
              72.692773,
              18.873828
            ],
            [
              72.677734,
              18.802734
            ],
            [
              72.696875,
              18.802734
            ],
            [
              72.707812,
              18.84375
            ],
            [
              72.703711,
              18.802734
            ],
            [
              72.733789,
              18.802734
            ],
            [
              72.757031,
              18.8875
            ],
            [
              72.731055,
              18.891602
            ],
            [
              72.744727,
              18.906641
            ],
            [
              72.724219,
              18.973633
            ],
            [
              72.758398,
              19.003711
            ],
            [
              72.778906,
              18.980469
            ],
            [
              72.761133,
              18.936719
            ],
            [
              72.789844,
              18.94082
            ],
            [
              72.834961,
              19.029687
            ],
            [
              72.77207,
              19.025586
            ],
            [
              72.803516,
              19.089844
            ],
            [
              72.81582,
              19.044727
            ],
            [
              72.837695,
              19.047461
            ],
            [
              72.836328,
              19.15
            ]
          ]
        ]
      }
    },
    {
      "type": "Feature",
      "properties": {
        "spill_id": "sentinel_246",
        "confidence": 0.82
      },
      "geometry": {
        "type": "Polygon",
        "coordinates": [
          [
            [
              72.580664,
              19.15
            ],
            [
              72.566992,
              19.15
            ],
            [
              72.566992,
              19.148633
            ],
            [
              72.565625,
              19.147266
            ],
            [
              72.565625,
              19.141797
            ],
            [
              72.564258,
              19.14043
            ],
            [
              72.564258,
              19.136328
            ],
            [
              72.565625,
              19.134961
            ],
            [
              72.565625,
              19.133594
            ],
            [
              72.564258,
              19.132227
            ],
            [
              72.565625,
              19.130859
            ],
            [
              72.565625,
              19.129492
            ],
            [
              72.568359,
              19.126758
            ],
            [
              72.569727,
              19.126758
            ],
            [
              72.571094,
              19.125391
            ],
            [
              72.572461,
              19.126758
            ],
            [
              72.573828,
              19.126758
            ],
            [
              72.575195,
              19.128125
            ],
            [
              72.575195,
              19.129492
            ],
            [
              72.576562,
              19.130859
            ],
            [
              72.576562,
              19.134961
            ],
            [
              72.57793,
              19.136328
            ],
            [
              72.57793,
              19.137695
            ],
            [
              72.579297,
              19.139062
            ],
            [
              72.579297,
              19.14043
            ],
            [
              72.580664,
              19.141797
            ],
            [
              72.580664,
              19.144531
            ],
            [
              72.582031,
              19.145898
            ],
            [
              72.580664,
              19.147266
            ],
            [
              72.580664,
              19.15
            ]
          ]
        ]
      }
    }
  ]
}