{
  "type": "FeatureCollection",
  "features": [
    {
      "type": "Feature",
      "properties": {
        "spill_id": "sentinel_627",
        "confidence": 0.98
      },
      "geometry": {
        "type": "Polygon",
        "coordinates": [
          [
            [
              72.5,
              19.15
            ],
            [
              72.5,
              18.801367
            ],
            [
              72.819922,
              18.801367
            ],
            [
              72.800781,
              18.812305
            ],
            [
              72.791211,
              18.835547
            ],
            [
              72.798047,
              18.850586
            ],
            [
              72.781641,
              18.916211
            ],
            [
              72.800781,
              19.000977
            ],
            [
              72.792578,
              19.025586
            ],
            [
              72.799414,
              19.089844
            ],
            [
              72.847266,
              19.122656
            ],
            [
              72.848633,
              19.15
            ],
            [
              72.5,
              19.15
            ]
          ]
        ]
      }
    }
  ]
}