{
  "type": "FeatureCollection",
  "features": [
    {
      "type": "Feature",
      "properties": {
        "spill_id": "sentinel_434",
        "confidence": 0.76
      },
      "geometry": {
        "type": "Polygon",
        "coordinates": [
          [
            [
              72.569727,
              18.8875
            ],
            [
              72.568359,
              18.886133
            ],
            [
              72.566992,
              18.886133
            ],
            [
              72.564258,
              18.883398
            ],
            [
              72.564258,
              18.876562
            ],
            [
              72.568359,
              18.872461
            ],
            [
              72.569727,
              18.873828
            ],
            [
              72.571094,
              18.873828
            ],
            [
              72.571094,
              18.875195
            ],
            [
              72.572461,
              18.876562
            ],
            [
              72.573828,
              18.876562
            ],
            [
              72.573828,
              18.880664
            ],
            [
              72.575195,
              18.882031
            ],
            [
              72.575195,
              18.884766
            ],
            [
              72.573828,
              18.886133
            ],
            [
              72.571094,
              18.886133
            ],
            [
              72.569727,
              18.8875
            ]
          ]
        ]
      }
    },
    {
      "type": "Feature",
      "properties": {
        "spill_id": "sentinel_434",
        "confidence": 0.76
      },
      "geometry": {
        "type": "Polygon",
        "coordinates": [
          [
            [
              72.848633,
              18.858789
            ],
            [
              72.783008,
              18.856055
            ],
            [
              72.751562,
              18.912109
            ],
            [
              72.699609,
              18.938086
            ],
            [
              72.700977,
              18.895703
            ],
            [
              72.683203,
              18.902539
            ],
            [
              72.670898,
              18.886133
            ],
            [
              72.687305,
              18.866992
            ],
            [
              72.68457,
              18.851953
            ],
            [
              72.699609,
              18.869727
            ],
            [
              72.707812,
              18.847852
            ],
            [
              72.696875,
              18.823242
            ],
            [
              72.666797,
              18.830078
            ],
            [
              72.677734,
              18.850586
            ],
            [
              72.662695,
              18.864258
            ],
            [
              72.643555,
              18.858789
            ],
            [
              72.638086,
              18.835547
            ],
            [
              72.59707,
              18.847852
            ],
            [
              72.542383,
              18.845117
            ],
            [
              72.525977,
              18.861523
            ],
            [
              72.504102,
              18.862891
            ],
            [
              72.5,
              18.801367
            ],
            [
              72.802148,
              18.801367
            ],
            [
              72.792578,
              18.812305
            ],
            [
              72.814453,
              18.820508
            ],
            [
              72.824023,
              18.801367
            ],
            [
              72.845898,
              18.801367
            ],
            [
              72.848633,
              18.858789
            ]
          ]
        ]
      }
    },
    {
      "type": "Feature",
      "properties": {
        "spill_id": "sentinel_434",
        "confidence": 0.76
      },
      "geometry": {
        "type": "Polygon",
        "coordinates": [
          [
            [
              72.582031,
              18.939453
            ],
            [
              72.582031,
              18.938086
            ],
            [
              72.580664,
              18.936719
            ],
            [
              72.580664,
              18.93125
            ],
            [
              72.582031,
              18.929883
            ],
            [
              72.582031,
              18.928516
            ],
            [
              72.583398,
              18.927148
            ],
            [
              72.583398,
              18.925781
            ],
            [
              72.584766,
              18.924414
            ],
            [
              72.584766,
              18.923047
            ],
            [
              72.588867,
              18.918945
            ],
            [
              72.594336,
              18.918945
            ],
            [
              72.595703,
              18.920312
            ],
            [
              72.59707,
              18.920312
            ],
            [
              72.598438,
              18.92168
            ],
            [
              72.598438,
              18.923047
            ],
            [
              72.599805,
              18.924414
            ],
            [
              72.599805,
              18.925781
            ],
            [
              72.601172,
              18.927148
            ],
            [
              72.601172,
              18.929883
            ],
            [
              72.599805,
              18.93125
            ],
            [
              72.599805,
              18.932617
            ],
            [
              72.595703,
              18.936719
            ],
            [
              72.594336,
              18.936719
            ],
            [
              72.592969,
              18.938086
            ],
            [
              72.590234,
              18.938086
            ],
            [
              72.588867,
              18.939453
            ],
            [
              72.582031,
              18.939453
            ]
          ]
        ]
      }
    },
    {
      "type": "Feature",
      "properties": {
        "spill_id": "sentinel_434",
        "confidence": 0.76
      },
      "geometry": {
        "type": "Polygon",
        "coordinates": [
          [
            [
              72.659961,
              18.953125
            ],
            [
              72.659961,
              18.951758
            ],
            [
              72.662695,
              18.949023
            ],
            [
              72.662695,
              18.947656
            ],
            [
              72.668164,
              18.942188
            ],
            [
              72.669531,
              18.942188
            ],
            [
              72.672266,
              18.939453
            ],
            [
              72.680469,
              18.939453
            ],
            [
              72.681836,
              18.94082
            ],
            [
              72.683203,
              18.94082
            ],
            [
              72.68457,
              18.942188
            ],
            [
              72.685938,
              18.942188
            ],
            [
              72.688672,
              18.944922
            ],
            [
              72.688672,
              18.946289
            ],
            [
              72.690039,
              18.947656
            ],
            [
              72.690039,
              18.949023
            ],
            [
              72.687305,
              18.953125
            ],
            [
              72.685938,
              18.953125
            ],
            [
              72.68457,
              18.954492
            ],
            [
              72.681836,
              18.954492
            ],
            [
              72.680469,
              18.955859
            ],
            [
              72.679102,
              18.955859
            ],
            [
              72.677734,
              18.957227
            ],
            [
              72.675,
              18.957227
            ],
            [
              72.673633,
              18.958594
            ],
            [
              72.664062,
              18.958594
            ],
            [
              72.664062,
              18.957227
            ],
            [
              72.659961,
              18.953125
            ]
          ]
        ]
      }
    },
    {
      "type": "Feature",
      "properties": {
        "spill_id": "sentinel_434",
        "confidence": 0.76
      },
      "geometry": {
        "type": "Polygon",
        "coordinates": [
          [
            [
              72.848633,
              18.975
            ],
            [
              72.845898,
              18.977734
            ],
            [
              72.844531,
              18.976367
            ],
            [
              72.843164,
              18.976367
            ],
            [
              72.841797,
              18.975
            ],
            [
              72.84043,
              18.975
            ],
            [
              72.836328,
              18.972266
            ],
            [
              72.830859,
              18.972266
            ],
            [
              72.829492,
              18.970898
            ],
            [
              72.828125,
              18.970898
            ],
            [
              72.824023,
              18.966797
            ],
            [
              72.824023,
              18.959961
            ],
            [
              72.825391,
              18.959961
            ],
            [
              72.832227,
              18.953125
            ],
            [
              72.833594,
              18.953125
            ],
            [
              72.834961,
              18.951758
            ],
            [
              72.84043,
              18.951758
            ],
            [
              72.841797,
              18.950391
            ],
            [
              72.843164,
              18.950391
            ],
            [
              72.844531,
              18.951758
            ],
            [
              72.844531,
              18.953125
            ],
            [
              72.848633,
              18.957227
            ],
            [
              72.848633,
              18.975
            ]
          ]
        ]
      }
    },
    {
      "type": "Feature",
      "properties": {
        "spill_id": "sentinel_434",
        "confidence": 0.76
      },
      "geometry": {
        "type": "Polygon",
        "coordinates": [
          [
            [
              72.677734,
              19.002344
            ],
            [
              72.677734,
              18.996875
            ],
            [
              72.685938,
              18.988672
            ],
            [
              72.694141,
              18.985938
            ],
            [
              72.699609,
              18.988672
            ],
            [
              72.711914,
              18.976367
            ],
            [
              72.72832,
              18.973633
            ],
            [
              72.755664,
              18.975
            ],
            [
              72.758398,
              18.972266
            ],
            [
              72.763867,
              18.975
            ],
            [
              72.770703,
              18.966797
            ],
            [
              72.777539,
              18.96543
            ],
            [
              72.785742,
              18.950391
            ],
            [
              72.79668,
              18.946289
            ],
            [
              72.814453,
              18.932617
            ],
            [
              72.828125,
              18.932617
            ],
            [
              72.830859,
              18.936719
            ],
            [
              72.826758,
              18.949023
            ],
            [
              72.807617,
              18.961328
            ],
            [
              72.813086,
              18.969531
            ],
            [
              72.802148,
              18.994141
            ],
            [
              72.79668,
              18.998242
            ],
            [
              72.77207,
              18.998242
            ],
            [
              72.759766,
              18.985938
            ],
            [
              72.72832,
              18.995508
            ],
            [
              72.714648,
              18.992773
            ],
            [
              72.699609,
              19.002344
            ],
            [
              72.677734,
              19.002344
            ]
          ]
        ]
      }
    },
    {
      "type": "Feature",
      "properties": {
        "spill_id": "sentinel_434",
        "confidence": 0.76
      },
      "geometry": {
        "type": "Polygon",
        "coordinates": [
          [
            [
              72.595703,
              19.059766
            ],
            [
              72.594336,
              19.048828
            ],
            [
              72.598438,
              19.037891
            ],
            [
              72.602539,
              19.033789
            ],
            [
              72.62168,
              19.02832
            ],
            [
              72.632617,
              19.017383
            ],
            [
              72.638086,
              19.005078
            ],
            [
              72.642187,
              19.002344
            ],
            [
              72.653125,
              19.000977
            ],
            [
              72.658594,
              19.003711
            ],
            [
              72.661328,
              19.010547
            ],
            [
              72.661328,
              19.016016
            ],
            [
              72.655859,
              19.024219
            ],
            [
              72.655859,
              19.02832
            ],
            [
              72.650391,
              19.033789
            ],
            [
              72.642187,
              19.037891
            ],
            [
              72.639453,
              19.041992
            ],
            [
              72.62168,
              19.050195
            ],
            [
              72.616211,
              19.055664
            ],
            [
              72.603906,
              19.0625
            ],
            [
              72.598438,
              19.0625
            ],
            [
              72.595703,
              19.059766
            ]
          ]
        ]
      }
    },
    {
      "type": "Feature",
      "properties": {
        "spill_id": "sentinel_434",
        "confidence": 0.76
      },
      "geometry": {
        "type": "Polygon",
        "coordinates": [
          [
            [
              72.5,
              19.107617
            ],
            [
              72.5,
              19.099414
            ],
            [
              72.501367,
              19.099414
            ],
            [
              72.505469,
              19.09668
            ],
            [
              72.512305,
              19.09668
            ],
            [
              72.516406,
              19.099414
            ],
            [
              72.517773,
              19.098047
            ],
            [
              72.519141,
              19.098047
            ],
            [
              72.523242,
              19.093945
            ],
            [
              72.524609,
              19.093945
            ],
            [
              72.525977,
              19.092578
            ],
            [
              72.525977,
              19.091211
            ],
            [
              72.527344,
              19.091211
            ],
            [
              72.531445,
              19.088477
            ],
            [
              72.535547,
              19.088477
            ],
            [
              72.536914,
              19.089844
            ],
            [
              72.538281,
              19.089844
            ],
            [
              72.538281,
              19.091211
            ],
            [
              72.539648,
              19.092578
            ],
            [
              72.539648,
              19.095312
            ],
            [
              72.541016,
              19.09668
            ],
            [
              72.541016,
              19.100781
            ],
            [
              72.539648,
              19.102148
            ],
            [
              72.539648,
              19.103516
            ],
            [
              72.536914,
              19.10625
            ],
            [
              72.535547,
              19.10625
            ],
            [
              72.531445,
              19.108984
            ],
            [
              72.528711,
              19.108984
            ],
            [
              72.527344,
              19.110352
            ],
            [
              72.519141,
              19.110352
            ],
            [
              72.517773,
              19.108984
            ],
            [
              72.515039,
              19.108984
            ],
            [
              72.510938,
              19.10625
            ],
            [
              72.501367,
              19.10625
            ],
            [
              72.5,
              19.107617
            ]
          ]
        ]
      }
    }
  ]
}