{
  "type": "FeatureCollection",
  "features": [
    {
      "type": "Feature",
      "properties": {
        "spill_id": "sentinel_379",
        "confidence": 0.9
      },
      "geometry": {
        "type": "Polygon",
        "coordinates": [
          [
            [
              72.512305,
              19.089844
            ],
            [
              72.50957,
              19.089844
            ],
            [
              72.508203,
              19.088477
            ],
            [
              72.506836,
              19.089844
            ],
            [
              72.505469,
              19.089844
            ],
            [
              72.504102,
              19.088477
            ],
            [
              72.502734,
              19.089844
            ],
            [
              72.501367,
              19.088477
            ],
            [
              72.5,
              19.088477
            ],
            [
              72.5,
              19.081641
            ],
            [
              72.502734,
              19.081641
            ],
            [
              72.505469,
              19.078906
            ],
            [
              72.505469,
              19.077539
            ],
            [
              72.506836,
              19.077539
            ],
            [
              72.506836,
              19.078906
            ],
            [
              72.50957,
              19.081641
            ],
            [
              72.50957,
              19.083008
            ],
            [
              72.510938,
              19.084375
            ],
            [
              72.510938,
              19.085742
            ],
            [
              72.512305,
              19.087109
            ],
            [
              72.512305,
              19.089844
            ]
          ]
        ]
      }
    },
    {
      "type": "Feature",
      "properties": {
        "spill_id": "sentinel_379",
        "confidence": 0.9
      },
      "geometry": {
        "type": "Polygon",
        "coordinates": [
          [
            [
              72.539648,
              19.118555
            ],
            [
              72.535547,
              19.122656
            ],
            [
              72.53418,
              19.122656
            ],
            [
              72.532812,
              19.124023
            ],
            [
              72.528711,
              19.124023
            ],
            [
              72.527344,
              19.125391
            ],
            [
              72.523242,
              19.121289
            ],
            [
              72.521875,
              19.121289
            ],
            [
              72.520508,
              19.119922
            ],
            [
              72.519141,
              19.119922
            ],
            [
              72.515039,
              19.11582
            ],
            [
              72.515039,
              19.113086
            ],
            [
              72.513672,
              19.111719
            ],
            [
              72.513672,
              19.10625
            ],
            [
              72.512305,
              19.104883
            ],
            [
              72.512305,
              19.103516
            ],
            [
              72.515039,
              19.100781
            ],
            [
              72.516406,
              19.100781
            ],
            [
              72.517773,
              19.102148
            ],
            [
              72.524609,
              19.102148
            ],
            [
              72.525977,
              19.103516
            ],
            [
              72.527344,
              19.103516
            ],
            [
              72.53418,
              19.110352
            ],
            [
              72.535547,
              19.110352
            ],
            [
              72.538281,
              19.113086
            ],
            [
              72.538281,
              19.114453
            ],
            [
              72.539648,
              19.11582
            ],
            [
              72.539648,
              19.118555
            ]
          ]
        ]
      }
    },
    {
      "type": "Feature",
      "properties": {
        "spill_id": "sentinel_379",
        "confidence": 0.9
      },
      "geometry": {
        "type": "Polygon",
        "coordinates": [
          [
            [
              72.5,
              19.070703
            ],
            [
              72.5,
              18.801367
            ],
            [
              72.848633,
              18.801367
            ],
            [
              72.844531,
              18.89707
            ],
            [
              72.784375,
              18.898438
            ],
            [
              72.785742,
              18.914844
            ],
            [
              72.824023,
              18.947656
            ],
            [
              72.80625,
              18.957227
            ],
            [
              72.828125,
              18.969531
            ],
            [
              72.813086,
              18.987305
            ],
            [
              72.848633,
              19.022852
            ],
            [
              72.848633,
              19.092578
            ],
            [
              72.789844,
              19.076172
            ],
            [
              72.75293,
              19.047461
            ],
            [
              72.729688,
              19.065234
            ],
            [
              72.739258,
              19.089844
            ],
            [
              72.672266,
              19.077539
            ],
            [
              72.705078,
              19.111719
            ],
            [
              72.676367,
              19.119922
            ],
            [
              72.620312,
              19.093945
            ],
            [
              72.592969,
              19.129492
            ],
            [
              72.580664,
              19.125391
            ],
            [
              72.572461,
              19.092578
            ],
            [
              72.5,
              19.070703
            ]
          ]
        ]
      }
    },
    {
      "type": "Feature",
      "properties": {
        "spill_id": "sentinel_379",
        "confidence": 0.9
      },
      "geometry": {
        "type": "Polygon",
        "coordinates": [
          [
            [
              72.716016,
              19.124023
            ],
            [
              72.71875,
              19.118555
            ],
            [
              72.722852,
              19.118555
            ],
            [
              72.733789,
              19.122656
            ],
            [
              72.740625,
              19.128125
            ],
            [
              72.761133,
              19.130859
            ],
            [
              72.77207,
              19.136328
            ],
            [
              72.785742,
              19.139062
            ],
            [
              72.807617,
              19.14043
            ],
            [
              72.814453,
              19.145898
            ],
            [
              72.814453,
              19.15
            ],
            [
              72.751562,
              19.15
            ],
            [
              72.750195,
              19.145898
            ],
            [
              72.744727,
              19.14043
            ],
            [
              72.735156,
              19.137695
            ],
            [
              72.716016,
              19.124023
            ]
          ]
        ]
      }
    },
    {
      "type": "Feature",
      "properties": {
        "spill_id": "sentinel_379",
        "confidence": 0.9
      },
      "geometry": {
        "type": "Polygon",
        "coordinates": [
          [
            [
              72.628516,
              19.148633
            ],
            [
              72.628516,
              19.144531
            ],
            [
              72.63125,
              19.141797
            ],
            [
              72.63125,
              19.14043
            ],
            [
              72.635352,
              19.14043
            ],
            [
              72.636719,
              19.141797
            ],
            [
              72.638086,
              19.141797
            ],
            [
              72.64082,
              19.144531
            ],
            [
              72.64082,
              19.15
            ],
            [
              72.629883,
              19.15
            ],
            [
              72.628516,
              19.148633
            ]
          ]
        ]
      }
    }
  ]
}