{
  "type": "FeatureCollection",
  "features": [
    {
      "type": "Feature",
      "properties": {
        "spill_id": "sentinel_621",
        "confidence": 0.71
      },
      "geometry": {
        "type": "Polygon",
        "coordinates": [
          [
            [
              72.750195,
              18.929883
            ],
            [
              72.744727,
              18.925781
            ],
            [
              72.741992,
              18.920312
            ],
            [
              72.741992,
              18.908008
            ],
            [
              72.732422,
              18.899805
            ],
            [
              72.732422,
              18.89707
            ],
            [
              72.744727,
              18.888867
            ],
            [
              72.754297,
              18.886133
            ],
            [
              72.765234,
              18.886133
            ],
            [
              72.774805,
              18.871094
            ],
            [
              72.774805,
              18.861523
            ],
            [
              72.766602,
              18.850586
            ],
            [
              72.765234,
              18.841016
            ],
            [
              72.77207,
              18.832812
            ],
            [
              72.780273,
              18.832812
            ],
            [
              72.792578,
              18.84375
            ],
            [
              72.792578,
              18.876562
            ],
            [
              72.795312,
              18.879297
            ],
            [
              72.795312,
              18.888867
            ],
            [
              72.792578,
              18.894336
            ],
            [
              72.785742,
              18.895703
            ],
            [
              72.763867,
              18.913477
            ],
            [
              72.7625,
              18.925781
            ],
            [
              72.759766,
              18.929883
            ],
            [
              72.750195,
              18.929883
            ]
          ]
        ]
      }
    },
    {
      "type": "Feature",
      "properties": {
        "spill_id": "sentinel_621",
        "confidence": 0.71
      },
      "geometry": {
        "type": "Polygon",
        "coordinates": [
          [
            [
              72.824023,
              18.961328
            ],
            [
              72.808984,
              18.954492
            ],
            [
              72.807617,
              18.951758
            ],
            [
              72.807617,
              18.920312
            ],
            [
              72.818555,
              18.903906
            ],
            [
              72.821289,
              18.888867
            ],
            [
              72.824023,
              18.886133
            ],
            [
              72.832227,
              18.886133
            ],
            [
              72.839062,
              18.876562
            ],
            [
              72.845898,
              18.875195
            ],
            [
              72.848633,
              18.876562
            ],
            [
              72.848633,
              18.884766
            ],
            [
              72.844531,
              18.892969
            ],
            [
              72.837695,
              18.886133
            ],
            [
              72.829492,
              18.8875
            ],
            [
              72.830859,
              18.895703
            ],
            [
              72.825391,
              18.910742
            ],
            [
              72.832227,
              18.918945
            ],
            [
              72.837695,
              18.920312
            ],
            [
              72.848633,
              18.933984
            ],
            [
              72.848633,
              18.962695
            ],
            [
              72.836328,
              18.958594
            ],
            [
              72.824023,
              18.961328
            ]
          ]
        ]
      }
    },
    {
      "type": "Feature",
      "properties": {
        "spill_id": "sentinel_621",
        "confidence": 0.71
      },
      "geometry": {
        "type": "Polygon",
        "coordinates": [
          [
            [
              72.506836,
              19.029687
            ],
            [
              72.506836,
              19.021484
            ],
            [
              72.508203,
              19.021484
            ],
            [
              72.50957,
              19.020117
            ],
            [
              72.516406,
              19.020117
            ],
            [
              72.517773,
              19.01875
            ],
            [
              72.520508,
              19.021484
            ],
            [
              72.520508,
              19.025586
            ],
            [
              72.519141,
              19.026953
            ],
            [
              72.50957,
              19.026953
            ],
            [
              72.506836,
              19.029687
            ]
          ]
        ]
      }
    },
    {
      "type": "Feature",
      "properties": {
        "spill_id": "sentinel_621",
        "confidence": 0.71
      },
      "geometry": {
        "type": "Polygon",
        "coordinates": [
          [
            [
              72.740625,
              19.05293
            ],
            [
              72.732422,
              19.044727
            ],
            [
              72.729688,
              19.039258
            ],
            [
              72.729688,
              19.036523
            ],
            [
              72.72832,
              19.035156
            ],
            [
              72.72832,
              19.025586
            ],
            [
              72.726953,
              19.024219
            ],
            [
              72.726953,
              19.01875
            ],
            [
              72.725586,
              19.017383
            ],
            [
              72.725586,
              19.010547
            ],
            [
              72.736523,
              19.000977
            ],
            [
              72.739258,
              19.000977
            ],
            [
              72.746094,
              18.996875
            ],
            [
              72.754297,
              18.996875
            ],
            [
              72.757031,
              18.998242
            ],
            [
              72.761133,
              19.006445
            ],
            [
              72.759766,
              19.00918
            ],
            [
              72.758398,
              19.00918
            ],
            [
              72.746094,
              19.022852
            ],
            [
              72.746094,
              19.033789
            ],
            [
              72.748828,
              19.037891
            ],
            [
              72.748828,
              19.040625
            ],
            [
              72.751562,
              19.043359
            ],
            [
              72.751562,
              19.051562
            ],
            [
              72.750195,
              19.05293
            ],
            [
              72.740625,
              19.05293
            ]
          ]
        ]
      }
    }
  ]
}