{
  "type": "FeatureCollection",
  "features": [
    {
      "type": "Feature",
      "properties": {
        "spill_id": "sentinel_130",
        "confidence": 0.81
      },
      "geometry": {
        "type": "Polygon",
        "coordinates": [
          [
            [
              72.765234,
              18.910742
            ],
            [
              72.763867,
              18.909375
            ],
            [
              72.761133,
              18.909375
            ],
            [
              72.761133,
              18.89707
            ],
            [
              72.763867,
              18.894336
            ],
            [
              72.765234,
              18.894336
            ],
            [
              72.765234,
              18.895703
            ],
            [
              72.770703,
              18.901172
            ],
            [
              72.770703,
              18.902539
            ],
            [
              72.77207,
              18.903906
            ],
            [
              72.770703,
              18.905273
            ],
            [
              72.770703,
              18.908008
            ],
            [
              72.769336,
              18.909375
            ],
            [
              72.766602,
              18.909375
            ],
            [
              72.765234,
              18.910742
            ]
          ]
        ]
      }
    },
    {
      "type": "Feature",
      "properties": {
        "spill_id": "sentinel_130",
        "confidence": 0.81
      },
      "geometry": {
        "type": "Polygon",
        "coordinates": [
          [
            [
              72.84043,
              18.93125
            ],
            [
              72.832227,
              18.925781
            ],
            [
              72.822656,
              18.924414
            ],
            [
              72.818555,
              18.92168
            ],
            [
              72.817187,
              18.918945
            ],
            [
              72.817187,
              18.906641
            ],
            [
              72.819922,
              18.901172
            ],
            [
              72.821289,
              18.884766
            ],
            [
              72.824023,
              18.879297
            ],
            [
              72.824023,
              18.873828
            ],
            [
              72.830859,
              18.868359
            ],
            [
              72.841797,
              18.868359
            ],
            [
              72.844531,
              18.865625
            ],
            [
              72.844531,
              18.871094
            ],
            [
              72.847266,
              18.87793
            ],
            [
              72.845898,
              18.882031
            ],
            [
              72.84043,
              18.8875
            ],
            [
              72.84043,
              18.892969
            ],
            [
              72.844531,
              18.899805
            ],
            [
              72.848633,
              18.902539
            ],
            [
              72.848633,
              18.928516
            ],
            [
              72.844531,
              18.93125
            ],
            [
              72.84043,
              18.93125
            ]
          ]
        ]
      }
    },
    {
      "type": "Feature",
      "properties": {
        "spill_id": "sentinel_130",
        "confidence": 0.81
      },
      "geometry": {
        "type": "Polygon",
        "coordinates": [
          [
            [
              72.598438,
              18.938086
            ],
            [
              72.591602,
              18.938086
            ],
            [
              72.590234,
              18.936719
            ],
            [
              72.588867,
              18.936719
            ],
            [
              72.586133,
              18.933984
            ],
            [
              72.586133,
              18.932617
            ],
            [
              72.584766,
              18.93125
            ],
            [
              72.584766,
              18.929883
            ],
            [
              72.583398,
              18.928516
            ],
            [
              72.583398,
              18.924414
            ],
            [
              72.582031,
              18.923047
            ],
            [
              72.582031,
              18.917578
            ],
            [
              72.584766,
              18.914844
            ],
            [
              72.586133,
              18.914844
            ],
            [
              72.5875,
              18.916211
            ],
            [
              72.588867,
              18.916211
            ],
            [
              72.592969,
              18.920312
            ],
            [
              72.592969,
              18.92168
            ],
            [
              72.595703,
              18.924414
            ],
            [
              72.595703,
              18.925781
            ],
            [
              72.598438,
              18.928516
            ],
            [
              72.598438,
              18.929883
            ],
            [
              72.599805,
              18.93125
            ],
            [
              72.599805,
              18.936719
            ],
            [
              72.598438,
              18.938086
            ]
          ]
        ]
      }
    },
    {
      "type": "Feature",
      "properties": {
        "spill_id": "sentinel_130",
        "confidence": 0.81
      },
      "geometry": {
        "type": "Polygon",
        "coordinates": [
          [
            [
              72.535547,
              18.972266
            ],
            [
              72.535547,
              18.970898
            ],
            [
              72.53418,
              18.969531
            ],
            [
              72.53418,
              18.962695
            ],
            [
              72.536914,
              18.958594
            ],
            [
              72.536914,
              18.955859
            ],
            [
              72.538281,
              18.954492
            ],
            [
              72.539648,
              18.950391
            ],
            [
              72.54375,
              18.946289
            ],
            [
              72.54375,
              18.944922
            ],
            [
              72.545117,
              18.943555
            ],
            [
              72.546484,
              18.943555
            ],
            [
              72.549219,
              18.94082
            ],
            [
              72.550586,
              18.94082
            ],
            [
              72.551953,
              18.939453
            ],
            [
              72.554688,
              18.939453
            ],
            [
              72.558789,
              18.943555
            ],
            [
              72.558789,
              18.944922
            ],
            [
              72.561523,
              18.947656
            ],
            [
              72.561523,
              18.949023
            ],
            [
              72.562891,
              18.950391
            ],
            [
              72.562891,
              18.953125
            ],
            [
              72.561523,
              18.953125
            ],
            [
              72.560156,
              18.954492
            ],
            [
              72.556055,
              18.954492
            ],
            [
              72.554688,
              18.955859
            ],
            [
              72.55332,
              18.955859
            ],
            [
              72.549219,
              18.959961
            ],
            [
              72.549219,
              18.962695
            ],
            [
              72.547852,
              18.964062
            ],
            [
              72.546484,
              18.968164
            ],
            [
              72.54375,
              18.970898
            ],
            [
              72.542383,
              18.970898
            ],
            [
              72.541016,
              18.972266
            ],
            [
              72.535547,
              18.972266
            ]
          ]
        ]
      }
    },
    {
      "type": "Feature",
      "properties": {
        "spill_id": "sentinel_130",
        "confidence": 0.81
      },
      "geometry": {
        "type": "Polygon",
        "coordinates": [
          [
            [
              72.516406,
              19.036523
            ],
            [
              72.515039,
              19.035156
            ],
            [
              72.513672,
              19.035156
            ],
            [
              72.50957,
              19.031055
            ],
            [
              72.50957,
              19.029687
            ],
            [
              72.508203,
              19.02832
            ],
            [
              72.508203,
              19.020117
            ],
            [
              72.510938,
              19.016016
            ],
            [
              72.510938,
              19.013281
            ],
            [
              72.512305,
              19.011914
            ],
            [
              72.512305,
              19.010547
            ],
            [
              72.517773,
              19.003711
            ],
            [
              72.519141,
              19.003711
            ],
            [
              72.521875,
              19.000977
            ],
            [
              72.524609,
              19.000977
            ],
            [
              72.525977,
              18.999609
            ],
            [
              72.530078,
              18.999609
            ],
            [
              72.535547,
              19.003711
            ],
            [
              72.535547,
              19.005078
            ],
            [
              72.538281,
              19.00918
            ],
            [
              72.538281,
              19.011914
            ],
            [
              72.542383,
              19.017383
            ],
            [
              72.542383,
              19.021484
            ],
            [
              72.541016,
              19.022852
            ],
            [
              72.541016,
              19.025586
            ],
            [
              72.538281,
              19.02832
            ],
            [
              72.536914,
              19.032422
            ],
            [
              72.532812,
              19.035156
            ],
            [
              72.530078,
              19.035156
            ],
            [
              72.528711,
              19.036523
            ],
            [
              72.516406,
              19.036523
            ]
          ]
        ]
      }
    },
    {
      "type": "Feature",
      "properties": {
        "spill_id": "sentinel_130",
        "confidence": 0.81
      },
      "geometry": {
        "type": "Polygon",
        "coordinates": [
          [
            [
              72.644922,
              19.15
            ],
            [
              72.625781,
              19.15
            ],
            [
              72.620312,
              19.143164
            ],
            [
              72.612109,
              19.125391
            ],
            [
              72.612109,
              19.111719
            ],
            [
              72.602539,
              19.070703
            ],
            [
              72.603906,
              19.040625
            ],
            [
              72.606641,
              19.033789
            ],
            [
              72.610742,
              19.031055
            ],
            [
              72.618945,
              19.037891
            ],
            [
              72.62168,
              19.044727
            ],
            [
              72.620312,
              19.065234
            ],
            [
              72.624414,
              19.073438
            ],
            [
              72.627148,
              19.089844
            ],
            [
              72.636719,
              19.103516
            ],
            [
              72.635352,
              19.121289
            ],
            [
              72.643555,
              19.137695
            ],
            [
              72.644922,
              19.15
            ]
          ]
        ]
      }
    }
  ]
}