{
  "type": "FeatureCollection",
  "features": [
    {
      "type": "Feature",
      "properties": {
        "spill_id": "sentinel_300",
        "confidence": 0.88
      },
      "geometry": {
        "type": "Polygon",
        "coordinates": [
          [
            [
              72.792578,
              18.882031
            ],
            [
              72.791211,
              18.880664
            ],
            [
              72.789844,
              18.880664
            ],
            [
              72.785742,
              18.876562
            ],
            [
              72.785742,
              18.872461
            ],
            [
              72.787109,
              18.871094
            ],
            [
              72.787109,
              18.869727
            ],
            [
              72.788477,
              18.868359
            ],
            [
              72.788477,
              18.865625
            ],
            [
              72.791211,
              18.862891
            ],
            [
              72.791211,
              18.861523
            ],
            [
              72.792578,
              18.860156
            ],
            [
              72.793945,
              18.856055
            ],
            [
              72.798047,
              18.851953
            ],
            [
              72.800781,
              18.851953
            ],
            [
              72.802148,
              18.85332
            ],
            [
              72.803516,
              18.85332
            ],
            [
              72.80625,
              18.856055
            ],
            [
              72.80625,
              18.860156
            ],
            [
              72.807617,
              18.861523
            ],
            [
              72.807617,
              18.864258
            ],
            [
              72.808984,
              18.865625
            ],
            [
              72.808984,
              18.869727
            ],
            [
              72.804883,
              18.873828
            ],
            [
              72.804883,
              18.876562
            ],
            [
              72.800781,
              18.880664
            ],
            [
              72.79668,
              18.880664
            ],
            [
              72.795312,
              18.882031
            ],
            [
              72.792578,
              18.882031
            ]
          ]
        ]
      }
    },
    {
      "type": "Feature",
      "properties": {
        "spill_id": "sentinel_300",
        "confidence": 0.88
      },
      "geometry": {
        "type": "Polygon",
        "coordinates": [
          [
            [
              72.5,
              18.925781
            ],
            [
              72.525977,
              18.932617
            ],
            [
              72.565625,
              18.917578
            ],
            [
              72.591602,
              18.935352
            ],
            [
              72.617578,
              18.924414
            ],
            [
              72.632617,
              18.953125
            ],
            [
              72.650391,
              18.943555
            ],
            [
              72.696875,
              18.980469
            ],
            [
              72.705078,
              19.003711
            ],
            [
              72.699609,
              19.031055
            ],
            [
              72.713281,
              19.050195
            ],
            [
              72.733789,
              19.036523
            ],
            [
              72.766602,
              19.035156
            ],
            [
              72.773438,
              19.006445
            ],
            [
              72.789844,
              18.988672
            ],
            [
              72.808984,
              19.036523
            ],
            [
              72.808984,
              19.066602
            ],
            [
              72.832227,
              19.083008
            ],
            [
              72.844531,
              19.078906
            ],
            [
              72.848633,
              19.121289
            ],
            [
              72.837695,
              19.122656
            ],
            [
              72.84043,
              19.136328
            ],
            [
              72.829492,
              19.136328
            ],
            [
              72.833594,
              19.15
            ],
            [
              72.5,
              19.15
            ],
            [
              72.5,
              18.925781
            ]
          ]
        ]
      }
    }
  ]
}