{
  "type": "FeatureCollection",
  "features": [
    {
      "type": "Feature",
      "properties": {
        "spill_id": "sentinel_221",
        "confidence": 0.95
      },
      "geometry": {
        "type": "Polygon",
        "coordinates": [
          [
            [
              72.848633,
              18.821875
            ],
            [
              72.837695,
              18.821875
            ],
            [
              72.836328,
              18.820508
            ],
            [
              72.833594,
              18.820508
            ],
            [
              72.832227,
              18.819141
            ],
            [
              72.830859,
              18.819141
            ],
            [
              72.824023,
              18.812305
            ],
            [
              72.822656,
              18.812305
            ],
            [
              72.821289,
              18.810938
            ],
            [
              72.818555,
              18.810938
            ],
            [
              72.817187,
              18.80957
            ],
            [
              72.813086,
              18.808203
            ],
            [
              72.810352,
              18.805469
            ],
            [
              72.810352,
              18.804102
            ],
            [
              72.808984,
              18.802734
            ],
            [
              72.810352,
              18.801367
            ],
            [
              72.848633,
              18.801367
            ],
            [
              72.848633,
              18.821875
            ]
          ]
        ]
      }
    },
    {
      "type": "Feature",
      "properties": {
        "spill_id": "sentinel_221",
        "confidence": 0.95
      },
      "geometry": {
        "type": "Polygon",
        "coordinates": [
          [
            [
              72.513672,
              19.15
            ],
            [
              72.5,
              19.136328
            ],
            [
              72.517773,
              19.055664
            ],
            [
              72.5,
              19.036523
            ],
            [
              72.5,
              18.801367
            ],
            [
              72.71875,
              18.801367
            ],
            [
              72.791211,
              18.813672
            ],
            [
              72.811719,
              18.875195
            ],
            [
              72.787109,
              18.880664
            ],
            [
              72.787109,
              18.89707
            ],
            [
              72.804883,
              18.909375
            ],
            [
              72.808984,
              18.94082
            ],
            [
              72.848633,
              18.968164
            ],
            [
              72.780273,
              18.955859
            ],
            [
              72.843164,
              18.977734
            ],
            [
              72.829492,
              18.990039
            ],
            [
              72.848633,
              19.011914
            ],
            [
              72.848633,
              19.074805
            ],
            [
              72.783008,
              19.100781
            ],
            [
              72.754297,
              19.148633
            ],
            [
              72.711914,
              19.15
            ],
            [
              72.650391,
              19.128125
            ],
            [
              72.616211,
              19.087109
            ],
            [
              72.586133,
              19.083008
            ],
            [
              72.576562,
              19.099414
            ],
            [
              72.546484,
              19.099414
            ],
            [
              72.541016,
              19.070703
            ],
            [
              72.527344,
              19.083008
            ],
            [
              72.55332,
              19.15
            ],
            [
              72.513672,
              19.15
            ]
          ]
        ]
      }
    }
  ]
}