{
  "type": "FeatureCollection",
  "features": [
    {
      "type": "Feature",
      "properties": {
        "spill_id": "sentinel_387",
        "confidence": 0.83
      },
      "geometry": {
        "type": "Polygon",
        "coordinates": [
          [
            [
              72.687305,
              18.817773
            ],
            [
              72.687305,
              18.815039
            ],
            [
              72.688672,
              18.813672
            ],
            [
              72.688672,
              18.812305
            ],
            [
              72.690039,
              18.810938
            ],
            [
              72.690039,
              18.80957
            ],
            [
              72.691406,
              18.808203
            ],
            [
              72.696875,
              18.808203
            ],
            [
              72.698242,
              18.80957
            ],
            [
              72.699609,
              18.80957
            ],
            [
              72.702344,
              18.812305
            ],
            [
              72.702344,
              18.816406
            ],
            [
              72.700977,
              18.817773
            ],
            [
              72.698242,
              18.817773
            ],
            [
              72.696875,
              18.819141
            ],
            [
              72.691406,
              18.819141
            ],
            [
              72.690039,
              18.820508
            ],
            [
              72.688672,
              18.820508
            ],
            [
              72.688672,
              18.819141
            ],
            [
              72.687305,
              18.817773
            ]
          ]
        ]
      }
    },
    {
      "type": "Feature",
      "properties": {
        "spill_id": "sentinel_387",
        "confidence": 0.83
      },
      "geometry": {
        "type": "Polygon",
        "coordinates": [
          [
            [
              72.841797,
              18.995508
            ],
            [
              72.839062,
              18.992773
            ],
            [
              72.839062,
              18.991406
            ],
            [
              72.837695,
              18.990039
            ],
            [
              72.837695,
              18.983203
            ],
            [
              72.839062,
              18.981836
            ],
            [
              72.839062,
              18.975
            ],
            [
              72.84043,
              18.973633
            ],
            [
              72.84043,
              18.966797
            ],
            [
              72.844531,
              18.964062
            ],
            [
              72.848633,
              18.964062
            ],
            [
              72.848633,
              18.995508
            ],
            [
              72.841797,
              18.995508
            ]
          ]
        ]
      }
    },
    {
      "type": "Feature",
      "properties": {
        "spill_id": "sentinel_387",
        "confidence": 0.83
      },
      "geometry": {
        "type": "Polygon",
        "coordinates": [
          [
            [
              72.710547,
              19.134961
            ],
            [
              72.70918,
              19.133594
            ],
            [
              72.70918,
              19.129492
            ],
            [
              72.710547,
              19.128125
            ],
            [
              72.710547,
              19.125391
            ],
            [
              72.713281,
              19.122656
            ],
            [
              72.713281,
              19.121289
            ],
            [
              72.717383,
              19.117188
            ],
            [
              72.717383,
              19.11582
            ],
            [
              72.71875,
              19.114453
            ],
            [
              72.71875,
              19.113086
            ],
            [
              72.721484,
              19.110352
            ],
            [
              72.729688,
              19.110352
            ],
            [
              72.732422,
              19.113086
            ],
            [
              72.732422,
              19.118555
            ],
            [
              72.729688,
              19.121289
            ],
            [
              72.729688,
              19.122656
            ],
            [
              72.724219,
              19.128125
            ],
            [
              72.724219,
              19.129492
            ],
            [
              72.721484,
              19.132227
            ],
            [
              72.721484,
              19.133594
            ],
            [
              72.720117,
              19.134961
            ],
            [
              72.710547,
              19.134961
            ]
          ]
        ]
      }
    },
    {
      "type": "Feature",
      "properties": {
        "spill_id": "sentinel_387",
        "confidence": 0.83
      },
      "geometry": {
        "type": "Polygon",
        "coordinates": [
          [
            [
              72.821289,
              19.145898
            ],
            [
              72.819922,
              19.144531
            ],
            [
              72.819922,
              19.143164
            ],
            [
              72.818555,
              19.141797
            ],
            [
              72.818555,
              19.139062
            ],
            [
              72.819922,
              19.137695
            ],
            [
              72.819922,
              19.136328
            ],
            [
              72.821289,
              19.134961
            ],
            [
              72.821289,
              19.133594
            ],
            [
              72.822656,
              19.132227
            ],
            [
              72.822656,
              19.130859
            ],
            [
              72.826758,
              19.126758
            ],
            [
              72.833594,
              19.126758
            ],
            [
              72.834961,
              19.128125
            ],
            [
              72.836328,
              19.128125
            ],
            [
              72.836328,
              19.129492
            ],
            [
              72.837695,
              19.130859
            ],
            [
              72.837695,
              19.132227
            ],
            [
              72.836328,
              19.133594
            ],
            [
              72.836328,
              19.136328
            ],
            [
              72.828125,
              19.144531
            ],
            [
              72.825391,
              19.144531
            ],
            [
              72.824023,
              19.145898
            ],
            [
              72.821289,
              19.145898
            ]
          ]
        ]
      }
    },
    {
      "type": "Feature",
      "properties": {
        "spill_id": "sentinel_387",
        "confidence": 0.83
      },
      "geometry": {
        "type": "Polygon",
        "coordinates": [
          [
            [
              72.532812,
              19.11582
            ],
            [
              72.521875,
              19.088477
            ],
            [
              72.545117,
              19.063867
            ],
            [
              72.538281,
              19.021484
            ],
            [
              72.562891,
              19.02832
            ],
            [
              72.582031,
              18.980469
            ],
            [
              72.57793,
              18.942188
            ],
            [
              72.554688,
              18.93125
            ],
            [
              72.562891,
              18.910742
            ],
            [
              72.59707,
              18.923047
            ],
            [
              72.608008,
              18.985938
            ],
            [
              72.643555,
              19.000977
            ],
            [
              72.633984,
              19.011914
            ],
            [
              72.59707,
              18.991406
            ],
            [
              72.579297,
              19.014648
            ],
            [
              72.584766,
              19.050195
            ],
            [
              72.620312,
              19.074805
            ],
            [
              72.635352,
              19.041992
            ],
            [
              72.711914,
              19.021484
            ],
            [
              72.702344,
              18.962695
            ],
            [
              72.726953,
              18.957227
            ],
            [
              72.773438,
              18.8875
            ],
            [
              72.811719,
              18.873828
            ],
            [
              72.822656,
              18.824609
            ],
            [
              72.692773,
              18.905273
            ],
            [
              72.68457,
              18.882031
            ],
            [
              72.808984,
              18.801367
            ],
            [
              72.848633,
              18.80957
            ],
            [
              72.845898,
              18.875195
            ],
            [
              72.766602,
              18.928516
            ],
            [
              72.79668,
              18.953125
            ],
            [
              72.77207,
              18.975
            ],
            [
              72.736523,
              18.973633
            ],
            [
              72.707812,
              19.065234
            ],
            [
              72.687305,
              19.051562
            ],
            [
              72.666797,
              19.063867
            ],
            [
              72.669531,
              19.110352
            ],
            [
              72.62168,
              19.107617
            ],
            [
              72.603906,
              19.129492
            ],
            [
              72.609375,
              19.145898
            ],
            [
              72.650391,
              19.15
            ],
            [
              72.5875,
              19.15
            ],
            [
              72.580664,
              19.080273
            ],
            [
              72.556055,
              19.078906
            ],
            [
              72.532812,
              19.11582
            ]
          ]
        ]
      }
    }
  ]
}