{
  "type": "FeatureCollection",
  "features": [
    {
      "type": "Feature",
      "properties": {
        "spill_id": "sentinel_297",
        "confidence": 0.76
      },
      "geometry": {
        "type": "Polygon",
        "coordinates": [
          [
            [
              72.541016,
              18.854688
            ],
            [
              72.532812,
              18.854688
            ],
            [
              72.525977,
              18.847852
            ],
            [
              72.525977,
              18.845117
            ],
            [
              72.524609,
              18.84375
            ],
            [
              72.524609,
              18.838281
            ],
            [
              72.523242,
              18.836914
            ],
            [
              72.523242,
              18.832812
            ],
            [
              72.525977,
              18.830078
            ],
            [
              72.525977,
              18.827344
            ],
            [
              72.531445,
              18.827344
            ],
            [
              72.535547,
              18.831445
            ],
            [
              72.535547,
              18.832812
            ],
            [
              72.536914,
              18.83418
            ],
            [
              72.536914,
              18.835547
            ],
            [
              72.538281,
              18.836914
            ],
            [
              72.538281,
              18.838281
            ],
            [
              72.541016,
              18.842383
            ],
            [
              72.541016,
              18.846484
            ],
            [
              72.542383,
              18.847852
            ],
            [
              72.542383,
              18.85332
            ],
            [
              72.541016,
              18.854688
            ]
          ]
        ]
      }
    },
    {
      "type": "Feature",
      "properties": {
        "spill_id": "sentinel_297",
        "confidence": 0.76
      },
      "geometry": {
        "type": "Polygon",
        "coordinates": [
          [
            [
              72.847266,
              18.966797
            ],
            [
              72.837695,
              18.969531
            ],
            [
              72.836328,
              18.968164
            ],
            [
              72.826758,
              18.968164
            ],
            [
              72.825391,
              18.966797
            ],
            [
              72.821289,
              18.96543
            ],
            [
              72.821289,
              18.964062
            ],
            [
              72.818555,
              18.961328
            ],
            [
              72.818555,
              18.947656
            ],
            [
              72.819922,
              18.946289
            ],
            [
              72.819922,
              18.943555
            ],
            [
              72.821289,
              18.942188
            ],
            [
              72.821289,
              18.939453
            ],
            [
              72.822656,
              18.938086
            ],
            [
              72.822656,
              18.935352
            ],
            [
              72.824023,
              18.933984
            ],
            [
              72.824023,
              18.932617
            ],
            [
              72.825391,
              18.932617
            ],
            [
              72.826758,
              18.93125
            ],
            [
              72.830859,
              18.93125
            ],
            [
              72.832227,
              18.932617
            ],
            [
              72.841797,
              18.936719
            ],
            [
              72.848633,
              18.943555
            ],
            [
              72.848633,
              18.96543
            ],
            [
              72.847266,
              18.966797
            ]
          ]
        ]
      }
    },
    {
      "type": "Feature",
      "properties": {
        "spill_id": "sentinel_297",
        "confidence": 0.76
      },
      "geometry": {
        "type": "Polygon",
        "coordinates": [
          [
            [
              72.79668,
              18.985938
            ],
            [
              72.791211,
              18.985938
            ],
            [
              72.789844,
              18.987305
            ],
            [
              72.787109,
              18.987305
            ],
            [
              72.785742,
              18.985938
            ],
            [
              72.784375,
              18.985938
            ],
            [
              72.783008,
              18.98457
            ],
            [
              72.781641,
              18.98457
            ],
            [
              72.776172,
              18.979102
            ],
            [
              72.774805,
              18.979102
            ],
            [
              72.774805,
              18.977734
            ],
            [
              72.77207,
              18.975
            ],
            [
              72.77207,
              18.969531
            ],
            [
              72.773438,
              18.969531
            ],
            [
              72.777539,
              18.96543
            ],
            [
              72.783008,
              18.96543
            ],
            [
              72.784375,
              18.966797
            ],
            [
              72.785742,
              18.966797
            ],
            [
              72.787109,
              18.968164
            ],
            [
              72.788477,
              18.968164
            ],
            [
              72.793945,
              18.973633
            ],
            [
              72.793945,
              18.975
            ],
            [
              72.79668,
              18.979102
            ],
            [
              72.79668,
              18.985938
            ]
          ]
        ]
      }
    },
    {
      "type": "Feature",
      "properties": {
        "spill_id": "sentinel_297",
        "confidence": 0.76
      },
      "geometry": {
        "type": "Polygon",
        "coordinates": [
          [
            [
              72.761133,
              19.043359
            ],
            [
              72.755664,
              19.043359
            ],
            [
              72.754297,
              19.041992
            ],
            [
              72.751562,
              19.041992
            ],
            [
              72.750195,
              19.040625
            ],
            [
              72.748828,
              19.040625
            ],
            [
              72.748828,
              19.036523
            ],
            [
              72.747461,
              19.035156
            ],
            [
              72.747461,
              19.033789
            ],
            [
              72.750195,
              19.031055
            ],
            [
              72.754297,
              19.031055
            ],
            [
              72.758398,
              19.035156
            ],
            [
              72.758398,
              19.036523
            ],
            [
              72.759766,
              19.037891
            ],
            [
              72.759766,
              19.039258
            ],
            [
              72.761133,
              19.040625
            ],
            [
              72.761133,
              19.043359
            ]
          ]
        ]
      }
    },
    {
      "type": "Feature",
      "properties": {
        "spill_id": "sentinel_297",
        "confidence": 0.76
      },
      "geometry": {
        "type": "Polygon",
        "coordinates": [
          [
            [
              72.736523,
              19.15
            ],
            [
              72.735156,
              19.136328
            ],
            [
              72.739258,
              19.130859
            ],
            [
              72.75293,
              19.14043
            ],
            [
              72.783008,
              19.117188
            ],
            [
              72.780273,
              19.111719
            ],
            [
              72.763867,
              19.110352
            ],
            [
              72.761133,
              19.10625
            ],
            [
              72.761133,
              19.083008
            ],
            [
              72.77207,
              19.055664
            ],
            [
              72.778906,
              19.050195
            ],
            [
              72.784375,
              19.054297
            ],
            [
              72.778906,
              19.081641
            ],
            [
              72.781641,
              19.093945
            ],
            [
              72.791211,
              19.099414
            ],
            [
              72.803516,
              19.092578
            ],
            [
              72.813086,
              19.080273
            ],
            [
              72.824023,
              19.05293
            ],
            [
              72.824023,
              19.032422
            ],
            [
              72.837695,
              19.020117
            ],
            [
              72.847266,
              19.01875
            ],
            [
              72.848633,
              19.069336
            ],
            [
              72.834961,
              19.083008
            ],
            [
              72.826758,
              19.099414
            ],
            [
              72.821289,
              19.132227
            ],
            [
              72.804883,
              19.15
            ],
            [
              72.736523,
              19.15
            ]
          ]
        ]
      }
    },
    {
      "type": "Feature",
      "properties": {
        "spill_id": "sentinel_297",
        "confidence": 0.76
      },
      "geometry": {
        "type": "Polygon",
        "coordinates": [
          [
            [
              72.612109,
              19.15
            ],
            [
              72.610742,
              19.148633
            ],
            [
              72.610742,
              19.147266
            ],
            [
              72.608008,
              19.144531
            ],
            [
              72.608008,
              19.143164
            ],
            [
              72.606641,
              19.141797
            ],
            [
              72.606641,
              19.133594
            ],
            [
              72.608008,
              19.132227
            ],
            [
              72.609375,
              19.132227
            ],
            [
              72.610742,
              19.130859
            ],
            [
              72.612109,
              19.130859
            ],
            [
              72.614844,
              19.128125
            ],
            [
              72.618945,
              19.128125
            ],
            [
              72.62168,
              19.130859
            ],
            [
              72.623047,
              19.130859
            ],
            [
              72.625781,
              19.133594
            ],
            [
              72.625781,
              19.134961
            ],
            [
              72.628516,
              19.137695
            ],
            [
              72.628516,
              19.139062
            ],
            [
              72.623047,
              19.139062
            ],
            [
              72.62168,
              19.137695
            ],
            [
              72.618945,
              19.14043
            ],
            [
              72.618945,
              19.145898
            ],
            [
              72.617578,
              19.147266
            ],
            [
              72.617578,
              19.15
            ],
            [
              72.612109,
              19.15
            ]
          ]
        ]
      }
    }
  ]
}