{
  "type": "FeatureCollection",
  "features": [
    {
      "type": "Feature",
      "properties": {
        "spill_id": "sentinel_547",
        "confidence": 0.74
      },
      "geometry": {
        "type": "Polygon",
        "coordinates": [
          [
            [
              72.688672,
              18.806836
            ],
            [
              72.688672,
              18.802734
            ],
            [
              72.690039,
              18.801367
            ],
            [
              72.702344,
              18.801367
            ],
            [
              72.703711,
              18.802734
            ],
            [
              72.705078,
              18.801367
            ],
            [
              72.710547,
              18.801367
            ],
            [
              72.711914,
              18.802734
            ],
            [
              72.713281,
              18.802734
            ],
            [
              72.702344,
              18.802734
            ],
            [
              72.700977,
              18.804102
            ],
            [
              72.700977,
              18.805469
            ],
            [
              72.699609,
              18.805469
            ],
            [
              72.696875,
              18.808203
            ],
            [
              72.696875,
              18.80957
            ],
            [
              72.691406,
              18.80957
            ],
            [
              72.688672,
              18.806836
            ]
          ]
        ]
      }
    },
    {
      "type": "Feature",
      "properties": {
        "spill_id": "sentinel_547",
        "confidence": 0.74
      },
      "geometry": {
        "type": "Polygon",
        "coordinates": [
          [
            [
              72.5,
              18.823242
            ],
            [
              72.5,
              18.804102
            ],
            [
              72.501367,
              18.804102
            ],
            [
              72.504102,
              18.801367
            ],
            [
              72.519141,
              18.801367
            ],
            [
              72.519141,
              18.802734
            ],
            [
              72.516406,
              18.805469
            ],
            [
              72.515039,
              18.805469
            ],
            [
              72.510938,
              18.80957
            ],
            [
              72.510938,
              18.812305
            ],
            [
              72.50957,
              18.813672
            ],
            [
              72.50957,
              18.817773
            ],
            [
              72.506836,
              18.817773
            ],
            [
              72.505469,
              18.819141
            ],
            [
              72.504102,
              18.819141
            ],
            [
              72.5,
              18.823242
            ]
          ]
        ]
      }
    },
    {
      "type": "Feature",
      "properties": {
        "spill_id": "sentinel_547",
        "confidence": 0.74
      },
      "geometry": {
        "type": "Polygon",
        "coordinates": [
          [
            [
              72.624414,
              18.851953
            ],
            [
              72.623047,
              18.85332
            ],
            [
              72.612109,
              18.85332
            ],
            [
              72.605273,
              18.849219
            ],
            [
              72.601172,
              18.849219
            ],
            [
              72.572461,
              18.820508
            ],
            [
              72.562891,
              18.808203
            ],
            [
              72.561523,
              18.804102
            ],
            [
              72.562891,
              18.801367
            ],
            [
              72.617578,
              18.801367
            ],
            [
              72.618945,
              18.802734
            ],
            [
              72.613477,
              18.812305
            ],
            [
              72.614844,
              18.825977
            ],
            [
              72.612109,
              18.828711
            ],
            [
              72.612109,
              18.832812
            ],
            [
              72.624414,
              18.851953
            ]
          ]
        ]
      }
    },
    {
      "type": "Feature",
      "properties": {
        "spill_id": "sentinel_547",
        "confidence": 0.74
      },
      "geometry": {
        "type": "Polygon",
        "coordinates": [
          [
            [
              72.787109,
              18.860156
            ],
            [
              72.780273,
              18.85332
            ],
            [
              72.778906,
              18.85332
            ],
            [
              72.778906,
              18.846484
            ],
            [
              72.781641,
              18.846484
            ],
            [
              72.787109,
              18.841016
            ],
            [
              72.788477,
              18.841016
            ],
            [
              72.789844,
              18.839648
            ],
            [
              72.789844,
              18.835547
            ],
            [
              72.791211,
              18.83418
            ],
            [
              72.792578,
              18.83418
            ],
            [
              72.79668,
              18.830078
            ],
            [
              72.799414,
              18.830078
            ],
            [
              72.800781,
              18.831445
            ],
            [
              72.800781,
              18.83418
            ],
            [
              72.802148,
              18.835547
            ],
            [
              72.803516,
              18.835547
            ],
            [
              72.800781,
              18.839648
            ],
            [
              72.800781,
              18.854688
            ],
            [
              72.798047,
              18.857422
            ],
            [
              72.793945,
              18.857422
            ],
            [
              72.792578,
              18.858789
            ],
            [
              72.789844,
              18.858789
            ],
            [
              72.788477,
              18.860156
            ],
            [
              72.787109,
              18.860156
            ]
          ]
        ]
      }
    },
    {
      "type": "Feature",
      "properties": {
        "spill_id": "sentinel_547",
        "confidence": 0.74
      },
      "geometry": {
        "type": "Polygon",
        "coordinates": [
          [
            [
              72.748828,
              18.914844
            ],
            [
              72.747461,
              18.916211
            ],
            [
              72.744727,
              18.916211
            ],
            [
              72.743359,
              18.914844
            ],
            [
              72.740625,
              18.914844
            ],
            [
              72.739258,
              18.913477
            ],
            [
              72.736523,
              18.913477
            ],
            [
              72.735156,
              18.912109
            ],
            [
              72.731055,
              18.912109
            ],
            [
              72.729688,
              18.910742
            ],
            [
              72.72832,
              18.910742
            ],
            [
              72.726953,
              18.909375
            ],
            [
              72.726953,
              18.908008
            ],
            [
              72.725586,
              18.906641
            ],
            [
              72.726953,
              18.905273
            ],
            [
              72.726953,
              18.903906
            ],
            [
              72.72832,
              18.902539
            ],
            [
              72.72832,
              18.899805
            ],
            [
              72.736523,
              18.899805
            ],
            [
              72.737891,
              18.901172
            ],
            [
              72.740625,
              18.901172
            ],
            [
              72.746094,
              18.906641
            ],
            [
              72.746094,
              18.908008
            ],
            [
              72.747461,
              18.909375
            ],
            [
              72.748828,
              18.909375
            ],
            [
              72.748828,
              18.914844
            ]
          ]
        ]
      }
    },
    {
      "type": "Feature",
      "properties": {
        "spill_id": "sentinel_547",
        "confidence": 0.74
      },
      "geometry": {
        "type": "Polygon",
        "coordinates": [
          [
            [
              72.7625,
              18.944922
            ],
            [
              72.761133,
              18.946289
            ],
            [
              72.759766,
              18.946289
            ],
            [
              72.758398,
              18.944922
            ],
            [
              72.757031,
              18.944922
            ],
            [
              72.755664,
              18.943555
            ],
            [
              72.75293,
              18.943555
            ],
            [
              72.751562,
              18.944922
            ],
            [
              72.750195,
              18.943555
            ],
            [
              72.750195,
              18.942188
            ],
            [
              72.748828,
              18.94082
            ],
            [
              72.748828,
              18.936719
            ],
            [
              72.747461,
              18.935352
            ],
            [
              72.747461,
              18.933984
            ],
            [
              72.746094,
              18.932617
            ],
            [
              72.744727,
              18.932617
            ],
            [
              72.743359,
              18.93125
            ],
            [
              72.741992,
              18.93125
            ],
            [
              72.740625,
              18.929883
            ],
            [
              72.740625,
              18.928516
            ],
            [
              72.741992,
              18.927148
            ],
            [
              72.746094,
              18.927148
            ],
            [
              72.747461,
              18.925781
            ],
            [
              72.751562,
              18.925781
            ],
            [
              72.75293,
              18.927148
            ],
            [
              72.754297,
              18.927148
            ],
            [
              72.757031,
              18.929883
            ],
            [
              72.757031,
              18.932617
            ],
            [
              72.761133,
              18.936719
            ],
            [
              72.761133,
              18.939453
            ],
            [
              72.7625,
              18.94082
            ],
            [
              72.7625,
              18.944922
            ]
          ]
        ]
      }
    },
    {
      "type": "Feature",
      "properties": {
        "spill_id": "sentinel_547",
        "confidence": 0.74
      },
      "geometry": {
        "type": "Polygon",
        "coordinates": [
          [
            [
              72.848633,
              18.962695
            ],
            [
              72.844531,
              18.962695
            ],
            [
              72.836328,
              18.954492
            ],
            [
              72.836328,
              18.953125
            ],
            [
              72.833594,
              18.950391
            ],
            [
              72.830859,
              18.950391
            ],
            [
              72.829492,
              18.949023
            ],
            [
              72.828125,
              18.950391
            ],
            [
              72.826758,
              18.949023
            ],
            [
              72.824023,
              18.949023
            ],
            [
              72.822656,
              18.947656
            ],
            [
              72.822656,
              18.944922
            ],
            [
              72.824023,
              18.943555
            ],
            [
              72.824023,
              18.942188
            ],
            [
              72.822656,
              18.94082
            ],
            [
              72.822656,
              18.936719
            ],
            [
              72.824023,
              18.935352
            ],
            [
              72.833594,
              18.935352
            ],
            [
              72.833594,
              18.947656
            ],
            [
              72.834961,
              18.949023
            ],
            [
              72.839062,
              18.949023
            ],
            [
              72.84043,
              18.950391
            ],
            [
              72.844531,
              18.950391
            ],
            [
              72.844531,
              18.953125
            ],
            [
              72.848633,
              18.959961
            ],
            [
              72.848633,
              18.962695
            ]
          ]
        ]
      }
    },
    {
      "type": "Feature",
      "properties": {
        "spill_id": "sentinel_547",
        "confidence": 0.74
      },
      "geometry": {
        "type": "Polygon",
        "coordinates": [
          [
            [
              72.802148,
              18.988672
            ],
            [
              72.799414,
              18.985938
            ],
            [
              72.799414,
              18.98457
            ],
            [
              72.79668,
              18.981836
            ],
            [
              72.795312,
              18.981836
            ],
            [
              72.791211,
              18.977734
            ],
            [
              72.791211,
              18.969531
            ],
            [
              72.792578,
              18.968164
            ],
            [
              72.793945,
              18.964062
            ],
            [
              72.79668,
              18.961328
            ],
            [
              72.798047,
              18.961328
            ],
            [
              72.802148,
              18.958594
            ],
            [
              72.808984,
              18.958594
            ],
            [
              72.810352,
              18.959961
            ],
            [
              72.811719,
              18.959961
            ],
            [
              72.814453,
              18.962695
            ],
            [
              72.81582,
              18.962695
            ],
            [
              72.822656,
              18.969531
            ],
            [
              72.822656,
              18.973633
            ],
            [
              72.821289,
              18.975
            ],
            [
              72.818555,
              18.975
            ],
            [
              72.81582,
              18.977734
            ],
            [
              72.81582,
              18.985938
            ],
            [
              72.813086,
              18.985938
            ],
            [
              72.811719,
              18.987305
            ],
            [
              72.807617,
              18.987305
            ],
            [
              72.80625,
              18.988672
            ],
            [
              72.802148,
              18.988672
            ]
          ]
        ]
      }
    },
    {
      "type": "Feature",
      "properties": {
        "spill_id": "sentinel_547",
        "confidence": 0.74
      },
      "geometry": {
        "type": "Polygon",
        "coordinates": [
          [
            [
              72.776172,
              19.010547
            ],
            [
              72.780273,
              19.002344
            ],
            [
              72.787109,
              19.002344
            ],
            [
              72.791211,
              19.005078
            ],
            [
              72.799414,
              19.005078
            ],
            [
              72.802148,
              19.000977
            ],
            [
              72.80625,
              18.998242
            ],
            [
              72.81582,
              18.998242
            ],
            [
              72.825391,
              19.002344
            ],
            [
              72.828125,
              19.005078
            ],
            [
              72.828125,
              19.006445
            ],
            [
              72.825391,
              19.006445
            ],
            [
              72.824023,
              19.007812
            ],
            [
              72.814453,
              19.007812
            ],
            [
              72.813086,
              19.00918
            ],
            [
              72.813086,
              19.013281
            ],
            [
              72.817187,
              19.016016
            ],
            [
              72.822656,
              19.017383
            ],
            [
              72.822656,
              19.021484
            ],
            [
              72.81582,
              19.024219
            ],
            [
              72.80625,
              19.024219
            ],
            [
              72.804883,
              19.025586
            ],
            [
              72.791211,
              19.025586
            ],
            [
              72.788477,
              19.024219
            ],
            [
              72.778906,
              19.016016
            ],
            [
              72.776172,
              19.010547
            ]
          ]
        ]
      }
    },
    {
      "type": "Feature",
      "properties": {
        "spill_id": "sentinel_547",
        "confidence": 0.74
      },
      "geometry": {
        "type": "Polygon",
        "coordinates": [
          [
            [
              72.848633,
              19.099414
            ],
            [
              72.845898,
              19.099414
            ],
            [
              72.841797,
              19.095312
            ],
            [
              72.841797,
              19.093945
            ],
            [
              72.839062,
              19.089844
            ],
            [
              72.839062,
              19.085742
            ],
            [
              72.837695,
              19.084375
            ],
            [
              72.837695,
              19.073438
            ],
            [
              72.839062,
              19.07207
            ],
            [
              72.839062,
              19.070703
            ],
            [
              72.84043,
              19.070703
            ],
            [
              72.841797,
              19.069336
            ],
            [
              72.841797,
              19.067969
            ],
            [
              72.843164,
              19.067969
            ],
            [
              72.844531,
              19.066602
            ],
            [
              72.844531,
              19.065234
            ],
            [
              72.845898,
              19.065234
            ],
            [
              72.845898,
              19.066602
            ],
            [
              72.847266,
              19.067969
            ],
            [
              72.847266,
              19.070703
            ],
            [
              72.848633,
              19.07207
            ],
            [
              72.848633,
              19.099414
            ]
          ]
        ]
      }
    },
    {
      "type": "Feature",
      "properties": {
        "spill_id": "sentinel_547",
        "confidence": 0.74
      },
      "geometry": {
        "type": "Polygon",
        "coordinates": [
          [
            [
              72.666797,
              19.118555
            ],
            [
              72.653125,
              19.119922
            ],
            [
              72.632617,
              19.099414
            ],
            [
              72.627148,
              19.100781
            ],
            [
              72.620312,
              19.10625
            ],
            [
              72.608008,
              19.10625
            ],
            [
              72.602539,
              19.100781
            ],
            [
              72.586133,
              19.067969
            ],
            [
              72.586133,
              19.047461
            ],
            [
              72.592969,
              19.043359
            ],
            [
              72.603906,
              19.043359
            ],
            [
              72.618945,
              19.058398
            ],
            [
              72.625781,
              19.061133
            ],
            [
              72.625781,
              19.069336
            ],
            [
              72.628516,
              19.07207
            ],
            [
              72.636719,
              19.07207
            ],
            [
              72.646289,
              19.078906
            ],
            [
              72.653125,
              19.080273
            ],
            [
              72.666797,
              19.103516
            ],
            [
              72.666797,
              19.118555
            ]
          ]
        ]
      }
    },
    {
      "type": "Feature",
      "properties": {
        "spill_id": "sentinel_547",
        "confidence": 0.74
      },
      "geometry": {
        "type": "Polygon",
        "coordinates": [
          [
            [
              72.795312,
              19.137695
            ],
            [
              72.79668,
              19.136328
            ],
            [
              72.79668,
              19.133594
            ],
            [
              72.799414,
              19.130859
            ],
            [
              72.799414,
              19.129492
            ],
            [
              72.803516,
              19.128125
            ],
            [
              72.80625,
              19.125391
            ],
            [
              72.810352,
              19.128125
            ],
            [
              72.813086,
              19.128125
            ],
            [
              72.817187,
              19.132227
            ],
            [
              72.817187,
              19.133594
            ],
            [
              72.818555,
              19.134961
            ],
            [
              72.819922,
              19.139062
            ],
            [
              72.822656,
              19.141797
            ],
            [
              72.822656,
              19.143164
            ],
            [
              72.824023,
              19.144531
            ],
            [
              72.824023,
              19.147266
            ],
            [
              72.822656,
              19.148633
            ],
            [
              72.822656,
              19.15
            ],
            [
              72.79668,
              19.15
            ],
            [
              72.79668,
              19.145898
            ],
            [
              72.795312,
              19.144531
            ],
            [
              72.795312,
              19.137695
            ]
          ]
        ]
      }
    },
    {
      "type": "Feature",
      "properties": {
        "spill_id": "sentinel_547",
        "confidence": 0.74
      },
      "geometry": {
        "type": "Polygon",
        "coordinates": [
          [
            [
              72.592969,
              19.15
            ],
            [
              72.54375,
              19.15
            ],
            [
              72.545117,
              19.141797
            ],
            [
              72.541016,
              19.129492
            ],
            [
              72.541016,
              19.122656
            ],
            [
              72.513672,
              19.092578
            ],
            [
              72.512305,
              19.083008
            ],
            [
              72.521875,
              19.083008
            ],
            [
              72.530078,
              19.093945
            ],
            [
              72.536914,
              19.09668
            ],
            [
              72.549219,
              19.093945
            ],
            [
              72.551953,
              19.102148
            ],
            [
              72.564258,
              19.095312
            ],
            [
              72.573828,
              19.09668
            ],
            [
              72.580664,
              19.10625
            ],
            [
              72.584766,
              19.124023
            ],
            [
              72.592969,
              19.141797
            ],
            [
              72.592969,
              19.15
            ]
          ]
        ]
      }
    }
  ]
}