{
  "type": "FeatureCollection",
  "features": [
    {
      "type": "Feature",
      "properties": {
        "spill_id": "sentinel_383",
        "confidence": 0.81
      },
      "geometry": {
        "type": "Polygon",
        "coordinates": [
          [
            [
              72.716016,
              19.15
            ],
            [
              72.714648,
              19.147266
            ],
            [
              72.716016,
              19.144531
            ],
            [
              72.714648,
              19.143164
            ],
            [
              72.714648,
              19.130859
            ],
            [
              72.716016,
              19.129492
            ],
            [
              72.716016,
              19.126758
            ],
            [
              72.722852,
              19.121289
            ],
            [
              72.732422,
              19.119922
            ],
            [
              72.737891,
              19.113086
            ],
            [
              72.746094,
              19.10625
            ],
            [
              72.755664,
              19.102148
            ],
            [
              72.7625,
              19.103516
            ],
            [
              72.766602,
              19.114453
            ],
            [
              72.765234,
              19.119922
            ],
            [
              72.757031,
              19.126758
            ],
            [
              72.746094,
              19.15
            ],
            [
              72.716016,
              19.15
            ]
          ]
        ]
      }
    }
  ]
}