{
  "type": "FeatureCollection",
  "features": [
    {
      "type": "Feature",
      "properties": {
        "spill_id": "sentinel_13",
        "confidence": 0.92
      },
      "geometry": {
        "type": "Polygon",
        "coordinates": [
          [
            [
              72.5,
              18.929883
            ],
            [
              72.5,
              18.856055
            ],
            [
              72.523242,
              18.819141
            ],
            [
              72.536914,
              18.84375
            ],
            [
              72.588867,
              18.827344
            ],
            [
              72.609375,
              18.835547
            ],
            [
              72.670898,
              18.842383
            ],
            [
              72.700977,
              18.835547
            ],
            [
              72.706445,
              18.824609
            ],
            [
              72.703711,
              18.810938
            ],
            [
              72.717383,
              18.802734
            ],
            [
              72.724219,
              18.808203
            ],
            [
              72.71875,
              18.823242
            ],
            [
              72.732422,
              18.842383
            ],
            [
              72.755664,
              18.846484
            ],
            [
              72.789844,
              18.872461
            ],
            [
              72.789844,
              18.87793
            ],
            [
              72.739258,
              18.909375
            ],
            [
              72.687305,
              18.916211
            ],
            [
              72.659961,
              18.935352
            ],
            [
              72.624414,
              18.93125
            ],
            [
              72.515039,
              18.938086
            ],
            [
              72.5,
              18.929883
            ]
          ]
        ]
      }
    },
    {
      "type": "Feature",
      "properties": {
        "spill_id": "sentinel_13",
        "confidence": 0.92
      },
      "geometry": {
        "type": "Polygon",
        "coordinates": [
          [
            [
              72.623047,
              18.977734
            ],
            [
              72.620312,
              18.980469
            ],
            [
              72.617578,
              18.980469
            ],
            [
              72.616211,
              18.981836
            ],
            [
              72.606641,
              18.981836
            ],
            [
              72.601172,
              18.979102
            ],
            [
              72.591602,
              18.977734
            ],
            [
              72.586133,
              18.975
            ],
            [
              72.582031,
              18.970898
            ],
            [
              72.579297,
              18.969531
            ],
            [
              72.572461,
              18.969531
            ],
            [
              72.569727,
              18.968164
            ],
            [
              72.569727,
              18.966797
            ],
            [
              72.572461,
              18.96543
            ],
            [
              72.576562,
              18.96543
            ],
            [
              72.57793,
              18.964062
            ],
            [
              72.582031,
              18.964062
            ],
            [
              72.583398,
              18.962695
            ],
            [
              72.594336,
              18.962695
            ],
            [
              72.595703,
              18.964062
            ],
            [
              72.603906,
              18.964062
            ],
            [
              72.605273,
              18.96543
            ],
            [
              72.614844,
              18.96543
            ],
            [
              72.620312,
              18.968164
            ],
            [
              72.623047,
              18.973633
            ],
            [
              72.623047,
              18.977734
            ]
          ]
        ]
      }
    }
  ]
}