{
  "type": "FeatureCollection",
  "features": [
    {
      "type": "Feature",
      "properties": {
        "spill_id": "sentinel_514",
        "confidence": 0.86
      },
      "geometry": {
        "type": "Polygon",
        "coordinates": [
          [
            [
              72.848633,
              18.823242
            ],
            [
              72.847266,
              18.823242
            ],
            [
              72.845898,
              18.824609
            ],
            [
              72.836328,
              18.824609
            ],
            [
              72.834961,
              18.823242
            ],
            [
              72.832227,
              18.823242
            ],
            [
              72.830859,
              18.824609
            ],
            [
              72.828125,
              18.824609
            ],
            [
              72.826758,
              18.823242
            ],
            [
              72.822656,
              18.823242
            ],
            [
              72.821289,
              18.821875
            ],
            [
              72.817187,
              18.820508
            ],
            [
              72.814453,
              18.816406
            ],
            [
              72.814453,
              18.813672
            ],
            [
              72.813086,
              18.812305
            ],
            [
              72.813086,
              18.80957
            ],
            [
              72.811719,
              18.808203
            ],
            [
              72.811719,
              18.804102
            ],
            [
              72.813086,
              18.802734
            ],
            [
              72.813086,
              18.801367
            ],
            [
              72.830859,
              18.801367
            ],
            [
              72.833594,
              18.804102
            ],
            [
              72.834961,
              18.804102
            ],
            [
              72.837695,
              18.806836
            ],
            [
              72.839062,
              18.806836
            ],
            [
              72.844531,
              18.812305
            ],
            [
              72.844531,
              18.813672
            ],
            [
              72.848633,
              18.817773
            ],
            [
              72.848633,
              18.823242
            ]
          ]
        ]
      }
    },
    {
      "type": "Feature",
      "properties": {
        "spill_id": "sentinel_514",
        "confidence": 0.86
      },
      "geometry": {
        "type": "Polygon",
        "coordinates": [
          [
            [
              72.837695,
              19.02832
            ],
            [
              72.837695,
              19.025586
            ],
            [
              72.839062,
              19.025586
            ],
            [
              72.84043,
              19.024219
            ],
            [
              72.843164,
              19.024219
            ],
            [
              72.845898,
              19.021484
            ],
            [
              72.848633,
              19.021484
            ],
            [
              72.848633,
              19.031055
            ],
            [
              72.847266,
              19.029687
            ],
            [
              72.845898,
              19.031055
            ],
            [
              72.841797,
              19.031055
            ],
            [
              72.84043,
              19.029687
            ],
            [
              72.839062,
              19.029687
            ],
            [
              72.837695,
              19.02832
            ]
          ]
        ]
      }
    },
    {
      "type": "Feature",
      "properties": {
        "spill_id": "sentinel_514",
        "confidence": 0.86
      },
      "geometry": {
        "type": "Polygon",
        "coordinates": [
          [
            [
              72.713281,
              19.051562
            ],
            [
              72.711914,
              19.051562
            ],
            [
              72.710547,
              19.05293
            ],
            [
              72.696875,
              19.05293
            ],
            [
              72.695508,
              19.051562
            ],
            [
              72.694141,
              19.051562
            ],
            [
              72.692773,
              19.050195
            ],
            [
              72.692773,
              19.048828
            ],
            [
              72.683203,
              19.039258
            ],
            [
              72.683203,
              19.037891
            ],
            [
              72.681836,
              19.036523
            ],
            [
              72.68457,
              19.032422
            ],
            [
              72.68457,
              19.025586
            ],
            [
              72.688672,
              19.021484
            ],
            [
              72.694141,
              19.021484
            ],
            [
              72.695508,
              19.022852
            ],
            [
              72.696875,
              19.022852
            ],
            [
              72.699609,
              19.025586
            ],
            [
              72.700977,
              19.029687
            ],
            [
              72.710547,
              19.039258
            ],
            [
              72.710547,
              19.040625
            ],
            [
              72.716016,
              19.047461
            ],
            [
              72.716016,
              19.048828
            ],
            [
              72.713281,
              19.051562
            ]
          ]
        ]
      }
    },
    {
      "type": "Feature",
      "properties": {
        "spill_id": "sentinel_514",
        "confidence": 0.86
      },
      "geometry": {
        "type": "Polygon",
        "coordinates": [
          [
            [
              72.844531,
              19.15
            ],
            [
              72.694141,
              19.15
            ],
            [
              72.700977,
              19.110352
            ],
            [
              72.72832,
              19.132227
            ],
            [
              72.737891,
              19.128125
            ],
            [
              72.732422,
              19.093945
            ],
            [
              72.720117,
              19.083008
            ],
            [
              72.736523,
              19.063867
            ],
            [
              72.725586,
              19.017383
            ],
            [
              72.713281,
              19.005078
            ],
            [
              72.658594,
              19.011914
            ],
            [
              72.610742,
              18.943555
            ],
            [
              72.568359,
              18.933984
            ],
            [
              72.560156,
              18.902539
            ],
            [
              72.579297,
              18.883398
            ],
            [
              72.565625,
              18.84375
            ],
            [
              72.531445,
              18.815039
            ],
            [
              72.532812,
              18.801367
            ],
            [
              72.609375,
              18.801367
            ],
            [
              72.646289,
              18.832812
            ],
            [
              72.675,
              18.879297
            ],
            [
              72.716016,
              18.906641
            ],
            [
              72.726953,
              18.899805
            ],
            [
              72.720117,
              18.864258
            ],
            [
              72.732422,
              18.862891
            ],
            [
              72.773438,
              18.923047
            ],
            [
              72.808984,
              18.944922
            ],
            [
              72.811719,
              18.96543
            ],
            [
              72.793945,
              18.995508
            ],
            [
              72.848633,
              19.058398
            ],
            [
              72.844531,
              19.15
            ]
          ]
        ]
      }
    }
  ]
}