{
  "type": "FeatureCollection",
  "features": [
    {
      "type": "Feature",
      "properties": {
        "spill_id": "sentinel_57",
        "confidence": 0.82
      },
      "geometry": {
        "type": "Polygon",
        "coordinates": [
          [
            [
              72.757031,
              18.942188
            ],
            [
              72.75293,
              18.938086
            ],
            [
              72.75293,
              18.93125
            ],
            [
              72.754297,
              18.929883
            ],
            [
              72.755664,
              18.929883
            ],
            [
              72.757031,
              18.928516
            ],
            [
              72.758398,
              18.928516
            ],
            [
              72.759766,
              18.927148
            ],
            [
              72.767969,
              18.927148
            ],
            [
              72.767969,
              18.933984
            ],
            [
              72.769336,
              18.935352
            ],
            [
              72.769336,
              18.939453
            ],
            [
              72.770703,
              18.94082
            ],
            [
              72.767969,
              18.943555
            ],
            [
              72.7625,
              18.943555
            ],
            [
              72.761133,
              18.942188
            ],
            [
              72.757031,
              18.942188
            ]
          ]
        ]
      }
    },
    {
      "type": "Feature",
      "properties": {
        "spill_id": "sentinel_57",
        "confidence": 0.82
      },
      "geometry": {
        "type": "Polygon",
        "coordinates": [
          [
            [
              72.690039,
              18.951758
            ],
            [
              72.688672,
              18.951758
            ],
            [
              72.687305,
              18.950391
            ],
            [
              72.680469,
              18.950391
            ],
            [
              72.679102,
              18.949023
            ],
            [
              72.680469,
              18.947656
            ],
            [
              72.680469,
              18.946289
            ],
            [
              72.68457,
              18.942188
            ],
            [
              72.690039,
              18.942188
            ],
            [
              72.690039,
              18.943555
            ],
            [
              72.691406,
              18.944922
            ],
            [
              72.691406,
              18.950391
            ],
            [
              72.690039,
              18.951758
            ]
          ]
        ]
      }
    },
    {
      "type": "Feature",
      "properties": {
        "spill_id": "sentinel_57",
        "confidence": 0.82
      },
      "geometry": {
        "type": "Polygon",
        "coordinates": [
          [
            [
              72.608008,
              19.010547
            ],
            [
              72.609375,
              19.00918
            ],
            [
              72.606641,
              19.006445
            ],
            [
              72.606641,
              19.003711
            ],
            [
              72.608008,
              19.002344
            ],
            [
              72.616211,
              19.002344
            ],
            [
              72.616211,
              19.003711
            ],
            [
              72.617578,
              19.005078
            ],
            [
              72.613477,
              19.00918
            ],
            [
              72.612109,
              19.00918
            ],
            [
              72.610742,
              19.010547
            ],
            [
              72.608008,
              19.010547
            ]
          ]
        ]
      }
    },
    {
      "type": "Feature",
      "properties": {
        "spill_id": "sentinel_57",
        "confidence": 0.82
      },
      "geometry": {
        "type": "Polygon",
        "coordinates": [
          [
            [
              72.603906,
              19.066602
            ],
            [
              72.603906,
              19.063867
            ],
            [
              72.605273,
              19.0625
            ],
            [
              72.605273,
              19.054297
            ],
            [
              72.602539,
              19.051562
            ],
            [
              72.602539,
              19.050195
            ],
            [
              72.601172,
              19.048828
            ],
            [
              72.602539,
              19.047461
            ],
            [
              72.602539,
              19.044727
            ],
            [
              72.603906,
              19.044727
            ],
            [
              72.606641,
              19.041992
            ],
            [
              72.614844,
              19.041992
            ],
            [
              72.617578,
              19.044727
            ],
            [
              72.617578,
              19.047461
            ],
            [
              72.618945,
              19.048828
            ],
            [
              72.618945,
              19.055664
            ],
            [
              72.614844,
              19.058398
            ],
            [
              72.612109,
              19.058398
            ],
            [
              72.610742,
              19.057031
            ],
            [
              72.608008,
              19.057031
            ],
            [
              72.605273,
              19.059766
            ],
            [
              72.606641,
              19.061133
            ],
            [
              72.606641,
              19.066602
            ],
            [
              72.603906,
              19.066602
            ]
          ]
        ]
      }
    },
    {
      "type": "Feature",
      "properties": {
        "spill_id": "sentinel_57",
        "confidence": 0.82
      },
      "geometry": {
        "type": "Polygon",
        "coordinates": [
          [
            [
              72.759766,
              19.136328
            ],
            [
              72.757031,
              19.136328
            ],
            [
              72.748828,
              19.128125
            ],
            [
              72.747461,
              19.128125
            ],
            [
              72.744727,
              19.125391
            ],
            [
              72.743359,
              19.125391
            ],
            [
              72.744727,
              19.125391
            ],
            [
              72.746094,
              19.124023
            ],
            [
              72.746094,
              19.118555
            ],
            [
              72.747461,
              19.117188
            ],
            [
              72.748828,
              19.117188
            ],
            [
              72.750195,
              19.11582
            ],
            [
              72.754297,
              19.11582
            ],
            [
              72.755664,
              19.117188
            ],
            [
              72.757031,
              19.117188
            ],
            [
              72.757031,
              19.118555
            ],
            [
              72.758398,
              19.119922
            ],
            [
              72.758398,
              19.121289
            ],
            [
              72.759766,
              19.122656
            ],
            [
              72.759766,
              19.126758
            ],
            [
              72.761133,
              19.128125
            ],
            [
              72.761133,
              19.134961
            ],
            [
              72.759766,
              19.136328
            ]
          ]
        ]
      }
    },
    {
      "type": "Feature",
      "properties": {
        "spill_id": "sentinel_57",
        "confidence": 0.82
      },
      "geometry": {
        "type": "Polygon",
        "coordinates": [
          [
            [
              72.694141,
              19.15
            ],
            [
              72.698242,
              19.078906
            ],
            [
              72.681836,
              19.073438
            ],
            [
              72.675,
              19.057031
            ],
            [
              72.698242,
              19.031055
            ],
            [
              72.687305,
              18.977734
            ],
            [
              72.70918,
              18.973633
            ],
            [
              72.707812,
              18.942188
            ],
            [
              72.72832,
              18.954492
            ],
            [
              72.720117,
              18.96543
            ],
            [
              72.726953,
              18.998242
            ],
            [
              72.743359,
              18.998242
            ],
            [
              72.767969,
              18.96543
            ],
            [
              72.79668,
              18.975
            ],
            [
              72.807617,
              18.988672
            ],
            [
              72.847266,
              18.975
            ],
            [
              72.848633,
              19.0625
            ],
            [
              72.819922,
              19.070703
            ],
            [
              72.848633,
              19.076172
            ],
            [
              72.848633,
              19.104883
            ],
            [
              72.841797,
              19.107617
            ],
            [
              72.848633,
              19.15
            ],
            [
              72.793945,
              19.15
            ],
            [
              72.802148,
              19.130859
            ],
            [
              72.747461,
              19.104883
            ],
            [
              72.740625,
              19.078906
            ],
            [
              72.722852,
              19.065234
            ],
            [
              72.700977,
              19.076172
            ],
            [
              72.721484,
              19.084375
            ],
            [
              72.731055,
              19.099414
            ],
            [
              72.717383,
              19.125391
            ],
            [
              72.732422,
              19.15
            ],
            [
              72.694141,
              19.15
            ]
          ]
        ]
      }
    },
    {
      "type": "Feature",
      "properties": {
        "spill_id": "sentinel_57",
        "confidence": 0.82
      },
      "geometry": {
        "type": "Polygon",
        "coordinates": [
          [
            [
              72.5,
              19.15
            ],
            [
              72.5,
              19.077539
            ],
            [
              72.516406,
              19.07207
            ],
            [
              72.5,
              19.063867
            ],
            [
              72.5,
              18.801367
            ],
            [
              72.843164,
              18.801367
            ],
            [
              72.848633,
              18.858789
            ],
            [
              72.834961,
              18.832812
            ],
            [
              72.783008,
              18.886133
            ],
            [
              72.787109,
              18.920312
            ],
            [
              72.75293,
              18.898438
            ],
            [
              72.720117,
              18.906641
            ],
            [
              72.733789,
              18.875195
            ],
            [
              72.705078,
              18.858789
            ],
            [
              72.688672,
              18.87793
            ],
            [
              72.698242,
              18.924414
            ],
            [
              72.653125,
              18.938086
            ],
            [
              72.633984,
              19.01875
            ],
            [
              72.679102,
              19.15
            ],
            [
              72.629883,
              19.15
            ],
            [
              72.638086,
              19.129492
            ],
            [
              72.620312,
              19.129492
            ],
            [
              72.654492,
              19.125391
            ],
            [
              72.654492,
              19.085742
            ],
            [
              72.610742,
              19.02832
            ],
            [
              72.633984,
              18.980469
            ],
            [
              72.609375,
              18.933984
            ],
            [
              72.590234,
              18.939453
            ],
            [
              72.573828,
              18.991406
            ],
            [
              72.57793,
              18.946289
            ],
            [
              72.547852,
              18.943555
            ],
            [
              72.525977,
              18.994141
            ],
            [
              72.546484,
              19.007812
            ],
            [
              72.546484,
              19.043359
            ],
            [
              72.590234,
              19.054297
            ],
            [
              72.590234,
              19.076172
            ],
            [
              72.565625,
              19.081641
            ],
            [
              72.57793,
              19.121289
            ],
            [
              72.627148,
              19.15
            ],
            [
              72.5,
              19.15
            ]
          ]
        ]
      }
    }
  ]
}