{
  "type": "FeatureCollection",
  "features": [
    {
      "type": "Feature",
      "properties": {
        "spill_id": "sentinel_1",
        "confidence": 0.81
      },
      "geometry": {
        "type": "Polygon",
        "coordinates": [
          [
            [
              72.741992,
              18.872461
            ],
            [
              72.736523,
              18.868359
            ],
            [
              72.731055,
              18.866992
            ],
            [
              72.729688,
              18.860156
            ],
            [
              72.721484,
              18.847852
            ],
            [
              72.722852,
              18.828711
            ],
            [
              72.717383,
              18.813672
            ],
            [
              72.717383,
              18.804102
            ],
            [
              72.720117,
              18.801367
            ],
            [
              72.739258,
              18.801367
            ],
            [
              72.741992,
              18.808203
            ],
            [
              72.741992,
              18.825977
            ],
            [
              72.746094,
              18.835547
            ],
            [
              72.746094,
              18.839648
            ],
            [
              72.750195,
              18.845117
            ],
            [
              72.750195,
              18.856055
            ],
            [
              72.741992,
              18.865625
            ],
            [
              72.743359,
              18.868359
            ],
            [
              72.741992,
              18.872461
            ]
          ]
        ]
      }
    },
    {
      "type": "Feature",
      "properties": {
        "spill_id": "sentinel_1",
        "confidence": 0.81
      },
      "geometry": {
        "type": "Polygon",
        "coordinates": [
          [
            [
              72.755664,
              18.961328
            ],
            [
              72.75293,
              18.961328
            ],
            [
              72.751562,
              18.959961
            ],
            [
              72.751562,
              18.957227
            ],
            [
              72.744727,
              18.947656
            ],
            [
              72.744727,
              18.944922
            ],
            [
              72.743359,
              18.943555
            ],
            [
              72.743359,
              18.938086
            ],
            [
              72.741992,
              18.936719
            ],
            [
              72.741992,
              18.927148
            ],
            [
              72.740625,
              18.925781
            ],
            [
              72.740625,
              18.92168
            ],
            [
              72.739258,
              18.920312
            ],
            [
              72.739258,
              18.914844
            ],
            [
              72.740625,
              18.913477
            ],
            [
              72.739258,
              18.909375
            ],
            [
              72.740625,
              18.908008
            ],
            [
              72.740625,
              18.905273
            ],
            [
              72.746094,
              18.903906
            ],
            [
              72.747461,
              18.902539
            ],
            [
              72.750195,
              18.902539
            ],
            [
              72.75293,
              18.905273
            ],
            [
              72.75293,
              18.906641
            ],
            [
              72.758398,
              18.909375
            ],
            [
              72.761133,
              18.913477
            ],
            [
              72.761133,
              18.925781
            ],
            [
              72.7625,
              18.927148
            ],
            [
              72.7625,
              18.936719
            ],
            [
              72.761133,
              18.939453
            ],
            [
              72.7625,
              18.94082
            ],
            [
              72.763867,
              18.950391
            ],
            [
              72.755664,
              18.961328
            ]
          ]
        ]
      }
    },
    {
      "type": "Feature",
      "properties": {
        "spill_id": "sentinel_1",
        "confidence": 0.81
      },
      "geometry": {
        "type": "Polygon",
        "coordinates": [
          [
            [
              72.649023,
              18.987305
            ],
            [
              72.646289,
              18.990039
            ],
            [
              72.644922,
              18.990039
            ],
            [
              72.64082,
              18.992773
            ],
            [
              72.636719,
              18.992773
            ],
            [
              72.635352,
              18.991406
            ],
            [
              72.632617,
              18.991406
            ],
            [
              72.628516,
              18.988672
            ],
            [
              72.623047,
              18.988672
            ],
            [
              72.62168,
              18.987305
            ],
            [
              72.618945,
              18.987305
            ],
            [
              72.617578,
              18.985938
            ],
            [
              72.614844,
              18.985938
            ],
            [
              72.610742,
              18.981836
            ],
            [
              72.609375,
              18.981836
            ],
            [
              72.609375,
              18.980469
            ],
            [
              72.608008,
              18.979102
            ],
            [
              72.608008,
              18.976367
            ],
            [
              72.609375,
              18.975
            ],
            [
              72.609375,
              18.973633
            ],
            [
              72.610742,
              18.973633
            ],
            [
              72.612109,
              18.972266
            ],
            [
              72.618945,
              18.972266
            ],
            [
              72.620312,
              18.973633
            ],
            [
              72.623047,
              18.973633
            ],
            [
              72.624414,
              18.975
            ],
            [
              72.628516,
              18.975
            ],
            [
              72.629883,
              18.976367
            ],
            [
              72.64082,
              18.976367
            ],
            [
              72.642187,
              18.977734
            ],
            [
              72.646289,
              18.979102
            ],
            [
              72.646289,
              18.980469
            ],
            [
              72.647656,
              18.981836
            ],
            [
              72.647656,
              18.985938
            ],
            [
              72.649023,
              18.987305
            ]
          ]
        ]
      }
    }
  ]
}