{
  "type": "FeatureCollection",
  "features": [
    {
      "type": "Feature",
      "properties": {
        "spill_id": "sentinel_754",
        "confidence": 0.85
      },
      "geometry": {
        "type": "Polygon",
        "coordinates": [
          [
            [
              72.646289,
              18.802734
            ],
            [
              72.650391,
              18.802734
            ],
            [
              72.651758,
              18.801367
            ],
            [
              72.713281,
              18.801367
            ],
            [
              72.711914,
              18.805469
            ],
            [
              72.702344,
              18.813672
            ],
            [
              72.700977,
              18.812305
            ],
            [
              72.692773,
              18.812305
            ],
            [
              72.690039,
              18.810938
            ],
            [
              72.683203,
              18.816406
            ],
            [
              72.680469,
              18.816406
            ],
            [
              72.679102,
              18.815039
            ],
            [
              72.677734,
              18.816406
            ],
            [
              72.675,
              18.816406
            ],
            [
              72.673633,
              18.815039
            ],
            [
              72.669531,
              18.817773
            ],
            [
              72.66543,
              18.817773
            ],
            [
              72.654492,
              18.810938
            ],
            [
              72.654492,
              18.805469
            ],
            [
              72.651758,
              18.802734
            ],
            [
              72.646289,
              18.802734
            ]
          ]
        ]
      }
    },
    {
      "type": "Feature",
      "properties": {
        "spill_id": "sentinel_754",
        "confidence": 0.85
      },
      "geometry": {
        "type": "Polygon",
        "coordinates": [
          [
            [
              72.575195,
              18.847852
            ],
            [
              72.572461,
              18.842383
            ],
            [
              72.573828,
              18.839648
            ],
            [
              72.576562,
              18.838281
            ],
            [
              72.57793,
              18.835547
            ],
            [
              72.586133,
              18.828711
            ],
            [
              72.586133,
              18.827344
            ],
            [
              72.59707,
              18.820508
            ],
            [
              72.599805,
              18.820508
            ],
            [
              72.601172,
              18.819141
            ],
            [
              72.602539,
              18.820508
            ],
            [
              72.608008,
              18.820508
            ],
            [
              72.612109,
              18.817773
            ],
            [
              72.610742,
              18.816406
            ],
            [
              72.609375,
              18.808203
            ],
            [
              72.613477,
              18.813672
            ],
            [
              72.612109,
              18.815039
            ],
            [
              72.612109,
              18.823242
            ],
            [
              72.613477,
              18.824609
            ],
            [
              72.613477,
              18.828711
            ],
            [
              72.614844,
              18.830078
            ],
            [
              72.613477,
              18.83418
            ],
            [
              72.601172,
              18.845117
            ],
            [
              72.592969,
              18.849219
            ],
            [
              72.588867,
              18.849219
            ],
            [
              72.5875,
              18.850586
            ],
            [
              72.580664,
              18.850586
            ],
            [
              72.575195,
              18.847852
            ]
          ]
        ]
      }
    },
    {
      "type": "Feature",
      "properties": {
        "spill_id": "sentinel_754",
        "confidence": 0.85
      },
      "geometry": {
        "type": "Polygon",
        "coordinates": [
          [
            [
              72.664062,
              19.054297
            ],
            [
              72.661328,
              19.057031
            ],
            [
              72.661328,
              19.059766
            ],
            [
              72.658594,
              19.061133
            ],
            [
              72.655859,
              19.061133
            ],
            [
              72.654492,
              19.0625
            ],
            [
              72.650391,
              19.0625
            ],
            [
              72.649023,
              19.061133
            ],
            [
              72.647656,
              19.0625
            ],
            [
              72.644922,
              19.061133
            ],
            [
              72.642187,
              19.063867
            ],
            [
              72.642187,
              19.067969
            ],
            [
              72.639453,
              19.067969
            ],
            [
              72.635352,
              19.0625
            ],
            [
              72.632617,
              19.063867
            ],
            [
              72.614844,
              19.065234
            ],
            [
              72.605273,
              19.059766
            ],
            [
              72.605273,
              19.05293
            ],
            [
              72.606641,
              19.050195
            ],
            [
              72.612109,
              19.046094
            ],
            [
              72.614844,
              19.046094
            ],
            [
              72.62168,
              19.050195
            ],
            [
              72.632617,
              19.051562
            ],
            [
              72.642187,
              19.058398
            ],
            [
              72.644922,
              19.058398
            ],
            [
              72.649023,
              19.054297
            ],
            [
              72.654492,
              19.051562
            ],
            [
              72.658594,
              19.051562
            ],
            [
              72.664062,
              19.054297
            ]
          ]
        ]
      }
    },
    {
      "type": "Feature",
      "properties": {
        "spill_id": "sentinel_754",
        "confidence": 0.85
      },
      "geometry": {
        "type": "Polygon",
        "coordinates": [
          [
            [
              72.848633,
              19.074805
            ],
            [
              72.830859,
              19.057031
            ],
            [
              72.724219,
              19.061133
            ],
            [
              72.691406,
              19.029687
            ],
            [
              72.614844,
              19.022852
            ],
            [
              72.57793,
              19.050195
            ],
            [
              72.5,
              19.061133
            ],
            [
              72.5,
              18.841016
            ],
            [
              72.520508,
              18.820508
            ],
            [
              72.510938,
              18.802734
            ],
            [
              72.550586,
              18.802734
            ],
            [
              72.528711,
              18.813672
            ],
            [
              72.565625,
              18.849219
            ],
            [
              72.551953,
              18.87793
            ],
            [
              72.623047,
              18.87793
            ],
            [
              72.620312,
              18.892969
            ],
            [
              72.575195,
              18.914844
            ],
            [
              72.584766,
              18.925781
            ],
            [
              72.664062,
              18.891602
            ],
            [
              72.692773,
              18.862891
            ],
            [
              72.726953,
              18.850586
            ],
            [
              72.737891,
              18.862891
            ],
            [
              72.741992,
              18.813672
            ],
            [
              72.757031,
              18.802734
            ],
            [
              72.843164,
              18.801367
            ],
            [
              72.848633,
              18.909375
            ],
            [
              72.777539,
              18.886133
            ],
            [
              72.735156,
              18.918945
            ],
            [
              72.75293,
              18.953125
            ],
            [
              72.781641,
              18.962695
            ],
            [
              72.848633,
              18.94082
            ],
            [
              72.848633,
              18.985938
            ],
            [
              72.824023,
              19.006445
            ],
            [
              72.848633,
              19.014648
            ],
            [
              72.848633,
              19.074805
            ]
          ]
        ]
      }
    },
    {
      "type": "Feature",
      "properties": {
        "spill_id": "sentinel_754",
        "confidence": 0.85
      },
      "geometry": {
        "type": "Polygon",
        "coordinates": [
          [
            [
              72.532812,
              19.089844
            ],
            [
              72.523242,
              19.089844
            ],
            [
              72.515039,
              19.081641
            ],
            [
              72.515039,
              19.080273
            ],
            [
              72.516406,
              19.080273
            ],
            [
              72.517773,
              19.078906
            ],
            [
              72.527344,
              19.078906
            ],
            [
              72.531445,
              19.083008
            ],
            [
              72.531445,
              19.084375
            ],
            [
              72.532812,
              19.085742
            ],
            [
              72.532812,
              19.089844
            ]
          ]
        ]
      }
    },
    {
      "type": "Feature",
      "properties": {
        "spill_id": "sentinel_754",
        "confidence": 0.85
      },
      "geometry": {
        "type": "Polygon",
        "coordinates": [
          [
            [
              72.722852,
              19.119922
            ],
            [
              72.731055,
              19.102148
            ],
            [
              72.740625,
              19.103516
            ],
            [
              72.748828,
              19.110352
            ],
            [
              72.77207,
              19.10625
            ],
            [
              72.788477,
              19.108984
            ],
            [
              72.811719,
              19.107617
            ],
            [
              72.81582,
              19.102148
            ],
            [
              72.811719,
              19.095312
            ],
            [
              72.81582,
              19.091211
            ],
            [
              72.822656,
              19.091211
            ],
            [
              72.825391,
              19.088477
            ],
            [
              72.822656,
              19.084375
            ],
            [
              72.834961,
              19.099414
            ],
            [
              72.845898,
              19.098047
            ],
            [
              72.848633,
              19.100781
            ],
            [
              72.848633,
              19.147266
            ],
            [
              72.845898,
              19.15
            ],
            [
              72.75293,
              19.15
            ],
            [
              72.747461,
              19.137695
            ],
            [
              72.726953,
              19.125391
            ],
            [
              72.722852,
              19.119922
            ]
          ]
        ]
      }
    },
    {
      "type": "Feature",
      "properties": {
        "spill_id": "sentinel_754",
        "confidence": 0.85
      },
      "geometry": {
        "type": "Polygon",
        "coordinates": [
          [
            [
              72.5,
              19.113086
            ],
            [
              72.513672,
              19.104883
            ],
            [
              72.528711,
              19.110352
            ],
            [
              72.549219,
              19.107617
            ],
            [
              72.554688,
              19.103516
            ],
            [
              72.557422,
              19.084375
            ],
            [
              72.560156,
              19.083008
            ],
            [
              72.568359,
              19.088477
            ],
            [
              72.571094,
              19.095312
            ],
            [
              72.557422,
              19.104883
            ],
            [
              72.561523,
              19.110352
            ],
            [
              72.573828,
              19.111719
            ],
            [
              72.595703,
              19.121289
            ],
            [
              72.612109,
              19.121289
            ],
            [
              72.629883,
              19.130859
            ],
            [
              72.651758,
              19.132227
            ],
            [
              72.658594,
              19.143164
            ],
            [
              72.650391,
              19.15
            ],
            [
              72.501367,
              19.15
            ],
            [
              72.5,
              19.113086
            ]
          ]
        ]
      }
    }
  ]
}