{
  "type": "FeatureCollection",
  "features": [
    {
      "type": "Feature",
      "properties": {
        "spill_id": "sentinel_188",
        "confidence": 0.86
      },
      "geometry": {
        "type": "Polygon",
        "coordinates": [
          [
            [
              72.841797,
              18.908008
            ],
            [
              72.830859,
              18.89707
            ],
            [
              72.828125,
              18.87793
            ],
            [
              72.821289,
              18.866992
            ],
            [
              72.819922,
              18.856055
            ],
            [
              72.811719,
              18.846484
            ],
            [
              72.800781,
              18.821875
            ],
            [
              72.795312,
              18.816406
            ],
            [
              72.795312,
              18.810938
            ],
            [
              72.799414,
              18.805469
            ],
            [
              72.804883,
              18.805469
            ],
            [
              72.811719,
              18.801367
            ],
            [
              72.843164,
              18.801367
            ],
            [
              72.845898,
              18.804102
            ],
            [
              72.847266,
              18.80957
            ],
            [
              72.844531,
              18.815039
            ],
            [
              72.844531,
              18.836914
            ],
            [
              72.848633,
              18.842383
            ],
            [
              72.848633,
              18.902539
            ],
            [
              72.841797,
              18.908008
            ]
          ]
        ]
      }
    },
    {
      "type": "Feature",
      "properties": {
        "spill_id": "sentinel_188",
        "confidence": 0.86
      },
      "geometry": {
        "type": "Polygon",
        "coordinates": [
          [
            [
              72.769336,
              19.14043
            ],
            [
              72.769336,
              19.137695
            ],
            [
              72.770703,
              19.136328
            ],
            [
              72.770703,
              19.134961
            ],
            [
              72.773438,
              19.132227
            ],
            [
              72.776172,
              19.132227
            ],
            [
              72.777539,
              19.133594
            ],
            [
              72.778906,
              19.133594
            ],
            [
              72.780273,
              19.134961
            ],
            [
              72.780273,
              19.139062
            ],
            [
              72.778906,
              19.14043
            ],
            [
              72.777539,
              19.14043
            ],
            [
              72.776172,
              19.141797
            ],
            [
              72.770703,
              19.141797
            ],
            [
              72.769336,
              19.14043
            ]
          ]
        ]
      }
    }
  ]
}