{
  "type": "FeatureCollection",
  "features": [
    {
      "type": "Feature",
      "properties": {
        "spill_id": "sentinel_420",
        "confidence": 0.89
      },
      "geometry": {
        "type": "Polygon",
        "coordinates": [
          [
            [
              72.793945,
              18.906641
            ],
            [
              72.79668,
              18.903906
            ],
            [
              72.798047,
              18.903906
            ],
            [
              72.799414,
              18.902539
            ],
            [
              72.80625,
              18.902539
            ],
            [
              72.807617,
              18.903906
            ],
            [
              72.807617,
              18.906641
            ],
            [
              72.80625,
              18.906641
            ],
            [
              72.804883,
              18.908008
            ],
            [
              72.79668,
              18.908008
            ],
            [
              72.795312,
              18.906641
            ],
            [
              72.793945,
              18.906641
            ]
          ]
        ]
      }
    },
    {
      "type": "Feature",
      "properties": {
        "spill_id": "sentinel_420",
        "confidence": 0.89
      },
      "geometry": {
        "type": "Polygon",
        "coordinates": [
          [
            [
              72.510938,
              18.944922
            ],
            [
              72.515039,
              18.938086
            ],
            [
              72.521875,
              18.938086
            ],
            [
              72.523242,
              18.939453
            ],
            [
              72.527344,
              18.939453
            ],
            [
              72.531445,
              18.942188
            ],
            [
              72.53418,
              18.942188
            ],
            [
              72.538281,
              18.944922
            ],
            [
              72.549219,
              18.944922
            ],
            [
              72.550586,
              18.946289
            ],
            [
              72.55332,
              18.946289
            ],
            [
              72.554688,
              18.947656
            ],
            [
              72.556055,
              18.951758
            ],
            [
              72.554688,
              18.953125
            ],
            [
              72.554688,
              18.954492
            ],
            [
              72.55332,
              18.954492
            ],
            [
              72.546484,
              18.958594
            ],
            [
              72.538281,
              18.958594
            ],
            [
              72.536914,
              18.957227
            ],
            [
              72.535547,
              18.958594
            ],
            [
              72.531445,
              18.958594
            ],
            [
              72.530078,
              18.959961
            ],
            [
              72.527344,
              18.959961
            ],
            [
              72.525977,
              18.961328
            ],
            [
              72.521875,
              18.961328
            ],
            [
              72.521875,
              18.955859
            ],
            [
              72.520508,
              18.954492
            ],
            [
              72.520508,
              18.953125
            ],
            [
              72.517773,
              18.950391
            ],
            [
              72.513672,
              18.949023
            ],
            [
              72.510938,
              18.944922
            ]
          ]
        ]
      }
    },
    {
      "type": "Feature",
      "properties": {
        "spill_id": "sentinel_420",
        "confidence": 0.89
      },
      "geometry": {
        "type": "Polygon",
        "coordinates": [
          [
            [
              72.5,
              19.00918
            ],
            [
              72.5,
              18.966797
            ],
            [
              72.504102,
              18.966797
            ],
            [
              72.505469,
              18.96543
            ],
            [
              72.513672,
              18.970898
            ],
            [
              72.521875,
              18.972266
            ],
            [
              72.53418,
              18.977734
            ],
            [
              72.538281,
              18.977734
            ],
            [
              72.542383,
              18.980469
            ],
            [
              72.545117,
              18.987305
            ],
            [
              72.549219,
              18.991406
            ],
            [
              72.549219,
              18.995508
            ],
            [
              72.54375,
              19.005078
            ],
            [
              72.524609,
              19.007812
            ],
            [
              72.519141,
              19.010547
            ],
            [
              72.506836,
              19.010547
            ],
            [
              72.505469,
              19.00918
            ],
            [
              72.5,
              19.00918
            ]
          ]
        ]
      }
    },
    {
      "type": "Feature",
      "properties": {
        "spill_id": "sentinel_420",
        "confidence": 0.89
      },
      "geometry": {
        "type": "Polygon",
        "coordinates": [
          [
            [
              72.542383,
              19.061133
            ],
            [
              72.557422,
              19.041992
            ],
            [
              72.584766,
              19.040625
            ],
            [
              72.623047,
              19.021484
            ],
            [
              72.617578,
              18.995508
            ],
            [
              72.571094,
              18.973633
            ],
            [
              72.564258,
              18.966797
            ],
            [
              72.566992,
              18.961328
            ],
            [
              72.580664,
              18.964062
            ],
            [
              72.601172,
              18.958594
            ],
            [
              72.612109,
              18.96543
            ],
            [
              72.653125,
              18.968164
            ],
            [
              72.690039,
              18.979102
            ],
            [
              72.698242,
              18.969531
            ],
            [
              72.707812,
              18.968164
            ],
            [
              72.735156,
              18.977734
            ],
            [
              72.739258,
              18.983203
            ],
            [
              72.736523,
              18.992773
            ],
            [
              72.747461,
              19.000977
            ],
            [
              72.747461,
              19.006445
            ],
            [
              72.733789,
              19.006445
            ],
            [
              72.717383,
              18.999609
            ],
            [
              72.670898,
              18.994141
            ],
            [
              72.653125,
              18.985938
            ],
            [
              72.64082,
              18.995508
            ],
            [
              72.646289,
              19.024219
            ],
            [
              72.62168,
              19.044727
            ],
            [
              72.571094,
              19.066602
            ],
            [
              72.542383,
              19.061133
            ]
          ]
        ]
      }
    },
    {
      "type": "Feature",
      "properties": {
        "spill_id": "sentinel_420",
        "confidence": 0.89
      },
      "geometry": {
        "type": "Polygon",
        "coordinates": [
          [
            [
              72.5,
              19.143164
            ],
            [
              72.5,
              19.037891
            ],
            [
              72.562891,
              19.102148
            ],
            [
              72.632617,
              19.061133
            ],
            [
              72.711914,
              19.081641
            ],
            [
              72.759766,
              19.025586
            ],
            [
              72.807617,
              19.046094
            ],
            [
              72.81582,
              19.024219
            ],
            [
              72.774805,
              19.002344
            ],
            [
              72.7625,
              18.947656
            ],
            [
              72.710547,
              18.92168
            ],
            [
              72.716016,
              18.868359
            ],
            [
              72.670898,
              18.861523
            ],
            [
              72.670898,
              18.899805
            ],
            [
              72.5,
              18.902539
            ],
            [
              72.5,
              18.825977
            ],
            [
              72.519141,
              18.804102
            ],
            [
              72.573828,
              18.824609
            ],
            [
              72.549219,
              18.845117
            ],
            [
              72.606641,
              18.860156
            ],
            [
              72.658594,
              18.83418
            ],
            [
              72.658594,
              18.801367
            ],
            [
              72.695508,
              18.801367
            ],
            [
              72.700977,
              18.824609
            ],
            [
              72.770703,
              18.850586
            ],
            [
              72.722852,
              18.861523
            ],
            [
              72.759766,
              18.903906
            ],
            [
              72.746094,
              18.92168
            ],
            [
              72.792578,
              18.932617
            ],
            [
              72.822656,
              18.905273
            ],
            [
              72.848633,
              18.913477
            ],
            [
              72.837695,
              19.067969
            ],
            [
              72.777539,
              19.070703
            ],
            [
              72.757031,
              19.10625
            ],
            [
              72.705078,
              19.10625
            ],
            [
              72.702344,
              19.129492
            ],
            [
              72.668164,
              19.15
            ],
            [
              72.5,
              19.143164
            ]
          ]
        ]
      }
    }
  ]
}