{
  "type": "FeatureCollection",
  "features": [
    {
      "type": "Feature",
      "properties": {
        "spill_id": "sentinel_477",
        "confidence": 0.74
      },
      "geometry": {
        "type": "Polygon",
        "coordinates": [
          [
            [
              72.848633,
              18.828711
            ],
            [
              72.845898,
              18.828711
            ],
            [
              72.844531,
              18.827344
            ],
            [
              72.841797,
              18.827344
            ],
            [
              72.834961,
              18.820508
            ],
            [
              72.833594,
              18.820508
            ],
            [
              72.830859,
              18.817773
            ],
            [
              72.828125,
              18.817773
            ],
            [
              72.828125,
              18.813672
            ],
            [
              72.829492,
              18.812305
            ],
            [
              72.828125,
              18.810938
            ],
            [
              72.829492,
              18.80957
            ],
            [
              72.829492,
              18.804102
            ],
            [
              72.832227,
              18.801367
            ],
            [
              72.844531,
              18.801367
            ],
            [
              72.848633,
              18.805469
            ],
            [
              72.848633,
              18.828711
            ]
          ]
        ]
      }
    },
    {
      "type": "Feature",
      "properties": {
        "spill_id": "sentinel_477",
        "confidence": 0.74
      },
      "geometry": {
        "type": "Polygon",
        "coordinates": [
          [
            [
              72.845898,
              19.037891
            ],
            [
              72.844531,
              19.037891
            ],
            [
              72.841797,
              19.035156
            ],
            [
              72.841797,
              19.02832
            ],
            [
              72.843164,
              19.02832
            ],
            [
              72.844531,
              19.026953
            ],
            [
              72.848633,
              19.031055
            ],
            [
              72.848633,
              19.036523
            ],
            [
              72.847266,
              19.036523
            ],
            [
              72.845898,
              19.037891
            ]
          ]
        ]
      }
    },
    {
      "type": "Feature",
      "properties": {
        "spill_id": "sentinel_477",
        "confidence": 0.74
      },
      "geometry": {
        "type": "Polygon",
        "coordinates": [
          [
            [
              72.776172,
              19.040625
            ],
            [
              72.774805,
              19.039258
            ],
            [
              72.774805,
              19.036523
            ],
            [
              72.773438,
              19.035156
            ],
            [
              72.773438,
              19.02832
            ],
            [
              72.777539,
              19.024219
            ],
            [
              72.778906,
              19.024219
            ],
            [
              72.783008,
              19.020117
            ],
            [
              72.784375,
              19.021484
            ],
            [
              72.785742,
              19.020117
            ],
            [
              72.788477,
              19.020117
            ],
            [
              72.789844,
              19.021484
            ],
            [
              72.789844,
              19.022852
            ],
            [
              72.792578,
              19.025586
            ],
            [
              72.792578,
              19.026953
            ],
            [
              72.793945,
              19.02832
            ],
            [
              72.793945,
              19.029687
            ],
            [
              72.795312,
              19.031055
            ],
            [
              72.791211,
              19.035156
            ],
            [
              72.789844,
              19.035156
            ],
            [
              72.788477,
              19.036523
            ],
            [
              72.785742,
              19.036523
            ],
            [
              72.784375,
              19.037891
            ],
            [
              72.778906,
              19.037891
            ],
            [
              72.777539,
              19.039258
            ],
            [
              72.777539,
              19.040625
            ],
            [
              72.776172,
              19.040625
            ]
          ]
        ]
      }
    },
    {
      "type": "Feature",
      "properties": {
        "spill_id": "sentinel_477",
        "confidence": 0.74
      },
      "geometry": {
        "type": "Polygon",
        "coordinates": [
          [
            [
              72.592969,
              19.041992
            ],
            [
              72.591602,
              19.041992
            ],
            [
              72.588867,
              19.039258
            ],
            [
              72.586133,
              19.041992
            ],
            [
              72.580664,
              19.041992
            ],
            [
              72.579297,
              19.040625
            ],
            [
              72.576562,
              19.040625
            ],
            [
              72.575195,
              19.039258
            ],
            [
              72.573828,
              19.039258
            ],
            [
              72.572461,
              19.037891
            ],
            [
              72.572461,
              19.036523
            ],
            [
              72.571094,
              19.035156
            ],
            [
              72.569727,
              19.035156
            ],
            [
              72.569727,
              19.02832
            ],
            [
              72.571094,
              19.02832
            ],
            [
              72.572461,
              19.026953
            ],
            [
              72.582031,
              19.026953
            ],
            [
              72.583398,
              19.02832
            ],
            [
              72.5875,
              19.02832
            ],
            [
              72.5875,
              19.029687
            ],
            [
              72.588867,
              19.031055
            ],
            [
              72.590234,
              19.029687
            ],
            [
              72.590234,
              19.031055
            ],
            [
              72.592969,
              19.033789
            ],
            [
              72.592969,
              19.041992
            ]
          ]
        ]
      }
    },
    {
      "type": "Feature",
      "properties": {
        "spill_id": "sentinel_477",
        "confidence": 0.74
      },
      "geometry": {
        "type": "Polygon",
        "coordinates": [
          [
            [
              72.5,
              19.128125
            ],
            [
              72.5,
              19.11582
            ],
            [
              72.502734,
              19.11582
            ],
            [
              72.506836,
              19.113086
            ],
            [
              72.510938,
              19.113086
            ],
            [
              72.515039,
              19.108984
            ],
            [
              72.517773,
              19.108984
            ],
            [
              72.519141,
              19.107617
            ],
            [
              72.531445,
              19.107617
            ],
            [
              72.531445,
              19.108984
            ],
            [
              72.532812,
              19.110352
            ],
            [
              72.532812,
              19.11582
            ],
            [
              72.531445,
              19.11582
            ],
            [
              72.530078,
              19.117188
            ],
            [
              72.528711,
              19.11582
            ],
            [
              72.527344,
              19.117188
            ],
            [
              72.524609,
              19.117188
            ],
            [
              72.523242,
              19.118555
            ],
            [
              72.517773,
              19.118555
            ],
            [
              72.516406,
              19.119922
            ],
            [
              72.515039,
              19.119922
            ],
            [
              72.510938,
              19.124023
            ],
            [
              72.50957,
              19.124023
            ],
            [
              72.508203,
              19.125391
            ],
            [
              72.504102,
              19.125391
            ],
            [
              72.5,
              19.128125
            ]
          ]
        ]
      }
    },
    {
      "type": "Feature",
      "properties": {
        "spill_id": "sentinel_477",
        "confidence": 0.74
      },
      "geometry": {
        "type": "Polygon",
        "coordinates": [
          [
            [
              72.726953,
              19.15
            ],
            [
              72.729688,
              19.147266
            ],
            [
              72.731055,
              19.147266
            ],
            [
              72.732422,
              19.145898
            ],
            [
              72.732422,
              19.144531
            ],
            [
              72.733789,
              19.143164
            ],
            [
              72.733789,
              19.14043
            ],
            [
              72.735156,
              19.139062
            ],
            [
              72.736523,
              19.14043
            ],
            [
              72.737891,
              19.14043
            ],
            [
              72.739258,
              19.141797
            ],
            [
              72.740625,
              19.141797
            ],
            [
              72.740625,
              19.15
            ],
            [
              72.726953,
              19.15
            ]
          ]
        ]
      }
    },
    {
      "type": "Feature",
      "properties": {
        "spill_id": "sentinel_477",
        "confidence": 0.74
      },
      "geometry": {
        "type": "Polygon",
        "coordinates": [
          [
            [
              72.848633,
              19.15
            ],
            [
              72.747461,
              19.15
            ],
            [
              72.732422,
              19.128125
            ],
            [
              72.71875,
              19.130859
            ],
            [
              72.722852,
              19.15
            ],
            [
              72.639453,
              19.15
            ],
            [
              72.635352,
              19.129492
            ],
            [
              72.608008,
              19.133594
            ],
            [
              72.601172,
              19.15
            ],
            [
              72.57793,
              19.137695
            ],
            [
              72.605273,
              19.11582
            ],
            [
              72.601172,
              19.089844
            ],
            [
              72.535547,
              19.102148
            ],
            [
              72.557422,
              19.073438
            ],
            [
              72.591602,
              19.070703
            ],
            [
              72.606641,
              19.031055
            ],
            [
              72.639453,
              19.021484
            ],
            [
              72.702344,
              18.969531
            ],
            [
              72.679102,
              18.966797
            ],
            [
              72.710547,
              18.929883
            ],
            [
              72.687305,
              18.93125
            ],
            [
              72.658594,
              18.894336
            ],
            [
              72.606641,
              18.892969
            ],
            [
              72.613477,
              18.872461
            ],
            [
              72.71875,
              18.850586
            ],
            [
              72.724219,
              18.862891
            ],
            [
              72.696875,
              18.882031
            ],
            [
              72.721484,
              18.906641
            ],
            [
              72.710547,
              18.929883
            ],
            [
              72.740625,
              18.950391
            ],
            [
              72.736523,
              18.973633
            ],
            [
              72.778906,
              18.955859
            ],
            [
              72.789844,
              18.976367
            ],
            [
              72.778906,
              18.995508
            ],
            [
              72.740625,
              18.994141
            ],
            [
              72.726953,
              19.043359
            ],
            [
              72.754297,
              19.063867
            ],
            [
              72.776172,
              19.044727
            ],
            [
              72.777539,
              19.059766
            ],
            [
              72.798047,
              19.066602
            ],
            [
              72.785742,
              19.088477
            ],
            [
              72.793945,
              19.114453
            ],
            [
              72.804883,
              19.09668
            ],
            [
              72.848633,
              19.095312
            ],
            [
              72.848633,
              19.15
            ]
          ]
        ]
      }
    }
  ]
}