{
  "type": "FeatureCollection",
  "features": [
    {
      "type": "Feature",
      "properties": {
        "spill_id": "sentinel_664",
        "confidence": 0.95
      },
      "geometry": {
        "type": "Polygon",
        "coordinates": [
          [
            [
              72.5,
              19.15
            ],
            [
              72.5,
              18.801367
            ],
            [
              72.822656,
              18.801367
            ],
            [
              72.803516,
              18.816406
            ],
            [
              72.81582,
              18.836914
            ],
            [
              72.817187,
              18.880664
            ],
            [
              72.836328,
              18.903906
            ],
            [
              72.817187,
              18.909375
            ],
            [
              72.798047,
              18.947656
            ],
            [
              72.799414,
              19.01875
            ],
            [
              72.776172,
              19.050195
            ],
            [
              72.778906,
              19.076172
            ],
            [
              72.735156,
              19.09668
            ],
            [
              72.747461,
              19.107617
            ],
            [
              72.769336,
              19.088477
            ],
            [
              72.795312,
              19.092578
            ],
            [
              72.763867,
              19.125391
            ],
            [
              72.776172,
              19.15
            ],
            [
              72.5,
              19.15
            ]
          ]
        ]
      }
    }
  ]
}