{
  "type": "FeatureCollection",
  "features": [
    {
      "type": "Feature",
      "properties": {
        "spill_id": "sentinel_583",
        "confidence": 0.8
      },
      "geometry": {
        "type": "Polygon",
        "coordinates": [
          [
            [
              72.662695,
              18.812305
            ],
            [
              72.651758,
              18.827344
            ],
            [
              72.651758,
              18.838281
            ],
            [
              72.647656,
              18.850586
            ],
            [
              72.633984,
              18.858789
            ],
            [
              72.628516,
              18.856055
            ],
            [
              72.62168,
              18.841016
            ],
            [
              72.613477,
              18.832812
            ],
            [
              72.606641,
              18.832812
            ],
            [
              72.598438,
              18.842383
            ],
            [
              72.588867,
              18.846484
            ],
            [
              72.576562,
              18.846484
            ],
            [
              72.571094,
              18.832812
            ],
            [
              72.572461,
              18.824609
            ],
            [
              72.576562,
              18.817773
            ],
            [
              72.576562,
              18.808203
            ],
            [
              72.582031,
              18.801367
            ],
            [
              72.655859,
              18.801367
            ],
            [
              72.661328,
              18.806836
            ],
            [
              72.662695,
              18.812305
            ]
          ]
        ]
      }
    },
    {
      "type": "Feature",
      "properties": {
        "spill_id": "sentinel_583",
        "confidence": 0.8
      },
      "geometry": {
        "type": "Polygon",
        "coordinates": [
          [
            [
              72.848633,
              18.89707
            ],
            [
              72.829492,
              18.895703
            ],
            [
              72.825391,
              18.894336
            ],
            [
              72.819922,
              18.8875
            ],
            [
              72.818555,
              18.875195
            ],
            [
              72.817187,
              18.873828
            ],
            [
              72.818555,
              18.850586
            ],
            [
              72.81582,
              18.845117
            ],
            [
              72.81582,
              18.835547
            ],
            [
              72.819922,
              18.821875
            ],
            [
              72.825391,
              18.819141
            ],
            [
              72.828125,
              18.821875
            ],
            [
              72.829492,
              18.830078
            ],
            [
              72.836328,
              18.839648
            ],
            [
              72.836328,
              18.84375
            ],
            [
              72.839062,
              18.849219
            ],
            [
              72.848633,
              18.856055
            ],
            [
              72.848633,
              18.89707
            ]
          ]
        ]
      }
    },
    {
      "type": "Feature",
      "properties": {
        "spill_id": "sentinel_583",
        "confidence": 0.8
      },
      "geometry": {
        "type": "Polygon",
        "coordinates": [
          [
            [
              72.564258,
              19.013281
            ],
            [
              72.560156,
              19.011914
            ],
            [
              72.554688,
              19.005078
            ],
            [
              72.554688,
              18.996875
            ],
            [
              72.558789,
              18.98457
            ],
            [
              72.558789,
              18.972266
            ],
            [
              72.572461,
              18.946289
            ],
            [
              72.575195,
              18.928516
            ],
            [
              72.5875,
              18.927148
            ],
            [
              72.592969,
              18.929883
            ],
            [
              72.598438,
              18.936719
            ],
            [
              72.595703,
              18.943555
            ],
            [
              72.595703,
              18.950391
            ],
            [
              72.606641,
              18.969531
            ],
            [
              72.608008,
              18.988672
            ],
            [
              72.590234,
              18.998242
            ],
            [
              72.584766,
              19.003711
            ],
            [
              72.584766,
              19.007812
            ],
            [
              72.582031,
              19.011914
            ],
            [
              72.564258,
              19.013281
            ]
          ]
        ]
      }
    },
    {
      "type": "Feature",
      "properties": {
        "spill_id": "sentinel_583",
        "confidence": 0.8
      },
      "geometry": {
        "type": "Polygon",
        "coordinates": [
          [
            [
              72.5,
              19.051562
            ],
            [
              72.5,
              19.041992
            ],
            [
              72.502734,
              19.041992
            ],
            [
              72.504102,
              19.040625
            ],
            [
              72.505469,
              19.040625
            ],
            [
              72.506836,
              19.039258
            ],
            [
              72.513672,
              19.039258
            ],
            [
              72.515039,
              19.040625
            ],
            [
              72.516406,
              19.040625
            ],
            [
              72.516406,
              19.043359
            ],
            [
              72.513672,
              19.046094
            ],
            [
              72.508203,
              19.046094
            ],
            [
              72.502734,
              19.051562
            ],
            [
              72.5,
              19.051562
            ]
          ]
        ]
      }
    },
    {
      "type": "Feature",
      "properties": {
        "spill_id": "sentinel_583",
        "confidence": 0.8
      },
      "geometry": {
        "type": "Polygon",
        "coordinates": [
          [
            [
              72.635352,
              19.15
            ],
            [
              72.64082,
              19.129492
            ],
            [
              72.669531,
              19.107617
            ],
            [
              72.681836,
              19.083008
            ],
            [
              72.702344,
              19.087109
            ],
            [
              72.757031,
              19.070703
            ],
            [
              72.740625,
              19.021484
            ],
            [
              72.726953,
              19.014648
            ],
            [
              72.672266,
              19.041992
            ],
            [
              72.649023,
              19.040625
            ],
            [
              72.649023,
              19.031055
            ],
            [
              72.676367,
              19.006445
            ],
            [
              72.710547,
              19.010547
            ],
            [
              72.720117,
              19.005078
            ],
            [
              72.725586,
              18.990039
            ],
            [
              72.713281,
              18.992773
            ],
            [
              72.705078,
              18.976367
            ],
            [
              72.729688,
              18.979102
            ],
            [
              72.761133,
              18.966797
            ],
            [
              72.845898,
              18.961328
            ],
            [
              72.845898,
              19.006445
            ],
            [
              72.836328,
              19.007812
            ],
            [
              72.787109,
              19.0625
            ],
            [
              72.791211,
              19.085742
            ],
            [
              72.747461,
              19.114453
            ],
            [
              72.71875,
              19.119922
            ],
            [
              72.710547,
              19.139062
            ],
            [
              72.687305,
              19.130859
            ],
            [
              72.670898,
              19.134961
            ],
            [
              72.668164,
              19.15
            ],
            [
              72.635352,
              19.15
            ]
          ]
        ]
      }
    }
  ]
}