{
  "type": "FeatureCollection",
  "features": [
    {
      "type": "Feature",
      "properties": {
        "spill_id": "sentinel_348",
        "confidence": 0.89
      },
      "geometry": {
        "type": "Polygon",
        "coordinates": [
          [
            [
              72.5,
              18.894336
            ],
            [
              72.5,
              18.801367
            ],
            [
              72.848633,
              18.801367
            ],
            [
              72.844531,
              18.83418
            ],
            [
              72.819922,
              18.836914
            ],
            [
              72.803516,
              18.823242
            ],
            [
              72.755664,
              18.819141
            ],
            [
              72.698242,
              18.854688
            ],
            [
              72.655859,
              18.847852
            ],
            [
              72.602539,
              18.866992
            ],
            [
              72.571094,
              18.861523
            ],
            [
              72.55332,
              18.898438
            ],
            [
              72.521875,
              18.8875
            ],
            [
              72.5,
              18.894336
            ]
          ]
        ]
      }
    },
    {
      "type": "Feature",
      "properties": {
        "spill_id": "sentinel_348",
        "confidence": 0.89
      },
      "geometry": {
        "type": "Polygon",
        "coordinates": [
          [
            [
              72.5,
              19.15
            ],
            [
              72.5,
              18.979102
            ],
            [
              72.535547,
              18.980469
            ],
            [
              72.547852,
              18.970898
            ],
            [
              72.541016,
              18.959961
            ],
            [
              72.565625,
              18.947656
            ],
            [
              72.586133,
              18.96543
            ],
            [
              72.633984,
              18.953125
            ],
            [
              72.643555,
              18.939453
            ],
            [
              72.627148,
              18.92168
            ],
            [
              72.681836,
              18.894336
            ],
            [
              72.711914,
              18.935352
            ],
            [
              72.646289,
              18.985938
            ],
            [
              72.644922,
              19.029687
            ],
            [
              72.661328,
              19.05293
            ],
            [
              72.690039,
              19.050195
            ],
            [
              72.70918,
              19.010547
            ],
            [
              72.721484,
              19.020117
            ],
            [
              72.741992,
              19.010547
            ],
            [
              72.77207,
              18.929883
            ],
            [
              72.792578,
              18.970898
            ],
            [
              72.777539,
              19.035156
            ],
            [
              72.792578,
              19.043359
            ],
            [
              72.80625,
              19.016016
            ],
            [
              72.845898,
              19.005078
            ],
            [
              72.848633,
              19.15
            ],
            [
              72.5,
              19.15
            ]
          ]
        ]
      }
    }
  ]
}