{
  "type": "FeatureCollection",
  "features": [
    {
      "type": "Feature",
      "properties": {
        "spill_id": "sentinel_795",
        "confidence": 0.85
      },
      "geometry": {
        "type": "Polygon",
        "coordinates": [
          [
            [
              72.848633,
              18.886133
            ],
            [
              72.817187,
              18.886133
            ],
            [
              72.793945,
              18.847852
            ],
            [
              72.778906,
              18.850586
            ],
            [
              72.757031,
              18.866992
            ],
            [
              72.758398,
              18.886133
            ],
            [
              72.733789,
              18.895703
            ],
            [
              72.739258,
              18.925781
            ],
            [
              72.758398,
              18.93125
            ],
            [
              72.747461,
              18.943555
            ],
            [
              72.735156,
              18.944922
            ],
            [
              72.690039,
              18.913477
            ],
            [
              72.666797,
              18.908008
            ],
            [
              72.661328,
              18.886133
            ],
            [
              72.647656,
              18.876562
            ],
            [
              72.650391,
              18.856055
            ],
            [
              72.63125,
              18.832812
            ],
            [
              72.610742,
              18.839648
            ],
            [
              72.603906,
              18.827344
            ],
            [
              72.614844,
              18.801367
            ],
            [
              72.681836,
              18.801367
            ],
            [
              72.691406,
              18.80957
            ],
            [
              72.721484,
              18.808203
            ],
            [
              72.732422,
              18.801367
            ],
            [
              72.787109,
              18.801367
            ],
            [
              72.800781,
              18.805469
            ],
            [
              72.810352,
              18.823242
            ],
            [
              72.844531,
              18.849219
            ],
            [
              72.848633,
              18.886133
            ]
          ]
        ]
      }
    },
    {
      "type": "Feature",
      "properties": {
        "spill_id": "sentinel_795",
        "confidence": 0.85
      },
      "geometry": {
        "type": "Polygon",
        "coordinates": [
          [
            [
              72.81582,
              18.98457
            ],
            [
              72.811719,
              18.981836
            ],
            [
              72.804883,
              18.981836
            ],
            [
              72.798047,
              18.976367
            ],
            [
              72.791211,
              18.962695
            ],
            [
              72.787109,
              18.939453
            ],
            [
              72.785742,
              18.938086
            ],
            [
              72.776172,
              18.939453
            ],
            [
              72.769336,
              18.932617
            ],
            [
              72.7625,
              18.929883
            ],
            [
              72.77207,
              18.913477
            ],
            [
              72.778906,
              18.906641
            ],
            [
              72.789844,
              18.903906
            ],
            [
              72.807617,
              18.890234
            ],
            [
              72.811719,
              18.890234
            ],
            [
              72.814453,
              18.892969
            ],
            [
              72.813086,
              18.909375
            ],
            [
              72.824023,
              18.923047
            ],
            [
              72.824023,
              18.929883
            ],
            [
              72.817187,
              18.938086
            ],
            [
              72.814453,
              18.946289
            ],
            [
              72.814453,
              18.958594
            ],
            [
              72.811719,
              18.962695
            ],
            [
              72.811719,
              18.973633
            ],
            [
              72.81582,
              18.98457
            ]
          ]
        ]
      }
    },
    {
      "type": "Feature",
      "properties": {
        "spill_id": "sentinel_795",
        "confidence": 0.85
      },
      "geometry": {
        "type": "Polygon",
        "coordinates": [
          [
            [
              72.651758,
              19.145898
            ],
            [
              72.651758,
              19.141797
            ],
            [
              72.653125,
              19.14043
            ],
            [
              72.653125,
              19.137695
            ],
            [
              72.654492,
              19.134961
            ],
            [
              72.657227,
              19.132227
            ],
            [
              72.657227,
              19.130859
            ],
            [
              72.662695,
              19.128125
            ],
            [
              72.677734,
              19.128125
            ],
            [
              72.679102,
              19.129492
            ],
            [
              72.683203,
              19.129492
            ],
            [
              72.68457,
              19.130859
            ],
            [
              72.687305,
              19.130859
            ],
            [
              72.688672,
              19.129492
            ],
            [
              72.690039,
              19.130859
            ],
            [
              72.691406,
              19.129492
            ],
            [
              72.692773,
              19.130859
            ],
            [
              72.694141,
              19.129492
            ],
            [
              72.698242,
              19.129492
            ],
            [
              72.699609,
              19.132227
            ],
            [
              72.698242,
              19.134961
            ],
            [
              72.696875,
              19.134961
            ],
            [
              72.687305,
              19.145898
            ],
            [
              72.68457,
              19.147266
            ],
            [
              72.681836,
              19.147266
            ],
            [
              72.680469,
              19.15
            ],
            [
              72.658594,
              19.15
            ],
            [
              72.655859,
              19.147266
            ],
            [
              72.651758,
              19.145898
            ]
          ]
        ]
      }
    },
    {
      "type": "Feature",
      "properties": {
        "spill_id": "sentinel_795",
        "confidence": 0.85
      },
      "geometry": {
        "type": "Polygon",
        "coordinates": [
          [
            [
              72.588867,
              19.15
            ],
            [
              72.554688,
              19.147266
            ],
            [
              72.556055,
              19.107617
            ],
            [
              72.538281,
              19.080273
            ],
            [
              72.512305,
              19.095312
            ],
            [
              72.513672,
              19.113086
            ],
            [
              72.5,
              19.122656
            ],
            [
              72.5,
              18.801367
            ],
            [
              72.515039,
              18.801367
            ],
            [
              72.53418,
              18.816406
            ],
            [
              72.556055,
              18.802734
            ],
            [
              72.569727,
              18.819141
            ],
            [
              72.566992,
              18.825977
            ],
            [
              72.542383,
              18.825977
            ],
            [
              72.535547,
              18.857422
            ],
            [
              72.568359,
              18.913477
            ],
            [
              72.539648,
              18.944922
            ],
            [
              72.536914,
              18.970898
            ],
            [
              72.55332,
              18.985938
            ],
            [
              72.583398,
              18.979102
            ],
            [
              72.606641,
              18.985938
            ],
            [
              72.627148,
              19.021484
            ],
            [
              72.629883,
              19.057031
            ],
            [
              72.612109,
              19.089844
            ],
            [
              72.623047,
              19.122656
            ],
            [
              72.613477,
              19.14043
            ],
            [
              72.588867,
              19.15
            ]
          ]
        ]
      }
    },
    {
      "type": "Feature",
      "properties": {
        "spill_id": "sentinel_795",
        "confidence": 0.85
      },
      "geometry": {
        "type": "Polygon",
        "coordinates": [
          [
            [
              72.5,
              19.143164
            ],
            [
              72.502734,
              19.14043
            ],
            [
              72.502734,
              19.137695
            ],
            [
              72.504102,
              19.137695
            ],
            [
              72.505469,
              19.136328
            ],
            [
              72.508203,
              19.136328
            ],
            [
              72.50957,
              19.137695
            ],
            [
              72.513672,
              19.137695
            ],
            [
              72.519141,
              19.143164
            ],
            [
              72.519141,
              19.147266
            ],
            [
              72.520508,
              19.148633
            ],
            [
              72.520508,
              19.15
            ],
            [
              72.501367,
              19.15
            ],
            [
              72.501367,
              19.148633
            ],
            [
              72.5,
              19.147266
            ],
            [
              72.5,
              19.143164
            ]
          ]
        ]
      }
    }
  ]
}