{
  "type": "FeatureCollection",
  "features": [
    {
      "type": "Feature",
      "properties": {
        "spill_id": "sentinel_71",
        "confidence": 0.84
      },
      "geometry": {
        "type": "Polygon",
        "coordinates": [
          [
            [
              72.847266,
              18.916211
            ],
            [
              72.808984,
              18.913477
            ],
            [
              72.788477,
              18.888867
            ],
            [
              72.695508,
              18.862891
            ],
            [
              72.680469,
              18.841016
            ],
            [
              72.633984,
              18.825977
            ],
            [
              72.590234,
              18.825977
            ],
            [
              72.556055,
              18.842383
            ],
            [
              72.5,
              18.85332
            ],
            [
              72.5,
              18.801367
            ],
            [
              72.848633,
              18.801367
            ],
            [
              72.847266,
              18.916211
            ]
          ]
        ]
      }
    },
    {
      "type": "Feature",
      "properties": {
        "spill_id": "sentinel_71",
        "confidence": 0.84
      },
      "geometry": {
        "type": "Polygon",
        "coordinates": [
          [
            [
              72.848633,
              18.958594
            ],
            [
              72.844531,
              18.958594
            ],
            [
              72.843164,
              18.957227
            ],
            [
              72.839062,
              18.955859
            ],
            [
              72.839062,
              18.954492
            ],
            [
              72.837695,
              18.953125
            ],
            [
              72.837695,
              18.950391
            ],
            [
              72.834961,
              18.947656
            ],
            [
              72.833594,
              18.947656
            ],
            [
              72.832227,
              18.946289
            ],
            [
              72.829492,
              18.946289
            ],
            [
              72.825391,
              18.942188
            ],
            [
              72.825391,
              18.938086
            ],
            [
              72.826758,
              18.936719
            ],
            [
              72.826758,
              18.932617
            ],
            [
              72.828125,
              18.93125
            ],
            [
              72.828125,
              18.929883
            ],
            [
              72.829492,
              18.93125
            ],
            [
              72.834961,
              18.93125
            ],
            [
              72.836328,
              18.929883
            ],
            [
              72.843164,
              18.929883
            ],
            [
              72.844531,
              18.928516
            ],
            [
              72.848633,
              18.93125
            ],
            [
              72.848633,
              18.958594
            ]
          ]
        ]
      }
    },
    {
      "type": "Feature",
      "properties": {
        "spill_id": "sentinel_71",
        "confidence": 0.84
      },
      "geometry": {
        "type": "Polygon",
        "coordinates": [
          [
            [
              72.848633,
              19.014648
            ],
            [
              72.847266,
              19.014648
            ],
            [
              72.845898,
              19.016016
            ],
            [
              72.844531,
              19.016016
            ],
            [
              72.843164,
              19.014648
            ],
            [
              72.841797,
              19.014648
            ],
            [
              72.84043,
              19.013281
            ],
            [
              72.839062,
              19.013281
            ],
            [
              72.837695,
              19.011914
            ],
            [
              72.837695,
              19.010547
            ],
            [
              72.836328,
              19.00918
            ],
            [
              72.836328,
              19.007812
            ],
            [
              72.834961,
              19.006445
            ],
            [
              72.834961,
              19.005078
            ],
            [
              72.833594,
              19.003711
            ],
            [
              72.834961,
              19.002344
            ],
            [
              72.834961,
              19.000977
            ],
            [
              72.841797,
              19.000977
            ],
            [
              72.844531,
              18.998242
            ],
            [
              72.845898,
              18.998242
            ],
            [
              72.845898,
              18.999609
            ],
            [
              72.848633,
              19.002344
            ],
            [
              72.848633,
              19.014648
            ]
          ]
        ]
      }
    },
    {
      "type": "Feature",
      "properties": {
        "spill_id": "sentinel_71",
        "confidence": 0.84
      },
      "geometry": {
        "type": "Polygon",
        "coordinates": [
          [
            [
              72.5,
              18.983203
            ],
            [
              72.530078,
              19.006445
            ],
            [
              72.531445,
              19.041992
            ],
            [
              72.55332,
              19.035156
            ],
            [
              72.562891,
              19.017383
            ],
            [
              72.571094,
              19.025586
            ],
            [
              72.564258,
              19.044727
            ],
            [
              72.584766,
              19.037891
            ],
            [
              72.595703,
              19.05293
            ],
            [
              72.653125,
              19.043359
            ],
            [
              72.698242,
              19.022852
            ],
            [
              72.71875,
              19.041992
            ],
            [
              72.705078,
              19.055664
            ],
            [
              72.725586,
              19.065234
            ],
            [
              72.731055,
              19.007812
            ],
            [
              72.788477,
              18.988672
            ],
            [
              72.79668,
              19.005078
            ],
            [
              72.744727,
              19.036523
            ],
            [
              72.792578,
              19.080273
            ],
            [
              72.824023,
              19.073438
            ],
            [
              72.848633,
              19.083008
            ],
            [
              72.848633,
              19.15
            ],
            [
              72.5,
              19.15
            ],
            [
              72.5,
              18.983203
            ]
          ]
        ]
      }
    }
  ]
}