{
  "type": "FeatureCollection",
  "features": [
    {
      "type": "Feature",
      "properties": {
        "spill_id": "sentinel_399",
        "confidence": 0.83
      },
      "geometry": {
        "type": "Polygon",
        "coordinates": [
          [
            [
              72.777539,
              18.806836
            ],
            [
              72.783008,
              18.801367
            ],
            [
              72.800781,
              18.801367
            ],
            [
              72.80625,
              18.806836
            ],
            [
              72.822656,
              18.806836
            ],
            [
              72.830859,
              18.80957
            ],
            [
              72.836328,
              18.813672
            ],
            [
              72.843164,
              18.816406
            ],
            [
              72.848633,
              18.824609
            ],
            [
              72.848633,
              18.830078
            ],
            [
              72.841797,
              18.83418
            ],
            [
              72.833594,
              18.83418
            ],
            [
              72.832227,
              18.835547
            ],
            [
              72.798047,
              18.835547
            ],
            [
              72.787109,
              18.830078
            ],
            [
              72.784375,
              18.827344
            ],
            [
              72.781641,
              18.817773
            ],
            [
              72.777539,
              18.812305
            ],
            [
              72.777539,
              18.806836
            ]
          ]
        ]
      }
    },
    {
      "type": "Feature",
      "properties": {
        "spill_id": "sentinel_399",
        "confidence": 0.83
      },
      "geometry": {
        "type": "Polygon",
        "coordinates": [
          [
            [
              72.77207,
              18.862891
            ],
            [
              72.7625,
              18.862891
            ],
            [
              72.757031,
              18.860156
            ],
            [
              72.748828,
              18.850586
            ],
            [
              72.744727,
              18.850586
            ],
            [
              72.740625,
              18.847852
            ],
            [
              72.736523,
              18.838281
            ],
            [
              72.731055,
              18.838281
            ],
            [
              72.724219,
              18.850586
            ],
            [
              72.714648,
              18.851953
            ],
            [
              72.710547,
              18.849219
            ],
            [
              72.70918,
              18.836914
            ],
            [
              72.714648,
              18.827344
            ],
            [
              72.716016,
              18.820508
            ],
            [
              72.720117,
              18.816406
            ],
            [
              72.722852,
              18.816406
            ],
            [
              72.725586,
              18.812305
            ],
            [
              72.726953,
              18.815039
            ],
            [
              72.732422,
              18.812305
            ],
            [
              72.736523,
              18.812305
            ],
            [
              72.740625,
              18.820508
            ],
            [
              72.737891,
              18.827344
            ],
            [
              72.740625,
              18.830078
            ],
            [
              72.744727,
              18.830078
            ],
            [
              72.755664,
              18.835547
            ],
            [
              72.759766,
              18.842383
            ],
            [
              72.773438,
              18.85332
            ],
            [
              72.77207,
              18.862891
            ]
          ]
        ]
      }
    },
    {
      "type": "Feature",
      "properties": {
        "spill_id": "sentinel_399",
        "confidence": 0.83
      },
      "geometry": {
        "type": "Polygon",
        "coordinates": [
          [
            [
              72.822656,
              18.869727
            ],
            [
              72.826758,
              18.865625
            ],
            [
              72.828125,
              18.865625
            ],
            [
              72.829492,
              18.866992
            ],
            [
              72.833594,
              18.866992
            ],
            [
              72.837695,
              18.862891
            ],
            [
              72.837695,
              18.860156
            ],
            [
              72.839062,
              18.860156
            ],
            [
              72.843164,
              18.857422
            ],
            [
              72.844531,
              18.857422
            ],
            [
              72.848633,
              18.861523
            ],
            [
              72.848633,
              18.876562
            ],
            [
              72.847266,
              18.876562
            ],
            [
              72.845898,
              18.87793
            ],
            [
              72.84043,
              18.87793
            ],
            [
              72.837695,
              18.875195
            ],
            [
              72.837695,
              18.873828
            ],
            [
              72.834961,
              18.871094
            ],
            [
              72.834961,
              18.869727
            ],
            [
              72.832227,
              18.866992
            ],
            [
              72.830859,
              18.866992
            ],
            [
              72.828125,
              18.869727
            ],
            [
              72.822656,
              18.869727
            ]
          ]
        ]
      }
    },
    {
      "type": "Feature",
      "properties": {
        "spill_id": "sentinel_399",
        "confidence": 0.83
      },
      "geometry": {
        "type": "Polygon",
        "coordinates": [
          [
            [
              72.595703,
              18.932617
            ],
            [
              72.592969,
              18.928516
            ],
            [
              72.592969,
              18.923047
            ],
            [
              72.594336,
              18.92168
            ],
            [
              72.594336,
              18.917578
            ],
            [
              72.595703,
              18.914844
            ],
            [
              72.601172,
              18.910742
            ],
            [
              72.601172,
              18.903906
            ],
            [
              72.602539,
              18.902539
            ],
            [
              72.602539,
              18.899805
            ],
            [
              72.601172,
              18.898438
            ],
            [
              72.602539,
              18.895703
            ],
            [
              72.609375,
              18.888867
            ],
            [
              72.609375,
              18.8875
            ],
            [
              72.612109,
              18.884766
            ],
            [
              72.617578,
              18.884766
            ],
            [
              72.618945,
              18.886133
            ],
            [
              72.618945,
              18.890234
            ],
            [
              72.614844,
              18.894336
            ],
            [
              72.612109,
              18.899805
            ],
            [
              72.612109,
              18.902539
            ],
            [
              72.610742,
              18.905273
            ],
            [
              72.602539,
              18.912109
            ],
            [
              72.603906,
              18.914844
            ],
            [
              72.603906,
              18.923047
            ],
            [
              72.601172,
              18.928516
            ],
            [
              72.595703,
              18.932617
            ]
          ]
        ]
      }
    },
    {
      "type": "Feature",
      "properties": {
        "spill_id": "sentinel_399",
        "confidence": 0.83
      },
      "geometry": {
        "type": "Polygon",
        "coordinates": [
          [
            [
              72.848633,
              18.991406
            ],
            [
              72.841797,
              18.992773
            ],
            [
              72.829492,
              18.980469
            ],
            [
              72.81582,
              18.976367
            ],
            [
              72.811719,
              18.966797
            ],
            [
              72.803516,
              18.959961
            ],
            [
              72.774805,
              18.962695
            ],
            [
              72.766602,
              18.975
            ],
            [
              72.759766,
              18.976367
            ],
            [
              72.75293,
              18.970898
            ],
            [
              72.744727,
              18.969531
            ],
            [
              72.739258,
              18.953125
            ],
            [
              72.729688,
              18.949023
            ],
            [
              72.726953,
              18.943555
            ],
            [
              72.729688,
              18.94082
            ],
            [
              72.75293,
              18.943555
            ],
            [
              72.758398,
              18.927148
            ],
            [
              72.766602,
              18.914844
            ],
            [
              72.785742,
              18.906641
            ],
            [
              72.798047,
              18.906641
            ],
            [
              72.800781,
              18.910742
            ],
            [
              72.792578,
              18.923047
            ],
            [
              72.792578,
              18.93125
            ],
            [
              72.802148,
              18.939453
            ],
            [
              72.822656,
              18.942188
            ],
            [
              72.833594,
              18.958594
            ],
            [
              72.848633,
              18.966797
            ],
            [
              72.848633,
              18.991406
            ]
          ]
        ]
      }
    }
  ]
}