{
  "type": "FeatureCollection",
  "features": [
    {
      "type": "Feature",
      "properties": {
        "spill_id": "sentinel_632",
        "confidence": 0.9
      },
      "geometry": {
        "type": "Polygon",
        "coordinates": [
          [
            [
              72.824023,
              19.15
            ],
            [
              72.824023,
              19.148633
            ],
            [
              72.822656,
              19.147266
            ],
            [
              72.822656,
              19.145898
            ],
            [
              72.819922,
              19.141797
            ],
            [
              72.819922,
              19.137695
            ],
            [
              72.821289,
              19.136328
            ],
            [
              72.822656,
              19.132227
            ],
            [
              72.826758,
              19.128125
            ],
            [
              72.829492,
              19.128125
            ],
            [
              72.830859,
              19.126758
            ],
            [
              72.833594,
              19.129492
            ],
            [
              72.834961,
              19.129492
            ],
            [
              72.836328,
              19.130859
            ],
            [
              72.847266,
              19.130859
            ],
            [
              72.848633,
              19.132227
            ],
            [
              72.848633,
              19.15
            ],
            [
              72.824023,
              19.15
            ]
          ]
        ]
      }
    },
    {
      "type": "Feature",
      "properties": {
        "spill_id": "sentinel_632",
        "confidence": 0.9
      },
      "geometry": {
        "type": "Polygon",
        "coordinates": [
          [
            [
              72.625781,
              19.134961
            ],
            [
              72.629883,
              19.130859
            ],
            [
              72.636719,
              19.130859
            ],
            [
              72.638086,
              19.132227
            ],
            [
              72.639453,
              19.132227
            ],
            [
              72.64082,
              19.133594
            ],
            [
              72.643555,
              19.133594
            ],
            [
              72.644922,
              19.134961
            ],
            [
              72.654492,
              19.134961
            ],
            [
              72.655859,
              19.133594
            ],
            [
              72.66543,
              19.133594
            ],
            [
              72.672266,
              19.141797
            ],
            [
              72.672266,
              19.145898
            ],
            [
              72.670898,
              19.147266
            ],
            [
              72.670898,
              19.15
            ],
            [
              72.63125,
              19.15
            ],
            [
              72.625781,
              19.14043
            ],
            [
              72.625781,
              19.134961
            ]
          ]
        ]
      }
    },
    {
      "type": "Feature",
      "properties": {
        "spill_id": "sentinel_632",
        "confidence": 0.9
      },
      "geometry": {
        "type": "Polygon",
        "coordinates": [
          [
            [
              72.584766,
              19.15
            ],
            [
              72.546484,
              19.092578
            ],
            [
              72.612109,
              19.032422
            ],
            [
              72.720117,
              18.981836
            ],
            [
              72.750195,
              18.876562
            ],
            [
              72.743359,
              18.835547
            ],
            [
              72.755664,
              18.80957
            ],
            [
              72.845898,
              18.801367
            ],
            [
              72.848633,
              18.999609
            ],
            [
              72.813086,
              19.006445
            ],
            [
              72.830859,
              19.033789
            ],
            [
              72.848633,
              19.035156
            ],
            [
              72.848633,
              19.076172
            ],
            [
              72.828125,
              19.063867
            ],
            [
              72.802148,
              19.070703
            ],
            [
              72.778906,
              19.054297
            ],
            [
              72.755664,
              19.077539
            ],
            [
              72.716016,
              19.092578
            ],
            [
              72.725586,
              19.051562
            ],
            [
              72.694141,
              19.032422
            ],
            [
              72.616211,
              19.055664
            ],
            [
              72.580664,
              19.084375
            ],
            [
              72.580664,
              19.111719
            ],
            [
              72.609375,
              19.14043
            ],
            [
              72.584766,
              19.15
            ]
          ]
        ]
      }
    }
  ]
}