{
  "type": "FeatureCollection",
  "features": [
    {
      "type": "Feature",
      "properties": {
        "spill_id": "sentinel_602",
        "confidence": 0.85
      },
      "geometry": {
        "type": "Polygon",
        "coordinates": [
          [
            [
              72.826758,
              18.83418
            ],
            [
              72.826758,
              18.831445
            ],
            [
              72.828125,
              18.830078
            ],
            [
              72.828125,
              18.828711
            ],
            [
              72.830859,
              18.825977
            ],
            [
              72.837695,
              18.825977
            ],
            [
              72.839062,
              18.827344
            ],
            [
              72.84043,
              18.827344
            ],
            [
              72.841797,
              18.828711
            ],
            [
              72.841797,
              18.832812
            ],
            [
              72.84043,
              18.83418
            ],
            [
              72.826758,
              18.83418
            ]
          ]
        ]
      }
    },
    {
      "type": "Feature",
      "properties": {
        "spill_id": "sentinel_602",
        "confidence": 0.85
      },
      "geometry": {
        "type": "Polygon",
        "coordinates": [
          [
            [
              72.803516,
              18.830078
            ],
            [
              72.80625,
              18.827344
            ],
            [
              72.810352,
              18.827344
            ],
            [
              72.811719,
              18.828711
            ],
            [
              72.813086,
              18.828711
            ],
            [
              72.814453,
              18.830078
            ],
            [
              72.81582,
              18.830078
            ],
            [
              72.817187,
              18.831445
            ],
            [
              72.818555,
              18.831445
            ],
            [
              72.821289,
              18.83418
            ],
            [
              72.822656,
              18.83418
            ],
            [
              72.824023,
              18.835547
            ],
            [
              72.824023,
              18.836914
            ],
            [
              72.821289,
              18.839648
            ],
            [
              72.821289,
              18.841016
            ],
            [
              72.819922,
              18.841016
            ],
            [
              72.818555,
              18.842383
            ],
            [
              72.807617,
              18.842383
            ],
            [
              72.804883,
              18.839648
            ],
            [
              72.804883,
              18.836914
            ],
            [
              72.803516,
              18.835547
            ],
            [
              72.803516,
              18.830078
            ]
          ]
        ]
      }
    },
    {
      "type": "Feature",
      "properties": {
        "spill_id": "sentinel_602",
        "confidence": 0.85
      },
      "geometry": {
        "type": "Polygon",
        "coordinates": [
          [
            [
              72.565625,
              18.865625
            ],
            [
              72.565625,
              18.862891
            ],
            [
              72.566992,
              18.861523
            ],
            [
              72.566992,
              18.860156
            ],
            [
              72.572461,
              18.854688
            ],
            [
              72.573828,
              18.856055
            ],
            [
              72.575195,
              18.856055
            ],
            [
              72.575195,
              18.858789
            ],
            [
              72.572461,
              18.861523
            ],
            [
              72.572461,
              18.862891
            ],
            [
              72.569727,
              18.865625
            ],
            [
              72.565625,
              18.865625
            ]
          ]
        ]
      }
    },
    {
      "type": "Feature",
      "properties": {
        "spill_id": "sentinel_602",
        "confidence": 0.85
      },
      "geometry": {
        "type": "Polygon",
        "coordinates": [
          [
            [
              72.5,
              18.876562
            ],
            [
              72.5,
              18.854688
            ],
            [
              72.531445,
              18.842383
            ],
            [
              72.549219,
              18.827344
            ],
            [
              72.586133,
              18.813672
            ],
            [
              72.602539,
              18.801367
            ],
            [
              72.620312,
              18.802734
            ],
            [
              72.62168,
              18.80957
            ],
            [
              72.618945,
              18.812305
            ],
            [
              72.599805,
              18.817773
            ],
            [
              72.595703,
              18.824609
            ],
            [
              72.586133,
              18.830078
            ],
            [
              72.57793,
              18.839648
            ],
            [
              72.568359,
              18.838281
            ],
            [
              72.556055,
              18.842383
            ],
            [
              72.539648,
              18.854688
            ],
            [
              72.5,
              18.876562
            ]
          ]
        ]
      }
    },
    {
      "type": "Feature",
      "properties": {
        "spill_id": "sentinel_602",
        "confidence": 0.85
      },
      "geometry": {
        "type": "Polygon",
        "coordinates": [
          [
            [
              72.5,
              18.933984
            ],
            [
              72.5,
              18.910742
            ],
            [
              72.501367,
              18.909375
            ],
            [
              72.502734,
              18.909375
            ],
            [
              72.505469,
              18.906641
            ],
            [
              72.50957,
              18.906641
            ],
            [
              72.510938,
              18.905273
            ],
            [
              72.513672,
              18.905273
            ],
            [
              72.515039,
              18.906641
            ],
            [
              72.516406,
              18.906641
            ],
            [
              72.517773,
              18.908008
            ],
            [
              72.517773,
              18.912109
            ],
            [
              72.519141,
              18.913477
            ],
            [
              72.519141,
              18.918945
            ],
            [
              72.520508,
              18.920312
            ],
            [
              72.517773,
              18.928516
            ],
            [
              72.515039,
              18.93125
            ],
            [
              72.513672,
              18.93125
            ],
            [
              72.50957,
              18.933984
            ],
            [
              72.5,
              18.933984
            ]
          ]
        ]
      }
    },
    {
      "type": "Feature",
      "properties": {
        "spill_id": "sentinel_602",
        "confidence": 0.85
      },
      "geometry": {
        "type": "Polygon",
        "coordinates": [
          [
            [
              72.560156,
              18.962695
            ],
            [
              72.565625,
              18.953125
            ],
            [
              72.582031,
              18.944922
            ],
            [
              72.579297,
              18.938086
            ],
            [
              72.583398,
              18.933984
            ],
            [
              72.601172,
              18.938086
            ],
            [
              72.616211,
              18.932617
            ],
            [
              72.616211,
              18.925781
            ],
            [
              72.595703,
              18.912109
            ],
            [
              72.601172,
              18.901172
            ],
            [
              72.610742,
              18.901172
            ],
            [
              72.623047,
              18.909375
            ],
            [
              72.651758,
              18.906641
            ],
            [
              72.670898,
              18.917578
            ],
            [
              72.681836,
              18.917578
            ],
            [
              72.706445,
              18.89707
            ],
            [
              72.739258,
              18.891602
            ],
            [
              72.743359,
              18.886133
            ],
            [
              72.739258,
              18.876562
            ],
            [
              72.761133,
              18.861523
            ],
            [
              72.773438,
              18.857422
            ],
            [
              72.780273,
              18.862891
            ],
            [
              72.780273,
              18.872461
            ],
            [
              72.744727,
              18.903906
            ],
            [
              72.673633,
              18.93125
            ],
            [
              72.632617,
              18.954492
            ],
            [
              72.601172,
              18.955859
            ],
            [
              72.583398,
              18.970898
            ],
            [
              72.566992,
              18.969531
            ],
            [
              72.560156,
              18.962695
            ]
          ]
        ]
      }
    },
    {
      "type": "Feature",
      "properties": {
        "spill_id": "sentinel_602",
        "confidence": 0.85
      },
      "geometry": {
        "type": "Polygon",
        "coordinates": [
          [
            [
              72.729688,
              19.074805
            ],
            [
              72.729688,
              19.070703
            ],
            [
              72.733789,
              19.066602
            ],
            [
              72.735156,
              19.066602
            ],
            [
              72.736523,
              19.065234
            ],
            [
              72.737891,
              19.065234
            ],
            [
              72.740625,
              19.0625
            ],
            [
              72.741992,
              19.0625
            ],
            [
              72.743359,
              19.061133
            ],
            [
              72.743359,
              19.059766
            ],
            [
              72.746094,
              19.057031
            ],
            [
              72.747461,
              19.057031
            ],
            [
              72.748828,
              19.055664
            ],
            [
              72.748828,
              19.057031
            ],
            [
              72.750195,
              19.058398
            ],
            [
              72.748828,
              19.059766
            ],
            [
              72.748828,
              19.061133
            ],
            [
              72.746094,
              19.063867
            ],
            [
              72.744727,
              19.063867
            ],
            [
              72.736523,
              19.07207
            ],
            [
              72.735156,
              19.07207
            ],
            [
              72.733789,
              19.073438
            ],
            [
              72.731055,
              19.073438
            ],
            [
              72.729688,
              19.074805
            ]
          ]
        ]
      }
    },
    {
      "type": "Feature",
      "properties": {
        "spill_id": "sentinel_602",
        "confidence": 0.85
      },
      "geometry": {
        "type": "Polygon",
        "coordinates": [
          [
            [
              72.702344,
              19.093945
            ],
            [
              72.702344,
              19.092578
            ],
            [
              72.706445,
              19.092578
            ],
            [
              72.707812,
              19.091211
            ],
            [
              72.711914,
              19.091211
            ],
            [
              72.713281,
              19.089844
            ],
            [
              72.714648,
              19.089844
            ],
            [
              72.716016,
              19.088477
            ],
            [
              72.717383,
              19.088477
            ],
            [
              72.720117,
              19.085742
            ],
            [
              72.722852,
              19.085742
            ],
            [
              72.724219,
              19.087109
            ],
            [
              72.724219,
              19.093945
            ],
            [
              72.722852,
              19.093945
            ],
            [
              72.721484,
              19.095312
            ],
            [
              72.720117,
              19.095312
            ],
            [
              72.71875,
              19.09668
            ],
            [
              72.717383,
              19.09668
            ],
            [
              72.716016,
              19.098047
            ],
            [
              72.713281,
              19.098047
            ],
            [
              72.711914,
              19.099414
            ],
            [
              72.70918,
              19.099414
            ],
            [
              72.707812,
              19.100781
            ],
            [
              72.706445,
              19.100781
            ],
            [
              72.706445,
              19.098047
            ],
            [
              72.702344,
              19.093945
            ]
          ]
        ]
      }
    },
    {
      "type": "Feature",
      "properties": {
        "spill_id": "sentinel_602",
        "confidence": 0.85
      },
      "geometry": {
        "type": "Polygon",
        "coordinates": [
          [
            [
              72.5,
              19.088477
            ],
            [
              72.502734,
              19.088477
            ],
            [
              72.504102,
              19.087109
            ],
            [
              72.508203,
              19.087109
            ],
            [
              72.50957,
              19.088477
            ],
            [
              72.512305,
              19.088477
            ],
            [
              72.513672,
              19.089844
            ],
            [
              72.515039,
              19.089844
            ],
            [
              72.516406,
              19.091211
            ],
            [
              72.517773,
              19.091211
            ],
            [
              72.520508,
              19.093945
            ],
            [
              72.520508,
              19.095312
            ],
            [
              72.521875,
              19.09668
            ],
            [
              72.520508,
              19.098047
            ],
            [
              72.512305,
              19.098047
            ],
            [
              72.510938,
              19.099414
            ],
            [
              72.508203,
              19.099414
            ],
            [
              72.506836,
              19.100781
            ],
            [
              72.5,
              19.100781
            ],
            [
              72.5,
              19.088477
            ]
          ]
        ]
      }
    },
    {
      "type": "Feature",
      "properties": {
        "spill_id": "sentinel_602",
        "confidence": 0.85
      },
      "geometry": {
        "type": "Polygon",
        "coordinates": [
          [
            [
              72.807617,
              19.15
            ],
            [
              72.808984,
              19.148633
            ],
            [
              72.808984,
              19.141797
            ],
            [
              72.810352,
              19.141797
            ],
            [
              72.811719,
              19.14043
            ],
            [
              72.822656,
              19.14043
            ],
            [
              72.824023,
              19.141797
            ],
            [
              72.825391,
              19.141797
            ],
            [
              72.828125,
              19.144531
            ],
            [
              72.829492,
              19.144531
            ],
            [
              72.830859,
              19.143164
            ],
            [
              72.837695,
              19.143164
            ],
            [
              72.837695,
              19.15
            ],
            [
              72.807617,
              19.15
            ]
          ]
        ]
      }
    },
    {
      "type": "Feature",
      "properties": {
        "spill_id": "sentinel_602",
        "confidence": 0.85
      },
      "geometry": {
        "type": "Polygon",
        "coordinates": [
          [
            [
              72.629883,
              19.15
            ],
            [
              72.627148,
              19.144531
            ],
            [
              72.627148,
              19.137695
            ],
            [
              72.625781,
              19.136328
            ],
            [
              72.625781,
              19.121289
            ],
            [
              72.629883,
              19.111719
            ],
            [
              72.642187,
              19.10625
            ],
            [
              72.650391,
              19.098047
            ],
            [
              72.653125,
              19.092578
            ],
            [
              72.653125,
              19.087109
            ],
            [
              72.655859,
              19.083008
            ],
            [
              72.655859,
              19.080273
            ],
            [
              72.661328,
              19.074805
            ],
            [
              72.66543,
              19.080273
            ],
            [
              72.66543,
              19.085742
            ],
            [
              72.654492,
              19.10625
            ],
            [
              72.653125,
              19.141797
            ],
            [
              72.649023,
              19.147266
            ],
            [
              72.649023,
              19.15
            ],
            [
              72.629883,
              19.15
            ]
          ]
        ]
      }
    },
    {
      "type": "Feature",
      "properties": {
        "spill_id": "sentinel_602",
        "confidence": 0.85
      },
      "geometry": {
        "type": "Polygon",
        "coordinates": [
          [
            [
              72.556055,
              19.136328
            ],
            [
              72.550586,
              19.124023
            ],
            [
              72.586133,
              19.089844
            ],
            [
              72.590234,
              19.065234
            ],
            [
              72.598438,
              19.0625
            ],
            [
              72.606641,
              19.069336
            ],
            [
              72.610742,
              19.061133
            ],
            [
              72.612109,
              19.046094
            ],
            [
              72.608008,
              19.041992
            ],
            [
              72.599805,
              19.047461
            ],
            [
              72.59707,
              19.055664
            ],
            [
              72.5875,
              19.057031
            ],
            [
              72.586133,
              19.039258
            ],
            [
              72.606641,
              19.01875
            ],
            [
              72.618945,
              18.996875
            ],
            [
              72.636719,
              18.981836
            ],
            [
              72.644922,
              18.979102
            ],
            [
              72.653125,
              18.987305
            ],
            [
              72.669531,
              18.988672
            ],
            [
              72.673633,
              18.995508
            ],
            [
              72.657227,
              19.036523
            ],
            [
              72.625781,
              19.067969
            ],
            [
              72.624414,
              19.085742
            ],
            [
              72.613477,
              19.100781
            ],
            [
              72.616211,
              19.119922
            ],
            [
              72.605273,
              19.134961
            ],
            [
              72.609375,
              19.15
            ],
            [
              72.59707,
              19.15
            ],
            [
              72.595703,
              19.133594
            ],
            [
              72.591602,
              19.130859
            ],
            [
              72.569727,
              19.139062
            ],
            [
              72.556055,
              19.136328
            ]
          ]
        ]
      }
    }
  ]
}