{
  "type": "FeatureCollection",
  "features": [
    {
      "type": "Feature",
      "properties": {
        "spill_id": "sentinel_277",
        "confidence": 0.78
      },
      "geometry": {
        "type": "Polygon",
        "coordinates": [
          [
            [
              72.780273,
              18.85332
            ],
            [
              72.780273,
              18.849219
            ],
            [
              72.783008,
              18.849219
            ],
            [
              72.785742,
              18.846484
            ],
            [
              72.789844,
              18.846484
            ],
            [
              72.791211,
              18.845117
            ],
            [
              72.800781,
              18.845117
            ],
            [
              72.802148,
              18.846484
            ],
            [
              72.80625,
              18.846484
            ],
            [
              72.80625,
              18.850586
            ],
            [
              72.803516,
              18.85332
            ],
            [
              72.802148,
              18.85332
            ],
            [
              72.800781,
              18.854688
            ],
            [
              72.787109,
              18.854688
            ],
            [
              72.785742,
              18.85332
            ],
            [
              72.780273,
              18.85332
            ]
          ]
        ]
      }
    },
    {
      "type": "Feature",
      "properties": {
        "spill_id": "sentinel_277",
        "confidence": 0.78
      },
      "geometry": {
        "type": "Polygon",
        "coordinates": [
          [
            [
              72.5,
              18.884766
            ],
            [
              72.5,
              18.879297
            ],
            [
              72.508203,
              18.868359
            ],
            [
              72.510938,
              18.861523
            ],
            [
              72.512305,
              18.861523
            ],
            [
              72.521875,
              18.851953
            ],
            [
              72.523242,
              18.849219
            ],
            [
              72.525977,
              18.847852
            ],
            [
              72.531445,
              18.847852
            ],
            [
              72.532812,
              18.849219
            ],
            [
              72.536914,
              18.849219
            ],
            [
              72.539648,
              18.851953
            ],
            [
              72.539648,
              18.856055
            ],
            [
              72.535547,
              18.860156
            ],
            [
              72.53418,
              18.860156
            ],
            [
              72.531445,
              18.862891
            ],
            [
              72.531445,
              18.864258
            ],
            [
              72.530078,
              18.864258
            ],
            [
              72.524609,
              18.869727
            ],
            [
              72.524609,
              18.871094
            ],
            [
              72.519141,
              18.87793
            ],
            [
              72.516406,
              18.87793
            ],
            [
              72.50957,
              18.884766
            ],
            [
              72.5,
              18.884766
            ]
          ]
        ]
      }
    },
    {
      "type": "Feature",
      "properties": {
        "spill_id": "sentinel_277",
        "confidence": 0.78
      },
      "geometry": {
        "type": "Polygon",
        "coordinates": [
          [
            [
              72.5,
              18.939453
            ],
            [
              72.501367,
              18.928516
            ],
            [
              72.530078,
              18.914844
            ],
            [
              72.531445,
              18.906641
            ],
            [
              72.524609,
              18.905273
            ],
            [
              72.524609,
              18.899805
            ],
            [
              72.550586,
              18.884766
            ],
            [
              72.556055,
              18.864258
            ],
            [
              72.572461,
              18.84375
            ],
            [
              72.583398,
              18.846484
            ],
            [
              72.579297,
              18.865625
            ],
            [
              72.595703,
              18.868359
            ],
            [
              72.610742,
              18.854688
            ],
            [
              72.644922,
              18.841016
            ],
            [
              72.643555,
              18.831445
            ],
            [
              72.635352,
              18.825977
            ],
            [
              72.603906,
              18.83418
            ],
            [
              72.610742,
              18.819141
            ],
            [
              72.635352,
              18.808203
            ],
            [
              72.661328,
              18.832812
            ],
            [
              72.664062,
              18.812305
            ],
            [
              72.670898,
              18.805469
            ],
            [
              72.702344,
              18.802734
            ],
            [
              72.672266,
              18.845117
            ],
            [
              72.562891,
              18.901172
            ],
            [
              72.549219,
              18.914844
            ],
            [
              72.550586,
              18.929883
            ],
            [
              72.528711,
              18.938086
            ],
            [
              72.5,
              18.939453
            ]
          ]
        ]
      }
    },
    {
      "type": "Feature",
      "properties": {
        "spill_id": "sentinel_277",
        "confidence": 0.78
      },
      "geometry": {
        "type": "Polygon",
        "coordinates": [
          [
            [
              72.653125,
              19.021484
            ],
            [
              72.647656,
              19.013281
            ],
            [
              72.653125,
              19.006445
            ],
            [
              72.687305,
              19.00918
            ],
            [
              72.702344,
              18.999609
            ],
            [
              72.706445,
              18.980469
            ],
            [
              72.713281,
              18.968164
            ],
            [
              72.741992,
              18.94082
            ],
            [
              72.750195,
              18.913477
            ],
            [
              72.757031,
              18.909375
            ],
            [
              72.759766,
              18.912109
            ],
            [
              72.75293,
              18.920312
            ],
            [
              72.758398,
              18.927148
            ],
            [
              72.758398,
              18.946289
            ],
            [
              72.75293,
              18.954492
            ],
            [
              72.751562,
              18.96543
            ],
            [
              72.755664,
              18.970898
            ],
            [
              72.765234,
              18.975
            ],
            [
              72.766602,
              18.981836
            ],
            [
              72.748828,
              18.988672
            ],
            [
              72.735156,
              19.002344
            ],
            [
              72.692773,
              19.024219
            ],
            [
              72.66543,
              19.025586
            ],
            [
              72.653125,
              19.021484
            ]
          ]
        ]
      }
    },
    {
      "type": "Feature",
      "properties": {
        "spill_id": "sentinel_277",
        "confidence": 0.78
      },
      "geometry": {
        "type": "Polygon",
        "coordinates": [
          [
            [
              72.5,
              19.024219
            ],
            [
              72.505469,
              19.013281
            ],
            [
              72.528711,
              19.006445
            ],
            [
              72.547852,
              18.990039
            ],
            [
              72.599805,
              18.977734
            ],
            [
              72.66543,
              18.942188
            ],
            [
              72.691406,
              18.94082
            ],
            [
              72.66543,
              18.961328
            ],
            [
              72.627148,
              18.976367
            ],
            [
              72.608008,
              19.007812
            ],
            [
              72.616211,
              19.031055
            ],
            [
              72.613477,
              19.046094
            ],
            [
              72.63125,
              19.058398
            ],
            [
              72.627148,
              19.065234
            ],
            [
              72.602539,
              19.061133
            ],
            [
              72.588867,
              19.020117
            ],
            [
              72.591602,
              19.002344
            ],
            [
              72.584766,
              18.994141
            ],
            [
              72.572461,
              18.996875
            ],
            [
              72.539648,
              19.024219
            ],
            [
              72.545117,
              19.039258
            ],
            [
              72.579297,
              19.069336
            ],
            [
              72.560156,
              19.069336
            ],
            [
              72.531445,
              19.024219
            ],
            [
              72.5,
              19.024219
            ]
          ]
        ]
      }
    },
    {
      "type": "Feature",
      "properties": {
        "spill_id": "sentinel_277",
        "confidence": 0.78
      },
      "geometry": {
        "type": "Polygon",
        "coordinates": [
          [
            [
              72.68457,
              19.080273
            ],
            [
              72.68457,
              19.077539
            ],
            [
              72.699609,
              19.065234
            ],
            [
              72.699609,
              19.057031
            ],
            [
              72.710547,
              19.047461
            ],
            [
              72.721484,
              19.043359
            ],
            [
              72.726953,
              19.032422
            ],
            [
              72.750195,
              19.032422
            ],
            [
              72.755664,
              19.022852
            ],
            [
              72.767969,
              19.013281
            ],
            [
              72.792578,
              19.006445
            ],
            [
              72.808984,
              19.005078
            ],
            [
              72.819922,
              19.00918
            ],
            [
              72.807617,
              19.02832
            ],
            [
              72.780273,
              19.035156
            ],
            [
              72.769336,
              19.051562
            ],
            [
              72.750195,
              19.065234
            ],
            [
              72.70918,
              19.081641
            ],
            [
              72.690039,
              19.083008
            ],
            [
              72.68457,
              19.080273
            ]
          ]
        ]
      }
    },
    {
      "type": "Feature",
      "properties": {
        "spill_id": "sentinel_277",
        "confidence": 0.78
      },
      "geometry": {
        "type": "Polygon",
        "coordinates": [
          [
            [
              72.64082,
              19.095312
            ],
            [
              72.64082,
              19.093945
            ],
            [
              72.643555,
              19.091211
            ],
            [
              72.643555,
              19.089844
            ],
            [
              72.644922,
              19.088477
            ],
            [
              72.646289,
              19.088477
            ],
            [
              72.647656,
              19.087109
            ],
            [
              72.650391,
              19.087109
            ],
            [
              72.651758,
              19.085742
            ],
            [
              72.654492,
              19.085742
            ],
            [
              72.655859,
              19.084375
            ],
            [
              72.657227,
              19.084375
            ],
            [
              72.658594,
              19.083008
            ],
            [
              72.662695,
              19.083008
            ],
            [
              72.664062,
              19.081641
            ],
            [
              72.669531,
              19.081641
            ],
            [
              72.669531,
              19.083008
            ],
            [
              72.670898,
              19.084375
            ],
            [
              72.669531,
              19.085742
            ],
            [
              72.669531,
              19.087109
            ],
            [
              72.66543,
              19.091211
            ],
            [
              72.664062,
              19.091211
            ],
            [
              72.662695,
              19.092578
            ],
            [
              72.657227,
              19.092578
            ],
            [
              72.655859,
              19.093945
            ],
            [
              72.651758,
              19.093945
            ],
            [
              72.650391,
              19.095312
            ],
            [
              72.64082,
              19.095312
            ]
          ]
        ]
      }
    },
    {
      "type": "Feature",
      "properties": {
        "spill_id": "sentinel_277",
        "confidence": 0.78
      },
      "geometry": {
        "type": "Polygon",
        "coordinates": [
          [
            [
              72.62168,
              19.093945
            ],
            [
              72.620312,
              19.095312
            ],
            [
              72.618945,
              19.095312
            ],
            [
              72.617578,
              19.09668
            ],
            [
              72.612109,
              19.09668
            ],
            [
              72.610742,
              19.098047
            ],
            [
              72.609375,
              19.09668
            ],
            [
              72.602539,
              19.09668
            ],
            [
              72.601172,
              19.095312
            ],
            [
              72.598438,
              19.095312
            ],
            [
              72.59707,
              19.093945
            ],
            [
              72.59707,
              19.091211
            ],
            [
              72.598438,
              19.089844
            ],
            [
              72.598438,
              19.088477
            ],
            [
              72.599805,
              19.087109
            ],
            [
              72.603906,
              19.087109
            ],
            [
              72.605273,
              19.085742
            ],
            [
              72.606641,
              19.085742
            ],
            [
              72.608008,
              19.087109
            ],
            [
              72.613477,
              19.087109
            ],
            [
              72.614844,
              19.088477
            ],
            [
              72.616211,
              19.088477
            ],
            [
              72.617578,
              19.089844
            ],
            [
              72.618945,
              19.089844
            ],
            [
              72.62168,
              19.092578
            ],
            [
              72.62168,
              19.093945
            ]
          ]
        ]
      }
    },
    {
      "type": "Feature",
      "properties": {
        "spill_id": "sentinel_277",
        "confidence": 0.78
      },
      "geometry": {
        "type": "Polygon",
        "coordinates": [
          [
            [
              72.5,
              19.107617
            ],
            [
              72.5,
              19.089844
            ],
            [
              72.505469,
              19.087109
            ],
            [
              72.508203,
              19.087109
            ],
            [
              72.515039,
              19.083008
            ],
            [
              72.524609,
              19.083008
            ],
            [
              72.525977,
              19.084375
            ],
            [
              72.53418,
              19.084375
            ],
            [
              72.535547,
              19.085742
            ],
            [
              72.539648,
              19.085742
            ],
            [
              72.541016,
              19.084375
            ],
            [
              72.542383,
              19.085742
            ],
            [
              72.549219,
              19.085742
            ],
            [
              72.560156,
              19.091211
            ],
            [
              72.560156,
              19.093945
            ],
            [
              72.557422,
              19.095312
            ],
            [
              72.532812,
              19.095312
            ],
            [
              72.527344,
              19.099414
            ],
            [
              72.519141,
              19.103516
            ],
            [
              72.516406,
              19.103516
            ],
            [
              72.512305,
              19.10625
            ],
            [
              72.5,
              19.107617
            ]
          ]
        ]
      }
    },
    {
      "type": "Feature",
      "properties": {
        "spill_id": "sentinel_277",
        "confidence": 0.78
      },
      "geometry": {
        "type": "Polygon",
        "coordinates": [
          [
            [
              72.818555,
              19.125391
            ],
            [
              72.818555,
              19.122656
            ],
            [
              72.821289,
              19.119922
            ],
            [
              72.824023,
              19.111719
            ],
            [
              72.829492,
              19.10625
            ],
            [
              72.828125,
              19.104883
            ],
            [
              72.828125,
              19.103516
            ],
            [
              72.829492,
              19.102148
            ],
            [
              72.833594,
              19.102148
            ],
            [
              72.834961,
              19.100781
            ],
            [
              72.836328,
              19.100781
            ],
            [
              72.84043,
              19.09668
            ],
            [
              72.847266,
              19.095312
            ],
            [
              72.848633,
              19.09668
            ],
            [
              72.848633,
              19.103516
            ],
            [
              72.847266,
              19.103516
            ],
            [
              72.845898,
              19.104883
            ],
            [
              72.845898,
              19.108984
            ],
            [
              72.848633,
              19.111719
            ],
            [
              72.848633,
              19.118555
            ],
            [
              72.847266,
              19.119922
            ],
            [
              72.845898,
              19.119922
            ],
            [
              72.834961,
              19.130859
            ],
            [
              72.833594,
              19.130859
            ],
            [
              72.832227,
              19.132227
            ],
            [
              72.830859,
              19.132227
            ],
            [
              72.829492,
              19.130859
            ],
            [
              72.826758,
              19.130859
            ],
            [
              72.826758,
              19.129492
            ],
            [
              72.825391,
              19.128125
            ],
            [
              72.818555,
              19.125391
            ]
          ]
        ]
      }
    },
    {
      "type": "Feature",
      "properties": {
        "spill_id": "sentinel_277",
        "confidence": 0.78
      },
      "geometry": {
        "type": "Polygon",
        "coordinates": [
          [
            [
              72.765234,
              19.15
            ],
            [
              72.767969,
              19.132227
            ],
            [
              72.765234,
              19.128125
            ],
            [
              72.763867,
              19.11582
            ],
            [
              72.769336,
              19.103516
            ],
            [
              72.787109,
              19.088477
            ],
            [
              72.799414,
              19.081641
            ],
            [
              72.813086,
              19.077539
            ],
            [
              72.821289,
              19.078906
            ],
            [
              72.822656,
              19.087109
            ],
            [
              72.817187,
              19.089844
            ],
            [
              72.810352,
              19.098047
            ],
            [
              72.788477,
              19.103516
            ],
            [
              72.777539,
              19.111719
            ],
            [
              72.777539,
              19.114453
            ],
            [
              72.795312,
              19.130859
            ],
            [
              72.799414,
              19.130859
            ],
            [
              72.800781,
              19.133594
            ],
            [
              72.792578,
              19.139062
            ],
            [
              72.784375,
              19.15
            ],
            [
              72.765234,
              19.15
            ]
          ]
        ]
      }
    },
    {
      "type": "Feature",
      "properties": {
        "spill_id": "sentinel_277",
        "confidence": 0.78
      },
      "geometry": {
        "type": "Polygon",
        "coordinates": [
          [
            [
              72.524609,
              19.134961
            ],
            [
              72.525977,
              19.133594
            ],
            [
              72.525977,
              19.130859
            ],
            [
              72.531445,
              19.126758
            ],
            [
              72.536914,
              19.126758
            ],
            [
              72.538281,
              19.125391
            ],
            [
              72.551953,
              19.125391
            ],
            [
              72.558789,
              19.128125
            ],
            [
              72.566992,
              19.133594
            ],
            [
              72.576562,
              19.134961
            ],
            [
              72.584766,
              19.139062
            ],
            [
              72.588867,
              19.143164
            ],
            [
              72.588867,
              19.145898
            ],
            [
              72.586133,
              19.15
            ],
            [
              72.530078,
              19.15
            ],
            [
              72.524609,
              19.139062
            ],
            [
              72.524609,
              19.134961
            ]
          ]
        ]
      }
    }
  ]
}