{
  "type": "FeatureCollection",
  "features": [
    {
      "type": "Feature",
      "properties": {
        "spill_id": "sentinel_25",
        "confidence": 0.85
      },
      "geometry": {
        "type": "Polygon",
        "coordinates": [
          [
            [
              72.580664,
              18.821875
            ],
            [
              72.572461,
              18.821875
            ],
            [
              72.568359,
              18.819141
            ],
            [
              72.551953,
              18.816406
            ],
            [
              72.550586,
              18.815039
            ],
            [
              72.549219,
              18.816406
            ],
            [
              72.536914,
              18.816406
            ],
            [
              72.527344,
              18.820508
            ],
            [
              72.519141,
              18.820508
            ],
            [
              72.513672,
              18.816406
            ],
            [
              72.502734,
              18.816406
            ],
            [
              72.5,
              18.815039
            ],
            [
              72.5,
              18.801367
            ],
            [
              72.565625,
              18.801367
            ],
            [
              72.579297,
              18.80957
            ],
            [
              72.580664,
              18.812305
            ],
            [
              72.580664,
              18.821875
            ]
          ]
        ]
      }
    },
    {
      "type": "Feature",
      "properties": {
        "spill_id": "sentinel_25",
        "confidence": 0.85
      },
      "geometry": {
        "type": "Polygon",
        "coordinates": [
          [
            [
              72.627148,
              18.824609
            ],
            [
              72.627148,
              18.819141
            ],
            [
              72.628516,
              18.817773
            ],
            [
              72.628516,
              18.810938
            ],
            [
              72.629883,
              18.80957
            ],
            [
              72.629883,
              18.804102
            ],
            [
              72.63125,
              18.802734
            ],
            [
              72.632617,
              18.802734
            ],
            [
              72.633984,
              18.801367
            ],
            [
              72.636719,
              18.801367
            ],
            [
              72.638086,
              18.802734
            ],
            [
              72.639453,
              18.802734
            ],
            [
              72.64082,
              18.804102
            ],
            [
              72.643555,
              18.804102
            ],
            [
              72.644922,
              18.805469
            ],
            [
              72.651758,
              18.805469
            ],
            [
              72.654492,
              18.808203
            ],
            [
              72.654492,
              18.810938
            ],
            [
              72.653125,
              18.812305
            ],
            [
              72.651758,
              18.812305
            ],
            [
              72.650391,
              18.813672
            ],
            [
              72.649023,
              18.813672
            ],
            [
              72.647656,
              18.815039
            ],
            [
              72.643555,
              18.816406
            ],
            [
              72.642187,
              18.817773
            ],
            [
              72.642187,
              18.819141
            ],
            [
              72.638086,
              18.823242
            ],
            [
              72.636719,
              18.823242
            ],
            [
              72.635352,
              18.824609
            ],
            [
              72.627148,
              18.824609
            ]
          ]
        ]
      }
    },
    {
      "type": "Feature",
      "properties": {
        "spill_id": "sentinel_25",
        "confidence": 0.85
      },
      "geometry": {
        "type": "Polygon",
        "coordinates": [
          [
            [
              72.616211,
              18.83418
            ],
            [
              72.612109,
              18.835547
            ],
            [
              72.612109,
              18.83418
            ],
            [
              72.609375,
              18.830078
            ],
            [
              72.609375,
              18.827344
            ],
            [
              72.608008,
              18.825977
            ],
            [
              72.608008,
              18.821875
            ],
            [
              72.609375,
              18.820508
            ],
            [
              72.609375,
              18.816406
            ],
            [
              72.603906,
              18.810938
            ],
            [
              72.602539,
              18.810938
            ],
            [
              72.595703,
              18.805469
            ],
            [
              72.595703,
              18.802734
            ],
            [
              72.59707,
              18.801367
            ],
            [
              72.610742,
              18.801367
            ],
            [
              72.612109,
              18.802734
            ],
            [
              72.612109,
              18.804102
            ],
            [
              72.613477,
              18.805469
            ],
            [
              72.613477,
              18.808203
            ],
            [
              72.612109,
              18.80957
            ],
            [
              72.612109,
              18.810938
            ],
            [
              72.609375,
              18.813672
            ],
            [
              72.609375,
              18.815039
            ],
            [
              72.612109,
              18.817773
            ],
            [
              72.614844,
              18.817773
            ],
            [
              72.616211,
              18.819141
            ],
            [
              72.617578,
              18.819141
            ],
            [
              72.617578,
              18.820508
            ],
            [
              72.618945,
              18.821875
            ],
            [
              72.618945,
              18.824609
            ],
            [
              72.616211,
              18.828711
            ],
            [
              72.616211,
              18.83418
            ]
          ]
        ]
      }
    },
    {
      "type": "Feature",
      "properties": {
        "spill_id": "sentinel_25",
        "confidence": 0.85
      },
      "geometry": {
        "type": "Polygon",
        "coordinates": [
          [
            [
              72.720117,
              18.858789
            ],
            [
              72.71875,
              18.858789
            ],
            [
              72.716016,
              18.856055
            ],
            [
              72.716016,
              18.854688
            ],
            [
              72.714648,
              18.85332
            ],
            [
              72.714648,
              18.851953
            ],
            [
              72.713281,
              18.850586
            ],
            [
              72.713281,
              18.847852
            ],
            [
              72.711914,
              18.846484
            ],
            [
              72.711914,
              18.845117
            ],
            [
              72.710547,
              18.84375
            ],
            [
              72.710547,
              18.836914
            ],
            [
              72.711914,
              18.835547
            ],
            [
              72.711914,
              18.83418
            ],
            [
              72.713281,
              18.832812
            ],
            [
              72.717383,
              18.832812
            ],
            [
              72.71875,
              18.83418
            ],
            [
              72.720117,
              18.83418
            ],
            [
              72.722852,
              18.836914
            ],
            [
              72.722852,
              18.838281
            ],
            [
              72.724219,
              18.839648
            ],
            [
              72.724219,
              18.854688
            ],
            [
              72.722852,
              18.856055
            ],
            [
              72.722852,
              18.857422
            ],
            [
              72.721484,
              18.857422
            ],
            [
              72.720117,
              18.858789
            ]
          ]
        ]
      }
    },
    {
      "type": "Feature",
      "properties": {
        "spill_id": "sentinel_25",
        "confidence": 0.85
      },
      "geometry": {
        "type": "Polygon",
        "coordinates": [
          [
            [
              72.830859,
              18.866992
            ],
            [
              72.825391,
              18.865625
            ],
            [
              72.81582,
              18.857422
            ],
            [
              72.814453,
              18.846484
            ],
            [
              72.819922,
              18.841016
            ],
            [
              72.818555,
              18.839648
            ],
            [
              72.818555,
              18.835547
            ],
            [
              72.814453,
              18.824609
            ],
            [
              72.814453,
              18.804102
            ],
            [
              72.81582,
              18.802734
            ],
            [
              72.819922,
              18.802734
            ],
            [
              72.825391,
              18.808203
            ],
            [
              72.837695,
              18.831445
            ],
            [
              72.837695,
              18.839648
            ],
            [
              72.829492,
              18.845117
            ],
            [
              72.829492,
              18.850586
            ],
            [
              72.837695,
              18.862891
            ],
            [
              72.834961,
              18.865625
            ],
            [
              72.832227,
              18.865625
            ],
            [
              72.830859,
              18.866992
            ]
          ]
        ]
      }
    },
    {
      "type": "Feature",
      "properties": {
        "spill_id": "sentinel_25",
        "confidence": 0.85
      },
      "geometry": {
        "type": "Polygon",
        "coordinates": [
          [
            [
              72.624414,
              18.903906
            ],
            [
              72.616211,
              18.903906
            ],
            [
              72.612109,
              18.899805
            ],
            [
              72.612109,
              18.892969
            ],
            [
              72.613477,
              18.891602
            ],
            [
              72.613477,
              18.890234
            ],
            [
              72.614844,
              18.888867
            ],
            [
              72.614844,
              18.884766
            ],
            [
              72.616211,
              18.883398
            ],
            [
              72.616211,
              18.880664
            ],
            [
              72.617578,
              18.879297
            ],
            [
              72.617578,
              18.87793
            ],
            [
              72.620312,
              18.87793
            ],
            [
              72.624414,
              18.882031
            ],
            [
              72.624414,
              18.890234
            ],
            [
              72.625781,
              18.891602
            ],
            [
              72.625781,
              18.895703
            ],
            [
              72.627148,
              18.89707
            ],
            [
              72.627148,
              18.901172
            ],
            [
              72.624414,
              18.903906
            ]
          ]
        ]
      }
    },
    {
      "type": "Feature",
      "properties": {
        "spill_id": "sentinel_25",
        "confidence": 0.85
      },
      "geometry": {
        "type": "Polygon",
        "coordinates": [
          [
            [
              72.731055,
              18.932617
            ],
            [
              72.72832,
              18.935352
            ],
            [
              72.726953,
              18.935352
            ],
            [
              72.725586,
              18.933984
            ],
            [
              72.724219,
              18.935352
            ],
            [
              72.722852,
              18.933984
            ],
            [
              72.71875,
              18.933984
            ],
            [
              72.717383,
              18.932617
            ],
            [
              72.714648,
              18.932617
            ],
            [
              72.713281,
              18.93125
            ],
            [
              72.711914,
              18.93125
            ],
            [
              72.710547,
              18.929883
            ],
            [
              72.710547,
              18.927148
            ],
            [
              72.713281,
              18.924414
            ],
            [
              72.721484,
              18.924414
            ],
            [
              72.722852,
              18.925781
            ],
            [
              72.724219,
              18.925781
            ],
            [
              72.725586,
              18.927148
            ],
            [
              72.726953,
              18.927148
            ],
            [
              72.729688,
              18.929883
            ],
            [
              72.729688,
              18.93125
            ],
            [
              72.731055,
              18.932617
            ]
          ]
        ]
      }
    },
    {
      "type": "Feature",
      "properties": {
        "spill_id": "sentinel_25",
        "confidence": 0.85
      },
      "geometry": {
        "type": "Polygon",
        "coordinates": [
          [
            [
              72.508203,
              18.961328
            ],
            [
              72.505469,
              18.958594
            ],
            [
              72.505469,
              18.950391
            ],
            [
              72.506836,
              18.949023
            ],
            [
              72.506836,
              18.947656
            ],
            [
              72.508203,
              18.946289
            ],
            [
              72.512305,
              18.946289
            ],
            [
              72.513672,
              18.947656
            ],
            [
              72.513672,
              18.949023
            ],
            [
              72.516406,
              18.951758
            ],
            [
              72.516406,
              18.953125
            ],
            [
              72.517773,
              18.954492
            ],
            [
              72.517773,
              18.957227
            ],
            [
              72.515039,
              18.959961
            ],
            [
              72.513672,
              18.959961
            ],
            [
              72.512305,
              18.961328
            ],
            [
              72.508203,
              18.961328
            ]
          ]
        ]
      }
    },
    {
      "type": "Feature",
      "properties": {
        "spill_id": "sentinel_25",
        "confidence": 0.85
      },
      "geometry": {
        "type": "Polygon",
        "coordinates": [
          [
            [
              72.765234,
              19.000977
            ],
            [
              72.765234,
              18.998242
            ],
            [
              72.766602,
              18.996875
            ],
            [
              72.766602,
              18.995508
            ],
            [
              72.769336,
              18.992773
            ],
            [
              72.777539,
              18.992773
            ],
            [
              72.778906,
              18.991406
            ],
            [
              72.781641,
              18.991406
            ],
            [
              72.783008,
              18.990039
            ],
            [
              72.783008,
              18.988672
            ],
            [
              72.787109,
              18.985938
            ],
            [
              72.792578,
              18.985938
            ],
            [
              72.793945,
              18.987305
            ],
            [
              72.795312,
              18.987305
            ],
            [
              72.799414,
              18.991406
            ],
            [
              72.799414,
              18.992773
            ],
            [
              72.800781,
              18.994141
            ],
            [
              72.800781,
              18.996875
            ],
            [
              72.799414,
              18.996875
            ],
            [
              72.798047,
              18.998242
            ],
            [
              72.795312,
              18.998242
            ],
            [
              72.793945,
              18.996875
            ],
            [
              72.788477,
              18.996875
            ],
            [
              72.787109,
              18.998242
            ],
            [
              72.785742,
              18.998242
            ],
            [
              72.783008,
              19.000977
            ],
            [
              72.781641,
              19.000977
            ],
            [
              72.780273,
              19.002344
            ],
            [
              72.777539,
              19.002344
            ],
            [
              72.776172,
              19.003711
            ],
            [
              72.767969,
              19.003711
            ],
            [
              72.765234,
              19.000977
            ]
          ]
        ]
      }
    },
    {
      "type": "Feature",
      "properties": {
        "spill_id": "sentinel_25",
        "confidence": 0.85
      },
      "geometry": {
        "type": "Polygon",
        "coordinates": [
          [
            [
              72.588867,
              19.021484
            ],
            [
              72.588867,
              19.020117
            ],
            [
              72.590234,
              19.01875
            ],
            [
              72.590234,
              19.016016
            ],
            [
              72.591602,
              19.014648
            ],
            [
              72.594336,
              19.014648
            ],
            [
              72.595703,
              19.016016
            ],
            [
              72.59707,
              19.016016
            ],
            [
              72.598438,
              19.017383
            ],
            [
              72.598438,
              19.020117
            ],
            [
              72.59707,
              19.021484
            ],
            [
              72.595703,
              19.021484
            ],
            [
              72.594336,
              19.022852
            ],
            [
              72.590234,
              19.022852
            ],
            [
              72.588867,
              19.021484
            ]
          ]
        ]
      }
    },
    {
      "type": "Feature",
      "properties": {
        "spill_id": "sentinel_25",
        "confidence": 0.85
      },
      "geometry": {
        "type": "Polygon",
        "coordinates": [
          [
            [
              72.843164,
              19.02832
            ],
            [
              72.839062,
              19.02832
            ],
            [
              72.839062,
              19.024219
            ],
            [
              72.837695,
              19.022852
            ],
            [
              72.837695,
              19.020117
            ],
            [
              72.836328,
              19.01875
            ],
            [
              72.836328,
              19.014648
            ],
            [
              72.841797,
              19.014648
            ],
            [
              72.841797,
              19.016016
            ],
            [
              72.843164,
              19.017383
            ],
            [
              72.843164,
              19.020117
            ],
            [
              72.844531,
              19.021484
            ],
            [
              72.844531,
              19.025586
            ],
            [
              72.843164,
              19.026953
            ],
            [
              72.843164,
              19.02832
            ]
          ]
        ]
      }
    },
    {
      "type": "Feature",
      "properties": {
        "spill_id": "sentinel_25",
        "confidence": 0.85
      },
      "geometry": {
        "type": "Polygon",
        "coordinates": [
          [
            [
              72.632617,
              19.058398
            ],
            [
              72.63125,
              19.057031
            ],
            [
              72.63125,
              19.055664
            ],
            [
              72.629883,
              19.054297
            ],
            [
              72.629883,
              19.051562
            ],
            [
              72.636719,
              19.044727
            ],
            [
              72.639453,
              19.044727
            ],
            [
              72.642187,
              19.047461
            ],
            [
              72.642187,
              19.055664
            ],
            [
              72.64082,
              19.055664
            ],
            [
              72.639453,
              19.057031
            ],
            [
              72.636719,
              19.057031
            ],
            [
              72.635352,
              19.058398
            ],
            [
              72.632617,
              19.058398
            ]
          ]
        ]
      }
    },
    {
      "type": "Feature",
      "properties": {
        "spill_id": "sentinel_25",
        "confidence": 0.85
      },
      "geometry": {
        "type": "Polygon",
        "coordinates": [
          [
            [
              72.618945,
              19.055664
            ],
            [
              72.616211,
              19.058398
            ],
            [
              72.609375,
              19.059766
            ],
            [
              72.599805,
              19.067969
            ],
            [
              72.591602,
              19.061133
            ],
            [
              72.586133,
              19.059766
            ],
            [
              72.57793,
              19.054297
            ],
            [
              72.554688,
              19.054297
            ],
            [
              72.547852,
              19.051562
            ],
            [
              72.546484,
              19.048828
            ],
            [
              72.549219,
              19.043359
            ],
            [
              72.560156,
              19.039258
            ],
            [
              72.566992,
              19.033789
            ],
            [
              72.576562,
              19.033789
            ],
            [
              72.590234,
              19.046094
            ],
            [
              72.595703,
              19.046094
            ],
            [
              72.603906,
              19.041992
            ],
            [
              72.612109,
              19.041992
            ],
            [
              72.616211,
              19.046094
            ],
            [
              72.618945,
              19.055664
            ]
          ]
        ]
      }
    },
    {
      "type": "Feature",
      "properties": {
        "spill_id": "sentinel_25",
        "confidence": 0.85
      },
      "geometry": {
        "type": "Polygon",
        "coordinates": [
          [
            [
              72.776172,
              19.15
            ],
            [
              72.754297,
              19.148633
            ],
            [
              72.757031,
              19.114453
            ],
            [
              72.71875,
              19.081641
            ],
            [
              72.710547,
              19.055664
            ],
            [
              72.71875,
              19.017383
            ],
            [
              72.710547,
              19.002344
            ],
            [
              72.677734,
              18.999609
            ],
            [
              72.664062,
              18.987305
            ],
            [
              72.651758,
              18.991406
            ],
            [
              72.666797,
              19.007812
            ],
            [
              72.668164,
              19.046094
            ],
            [
              72.654492,
              19.035156
            ],
            [
              72.649023,
              19.014648
            ],
            [
              72.62168,
              18.994141
            ],
            [
              72.549219,
              19.003711
            ],
            [
              72.532812,
              18.988672
            ],
            [
              72.535547,
              18.980469
            ],
            [
              72.55332,
              18.981836
            ],
            [
              72.53418,
              18.950391
            ],
            [
              72.538281,
              18.918945
            ],
            [
              72.546484,
              18.92168
            ],
            [
              72.551953,
              18.947656
            ],
            [
              72.573828,
              18.962695
            ],
            [
              72.629883,
              18.962695
            ],
            [
              72.647656,
              18.972266
            ],
            [
              72.658594,
              18.959961
            ],
            [
              72.666797,
              18.969531
            ],
            [
              72.757031,
              18.999609
            ],
            [
              72.758398,
              19.011914
            ],
            [
              72.747461,
              19.006445
            ],
            [
              72.736523,
              19.013281
            ],
            [
              72.72832,
              19.036523
            ],
            [
              72.740625,
              19.054297
            ],
            [
              72.747461,
              19.043359
            ],
            [
              72.758398,
              19.048828
            ],
            [
              72.759766,
              19.076172
            ],
            [
              72.783008,
              19.111719
            ],
            [
              72.776172,
              19.15
            ]
          ]
        ]
      }
    },
    {
      "type": "Feature",
      "properties": {
        "spill_id": "sentinel_25",
        "confidence": 0.85
      },
      "geometry": {
        "type": "Polygon",
        "coordinates": [
          [
            [
              72.624414,
              19.15
            ],
            [
              72.624414,
              19.147266
            ],
            [
              72.623047,
              19.145898
            ],
            [
              72.623047,
              19.143164
            ],
            [
              72.624414,
              19.141797
            ],
            [
              72.624414,
              19.14043
            ],
            [
              72.625781,
              19.139062
            ],
            [
              72.625781,
              19.137695
            ],
            [
              72.627148,
              19.136328
            ],
            [
              72.627148,
              19.134961
            ],
            [
              72.629883,
              19.132227
            ],
            [
              72.629883,
              19.130859
            ],
            [
              72.63125,
              19.129492
            ],
            [
              72.636719,
              19.129492
            ],
            [
              72.638086,
              19.130859
            ],
            [
              72.638086,
              19.133594
            ],
            [
              72.639453,
              19.134961
            ],
            [
              72.639453,
              19.15
            ],
            [
              72.624414,
              19.15
            ]
          ]
        ]
      }
    }
  ]
}