{
  "type": "FeatureCollection",
  "features": [
    {
      "type": "Feature",
      "properties": {
        "spill_id": "sentinel_77",
        "confidence": 0.72
      },
      "geometry": {
        "type": "Polygon",
        "coordinates": [
          [
            [
              72.608008,
              18.831445
            ],
            [
              72.605273,
              18.828711
            ],
            [
              72.605273,
              18.825977
            ],
            [
              72.603906,
              18.824609
            ],
            [
              72.603906,
              18.820508
            ],
            [
              72.605273,
              18.819141
            ],
            [
              72.603906,
              18.815039
            ],
            [
              72.605273,
              18.813672
            ],
            [
              72.605273,
              18.810938
            ],
            [
              72.608008,
              18.806836
            ],
            [
              72.608008,
              18.804102
            ],
            [
              72.610742,
              18.801367
            ],
            [
              72.632617,
              18.801367
            ],
            [
              72.635352,
              18.805469
            ],
            [
              72.633984,
              18.806836
            ],
            [
              72.633984,
              18.80957
            ],
            [
              72.63125,
              18.812305
            ],
            [
              72.63125,
              18.813672
            ],
            [
              72.628516,
              18.817773
            ],
            [
              72.628516,
              18.821875
            ],
            [
              72.627148,
              18.823242
            ],
            [
              72.627148,
              18.830078
            ],
            [
              72.623047,
              18.832812
            ],
            [
              72.610742,
              18.832812
            ],
            [
              72.609375,
              18.831445
            ],
            [
              72.608008,
              18.831445
            ]
          ]
        ]
      }
    },
    {
      "type": "Feature",
      "properties": {
        "spill_id": "sentinel_77",
        "confidence": 0.72
      },
      "geometry": {
        "type": "Polygon",
        "coordinates": [
          [
            [
              72.5,
              18.845117
            ],
            [
              72.5,
              18.825977
            ],
            [
              72.501367,
              18.824609
            ],
            [
              72.508203,
              18.824609
            ],
            [
              72.510938,
              18.827344
            ],
            [
              72.510938,
              18.838281
            ],
            [
              72.508203,
              18.841016
            ],
            [
              72.506836,
              18.841016
            ],
            [
              72.505469,
              18.842383
            ],
            [
              72.504102,
              18.842383
            ],
            [
              72.502734,
              18.84375
            ],
            [
              72.501367,
              18.84375
            ],
            [
              72.5,
              18.845117
            ]
          ]
        ]
      }
    },
    {
      "type": "Feature",
      "properties": {
        "spill_id": "sentinel_77",
        "confidence": 0.72
      },
      "geometry": {
        "type": "Polygon",
        "coordinates": [
          [
            [
              72.783008,
              18.908008
            ],
            [
              72.777539,
              18.902539
            ],
            [
              72.776172,
              18.902539
            ],
            [
              72.776172,
              18.898438
            ],
            [
              72.777539,
              18.89707
            ],
            [
              72.777539,
              18.895703
            ],
            [
              72.780273,
              18.892969
            ],
            [
              72.781641,
              18.892969
            ],
            [
              72.783008,
              18.891602
            ],
            [
              72.789844,
              18.891602
            ],
            [
              72.789844,
              18.892969
            ],
            [
              72.791211,
              18.894336
            ],
            [
              72.791211,
              18.89707
            ],
            [
              72.792578,
              18.898438
            ],
            [
              72.792578,
              18.902539
            ],
            [
              72.789844,
              18.905273
            ],
            [
              72.789844,
              18.906641
            ],
            [
              72.788477,
              18.906641
            ],
            [
              72.787109,
              18.908008
            ],
            [
              72.783008,
              18.908008
            ]
          ]
        ]
      }
    },
    {
      "type": "Feature",
      "properties": {
        "spill_id": "sentinel_77",
        "confidence": 0.72
      },
      "geometry": {
        "type": "Polygon",
        "coordinates": [
          [
            [
              72.826758,
              18.972266
            ],
            [
              72.830859,
              18.972266
            ],
            [
              72.832227,
              18.970898
            ],
            [
              72.834961,
              18.970898
            ],
            [
              72.836328,
              18.969531
            ],
            [
              72.837695,
              18.969531
            ],
            [
              72.839062,
              18.968164
            ],
            [
              72.839062,
              18.966797
            ],
            [
              72.84043,
              18.966797
            ],
            [
              72.841797,
              18.96543
            ],
            [
              72.841797,
              18.964062
            ],
            [
              72.844531,
              18.961328
            ],
            [
              72.844531,
              18.959961
            ],
            [
              72.845898,
              18.958594
            ],
            [
              72.845898,
              18.957227
            ],
            [
              72.845898,
              18.959961
            ],
            [
              72.848633,
              18.962695
            ],
            [
              72.848633,
              18.975
            ],
            [
              72.847266,
              18.976367
            ],
            [
              72.84043,
              18.976367
            ],
            [
              72.839062,
              18.975
            ],
            [
              72.837695,
              18.975
            ],
            [
              72.834961,
              18.972266
            ],
            [
              72.832227,
              18.972266
            ],
            [
              72.830859,
              18.973633
            ],
            [
              72.828125,
              18.973633
            ],
            [
              72.826758,
              18.972266
            ]
          ]
        ]
      }
    },
    {
      "type": "Feature",
      "properties": {
        "spill_id": "sentinel_77",
        "confidence": 0.72
      },
      "geometry": {
        "type": "Polygon",
        "coordinates": [
          [
            [
              72.70918,
              18.976367
            ],
            [
              72.707812,
              18.972266
            ],
            [
              72.70918,
              18.961328
            ],
            [
              72.714648,
              18.955859
            ],
            [
              72.724219,
              18.950391
            ],
            [
              72.735156,
              18.938086
            ],
            [
              72.735156,
              18.935352
            ],
            [
              72.767969,
              18.933984
            ],
            [
              72.773438,
              18.938086
            ],
            [
              72.773438,
              18.942188
            ],
            [
              72.769336,
              18.946289
            ],
            [
              72.769336,
              18.953125
            ],
            [
              72.766602,
              18.959961
            ],
            [
              72.758398,
              18.962695
            ],
            [
              72.750195,
              18.970898
            ],
            [
              72.746094,
              18.972266
            ],
            [
              72.737891,
              18.979102
            ],
            [
              72.731055,
              18.981836
            ],
            [
              72.720117,
              18.983203
            ],
            [
              72.71875,
              18.981836
            ],
            [
              72.714648,
              18.981836
            ],
            [
              72.70918,
              18.976367
            ]
          ]
        ]
      }
    },
    {
      "type": "Feature",
      "properties": {
        "spill_id": "sentinel_77",
        "confidence": 0.72
      },
      "geometry": {
        "type": "Polygon",
        "coordinates": [
          [
            [
              72.624414,
              18.985938
            ],
            [
              72.624414,
              18.983203
            ],
            [
              72.627148,
              18.977734
            ],
            [
              72.629883,
              18.975
            ],
            [
              72.632617,
              18.969531
            ],
            [
              72.636719,
              18.966797
            ],
            [
              72.636719,
              18.962695
            ],
            [
              72.639453,
              18.959961
            ],
            [
              72.642187,
              18.958594
            ],
            [
              72.654492,
              18.958594
            ],
            [
              72.658594,
              18.955859
            ],
            [
              72.672266,
              18.955859
            ],
            [
              72.675,
              18.957227
            ],
            [
              72.675,
              18.961328
            ],
            [
              72.677734,
              18.964062
            ],
            [
              72.677734,
              18.970898
            ],
            [
              72.675,
              18.973633
            ],
            [
              72.672266,
              18.975
            ],
            [
              72.668164,
              18.975
            ],
            [
              72.664062,
              18.977734
            ],
            [
              72.659961,
              18.977734
            ],
            [
              72.655859,
              18.980469
            ],
            [
              72.653125,
              18.980469
            ],
            [
              72.650391,
              18.983203
            ],
            [
              72.646289,
              18.98457
            ],
            [
              72.644922,
              18.987305
            ],
            [
              72.642187,
              18.987305
            ],
            [
              72.64082,
              18.988672
            ],
            [
              72.632617,
              18.988672
            ],
            [
              72.63125,
              18.990039
            ],
            [
              72.628516,
              18.990039
            ],
            [
              72.624414,
              18.985938
            ]
          ]
        ]
      }
    },
    {
      "type": "Feature",
      "properties": {
        "spill_id": "sentinel_77",
        "confidence": 0.72
      },
      "geometry": {
        "type": "Polygon",
        "coordinates": [
          [
            [
              72.564258,
              19.000977
            ],
            [
              72.564258,
              18.998242
            ],
            [
              72.562891,
              18.996875
            ],
            [
              72.562891,
              18.994141
            ],
            [
              72.565625,
              18.991406
            ],
            [
              72.566992,
              18.991406
            ],
            [
              72.568359,
              18.990039
            ],
            [
              72.573828,
              18.990039
            ],
            [
              72.575195,
              18.991406
            ],
            [
              72.576562,
              18.991406
            ],
            [
              72.576562,
              18.995508
            ],
            [
              72.575195,
              18.996875
            ],
            [
              72.575195,
              18.998242
            ],
            [
              72.573828,
              18.999609
            ],
            [
              72.572461,
              18.999609
            ],
            [
              72.571094,
              19.000977
            ],
            [
              72.566992,
              19.000977
            ],
            [
              72.565625,
              19.002344
            ],
            [
              72.564258,
              19.000977
            ]
          ]
        ]
      }
    },
    {
      "type": "Feature",
      "properties": {
        "spill_id": "sentinel_77",
        "confidence": 0.72
      },
      "geometry": {
        "type": "Polygon",
        "coordinates": [
          [
            [
              72.57793,
              19.026953
            ],
            [
              72.57793,
              19.024219
            ],
            [
              72.576562,
              19.022852
            ],
            [
              72.576562,
              19.016016
            ],
            [
              72.57793,
              19.014648
            ],
            [
              72.57793,
              19.007812
            ],
            [
              72.580664,
              19.005078
            ],
            [
              72.582031,
              19.005078
            ],
            [
              72.583398,
              19.003711
            ],
            [
              72.588867,
              19.003711
            ],
            [
              72.590234,
              19.005078
            ],
            [
              72.591602,
              19.005078
            ],
            [
              72.592969,
              19.006445
            ],
            [
              72.594336,
              19.006445
            ],
            [
              72.601172,
              19.013281
            ],
            [
              72.601172,
              19.014648
            ],
            [
              72.599805,
              19.016016
            ],
            [
              72.599805,
              19.017383
            ],
            [
              72.598438,
              19.01875
            ],
            [
              72.598438,
              19.020117
            ],
            [
              72.594336,
              19.024219
            ],
            [
              72.592969,
              19.024219
            ],
            [
              72.591602,
              19.025586
            ],
            [
              72.588867,
              19.025586
            ],
            [
              72.5875,
              19.026953
            ],
            [
              72.57793,
              19.026953
            ]
          ]
        ]
      }
    },
    {
      "type": "Feature",
      "properties": {
        "spill_id": "sentinel_77",
        "confidence": 0.72
      },
      "geometry": {
        "type": "Polygon",
        "coordinates": [
          [
            [
              72.75293,
              19.092578
            ],
            [
              72.75293,
              19.088477
            ],
            [
              72.758398,
              19.083008
            ],
            [
              72.759766,
              19.083008
            ],
            [
              72.761133,
              19.081641
            ],
            [
              72.761133,
              19.080273
            ],
            [
              72.763867,
              19.077539
            ],
            [
              72.765234,
              19.077539
            ],
            [
              72.77207,
              19.073438
            ],
            [
              72.776172,
              19.073438
            ],
            [
              72.777539,
              19.07207
            ],
            [
              72.784375,
              19.07207
            ],
            [
              72.785742,
              19.073438
            ],
            [
              72.787109,
              19.073438
            ],
            [
              72.787109,
              19.074805
            ],
            [
              72.788477,
              19.076172
            ],
            [
              72.787109,
              19.077539
            ],
            [
              72.787109,
              19.078906
            ],
            [
              72.783008,
              19.083008
            ],
            [
              72.781641,
              19.083008
            ],
            [
              72.778906,
              19.085742
            ],
            [
              72.777539,
              19.085742
            ],
            [
              72.770703,
              19.091211
            ],
            [
              72.769336,
              19.091211
            ],
            [
              72.7625,
              19.095312
            ],
            [
              72.755664,
              19.095312
            ],
            [
              72.75293,
              19.092578
            ]
          ]
        ]
      }
    },
    {
      "type": "Feature",
      "properties": {
        "spill_id": "sentinel_77",
        "confidence": 0.72
      },
      "geometry": {
        "type": "Polygon",
        "coordinates": [
          [
            [
              72.5,
              19.067969
            ],
            [
              72.501367,
              19.070703
            ],
            [
              72.5,
              19.07207
            ],
            [
              72.504102,
              19.073438
            ],
            [
              72.505469,
              19.069336
            ],
            [
              72.520508,
              19.063867
            ],
            [
              72.532812,
              19.065234
            ],
            [
              72.532812,
              19.074805
            ],
            [
              72.535547,
              19.080273
            ],
            [
              72.545117,
              19.087109
            ],
            [
              72.560156,
              19.088477
            ],
            [
              72.562891,
              19.092578
            ],
            [
              72.562891,
              19.099414
            ],
            [
              72.532812,
              19.098047
            ],
            [
              72.525977,
              19.102148
            ],
            [
              72.50957,
              19.10625
            ],
            [
              72.505469,
              19.110352
            ],
            [
              72.5,
              19.111719
            ],
            [
              72.5,
              19.088477
            ],
            [
              72.506836,
              19.083008
            ],
            [
              72.506836,
              19.078906
            ],
            [
              72.501367,
              19.073438
            ],
            [
              72.5,
              19.074805
            ],
            [
              72.5,
              19.067969
            ]
          ]
        ]
      }
    }
  ]
}