{
  "type": "FeatureCollection",
  "features": [
    {
      "type": "Feature",
      "properties": {
        "spill_id": "sentinel_513",
        "confidence": 0.83
      },
      "geometry": {
        "type": "Polygon",
        "coordinates": [
          [
            [
              72.542383,
              18.823242
            ],
            [
              72.541016,
              18.821875
            ],
            [
              72.541016,
              18.813672
            ],
            [
              72.54375,
              18.810938
            ],
            [
              72.54375,
              18.80957
            ],
            [
              72.545117,
              18.80957
            ],
            [
              72.546484,
              18.808203
            ],
            [
              72.547852,
              18.808203
            ],
            [
              72.549219,
              18.80957
            ],
            [
              72.549219,
              18.810938
            ],
            [
              72.550586,
              18.812305
            ],
            [
              72.550586,
              18.816406
            ],
            [
              72.549219,
              18.817773
            ],
            [
              72.549219,
              18.819141
            ],
            [
              72.545117,
              18.823242
            ],
            [
              72.542383,
              18.823242
            ]
          ]
        ]
      }
    },
    {
      "type": "Feature",
      "properties": {
        "spill_id": "sentinel_513",
        "confidence": 0.83
      },
      "geometry": {
        "type": "Polygon",
        "coordinates": [
          [
            [
              72.572461,
              18.83418
            ],
            [
              72.571094,
              18.832812
            ],
            [
              72.571094,
              18.831445
            ],
            [
              72.572461,
              18.830078
            ],
            [
              72.572461,
              18.827344
            ],
            [
              72.575195,
              18.824609
            ],
            [
              72.580664,
              18.824609
            ],
            [
              72.582031,
              18.825977
            ],
            [
              72.582031,
              18.830078
            ],
            [
              72.579297,
              18.832812
            ],
            [
              72.57793,
              18.832812
            ],
            [
              72.576562,
              18.83418
            ],
            [
              72.572461,
              18.83418
            ]
          ]
        ]
      }
    },
    {
      "type": "Feature",
      "properties": {
        "spill_id": "sentinel_513",
        "confidence": 0.83
      },
      "geometry": {
        "type": "Polygon",
        "coordinates": [
          [
            [
              72.646289,
              18.835547
            ],
            [
              72.649023,
              18.831445
            ],
            [
              72.655859,
              18.831445
            ],
            [
              72.657227,
              18.830078
            ],
            [
              72.658594,
              18.831445
            ],
            [
              72.659961,
              18.830078
            ],
            [
              72.673633,
              18.830078
            ],
            [
              72.675,
              18.831445
            ],
            [
              72.675,
              18.836914
            ],
            [
              72.673633,
              18.838281
            ],
            [
              72.672266,
              18.838281
            ],
            [
              72.668164,
              18.842383
            ],
            [
              72.666797,
              18.842383
            ],
            [
              72.66543,
              18.84375
            ],
            [
              72.662695,
              18.84375
            ],
            [
              72.661328,
              18.845117
            ],
            [
              72.655859,
              18.845117
            ],
            [
              72.654492,
              18.84375
            ],
            [
              72.653125,
              18.84375
            ],
            [
              72.650391,
              18.841016
            ],
            [
              72.649023,
              18.841016
            ],
            [
              72.647656,
              18.839648
            ],
            [
              72.647656,
              18.836914
            ],
            [
              72.646289,
              18.835547
            ]
          ]
        ]
      }
    },
    {
      "type": "Feature",
      "properties": {
        "spill_id": "sentinel_513",
        "confidence": 0.83
      },
      "geometry": {
        "type": "Polygon",
        "coordinates": [
          [
            [
              72.628516,
              18.942188
            ],
            [
              72.627148,
              18.935352
            ],
            [
              72.636719,
              18.914844
            ],
            [
              72.644922,
              18.910742
            ],
            [
              72.679102,
              18.910742
            ],
            [
              72.692773,
              18.895703
            ],
            [
              72.716016,
              18.856055
            ],
            [
              72.711914,
              18.847852
            ],
            [
              72.700977,
              18.847852
            ],
            [
              72.702344,
              18.836914
            ],
            [
              72.722852,
              18.812305
            ],
            [
              72.731055,
              18.80957
            ],
            [
              72.733789,
              18.820508
            ],
            [
              72.739258,
              18.823242
            ],
            [
              72.754297,
              18.801367
            ],
            [
              72.7625,
              18.801367
            ],
            [
              72.763867,
              18.806836
            ],
            [
              72.751562,
              18.828711
            ],
            [
              72.755664,
              18.84375
            ],
            [
              72.743359,
              18.842383
            ],
            [
              72.737891,
              18.847852
            ],
            [
              72.737891,
              18.860156
            ],
            [
              72.72832,
              18.880664
            ],
            [
              72.707812,
              18.906641
            ],
            [
              72.707812,
              18.913477
            ],
            [
              72.725586,
              18.927148
            ],
            [
              72.725586,
              18.932617
            ],
            [
              72.690039,
              18.959961
            ],
            [
              72.685938,
              18.959961
            ],
            [
              72.672266,
              18.938086
            ],
            [
              72.659961,
              18.942188
            ],
            [
              72.628516,
              18.942188
            ]
          ]
        ]
      }
    },
    {
      "type": "Feature",
      "properties": {
        "spill_id": "sentinel_513",
        "confidence": 0.83
      },
      "geometry": {
        "type": "Polygon",
        "coordinates": [
          [
            [
              72.751562,
              19.025586
            ],
            [
              72.746094,
              19.021484
            ],
            [
              72.746094,
              19.013281
            ],
            [
              72.740625,
              18.994141
            ],
            [
              72.740625,
              18.975
            ],
            [
              72.737891,
              18.968164
            ],
            [
              72.736523,
              18.949023
            ],
            [
              72.744727,
              18.939453
            ],
            [
              72.744727,
              18.92168
            ],
            [
              72.747461,
              18.918945
            ],
            [
              72.757031,
              18.918945
            ],
            [
              72.770703,
              18.913477
            ],
            [
              72.776172,
              18.916211
            ],
            [
              72.777539,
              18.925781
            ],
            [
              72.75293,
              18.955859
            ],
            [
              72.757031,
              18.976367
            ],
            [
              72.755664,
              18.992773
            ],
            [
              72.761133,
              19.00918
            ],
            [
              72.761133,
              19.021484
            ],
            [
              72.755664,
              19.025586
            ],
            [
              72.751562,
              19.025586
            ]
          ]
        ]
      }
    },
    {
      "type": "Feature",
      "properties": {
        "spill_id": "sentinel_513",
        "confidence": 0.83
      },
      "geometry": {
        "type": "Polygon",
        "coordinates": [
          [
            [
              72.746094,
              19.077539
            ],
            [
              72.746094,
              19.073438
            ],
            [
              72.750195,
              19.067969
            ],
            [
              72.751562,
              19.063867
            ],
            [
              72.758398,
              19.055664
            ],
            [
              72.758398,
              19.054297
            ],
            [
              72.7625,
              19.050195
            ],
            [
              72.7625,
              19.048828
            ],
            [
              72.766602,
              19.044727
            ],
            [
              72.767969,
              19.044727
            ],
            [
              72.770703,
              19.041992
            ],
            [
              72.773438,
              19.041992
            ],
            [
              72.774805,
              19.040625
            ],
            [
              72.777539,
              19.040625
            ],
            [
              72.778906,
              19.041992
            ],
            [
              72.781641,
              19.041992
            ],
            [
              72.783008,
              19.043359
            ],
            [
              72.783008,
              19.048828
            ],
            [
              72.781641,
              19.050195
            ],
            [
              72.781641,
              19.051562
            ],
            [
              72.77207,
              19.061133
            ],
            [
              72.770703,
              19.061133
            ],
            [
              72.766602,
              19.065234
            ],
            [
              72.765234,
              19.065234
            ],
            [
              72.755664,
              19.074805
            ],
            [
              72.754297,
              19.074805
            ],
            [
              72.750195,
              19.077539
            ],
            [
              72.746094,
              19.077539
            ]
          ]
        ]
      }
    },
    {
      "type": "Feature",
      "properties": {
        "spill_id": "sentinel_513",
        "confidence": 0.83
      },
      "geometry": {
        "type": "Polygon",
        "coordinates": [
          [
            [
              72.837695,
              19.093945
            ],
            [
              72.836328,
              19.092578
            ],
            [
              72.836328,
              19.087109
            ],
            [
              72.834961,
              19.085742
            ],
            [
              72.834961,
              19.074805
            ],
            [
              72.837695,
              19.07207
            ],
            [
              72.839062,
              19.07207
            ],
            [
              72.84043,
              19.070703
            ],
            [
              72.848633,
              19.070703
            ],
            [
              72.848633,
              19.091211
            ],
            [
              72.847266,
              19.091211
            ],
            [
              72.845898,
              19.092578
            ],
            [
              72.844531,
              19.092578
            ],
            [
              72.843164,
              19.093945
            ],
            [
              72.837695,
              19.093945
            ]
          ]
        ]
      }
    },
    {
      "type": "Feature",
      "properties": {
        "spill_id": "sentinel_513",
        "confidence": 0.83
      },
      "geometry": {
        "type": "Polygon",
        "coordinates": [
          [
            [
              72.683203,
              19.128125
            ],
            [
              72.683203,
              19.124023
            ],
            [
              72.68457,
              19.122656
            ],
            [
              72.68457,
              19.119922
            ],
            [
              72.692773,
              19.111719
            ],
            [
              72.696875,
              19.103516
            ],
            [
              72.698242,
              19.103516
            ],
            [
              72.703711,
              19.099414
            ],
            [
              72.706445,
              19.099414
            ],
            [
              72.707812,
              19.098047
            ],
            [
              72.710547,
              19.098047
            ],
            [
              72.716016,
              19.095312
            ],
            [
              72.720117,
              19.095312
            ],
            [
              72.721484,
              19.093945
            ],
            [
              72.725586,
              19.093945
            ],
            [
              72.72832,
              19.09668
            ],
            [
              72.72832,
              19.099414
            ],
            [
              72.725586,
              19.102148
            ],
            [
              72.721484,
              19.110352
            ],
            [
              72.711914,
              19.118555
            ],
            [
              72.706445,
              19.121289
            ],
            [
              72.703711,
              19.121289
            ],
            [
              72.700977,
              19.124023
            ],
            [
              72.690039,
              19.129492
            ],
            [
              72.685938,
              19.129492
            ],
            [
              72.683203,
              19.128125
            ]
          ]
        ]
      }
    },
    {
      "type": "Feature",
      "properties": {
        "spill_id": "sentinel_513",
        "confidence": 0.83
      },
      "geometry": {
        "type": "Polygon",
        "coordinates": [
          [
            [
              72.776172,
              19.134961
            ],
            [
              72.777539,
              19.134961
            ],
            [
              72.778906,
              19.132227
            ],
            [
              72.781641,
              19.130859
            ],
            [
              72.783008,
              19.126758
            ],
            [
              72.785742,
              19.124023
            ],
            [
              72.788477,
              19.118555
            ],
            [
              72.793945,
              19.11582
            ],
            [
              72.802148,
              19.11582
            ],
            [
              72.807617,
              19.113086
            ],
            [
              72.813086,
              19.113086
            ],
            [
              72.818555,
              19.117188
            ],
            [
              72.819922,
              19.117188
            ],
            [
              72.824023,
              19.122656
            ],
            [
              72.824023,
              19.125391
            ],
            [
              72.822656,
              19.128125
            ],
            [
              72.821289,
              19.128125
            ],
            [
              72.818555,
              19.130859
            ],
            [
              72.81582,
              19.130859
            ],
            [
              72.810352,
              19.133594
            ],
            [
              72.803516,
              19.133594
            ],
            [
              72.802148,
              19.134961
            ],
            [
              72.792578,
              19.134961
            ],
            [
              72.791211,
              19.133594
            ],
            [
              72.787109,
              19.133594
            ],
            [
              72.785742,
              19.134961
            ],
            [
              72.781641,
              19.134961
            ],
            [
              72.780273,
              19.136328
            ],
            [
              72.777539,
              19.136328
            ],
            [
              72.776172,
              19.134961
            ]
          ]
        ]
      }
    },
    {
      "type": "Feature",
      "properties": {
        "spill_id": "sentinel_513",
        "confidence": 0.83
      },
      "geometry": {
        "type": "Polygon",
        "coordinates": [
          [
            [
              72.618945,
              19.125391
            ],
            [
              72.592969,
              19.15
            ],
            [
              72.5875,
              19.15
            ],
            [
              72.583398,
              19.144531
            ],
            [
              72.57793,
              19.144531
            ],
            [
              72.573828,
              19.15
            ],
            [
              72.560156,
              19.15
            ],
            [
              72.554688,
              19.133594
            ],
            [
              72.554688,
              19.118555
            ],
            [
              72.545117,
              19.108984
            ],
            [
              72.535547,
              19.104883
            ],
            [
              72.525977,
              19.104883
            ],
            [
              72.506836,
              19.089844
            ],
            [
              72.506836,
              19.0625
            ],
            [
              72.517773,
              19.05293
            ],
            [
              72.524609,
              19.055664
            ],
            [
              72.524609,
              19.063867
            ],
            [
              72.520508,
              19.07207
            ],
            [
              72.521875,
              19.084375
            ],
            [
              72.525977,
              19.088477
            ],
            [
              72.556055,
              19.098047
            ],
            [
              72.560156,
              19.102148
            ],
            [
              72.558789,
              19.113086
            ],
            [
              72.571094,
              19.128125
            ],
            [
              72.576562,
              19.129492
            ],
            [
              72.620312,
              19.119922
            ],
            [
              72.618945,
              19.125391
            ]
          ]
        ]
      }
    }
  ]
}