{
  "type": "FeatureCollection",
  "features": [
    {
      "type": "Feature",
      "properties": {
        "spill_id": "sentinel_817",
        "confidence": 0.8
      },
      "geometry": {
        "type": "Polygon",
        "coordinates": [
          [
            [
              72.848633,
              19.007812
            ],
            [
              72.847266,
              19.007812
            ],
            [
              72.845898,
              19.00918
            ],
            [
              72.844531,
              19.00918
            ],
            [
              72.843164,
              19.007812
            ],
            [
              72.841797,
              19.007812
            ],
            [
              72.84043,
              19.006445
            ],
            [
              72.839062,
              19.006445
            ],
            [
              72.834961,
              19.002344
            ],
            [
              72.833594,
              19.002344
            ],
            [
              72.832227,
              19.000977
            ],
            [
              72.829492,
              19.000977
            ],
            [
              72.828125,
              18.999609
            ],
            [
              72.826758,
              18.999609
            ],
            [
              72.826758,
              18.998242
            ],
            [
              72.825391,
              18.996875
            ],
            [
              72.829492,
              18.994141
            ],
            [
              72.829492,
              18.991406
            ],
            [
              72.832227,
              18.987305
            ],
            [
              72.833594,
              18.988672
            ],
            [
              72.836328,
              18.988672
            ],
            [
              72.837695,
              18.990039
            ],
            [
              72.84043,
              18.990039
            ],
            [
              72.841797,
              18.988672
            ],
            [
              72.841797,
              18.987305
            ],
            [
              72.844531,
              18.987305
            ],
            [
              72.844531,
              18.988672
            ],
            [
              72.845898,
              18.990039
            ],
            [
              72.845898,
              18.991406
            ],
            [
              72.848633,
              18.994141
            ],
            [
              72.848633,
              19.007812
            ]
          ]
        ]
      }
    },
    {
      "type": "Feature",
      "properties": {
        "spill_id": "sentinel_817",
        "confidence": 0.8
      },
      "geometry": {
        "type": "Polygon",
        "coordinates": [
          [
            [
              72.818555,
              19.085742
            ],
            [
              72.813086,
              19.077539
            ],
            [
              72.81582,
              19.073438
            ],
            [
              72.81582,
              19.070703
            ],
            [
              72.818555,
              19.067969
            ],
            [
              72.822656,
              19.067969
            ],
            [
              72.828125,
              19.065234
            ],
            [
              72.832227,
              19.065234
            ],
            [
              72.834961,
              19.061133
            ],
            [
              72.837695,
              19.050195
            ],
            [
              72.844531,
              19.043359
            ],
            [
              72.848633,
              19.043359
            ],
            [
              72.848633,
              19.070703
            ],
            [
              72.845898,
              19.073438
            ],
            [
              72.845898,
              19.076172
            ],
            [
              72.848633,
              19.078906
            ],
            [
              72.848633,
              19.092578
            ],
            [
              72.84043,
              19.091211
            ],
            [
              72.834961,
              19.085742
            ],
            [
              72.829492,
              19.085742
            ],
            [
              72.828125,
              19.087109
            ],
            [
              72.821289,
              19.087109
            ],
            [
              72.818555,
              19.085742
            ]
          ]
        ]
      }
    },
    {
      "type": "Feature",
      "properties": {
        "spill_id": "sentinel_817",
        "confidence": 0.8
      },
      "geometry": {
        "type": "Polygon",
        "coordinates": [
          [
            [
              72.646289,
              19.15
            ],
            [
              72.642187,
              19.133594
            ],
            [
              72.605273,
              19.108984
            ],
            [
              72.666797,
              19.104883
            ],
            [
              72.666797,
              19.02832
            ],
            [
              72.692773,
              19.010547
            ],
            [
              72.705078,
              18.977734
            ],
            [
              72.725586,
              18.957227
            ],
            [
              72.731055,
              18.93125
            ],
            [
              72.75293,
              18.913477
            ],
            [
              72.758398,
              18.89707
            ],
            [
              72.787109,
              18.875195
            ],
            [
              72.800781,
              18.875195
            ],
            [
              72.807617,
              18.891602
            ],
            [
              72.781641,
              18.917578
            ],
            [
              72.784375,
              18.946289
            ],
            [
              72.769336,
              18.955859
            ],
            [
              72.766602,
              18.990039
            ],
            [
              72.735156,
              19.00918
            ],
            [
              72.763867,
              19.043359
            ],
            [
              72.766602,
              19.069336
            ],
            [
              72.754297,
              19.077539
            ],
            [
              72.784375,
              19.099414
            ],
            [
              72.788477,
              19.117188
            ],
            [
              72.751562,
              19.114453
            ],
            [
              72.75293,
              19.073438
            ],
            [
              72.724219,
              19.0625
            ],
            [
              72.702344,
              19.084375
            ],
            [
              72.711914,
              19.09668
            ],
            [
              72.741992,
              19.10625
            ],
            [
              72.747461,
              19.129492
            ],
            [
              72.726953,
              19.133594
            ],
            [
              72.705078,
              19.118555
            ],
            [
              72.696875,
              19.126758
            ],
            [
              72.702344,
              19.15
            ],
            [
              72.646289,
              19.15
            ]
          ]
        ]
      }
    }
  ]
}