{
  "type": "FeatureCollection",
  "features": [
    {
      "type": "Feature",
      "properties": {
        "spill_id": "sentinel_521",
        "confidence": 0.76
      },
      "geometry": {
        "type": "Polygon",
        "coordinates": [
          [
            [
              72.550586,
              18.860156
            ],
            [
              72.541016,
              18.858789
            ],
            [
              72.539648,
              18.860156
            ],
            [
              72.528711,
              18.860156
            ],
            [
              72.527344,
              18.861523
            ],
            [
              72.521875,
              18.857422
            ],
            [
              72.517773,
              18.857422
            ],
            [
              72.516406,
              18.856055
            ],
            [
              72.506836,
              18.860156
            ],
            [
              72.5,
              18.860156
            ],
            [
              72.5,
              18.827344
            ],
            [
              72.504102,
              18.824609
            ],
            [
              72.513672,
              18.824609
            ],
            [
              72.521875,
              18.832812
            ],
            [
              72.538281,
              18.84375
            ],
            [
              72.54375,
              18.849219
            ],
            [
              72.54375,
              18.850586
            ],
            [
              72.549219,
              18.854688
            ],
            [
              72.550586,
              18.860156
            ]
          ]
        ]
      }
    },
    {
      "type": "Feature",
      "properties": {
        "spill_id": "sentinel_521",
        "confidence": 0.76
      },
      "geometry": {
        "type": "Polygon",
        "coordinates": [
          [
            [
              72.848633,
              18.865625
            ],
            [
              72.837695,
              18.862891
            ],
            [
              72.828125,
              18.856055
            ],
            [
              72.822656,
              18.845117
            ],
            [
              72.810352,
              18.83418
            ],
            [
              72.807617,
              18.827344
            ],
            [
              72.789844,
              18.805469
            ],
            [
              72.791211,
              18.801367
            ],
            [
              72.836328,
              18.801367
            ],
            [
              72.837695,
              18.802734
            ],
            [
              72.839062,
              18.812305
            ],
            [
              72.84043,
              18.813672
            ],
            [
              72.841797,
              18.812305
            ],
            [
              72.843164,
              18.815039
            ],
            [
              72.848633,
              18.817773
            ],
            [
              72.848633,
              18.83418
            ],
            [
              72.844531,
              18.838281
            ],
            [
              72.845898,
              18.842383
            ],
            [
              72.848633,
              18.84375
            ],
            [
              72.848633,
              18.865625
            ]
          ]
        ]
      }
    },
    {
      "type": "Feature",
      "properties": {
        "spill_id": "sentinel_521",
        "confidence": 0.76
      },
      "geometry": {
        "type": "Polygon",
        "coordinates": [
          [
            [
              72.5,
              18.902539
            ],
            [
              72.5,
              18.87793
            ],
            [
              72.501367,
              18.87793
            ],
            [
              72.502734,
              18.879297
            ],
            [
              72.506836,
              18.879297
            ],
            [
              72.506836,
              18.880664
            ],
            [
              72.508203,
              18.882031
            ],
            [
              72.508203,
              18.883398
            ],
            [
              72.510938,
              18.886133
            ],
            [
              72.510938,
              18.890234
            ],
            [
              72.512305,
              18.891602
            ],
            [
              72.512305,
              18.894336
            ],
            [
              72.510938,
              18.895703
            ],
            [
              72.510938,
              18.898438
            ],
            [
              72.50957,
              18.899805
            ],
            [
              72.504102,
              18.899805
            ],
            [
              72.502734,
              18.901172
            ],
            [
              72.501367,
              18.901172
            ],
            [
              72.5,
              18.902539
            ]
          ]
        ]
      }
    },
    {
      "type": "Feature",
      "properties": {
        "spill_id": "sentinel_521",
        "confidence": 0.76
      },
      "geometry": {
        "type": "Polygon",
        "coordinates": [
          [
            [
              72.602539,
              18.932617
            ],
            [
              72.590234,
              18.93125
            ],
            [
              72.586133,
              18.925781
            ],
            [
              72.5875,
              18.918945
            ],
            [
              72.586133,
              18.899805
            ],
            [
              72.580664,
              18.892969
            ],
            [
              72.579297,
              18.8875
            ],
            [
              72.564258,
              18.875195
            ],
            [
              72.557422,
              18.860156
            ],
            [
              72.564258,
              18.85332
            ],
            [
              72.568359,
              18.85332
            ],
            [
              72.576562,
              18.857422
            ],
            [
              72.584766,
              18.857422
            ],
            [
              72.606641,
              18.87793
            ],
            [
              72.620312,
              18.876562
            ],
            [
              72.625781,
              18.890234
            ],
            [
              72.627148,
              18.906641
            ],
            [
              72.609375,
              18.910742
            ],
            [
              72.603906,
              18.916211
            ],
            [
              72.602539,
              18.932617
            ]
          ]
        ]
      }
    },
    {
      "type": "Feature",
      "properties": {
        "spill_id": "sentinel_521",
        "confidence": 0.76
      },
      "geometry": {
        "type": "Polygon",
        "coordinates": [
          [
            [
              72.732422,
              19.047461
            ],
            [
              72.731055,
              19.046094
            ],
            [
              72.729688,
              19.047461
            ],
            [
              72.71875,
              19.047461
            ],
            [
              72.717383,
              19.046094
            ],
            [
              72.713281,
              19.046094
            ],
            [
              72.710547,
              19.043359
            ],
            [
              72.707812,
              19.029687
            ],
            [
              72.703711,
              19.022852
            ],
            [
              72.703711,
              19.020117
            ],
            [
              72.698242,
              19.014648
            ],
            [
              72.698242,
              19.007812
            ],
            [
              72.696875,
              19.006445
            ],
            [
              72.698242,
              18.994141
            ],
            [
              72.702344,
              18.994141
            ],
            [
              72.70918,
              18.996875
            ],
            [
              72.713281,
              19.000977
            ],
            [
              72.726953,
              19.006445
            ],
            [
              72.729688,
              19.010547
            ],
            [
              72.729688,
              19.016016
            ],
            [
              72.726953,
              19.017383
            ],
            [
              72.726953,
              19.020117
            ],
            [
              72.729688,
              19.021484
            ],
            [
              72.732422,
              19.025586
            ],
            [
              72.732422,
              19.032422
            ],
            [
              72.733789,
              19.033789
            ],
            [
              72.733789,
              19.040625
            ],
            [
              72.735156,
              19.041992
            ],
            [
              72.732422,
              19.047461
            ]
          ]
        ]
      }
    },
    {
      "type": "Feature",
      "properties": {
        "spill_id": "sentinel_521",
        "confidence": 0.76
      },
      "geometry": {
        "type": "Polygon",
        "coordinates": [
          [
            [
              72.75293,
              19.144531
            ],
            [
              72.750195,
              19.144531
            ],
            [
              72.747461,
              19.141797
            ],
            [
              72.744727,
              19.141797
            ],
            [
              72.737891,
              19.137695
            ],
            [
              72.731055,
              19.136328
            ],
            [
              72.726953,
              19.132227
            ],
            [
              72.724219,
              19.125391
            ],
            [
              72.711914,
              19.114453
            ],
            [
              72.702344,
              19.095312
            ],
            [
              72.702344,
              19.085742
            ],
            [
              72.710547,
              19.076172
            ],
            [
              72.720117,
              19.076172
            ],
            [
              72.724219,
              19.078906
            ],
            [
              72.731055,
              19.080273
            ],
            [
              72.733789,
              19.083008
            ],
            [
              72.744727,
              19.103516
            ],
            [
              72.746094,
              19.108984
            ],
            [
              72.754297,
              19.119922
            ],
            [
              72.754297,
              19.129492
            ],
            [
              72.75293,
              19.132227
            ],
            [
              72.755664,
              19.141797
            ],
            [
              72.75293,
              19.144531
            ]
          ]
        ]
      }
    },
    {
      "type": "Feature",
      "properties": {
        "spill_id": "sentinel_521",
        "confidence": 0.76
      },
      "geometry": {
        "type": "Polygon",
        "coordinates": [
          [
            [
              72.616211,
              19.15
            ],
            [
              72.59707,
              19.15
            ],
            [
              72.59707,
              19.147266
            ],
            [
              72.595703,
              19.145898
            ],
            [
              72.595703,
              19.144531
            ],
            [
              72.594336,
              19.143164
            ],
            [
              72.594336,
              19.141797
            ],
            [
              72.592969,
              19.14043
            ],
            [
              72.592969,
              19.139062
            ],
            [
              72.586133,
              19.126758
            ],
            [
              72.586133,
              19.119922
            ],
            [
              72.5875,
              19.118555
            ],
            [
              72.592969,
              19.118555
            ],
            [
              72.594336,
              19.119922
            ],
            [
              72.598438,
              19.119922
            ],
            [
              72.599805,
              19.121289
            ],
            [
              72.601172,
              19.121289
            ],
            [
              72.614844,
              19.134961
            ],
            [
              72.614844,
              19.136328
            ],
            [
              72.617578,
              19.139062
            ],
            [
              72.617578,
              19.147266
            ],
            [
              72.616211,
              19.148633
            ],
            [
              72.616211,
              19.15
            ]
          ]
        ]
      }
    }
  ]
}