{
  "type": "FeatureCollection",
  "features": [
    {
      "type": "Feature",
      "properties": {
        "spill_id": "sentinel_83",
        "confidence": 0.9
      },
      "geometry": {
        "type": "Polygon",
        "coordinates": [
          [
            [
              72.777539,
              18.968164
            ],
            [
              72.774805,
              18.968164
            ],
            [
              72.773438,
              18.969531
            ],
            [
              72.765234,
              18.969531
            ],
            [
              72.763867,
              18.968164
            ],
            [
              72.755664,
              18.968164
            ],
            [
              72.754297,
              18.966797
            ],
            [
              72.75293,
              18.966797
            ],
            [
              72.750195,
              18.964062
            ],
            [
              72.748828,
              18.964062
            ],
            [
              72.748828,
              18.961328
            ],
            [
              72.747461,
              18.959961
            ],
            [
              72.747461,
              18.957227
            ],
            [
              72.748828,
              18.955859
            ],
            [
              72.748828,
              18.954492
            ],
            [
              72.750195,
              18.954492
            ],
            [
              72.754297,
              18.950391
            ],
            [
              72.755664,
              18.950391
            ],
            [
              72.758398,
              18.947656
            ],
            [
              72.758398,
              18.946289
            ],
            [
              72.763867,
              18.94082
            ],
            [
              72.766602,
              18.94082
            ],
            [
              72.767969,
              18.942188
            ],
            [
              72.769336,
              18.942188
            ],
            [
              72.773438,
              18.946289
            ],
            [
              72.773438,
              18.947656
            ],
            [
              72.774805,
              18.949023
            ],
            [
              72.774805,
              18.953125
            ],
            [
              72.776172,
              18.954492
            ],
            [
              72.776172,
              18.957227
            ],
            [
              72.777539,
              18.958594
            ],
            [
              72.777539,
              18.961328
            ],
            [
              72.778906,
              18.962695
            ],
            [
              72.778906,
              18.96543
            ],
            [
              72.777539,
              18.966797
            ],
            [
              72.777539,
              18.968164
            ]
          ]
        ]
      }
    },
    {
      "type": "Feature",
      "properties": {
        "spill_id": "sentinel_83",
        "confidence": 0.9
      },
      "geometry": {
        "type": "Polygon",
        "coordinates": [
          [
            [
              72.520508,
              18.973633
            ],
            [
              72.521875,
              18.951758
            ],
            [
              72.547852,
              18.924414
            ],
            [
              72.538281,
              18.902539
            ],
            [
              72.57793,
              18.894336
            ],
            [
              72.608008,
              18.85332
            ],
            [
              72.605273,
              18.830078
            ],
            [
              72.628516,
              18.821875
            ],
            [
              72.644922,
              18.802734
            ],
            [
              72.650391,
              18.816406
            ],
            [
              72.627148,
              18.842383
            ],
            [
              72.638086,
              18.851953
            ],
            [
              72.653125,
              18.851953
            ],
            [
              72.659961,
              18.802734
            ],
            [
              72.672266,
              18.801367
            ],
            [
              72.688672,
              18.832812
            ],
            [
              72.679102,
              18.875195
            ],
            [
              72.662695,
              18.908008
            ],
            [
              72.625781,
              18.925781
            ],
            [
              72.617578,
              18.942188
            ],
            [
              72.623047,
              18.955859
            ],
            [
              72.655859,
              18.96543
            ],
            [
              72.66543,
              18.988672
            ],
            [
              72.653125,
              18.992773
            ],
            [
              72.625781,
              18.979102
            ],
            [
              72.583398,
              18.979102
            ],
            [
              72.584766,
              18.936719
            ],
            [
              72.612109,
              18.912109
            ],
            [
              72.610742,
              18.8875
            ],
            [
              72.594336,
              18.901172
            ],
            [
              72.583398,
              18.927148
            ],
            [
              72.573828,
              18.928516
            ],
            [
              72.530078,
              18.973633
            ],
            [
              72.520508,
              18.973633
            ]
          ]
        ]
      }
    },
    {
      "type": "Feature",
      "properties": {
        "spill_id": "sentinel_83",
        "confidence": 0.9
      },
      "geometry": {
        "type": "Polygon",
        "coordinates": [
          [
            [
              72.608008,
              19.081641
            ],
            [
              72.606641,
              19.081641
            ],
            [
              72.605273,
              19.080273
            ],
            [
              72.602539,
              19.080273
            ],
            [
              72.598438,
              19.076172
            ],
            [
              72.598438,
              19.074805
            ],
            [
              72.595703,
              19.070703
            ],
            [
              72.595703,
              19.066602
            ],
            [
              72.598438,
              19.0625
            ],
            [
              72.598438,
              19.058398
            ],
            [
              72.603906,
              19.05293
            ],
            [
              72.606641,
              19.05293
            ],
            [
              72.609375,
              19.055664
            ],
            [
              72.609375,
              19.057031
            ],
            [
              72.610742,
              19.058398
            ],
            [
              72.610742,
              19.059766
            ],
            [
              72.612109,
              19.061133
            ],
            [
              72.612109,
              19.0625
            ],
            [
              72.614844,
              19.065234
            ],
            [
              72.614844,
              19.066602
            ],
            [
              72.616211,
              19.067969
            ],
            [
              72.616211,
              19.078906
            ],
            [
              72.614844,
              19.078906
            ],
            [
              72.613477,
              19.080273
            ],
            [
              72.609375,
              19.080273
            ],
            [
              72.608008,
              19.081641
            ]
          ]
        ]
      }
    },
    {
      "type": "Feature",
      "properties": {
        "spill_id": "sentinel_83",
        "confidence": 0.9
      },
      "geometry": {
        "type": "Polygon",
        "coordinates": [
          [
            [
              72.688672,
              19.077539
            ],
            [
              72.688672,
              19.07207
            ],
            [
              72.692773,
              19.067969
            ],
            [
              72.699609,
              19.067969
            ],
            [
              72.70918,
              19.074805
            ],
            [
              72.717383,
              19.069336
            ],
            [
              72.722852,
              19.059766
            ],
            [
              72.733789,
              19.050195
            ],
            [
              72.737891,
              19.050195
            ],
            [
              72.743359,
              19.05293
            ],
            [
              72.747461,
              19.058398
            ],
            [
              72.747461,
              19.061133
            ],
            [
              72.735156,
              19.085742
            ],
            [
              72.726953,
              19.091211
            ],
            [
              72.716016,
              19.091211
            ],
            [
              72.711914,
              19.087109
            ],
            [
              72.70918,
              19.081641
            ],
            [
              72.696875,
              19.083008
            ],
            [
              72.695508,
              19.081641
            ],
            [
              72.691406,
              19.081641
            ],
            [
              72.688672,
              19.077539
            ]
          ]
        ]
      }
    },
    {
      "type": "Feature",
      "properties": {
        "spill_id": "sentinel_83",
        "confidence": 0.9
      },
      "geometry": {
        "type": "Polygon",
        "coordinates": [
          [
            [
              72.785742,
              19.102148
            ],
            [
              72.780273,
              19.095312
            ],
            [
              72.784375,
              19.073438
            ],
            [
              72.795312,
              19.051562
            ],
            [
              72.808984,
              19.037891
            ],
            [
              72.810352,
              19.02832
            ],
            [
              72.800781,
              19.017383
            ],
            [
              72.784375,
              19.016016
            ],
            [
              72.770703,
              19.00918
            ],
            [
              72.766602,
              19.003711
            ],
            [
              72.766602,
              18.994141
            ],
            [
              72.77207,
              18.988672
            ],
            [
              72.813086,
              18.975
            ],
            [
              72.837695,
              18.976367
            ],
            [
              72.848633,
              18.981836
            ],
            [
              72.848633,
              19.031055
            ],
            [
              72.843164,
              19.035156
            ],
            [
              72.837695,
              19.05293
            ],
            [
              72.822656,
              19.073438
            ],
            [
              72.813086,
              19.077539
            ],
            [
              72.803516,
              19.074805
            ],
            [
              72.799414,
              19.078906
            ],
            [
              72.79668,
              19.099414
            ],
            [
              72.785742,
              19.102148
            ]
          ]
        ]
      }
    },
    {
      "type": "Feature",
      "properties": {
        "spill_id": "sentinel_83",
        "confidence": 0.9
      },
      "geometry": {
        "type": "Polygon",
        "coordinates": [
          [
            [
              72.811719,
              19.15
            ],
            [
              72.808984,
              19.144531
            ],
            [
              72.808984,
              19.137695
            ],
            [
              72.814453,
              19.128125
            ],
            [
              72.814453,
              19.124023
            ],
            [
              72.81582,
              19.122656
            ],
            [
              72.813086,
              19.113086
            ],
            [
              72.813086,
              19.107617
            ],
            [
              72.819922,
              19.098047
            ],
            [
              72.824023,
              19.087109
            ],
            [
              72.828125,
              19.084375
            ],
            [
              72.830859,
              19.084375
            ],
            [
              72.834961,
              19.088477
            ],
            [
              72.837695,
              19.098047
            ],
            [
              72.843164,
              19.103516
            ],
            [
              72.848633,
              19.104883
            ],
            [
              72.848633,
              19.15
            ],
            [
              72.811719,
              19.15
            ]
          ]
        ]
      }
    },
    {
      "type": "Feature",
      "properties": {
        "spill_id": "sentinel_83",
        "confidence": 0.9
      },
      "geometry": {
        "type": "Polygon",
        "coordinates": [
          [
            [
              72.672266,
              19.15
            ],
            [
              72.670898,
              19.148633
            ],
            [
              72.670898,
              19.136328
            ],
            [
              72.672266,
              19.134961
            ],
            [
              72.672266,
              19.128125
            ],
            [
              72.670898,
              19.125391
            ],
            [
              72.672266,
              19.122656
            ],
            [
              72.677734,
              19.117188
            ],
            [
              72.681836,
              19.11582
            ],
            [
              72.688672,
              19.108984
            ],
            [
              72.688672,
              19.107617
            ],
            [
              72.692773,
              19.107617
            ],
            [
              72.694141,
              19.108984
            ],
            [
              72.695508,
              19.11582
            ],
            [
              72.699609,
              19.119922
            ],
            [
              72.705078,
              19.121289
            ],
            [
              72.710547,
              19.129492
            ],
            [
              72.710547,
              19.132227
            ],
            [
              72.711914,
              19.133594
            ],
            [
              72.711914,
              19.144531
            ],
            [
              72.710547,
              19.145898
            ],
            [
              72.710547,
              19.148633
            ],
            [
              72.70918,
              19.15
            ],
            [
              72.672266,
              19.15
            ]
          ]
        ]
      }
    },
    {
      "type": "Feature",
      "properties": {
        "spill_id": "sentinel_83",
        "confidence": 0.9
      },
      "geometry": {
        "type": "Polygon",
        "coordinates": [
          [
            [
              72.541016,
              19.15
            ],
            [
              72.516406,
              19.15
            ],
            [
              72.515039,
              19.132227
            ],
            [
              72.510938,
              19.128125
            ],
            [
              72.5,
              19.128125
            ],
            [
              72.5,
              19.061133
            ],
            [
              72.505469,
              19.054297
            ],
            [
              72.517773,
              19.057031
            ],
            [
              72.524609,
              19.0625
            ],
            [
              72.538281,
              19.081641
            ],
            [
              72.545117,
              19.102148
            ],
            [
              72.561523,
              19.117188
            ],
            [
              72.561523,
              19.121289
            ],
            [
              72.551953,
              19.129492
            ],
            [
              72.541016,
              19.15
            ]
          ]
        ]
      }
    }
  ]
}