{
  "type": "FeatureCollection",
  "features": [
    {
      "type": "Feature",
      "properties": {
        "spill_id": "sentinel_268",
        "confidence": 0.79
      },
      "geometry": {
        "type": "Polygon",
        "coordinates": [
          [
            [
              72.5,
              18.980469
            ],
            [
              72.5,
              18.884766
            ],
            [
              72.549219,
              18.866992
            ],
            [
              72.53418,
              18.845117
            ],
            [
              72.5,
              18.851953
            ],
            [
              72.5,
              18.808203
            ],
            [
              72.848633,
              18.805469
            ],
            [
              72.848633,
              18.990039
            ],
            [
              72.828125,
              19.002344
            ],
            [
              72.810352,
              18.954492
            ],
            [
              72.841797,
              18.920312
            ],
            [
              72.832227,
              18.884766
            ],
            [
              72.798047,
              18.939453
            ],
            [
              72.724219,
              18.975
            ],
            [
              72.72832,
              19.011914
            ],
            [
              72.703711,
              19.020117
            ],
            [
              72.681836,
              19.058398
            ],
            [
              72.664062,
              19.055664
            ],
            [
              72.711914,
              18.979102
            ],
            [
              72.683203,
              18.972266
            ],
            [
              72.636719,
              19.002344
            ],
            [
              72.612109,
              18.990039
            ],
            [
              72.579297,
              18.996875
            ],
            [
              72.569727,
              19.026953
            ],
            [
              72.549219,
              18.996875
            ],
            [
              72.5,
              18.980469
            ]
          ]
        ]
      }
    },
    {
      "type": "Feature",
      "properties": {
        "spill_id": "sentinel_268",
        "confidence": 0.79
      },
      "geometry": {
        "type": "Polygon",
        "coordinates": [
          [
            [
              72.5,
              19.070703
            ],
            [
              72.5,
              19.048828
            ],
            [
              72.506836,
              19.048828
            ],
            [
              72.508203,
              19.050195
            ],
            [
              72.508203,
              19.051562
            ],
            [
              72.510938,
              19.054297
            ],
            [
              72.510938,
              19.055664
            ],
            [
              72.512305,
              19.057031
            ],
            [
              72.512305,
              19.061133
            ],
            [
              72.513672,
              19.0625
            ],
            [
              72.513672,
              19.065234
            ],
            [
              72.512305,
              19.065234
            ],
            [
              72.510938,
              19.066602
            ],
            [
              72.506836,
              19.066602
            ],
            [
              72.505469,
              19.067969
            ],
            [
              72.504102,
              19.067969
            ],
            [
              72.501367,
              19.070703
            ],
            [
              72.5,
              19.070703
            ]
          ]
        ]
      }
    },
    {
      "type": "Feature",
      "properties": {
        "spill_id": "sentinel_268",
        "confidence": 0.79
      },
      "geometry": {
        "type": "Polygon",
        "coordinates": [
          [
            [
              72.810352,
              19.15
            ],
            [
              72.807617,
              19.143164
            ],
            [
              72.807617,
              19.125391
            ],
            [
              72.80625,
              19.124023
            ],
            [
              72.807617,
              19.113086
            ],
            [
              72.811719,
              19.108984
            ],
            [
              72.81582,
              19.110352
            ],
            [
              72.817187,
              19.108984
            ],
            [
              72.817187,
              19.10625
            ],
            [
              72.829492,
              19.083008
            ],
            [
              72.845898,
              19.073438
            ],
            [
              72.848633,
              19.076172
            ],
            [
              72.848633,
              19.147266
            ],
            [
              72.845898,
              19.148633
            ],
            [
              72.847266,
              19.15
            ],
            [
              72.810352,
              19.15
            ]
          ]
        ]
      }
    },
    {
      "type": "Feature",
      "properties": {
        "spill_id": "sentinel_268",
        "confidence": 0.79
      },
      "geometry": {
        "type": "Polygon",
        "coordinates": [
          [
            [
              72.721484,
              19.15
            ],
            [
              72.714648,
              19.136328
            ],
            [
              72.714648,
              19.119922
            ],
            [
              72.71875,
              19.114453
            ],
            [
              72.720117,
              19.102148
            ],
            [
              72.713281,
              19.087109
            ],
            [
              72.713281,
              19.067969
            ],
            [
              72.72832,
              19.051562
            ],
            [
              72.741992,
              19.054297
            ],
            [
              72.763867,
              19.043359
            ],
            [
              72.77207,
              19.043359
            ],
            [
              72.773438,
              19.040625
            ],
            [
              72.778906,
              19.041992
            ],
            [
              72.783008,
              19.050195
            ],
            [
              72.774805,
              19.055664
            ],
            [
              72.773438,
              19.067969
            ],
            [
              72.767969,
              19.074805
            ],
            [
              72.774805,
              19.114453
            ],
            [
              72.780273,
              19.122656
            ],
            [
              72.780273,
              19.15
            ],
            [
              72.721484,
              19.15
            ]
          ]
        ]
      }
    },
    {
      "type": "Feature",
      "properties": {
        "spill_id": "sentinel_268",
        "confidence": 0.79
      },
      "geometry": {
        "type": "Polygon",
        "coordinates": [
          [
            [
              72.535547,
              19.15
            ],
            [
              72.541016,
              19.132227
            ],
            [
              72.560156,
              19.132227
            ],
            [
              72.573828,
              19.121289
            ],
            [
              72.573828,
              19.102148
            ],
            [
              72.580664,
              19.092578
            ],
            [
              72.601172,
              19.093945
            ],
            [
              72.605273,
              19.107617
            ],
            [
              72.592969,
              19.118555
            ],
            [
              72.601172,
              19.125391
            ],
            [
              72.605273,
              19.134961
            ],
            [
              72.610742,
              19.130859
            ],
            [
              72.610742,
              19.113086
            ],
            [
              72.62168,
              19.104883
            ],
            [
              72.63125,
              19.10625
            ],
            [
              72.644922,
              19.118555
            ],
            [
              72.672266,
              19.113086
            ],
            [
              72.669531,
              19.122656
            ],
            [
              72.659961,
              19.129492
            ],
            [
              72.651758,
              19.15
            ],
            [
              72.618945,
              19.15
            ],
            [
              72.616211,
              19.147266
            ],
            [
              72.612109,
              19.15
            ],
            [
              72.535547,
              19.15
            ]
          ]
        ]
      }
    }
  ]
}