{
  "type": "FeatureCollection",
  "features": [
    {
      "type": "Feature",
      "properties": {
        "spill_id": "sentinel_418",
        "confidence": 0.93
      },
      "geometry": {
        "type": "Polygon",
        "coordinates": [
          [
            [
              72.502734,
              19.15
            ],
            [
              72.5,
              18.801367
            ],
            [
              72.847266,
              18.801367
            ],
            [
              72.847266,
              19.15
            ],
            [
              72.502734,
              19.15
            ]
          ]
        ]
      }
    }
  ]
}