{
  "type": "FeatureCollection",
  "features": [
    {
      "type": "Feature",
      "properties": {
        "spill_id": "sentinel_129",
        "confidence": 0.9
      },
      "geometry": {
        "type": "Polygon",
        "coordinates": [
          [
            [
              72.748828,
              18.842383
            ],
            [
              72.748828,
              18.838281
            ],
            [
              72.750195,
              18.836914
            ],
            [
              72.750195,
              18.835547
            ],
            [
              72.75293,
              18.832812
            ],
            [
              72.757031,
              18.831445
            ],
            [
              72.763867,
              18.825977
            ],
            [
              72.765234,
              18.825977
            ],
            [
              72.769336,
              18.823242
            ],
            [
              72.778906,
              18.823242
            ],
            [
              72.780273,
              18.824609
            ],
            [
              72.781641,
              18.824609
            ],
            [
              72.781641,
              18.836914
            ],
            [
              72.780273,
              18.838281
            ],
            [
              72.780273,
              18.839648
            ],
            [
              72.774805,
              18.845117
            ],
            [
              72.77207,
              18.845117
            ],
            [
              72.770703,
              18.846484
            ],
            [
              72.75293,
              18.846484
            ],
            [
              72.748828,
              18.842383
            ]
          ]
        ]
      }
    },
    {
      "type": "Feature",
      "properties": {
        "spill_id": "sentinel_129",
        "confidence": 0.9
      },
      "geometry": {
        "type": "Polygon",
        "coordinates": [
          [
            [
              72.829492,
              18.899805
            ],
            [
              72.828125,
              18.898438
            ],
            [
              72.828125,
              18.892969
            ],
            [
              72.829492,
              18.891602
            ],
            [
              72.829492,
              18.890234
            ],
            [
              72.836328,
              18.882031
            ],
            [
              72.836328,
              18.880664
            ],
            [
              72.837695,
              18.879297
            ],
            [
              72.837695,
              18.876562
            ],
            [
              72.839062,
              18.875195
            ],
            [
              72.841797,
              18.868359
            ],
            [
              72.844531,
              18.865625
            ],
            [
              72.844531,
              18.864258
            ],
            [
              72.845898,
              18.862891
            ],
            [
              72.848633,
              18.862891
            ],
            [
              72.848633,
              18.901172
            ],
            [
              72.839062,
              18.901172
            ],
            [
              72.837695,
              18.899805
            ],
            [
              72.829492,
              18.899805
            ]
          ]
        ]
      }
    },
    {
      "type": "Feature",
      "properties": {
        "spill_id": "sentinel_129",
        "confidence": 0.9
      },
      "geometry": {
        "type": "Polygon",
        "coordinates": [
          [
            [
              72.767969,
              18.920312
            ],
            [
              72.757031,
              18.917578
            ],
            [
              72.75293,
              18.913477
            ],
            [
              72.746094,
              18.909375
            ],
            [
              72.741992,
              18.903906
            ],
            [
              72.741992,
              18.898438
            ],
            [
              72.740625,
              18.89707
            ],
            [
              72.741992,
              18.895703
            ],
            [
              72.743359,
              18.880664
            ],
            [
              72.744727,
              18.879297
            ],
            [
              72.746094,
              18.872461
            ],
            [
              72.75293,
              18.880664
            ],
            [
              72.759766,
              18.883398
            ],
            [
              72.7625,
              18.886133
            ],
            [
              72.77207,
              18.888867
            ],
            [
              72.783008,
              18.895703
            ],
            [
              72.783008,
              18.89707
            ],
            [
              72.778906,
              18.899805
            ],
            [
              72.769336,
              18.902539
            ],
            [
              72.767969,
              18.903906
            ],
            [
              72.767969,
              18.912109
            ],
            [
              72.769336,
              18.913477
            ],
            [
              72.769336,
              18.918945
            ],
            [
              72.767969,
              18.920312
            ]
          ]
        ]
      }
    },
    {
      "type": "Feature",
      "properties": {
        "spill_id": "sentinel_129",
        "confidence": 0.9
      },
      "geometry": {
        "type": "Polygon",
        "coordinates": [
          [
            [
              72.748828,
              19.013281
            ],
            [
              72.746094,
              19.010547
            ],
            [
              72.747461,
              19.007812
            ],
            [
              72.747461,
              19.003711
            ],
            [
              72.750195,
              18.999609
            ],
            [
              72.750195,
              18.996875
            ],
            [
              72.758398,
              18.987305
            ],
            [
              72.759766,
              18.98457
            ],
            [
              72.759766,
              18.981836
            ],
            [
              72.761133,
              18.980469
            ],
            [
              72.761133,
              18.977734
            ],
            [
              72.763867,
              18.972266
            ],
            [
              72.766602,
              18.970898
            ],
            [
              72.769336,
              18.970898
            ],
            [
              72.77207,
              18.972266
            ],
            [
              72.776172,
              18.977734
            ],
            [
              72.776172,
              18.979102
            ],
            [
              72.778906,
              18.980469
            ],
            [
              72.778906,
              18.98457
            ],
            [
              72.776172,
              18.987305
            ],
            [
              72.776172,
              18.988672
            ],
            [
              72.77207,
              18.994141
            ],
            [
              72.77207,
              18.998242
            ],
            [
              72.770703,
              18.999609
            ],
            [
              72.770703,
              19.005078
            ],
            [
              72.767969,
              19.007812
            ],
            [
              72.766602,
              19.007812
            ],
            [
              72.761133,
              19.011914
            ],
            [
              72.758398,
              19.011914
            ],
            [
              72.757031,
              19.013281
            ],
            [
              72.748828,
              19.013281
            ]
          ]
        ]
      }
    },
    {
      "type": "Feature",
      "properties": {
        "spill_id": "sentinel_129",
        "confidence": 0.9
      },
      "geometry": {
        "type": "Polygon",
        "coordinates": [
          [
            [
              72.830859,
              19.041992
            ],
            [
              72.828125,
              19.037891
            ],
            [
              72.828125,
              19.026953
            ],
            [
              72.829492,
              19.025586
            ],
            [
              72.829492,
              19.021484
            ],
            [
              72.832227,
              19.01875
            ],
            [
              72.832227,
              19.017383
            ],
            [
              72.836328,
              19.013281
            ],
            [
              72.836328,
              19.011914
            ],
            [
              72.837695,
              19.010547
            ],
            [
              72.839062,
              19.010547
            ],
            [
              72.84043,
              19.00918
            ],
            [
              72.848633,
              19.00918
            ],
            [
              72.848633,
              19.036523
            ],
            [
              72.845898,
              19.039258
            ],
            [
              72.84043,
              19.039258
            ],
            [
              72.839062,
              19.040625
            ],
            [
              72.833594,
              19.040625
            ],
            [
              72.832227,
              19.041992
            ],
            [
              72.830859,
              19.041992
            ]
          ]
        ]
      }
    },
    {
      "type": "Feature",
      "properties": {
        "spill_id": "sentinel_129",
        "confidence": 0.9
      },
      "geometry": {
        "type": "Polygon",
        "coordinates": [
          [
            [
              72.5,
              19.15
            ],
            [
              72.5,
              18.824609
            ],
            [
              72.524609,
              18.832812
            ],
            [
              72.542383,
              18.820508
            ],
            [
              72.54375,
              18.801367
            ],
            [
              72.696875,
              18.801367
            ],
            [
              72.661328,
              18.835547
            ],
            [
              72.655859,
              18.871094
            ],
            [
              72.669531,
              18.895703
            ],
            [
              72.706445,
              18.830078
            ],
            [
              72.700977,
              18.813672
            ],
            [
              72.724219,
              18.80957
            ],
            [
              72.670898,
              18.916211
            ],
            [
              72.696875,
              18.94082
            ],
            [
              72.651758,
              19.021484
            ],
            [
              72.658594,
              19.031055
            ],
            [
              72.676367,
              19.016016
            ],
            [
              72.696875,
              19.039258
            ],
            [
              72.717383,
              19.037891
            ],
            [
              72.720117,
              19.059766
            ],
            [
              72.687305,
              19.098047
            ],
            [
              72.694141,
              19.117188
            ],
            [
              72.770703,
              19.085742
            ],
            [
              72.776172,
              19.113086
            ],
            [
              72.750195,
              19.121289
            ],
            [
              72.72832,
              19.15
            ],
            [
              72.703711,
              19.133594
            ],
            [
              72.688672,
              19.134961
            ],
            [
              72.68457,
              19.15
            ],
            [
              72.5,
              19.15
            ]
          ]
        ]
      }
    }
  ]
}