{
  "type": "FeatureCollection",
  "features": [
    {
      "type": "Feature",
      "properties": {
        "spill_id": "sentinel_498",
        "confidence": 0.81
      },
      "geometry": {
        "type": "Polygon",
        "coordinates": [
          [
            [
              72.59707,
              18.802734
            ],
            [
              72.598438,
              18.801367
            ],
            [
              72.612109,
              18.801367
            ],
            [
              72.613477,
              18.802734
            ],
            [
              72.614844,
              18.802734
            ],
            [
              72.613477,
              18.802734
            ],
            [
              72.612109,
              18.804102
            ],
            [
              72.612109,
              18.805469
            ],
            [
              72.609375,
              18.805469
            ],
            [
              72.608008,
              18.806836
            ],
            [
              72.605273,
              18.806836
            ],
            [
              72.603906,
              18.805469
            ],
            [
              72.602539,
              18.805469
            ],
            [
              72.601172,
              18.804102
            ],
            [
              72.599805,
              18.804102
            ],
            [
              72.598438,
              18.802734
            ],
            [
              72.59707,
              18.802734
            ]
          ]
        ]
      }
    },
    {
      "type": "Feature",
      "properties": {
        "spill_id": "sentinel_498",
        "confidence": 0.81
      },
      "geometry": {
        "type": "Polygon",
        "coordinates": [
          [
            [
              72.653125,
              18.806836
            ],
            [
              72.651758,
              18.808203
            ],
            [
              72.649023,
              18.808203
            ],
            [
              72.647656,
              18.806836
            ],
            [
              72.646289,
              18.806836
            ],
            [
              72.644922,
              18.805469
            ],
            [
              72.643555,
              18.805469
            ],
            [
              72.642187,
              18.804102
            ],
            [
              72.64082,
              18.804102
            ],
            [
              72.639453,
              18.802734
            ],
            [
              72.64082,
              18.801367
            ],
            [
              72.651758,
              18.801367
            ],
            [
              72.653125,
              18.802734
            ],
            [
              72.651758,
              18.804102
            ],
            [
              72.653125,
              18.805469
            ],
            [
              72.653125,
              18.806836
            ]
          ]
        ]
      }
    },
    {
      "type": "Feature",
      "properties": {
        "spill_id": "sentinel_498",
        "confidence": 0.81
      },
      "geometry": {
        "type": "Polygon",
        "coordinates": [
          [
            [
              72.5,
              18.823242
            ],
            [
              72.5,
              18.801367
            ],
            [
              72.521875,
              18.801367
            ],
            [
              72.521875,
              18.804102
            ],
            [
              72.523242,
              18.805469
            ],
            [
              72.523242,
              18.808203
            ],
            [
              72.524609,
              18.80957
            ],
            [
              72.524609,
              18.812305
            ],
            [
              72.525977,
              18.813672
            ],
            [
              72.525977,
              18.816406
            ],
            [
              72.524609,
              18.817773
            ],
            [
              72.524609,
              18.821875
            ],
            [
              72.521875,
              18.824609
            ],
            [
              72.520508,
              18.824609
            ],
            [
              72.519141,
              18.825977
            ],
            [
              72.504102,
              18.825977
            ],
            [
              72.501367,
              18.823242
            ],
            [
              72.5,
              18.823242
            ]
          ]
        ]
      }
    },
    {
      "type": "Feature",
      "properties": {
        "spill_id": "sentinel_498",
        "confidence": 0.81
      },
      "geometry": {
        "type": "Polygon",
        "coordinates": [
          [
            [
              72.612109,
              18.83418
            ],
            [
              72.608008,
              18.836914
            ],
            [
              72.599805,
              18.838281
            ],
            [
              72.592969,
              18.84375
            ],
            [
              72.580664,
              18.842383
            ],
            [
              72.568359,
              18.831445
            ],
            [
              72.557422,
              18.831445
            ],
            [
              72.550586,
              18.824609
            ],
            [
              72.550586,
              18.820508
            ],
            [
              72.547852,
              18.815039
            ],
            [
              72.535547,
              18.802734
            ],
            [
              72.536914,
              18.801367
            ],
            [
              72.586133,
              18.801367
            ],
            [
              72.588867,
              18.802734
            ],
            [
              72.5875,
              18.804102
            ],
            [
              72.590234,
              18.812305
            ],
            [
              72.595703,
              18.817773
            ],
            [
              72.606641,
              18.823242
            ],
            [
              72.610742,
              18.828711
            ],
            [
              72.612109,
              18.83418
            ]
          ]
        ]
      }
    },
    {
      "type": "Feature",
      "properties": {
        "spill_id": "sentinel_498",
        "confidence": 0.81
      },
      "geometry": {
        "type": "Polygon",
        "coordinates": [
          [
            [
              72.703711,
              18.902539
            ],
            [
              72.694141,
              18.902539
            ],
            [
              72.681836,
              18.895703
            ],
            [
              72.658594,
              18.872461
            ],
            [
              72.653125,
              18.857422
            ],
            [
              72.654492,
              18.856055
            ],
            [
              72.650391,
              18.850586
            ],
            [
              72.650391,
              18.845117
            ],
            [
              72.653125,
              18.842383
            ],
            [
              72.651758,
              18.824609
            ],
            [
              72.657227,
              18.820508
            ],
            [
              72.666797,
              18.819141
            ],
            [
              72.675,
              18.830078
            ],
            [
              72.680469,
              18.830078
            ],
            [
              72.685938,
              18.838281
            ],
            [
              72.694141,
              18.845117
            ],
            [
              72.696875,
              18.854688
            ],
            [
              72.702344,
              18.860156
            ],
            [
              72.703711,
              18.865625
            ],
            [
              72.702344,
              18.868359
            ],
            [
              72.691406,
              18.866992
            ],
            [
              72.690039,
              18.871094
            ],
            [
              72.694141,
              18.87793
            ],
            [
              72.694141,
              18.882031
            ],
            [
              72.706445,
              18.894336
            ],
            [
              72.706445,
              18.899805
            ],
            [
              72.703711,
              18.902539
            ]
          ]
        ]
      }
    },
    {
      "type": "Feature",
      "properties": {
        "spill_id": "sentinel_498",
        "confidence": 0.81
      },
      "geometry": {
        "type": "Polygon",
        "coordinates": [
          [
            [
              72.746094,
              18.909375
            ],
            [
              72.743359,
              18.909375
            ],
            [
              72.741992,
              18.908008
            ],
            [
              72.740625,
              18.908008
            ],
            [
              72.739258,
              18.906641
            ],
            [
              72.737891,
              18.906641
            ],
            [
              72.733789,
              18.903906
            ],
            [
              72.731055,
              18.903906
            ],
            [
              72.729688,
              18.902539
            ],
            [
              72.72832,
              18.902539
            ],
            [
              72.72832,
              18.901172
            ],
            [
              72.725586,
              18.898438
            ],
            [
              72.725586,
              18.8875
            ],
            [
              72.72832,
              18.884766
            ],
            [
              72.729688,
              18.884766
            ],
            [
              72.731055,
              18.883398
            ],
            [
              72.736523,
              18.883398
            ],
            [
              72.741992,
              18.888867
            ],
            [
              72.741992,
              18.890234
            ],
            [
              72.743359,
              18.891602
            ],
            [
              72.743359,
              18.895703
            ],
            [
              72.744727,
              18.89707
            ],
            [
              72.744727,
              18.902539
            ],
            [
              72.746094,
              18.903906
            ],
            [
              72.746094,
              18.909375
            ]
          ]
        ]
      }
    },
    {
      "type": "Feature",
      "properties": {
        "spill_id": "sentinel_498",
        "confidence": 0.81
      },
      "geometry": {
        "type": "Polygon",
        "coordinates": [
          [
            [
              72.848633,
              18.93125
            ],
            [
              72.826758,
              18.925781
            ],
            [
              72.803516,
              18.906641
            ],
            [
              72.789844,
              18.902539
            ],
            [
              72.781641,
              18.892969
            ],
            [
              72.765234,
              18.8875
            ],
            [
              72.743359,
              18.866992
            ],
            [
              72.726953,
              18.865625
            ],
            [
              72.720117,
              18.856055
            ],
            [
              72.716016,
              18.856055
            ],
            [
              72.70918,
              18.839648
            ],
            [
              72.716016,
              18.802734
            ],
            [
              72.848633,
              18.801367
            ],
            [
              72.848633,
              18.93125
            ]
          ]
        ]
      }
    },
    {
      "type": "Feature",
      "properties": {
        "spill_id": "sentinel_498",
        "confidence": 0.81
      },
      "geometry": {
        "type": "Polygon",
        "coordinates": [
          [
            [
              72.848633,
              19.024219
            ],
            [
              72.847266,
              19.024219
            ],
            [
              72.845898,
              19.022852
            ],
            [
              72.844531,
              19.022852
            ],
            [
              72.841797,
              19.020117
            ],
            [
              72.841797,
              19.013281
            ],
            [
              72.843164,
              19.011914
            ],
            [
              72.843164,
              19.010547
            ],
            [
              72.844531,
              19.00918
            ],
            [
              72.844531,
              19.007812
            ],
            [
              72.847266,
              19.007812
            ],
            [
              72.848633,
              19.00918
            ],
            [
              72.848633,
              19.024219
            ]
          ]
        ]
      }
    },
    {
      "type": "Feature",
      "properties": {
        "spill_id": "sentinel_498",
        "confidence": 0.81
      },
      "geometry": {
        "type": "Polygon",
        "coordinates": [
          [
            [
              72.848633,
              19.065234
            ],
            [
              72.844531,
              19.065234
            ],
            [
              72.839062,
              19.059766
            ],
            [
              72.839062,
              19.057031
            ],
            [
              72.837695,
              19.055664
            ],
            [
              72.837695,
              19.054297
            ],
            [
              72.836328,
              19.05293
            ],
            [
              72.836328,
              19.051562
            ],
            [
              72.833594,
              19.048828
            ],
            [
              72.832227,
              19.048828
            ],
            [
              72.829492,
              19.046094
            ],
            [
              72.829492,
              19.043359
            ],
            [
              72.826758,
              19.039258
            ],
            [
              72.828125,
              19.037891
            ],
            [
              72.836328,
              19.037891
            ],
            [
              72.837695,
              19.039258
            ],
            [
              72.839062,
              19.039258
            ],
            [
              72.843164,
              19.041992
            ],
            [
              72.845898,
              19.041992
            ],
            [
              72.848633,
              19.044727
            ],
            [
              72.848633,
              19.065234
            ]
          ]
        ]
      }
    },
    {
      "type": "Feature",
      "properties": {
        "spill_id": "sentinel_498",
        "confidence": 0.81
      },
      "geometry": {
        "type": "Polygon",
        "coordinates": [
          [
            [
              72.5,
              19.085742
            ],
            [
              72.5,
              19.058398
            ],
            [
              72.504102,
              19.0625
            ],
            [
              72.505469,
              19.0625
            ],
            [
              72.505469,
              19.063867
            ],
            [
              72.506836,
              19.065234
            ],
            [
              72.506836,
              19.076172
            ],
            [
              72.505469,
              19.077539
            ],
            [
              72.504102,
              19.077539
            ],
            [
              72.502734,
              19.078906
            ],
            [
              72.502734,
              19.080273
            ],
            [
              72.501367,
              19.081641
            ],
            [
              72.501367,
              19.083008
            ],
            [
              72.5,
              19.084375
            ],
            [
              72.5,
              19.085742
            ]
          ]
        ]
      }
    },
    {
      "type": "Feature",
      "properties": {
        "spill_id": "sentinel_498",
        "confidence": 0.81
      },
      "geometry": {
        "type": "Polygon",
        "coordinates": [
          [
            [
              72.519141,
              19.126758
            ],
            [
              72.506836,
              19.126758
            ],
            [
              72.502734,
              19.129492
            ],
            [
              72.5,
              19.129492
            ],
            [
              72.5,
              19.102148
            ],
            [
              72.5,
              19.107617
            ],
            [
              72.501367,
              19.108984
            ],
            [
              72.505469,
              19.108984
            ],
            [
              72.508203,
              19.111719
            ],
            [
              72.508203,
              19.114453
            ],
            [
              72.50957,
              19.11582
            ],
            [
              72.50957,
              19.117188
            ],
            [
              72.513672,
              19.121289
            ],
            [
              72.515039,
              19.121289
            ],
            [
              72.519141,
              19.125391
            ],
            [
              72.519141,
              19.126758
            ]
          ]
        ]
      }
    },
    {
      "type": "Feature",
      "properties": {
        "spill_id": "sentinel_498",
        "confidence": 0.81
      },
      "geometry": {
        "type": "Polygon",
        "coordinates": [
          [
            [
              72.848633,
              19.15
            ],
            [
              72.818555,
              19.15
            ],
            [
              72.804883,
              19.108984
            ],
            [
              72.785742,
              19.099414
            ],
            [
              72.778906,
              19.070703
            ],
            [
              72.706445,
              18.949023
            ],
            [
              72.706445,
              18.928516
            ],
            [
              72.713281,
              18.93125
            ],
            [
              72.737891,
              18.972266
            ],
            [
              72.755664,
              18.981836
            ],
            [
              72.761133,
              18.977734
            ],
            [
              72.758398,
              18.955859
            ],
            [
              72.7625,
              18.951758
            ],
            [
              72.773438,
              18.951758
            ],
            [
              72.781641,
              18.962695
            ],
            [
              72.780273,
              18.977734
            ],
            [
              72.757031,
              18.983203
            ],
            [
              72.769336,
              19.017383
            ],
            [
              72.789844,
              19.031055
            ],
            [
              72.824023,
              19.067969
            ],
            [
              72.833594,
              19.095312
            ],
            [
              72.843164,
              19.091211
            ],
            [
              72.839062,
              19.081641
            ],
            [
              72.848633,
              19.080273
            ],
            [
              72.848633,
              19.15
            ]
          ]
        ]
      }
    }
  ]
}