{
  "type": "FeatureCollection",
  "features": [
    {
      "type": "Feature",
      "properties": {
        "spill_id": "sentinel_690",
        "confidence": 0.82
      },
      "geometry": {
        "type": "Polygon",
        "coordinates": [
          [
            [
              72.547852,
              18.851953
            ],
            [
              72.547852,
              18.849219
            ],
            [
              72.549219,
              18.847852
            ],
            [
              72.55332,
              18.847852
            ],
            [
              72.554688,
              18.846484
            ],
            [
              72.558789,
              18.846484
            ],
            [
              72.560156,
              18.845117
            ],
            [
              72.561523,
              18.846484
            ],
            [
              72.564258,
              18.846484
            ],
            [
              72.565625,
              18.847852
            ],
            [
              72.561523,
              18.851953
            ],
            [
              72.55332,
              18.851953
            ],
            [
              72.551953,
              18.85332
            ],
            [
              72.550586,
              18.851953
            ],
            [
              72.547852,
              18.851953
            ]
          ]
        ]
      }
    },
    {
      "type": "Feature",
      "properties": {
        "spill_id": "sentinel_690",
        "confidence": 0.82
      },
      "geometry": {
        "type": "Polygon",
        "coordinates": [
          [
            [
              72.848633,
              18.970898
            ],
            [
              72.847266,
              18.969531
            ],
            [
              72.841797,
              18.969531
            ],
            [
              72.84043,
              18.968164
            ],
            [
              72.84043,
              18.966797
            ],
            [
              72.839062,
              18.96543
            ],
            [
              72.839062,
              18.962695
            ],
            [
              72.84043,
              18.962695
            ],
            [
              72.841797,
              18.961328
            ],
            [
              72.844531,
              18.961328
            ],
            [
              72.845898,
              18.962695
            ],
            [
              72.848633,
              18.962695
            ],
            [
              72.848633,
              18.970898
            ]
          ]
        ]
      }
    },
    {
      "type": "Feature",
      "properties": {
        "spill_id": "sentinel_690",
        "confidence": 0.82
      },
      "geometry": {
        "type": "Polygon",
        "coordinates": [
          [
            [
              72.776172,
              19.15
            ],
            [
              72.777539,
              19.141797
            ],
            [
              72.781641,
              19.137695
            ],
            [
              72.785742,
              19.137695
            ],
            [
              72.787109,
              19.136328
            ],
            [
              72.788477,
              19.137695
            ],
            [
              72.792578,
              19.137695
            ],
            [
              72.798047,
              19.141797
            ],
            [
              72.804883,
              19.144531
            ],
            [
              72.817187,
              19.144531
            ],
            [
              72.818555,
              19.143164
            ],
            [
              72.822656,
              19.143164
            ],
            [
              72.826758,
              19.137695
            ],
            [
              72.833594,
              19.136328
            ],
            [
              72.844531,
              19.14043
            ],
            [
              72.848633,
              19.144531
            ],
            [
              72.847266,
              19.15
            ],
            [
              72.776172,
              19.15
            ]
          ]
        ]
      }
    },
    {
      "type": "Feature",
      "properties": {
        "spill_id": "sentinel_690",
        "confidence": 0.82
      },
      "geometry": {
        "type": "Polygon",
        "coordinates": [
          [
            [
              72.5,
              19.15
            ],
            [
              72.5,
              19.102148
            ],
            [
              72.573828,
              19.098047
            ],
            [
              72.602539,
              19.044727
            ],
            [
              72.5,
              19.07207
            ],
            [
              72.5,
              19.020117
            ],
            [
              72.580664,
              18.961328
            ],
            [
              72.628516,
              18.891602
            ],
            [
              72.576562,
              18.84375
            ],
            [
              72.647656,
              18.839648
            ],
            [
              72.659961,
              18.801367
            ],
            [
              72.819922,
              18.801367
            ],
            [
              72.848633,
              18.828711
            ],
            [
              72.848633,
              18.8875
            ],
            [
              72.808984,
              18.908008
            ],
            [
              72.761133,
              18.895703
            ],
            [
              72.741992,
              18.865625
            ],
            [
              72.705078,
              18.873828
            ],
            [
              72.688672,
              18.898438
            ],
            [
              72.729688,
              18.93125
            ],
            [
              72.720117,
              18.950391
            ],
            [
              72.750195,
              19.025586
            ],
            [
              72.839062,
              19.017383
            ],
            [
              72.848633,
              19.076172
            ],
            [
              72.765234,
              19.088477
            ],
            [
              72.662695,
              19.0625
            ],
            [
              72.635352,
              19.103516
            ],
            [
              72.664062,
              19.121289
            ],
            [
              72.698242,
              19.100781
            ],
            [
              72.698242,
              19.132227
            ],
            [
              72.612109,
              19.15
            ],
            [
              72.598438,
              19.11582
            ],
            [
              72.5,
              19.15
            ]
          ]
        ]
      }
    }
  ]
}