{
  "type": "FeatureCollection",
  "features": [
    {
      "type": "Feature",
      "properties": {
        "spill_id": "sentinel_386",
        "confidence": 0.85
      },
      "geometry": {
        "type": "Polygon",
        "coordinates": [
          [
            [
              72.627148,
              18.810938
            ],
            [
              72.627148,
              18.804102
            ],
            [
              72.628516,
              18.802734
            ],
            [
              72.628516,
              18.801367
            ],
            [
              72.672266,
              18.801367
            ],
            [
              72.673633,
              18.802734
            ],
            [
              72.673633,
              18.806836
            ],
            [
              72.670898,
              18.80957
            ],
            [
              72.666797,
              18.80957
            ],
            [
              72.66543,
              18.810938
            ],
            [
              72.661328,
              18.810938
            ],
            [
              72.659961,
              18.812305
            ],
            [
              72.655859,
              18.812305
            ],
            [
              72.654492,
              18.813672
            ],
            [
              72.649023,
              18.813672
            ],
            [
              72.647656,
              18.815039
            ],
            [
              72.643555,
              18.815039
            ],
            [
              72.642187,
              18.816406
            ],
            [
              72.638086,
              18.816406
            ],
            [
              72.636719,
              18.817773
            ],
            [
              72.629883,
              18.817773
            ],
            [
              72.628516,
              18.816406
            ],
            [
              72.628516,
              18.812305
            ],
            [
              72.627148,
              18.810938
            ]
          ]
        ]
      }
    },
    {
      "type": "Feature",
      "properties": {
        "spill_id": "sentinel_386",
        "confidence": 0.85
      },
      "geometry": {
        "type": "Polygon",
        "coordinates": [
          [
            [
              72.785742,
              18.839648
            ],
            [
              72.785742,
              18.831445
            ],
            [
              72.789844,
              18.827344
            ],
            [
              72.791211,
              18.827344
            ],
            [
              72.792578,
              18.825977
            ],
            [
              72.793945,
              18.825977
            ],
            [
              72.795312,
              18.824609
            ],
            [
              72.800781,
              18.824609
            ],
            [
              72.802148,
              18.825977
            ],
            [
              72.803516,
              18.825977
            ],
            [
              72.803516,
              18.828711
            ],
            [
              72.802148,
              18.830078
            ],
            [
              72.802148,
              18.832812
            ],
            [
              72.800781,
              18.83418
            ],
            [
              72.800781,
              18.835547
            ],
            [
              72.799414,
              18.836914
            ],
            [
              72.799414,
              18.838281
            ],
            [
              72.798047,
              18.839648
            ],
            [
              72.79668,
              18.839648
            ],
            [
              72.795312,
              18.841016
            ],
            [
              72.787109,
              18.841016
            ],
            [
              72.785742,
              18.839648
            ]
          ]
        ]
      }
    },
    {
      "type": "Feature",
      "properties": {
        "spill_id": "sentinel_386",
        "confidence": 0.85
      },
      "geometry": {
        "type": "Polygon",
        "coordinates": [
          [
            [
              72.580664,
              18.895703
            ],
            [
              72.579297,
              18.894336
            ],
            [
              72.579297,
              18.879297
            ],
            [
              72.580664,
              18.87793
            ],
            [
              72.580664,
              18.871094
            ],
            [
              72.582031,
              18.868359
            ],
            [
              72.5875,
              18.862891
            ],
            [
              72.594336,
              18.845117
            ],
            [
              72.595703,
              18.84375
            ],
            [
              72.601172,
              18.842383
            ],
            [
              72.605273,
              18.846484
            ],
            [
              72.605273,
              18.847852
            ],
            [
              72.609375,
              18.85332
            ],
            [
              72.609375,
              18.856055
            ],
            [
              72.610742,
              18.857422
            ],
            [
              72.609375,
              18.866992
            ],
            [
              72.603906,
              18.876562
            ],
            [
              72.603906,
              18.880664
            ],
            [
              72.592969,
              18.891602
            ],
            [
              72.584766,
              18.895703
            ],
            [
              72.580664,
              18.895703
            ]
          ]
        ]
      }
    },
    {
      "type": "Feature",
      "properties": {
        "spill_id": "sentinel_386",
        "confidence": 0.85
      },
      "geometry": {
        "type": "Polygon",
        "coordinates": [
          [
            [
              72.787109,
              18.910742
            ],
            [
              72.787109,
              18.909375
            ],
            [
              72.788477,
              18.908008
            ],
            [
              72.788477,
              18.906641
            ],
            [
              72.791211,
              18.903906
            ],
            [
              72.795312,
              18.903906
            ],
            [
              72.798047,
              18.906641
            ],
            [
              72.798047,
              18.912109
            ],
            [
              72.789844,
              18.912109
            ],
            [
              72.788477,
              18.910742
            ],
            [
              72.787109,
              18.910742
            ]
          ]
        ]
      }
    },
    {
      "type": "Feature",
      "properties": {
        "spill_id": "sentinel_386",
        "confidence": 0.85
      },
      "geometry": {
        "type": "Polygon",
        "coordinates": [
          [
            [
              72.699609,
              18.939453
            ],
            [
              72.690039,
              18.923047
            ],
            [
              72.688672,
              18.910742
            ],
            [
              72.700977,
              18.89707
            ],
            [
              72.702344,
              18.869727
            ],
            [
              72.721484,
              18.850586
            ],
            [
              72.736523,
              18.819141
            ],
            [
              72.739258,
              18.801367
            ],
            [
              72.758398,
              18.801367
            ],
            [
              72.763867,
              18.819141
            ],
            [
              72.765234,
              18.838281
            ],
            [
              72.75293,
              18.839648
            ],
            [
              72.739258,
              18.850586
            ],
            [
              72.731055,
              18.876562
            ],
            [
              72.729688,
              18.898438
            ],
            [
              72.724219,
              18.906641
            ],
            [
              72.720117,
              18.92168
            ],
            [
              72.705078,
              18.938086
            ],
            [
              72.699609,
              18.939453
            ]
          ]
        ]
      }
    },
    {
      "type": "Feature",
      "properties": {
        "spill_id": "sentinel_386",
        "confidence": 0.85
      },
      "geometry": {
        "type": "Polygon",
        "coordinates": [
          [
            [
              72.535547,
              19.050195
            ],
            [
              72.521875,
              19.031055
            ],
            [
              72.5,
              19.033789
            ],
            [
              72.5,
              18.994141
            ],
            [
              72.531445,
              19.000977
            ],
            [
              72.547852,
              18.992773
            ],
            [
              72.560156,
              18.955859
            ],
            [
              72.551953,
              18.947656
            ],
            [
              72.520508,
              18.964062
            ],
            [
              72.5,
              18.949023
            ],
            [
              72.5,
              18.884766
            ],
            [
              72.508203,
              18.872461
            ],
            [
              72.5,
              18.838281
            ],
            [
              72.521875,
              18.841016
            ],
            [
              72.542383,
              18.801367
            ],
            [
              72.613477,
              18.808203
            ],
            [
              72.62168,
              18.824609
            ],
            [
              72.616211,
              18.836914
            ],
            [
              72.602539,
              18.836914
            ],
            [
              72.610742,
              18.827344
            ],
            [
              72.605273,
              18.819141
            ],
            [
              72.539648,
              18.85332
            ],
            [
              72.527344,
              18.882031
            ],
            [
              72.530078,
              18.898438
            ],
            [
              72.50957,
              18.910742
            ],
            [
              72.515039,
              18.928516
            ],
            [
              72.53418,
              18.936719
            ],
            [
              72.571094,
              18.899805
            ],
            [
              72.582031,
              18.903906
            ],
            [
              72.557422,
              18.94082
            ],
            [
              72.582031,
              18.973633
            ],
            [
              72.568359,
              18.990039
            ],
            [
              72.580664,
              19.032422
            ],
            [
              72.535547,
              19.050195
            ]
          ]
        ]
      }
    },
    {
      "type": "Feature",
      "properties": {
        "spill_id": "sentinel_386",
        "confidence": 0.85
      },
      "geometry": {
        "type": "Polygon",
        "coordinates": [
          [
            [
              72.724219,
              19.024219
            ],
            [
              72.720117,
              19.029687
            ],
            [
              72.713281,
              19.029687
            ],
            [
              72.702344,
              19.043359
            ],
            [
              72.699609,
              19.055664
            ],
            [
              72.694141,
              19.059766
            ],
            [
              72.687305,
              19.061133
            ],
            [
              72.673633,
              19.057031
            ],
            [
              72.664062,
              19.057031
            ],
            [
              72.661328,
              19.047461
            ],
            [
              72.662695,
              19.046094
            ],
            [
              72.659961,
              19.043359
            ],
            [
              72.654492,
              19.043359
            ],
            [
              72.646289,
              19.036523
            ],
            [
              72.628516,
              19.035156
            ],
            [
              72.627148,
              19.032422
            ],
            [
              72.628516,
              19.025586
            ],
            [
              72.633984,
              19.022852
            ],
            [
              72.642187,
              19.026953
            ],
            [
              72.655859,
              19.02832
            ],
            [
              72.666797,
              19.039258
            ],
            [
              72.669531,
              19.039258
            ],
            [
              72.676367,
              19.033789
            ],
            [
              72.681836,
              19.022852
            ],
            [
              72.694141,
              19.011914
            ],
            [
              72.696875,
              18.999609
            ],
            [
              72.702344,
              18.999609
            ],
            [
              72.705078,
              19.010547
            ],
            [
              72.711914,
              19.016016
            ],
            [
              72.720117,
              19.017383
            ],
            [
              72.724219,
              19.024219
            ]
          ]
        ]
      }
    },
    {
      "type": "Feature",
      "properties": {
        "spill_id": "sentinel_386",
        "confidence": 0.85
      },
      "geometry": {
        "type": "Polygon",
        "coordinates": [
          [
            [
              72.766602,
              19.088477
            ],
            [
              72.766602,
              19.084375
            ],
            [
              72.769336,
              19.081641
            ],
            [
              72.770703,
              19.081641
            ],
            [
              72.77207,
              19.080273
            ],
            [
              72.776172,
              19.080273
            ],
            [
              72.777539,
              19.078906
            ],
            [
              72.781641,
              19.078906
            ],
            [
              72.783008,
              19.080273
            ],
            [
              72.784375,
              19.078906
            ],
            [
              72.788477,
              19.078906
            ],
            [
              72.789844,
              19.077539
            ],
            [
              72.789844,
              19.076172
            ],
            [
              72.791211,
              19.074805
            ],
            [
              72.791211,
              19.07207
            ],
            [
              72.793945,
              19.069336
            ],
            [
              72.793945,
              19.067969
            ],
            [
              72.795312,
              19.067969
            ],
            [
              72.798047,
              19.065234
            ],
            [
              72.803516,
              19.065234
            ],
            [
              72.804883,
              19.066602
            ],
            [
              72.804883,
              19.067969
            ],
            [
              72.80625,
              19.069336
            ],
            [
              72.80625,
              19.074805
            ],
            [
              72.79668,
              19.083008
            ],
            [
              72.79668,
              19.084375
            ],
            [
              72.795312,
              19.085742
            ],
            [
              72.795312,
              19.088477
            ],
            [
              72.791211,
              19.093945
            ],
            [
              72.789844,
              19.093945
            ],
            [
              72.788477,
              19.095312
            ],
            [
              72.777539,
              19.095312
            ],
            [
              72.776172,
              19.093945
            ],
            [
              72.773438,
              19.093945
            ],
            [
              72.77207,
              19.092578
            ],
            [
              72.770703,
              19.092578
            ],
            [
              72.766602,
              19.088477
            ]
          ]
        ]
      }
    },
    {
      "type": "Feature",
      "properties": {
        "spill_id": "sentinel_386",
        "confidence": 0.85
      },
      "geometry": {
        "type": "Polygon",
        "coordinates": [
          [
            [
              72.635352,
              19.11582
            ],
            [
              72.628516,
              19.107617
            ],
            [
              72.628516,
              19.088477
            ],
            [
              72.629883,
              19.087109
            ],
            [
              72.63125,
              19.080273
            ],
            [
              72.635352,
              19.07207
            ],
            [
              72.638086,
              19.069336
            ],
            [
              72.651758,
              19.0625
            ],
            [
              72.654492,
              19.058398
            ],
            [
              72.655859,
              19.058398
            ],
            [
              72.661328,
              19.069336
            ],
            [
              72.661328,
              19.073438
            ],
            [
              72.664062,
              19.078906
            ],
            [
              72.664062,
              19.085742
            ],
            [
              72.662695,
              19.087109
            ],
            [
              72.658594,
              19.087109
            ],
            [
              72.644922,
              19.093945
            ],
            [
              72.64082,
              19.098047
            ],
            [
              72.64082,
              19.102148
            ],
            [
              72.639453,
              19.103516
            ],
            [
              72.639453,
              19.114453
            ],
            [
              72.638086,
              19.11582
            ],
            [
              72.635352,
              19.11582
            ]
          ]
        ]
      }
    },
    {
      "type": "Feature",
      "properties": {
        "spill_id": "sentinel_386",
        "confidence": 0.85
      },
      "geometry": {
        "type": "Polygon",
        "coordinates": [
          [
            [
              72.813086,
              19.148633
            ],
            [
              72.813086,
              19.143164
            ],
            [
              72.811719,
              19.141797
            ],
            [
              72.811719,
              19.14043
            ],
            [
              72.813086,
              19.139062
            ],
            [
              72.813086,
              19.136328
            ],
            [
              72.81582,
              19.133594
            ],
            [
              72.81582,
              19.132227
            ],
            [
              72.817187,
              19.132227
            ],
            [
              72.824023,
              19.126758
            ],
            [
              72.825391,
              19.126758
            ],
            [
              72.832227,
              19.122656
            ],
            [
              72.837695,
              19.122656
            ],
            [
              72.839062,
              19.121289
            ],
            [
              72.848633,
              19.121289
            ],
            [
              72.848633,
              19.15
            ],
            [
              72.814453,
              19.15
            ],
            [
              72.813086,
              19.148633
            ]
          ]
        ]
      }
    },
    {
      "type": "Feature",
      "properties": {
        "spill_id": "sentinel_386",
        "confidence": 0.85
      },
      "geometry": {
        "type": "Polygon",
        "coordinates": [
          [
            [
              72.5,
              19.128125
            ],
            [
              72.501367,
              19.129492
            ],
            [
              72.504102,
              19.129492
            ],
            [
              72.505469,
              19.126758
            ],
            [
              72.506836,
              19.126758
            ],
            [
              72.512305,
              19.130859
            ],
            [
              72.515039,
              19.130859
            ],
            [
              72.520508,
              19.128125
            ],
            [
              72.531445,
              19.128125
            ],
            [
              72.550586,
              19.137695
            ],
            [
              72.557422,
              19.144531
            ],
            [
              72.557422,
              19.15
            ],
            [
              72.508203,
              19.15
            ],
            [
              72.508203,
              19.143164
            ],
            [
              72.50957,
              19.141797
            ],
            [
              72.50957,
              19.139062
            ],
            [
              72.502734,
              19.134961
            ],
            [
              72.5,
              19.134961
            ],
            [
              72.5,
              19.128125
            ]
          ]
        ]
      }
    }
  ]
}