{
  "type": "FeatureCollection",
  "features": [
    {
      "type": "Feature",
      "properties": {
        "spill_id": "sentinel_571",
        "confidence": 0.89
      },
      "geometry": {
        "type": "Polygon",
        "coordinates": [
          [
            [
              72.669531,
              19.00918
            ],
            [
              72.64082,
              19.006445
            ],
            [
              72.633984,
              18.999609
            ],
            [
              72.632617,
              18.973633
            ],
            [
              72.618945,
              18.966797
            ],
            [
              72.598438,
              18.94082
            ],
            [
              72.602539,
              18.923047
            ],
            [
              72.5875,
              18.906641
            ],
            [
              72.5875,
              18.875195
            ],
            [
              72.562891,
              18.866992
            ],
            [
              72.557422,
              18.858789
            ],
            [
              72.560156,
              18.842383
            ],
            [
              72.571094,
              18.831445
            ],
            [
              72.579297,
              18.80957
            ],
            [
              72.612109,
              18.80957
            ],
            [
              72.624414,
              18.827344
            ],
            [
              72.62168,
              18.841016
            ],
            [
              72.629883,
              18.857422
            ],
            [
              72.628516,
              18.866992
            ],
            [
              72.635352,
              18.872461
            ],
            [
              72.649023,
              18.869727
            ],
            [
              72.658594,
              18.87793
            ],
            [
              72.675,
              18.929883
            ],
            [
              72.692773,
              18.942188
            ],
            [
              72.700977,
              18.954492
            ],
            [
              72.702344,
              18.980469
            ],
            [
              72.688672,
              18.985938
            ],
            [
              72.68457,
              18.998242
            ],
            [
              72.669531,
              19.00918
            ]
          ]
        ]
      }
    },
    {
      "type": "Feature",
      "properties": {
        "spill_id": "sentinel_571",
        "confidence": 0.89
      },
      "geometry": {
        "type": "Polygon",
        "coordinates": [
          [
            [
              72.618945,
              19.067969
            ],
            [
              72.614844,
              19.063867
            ],
            [
              72.613477,
              19.059766
            ],
            [
              72.614844,
              19.058398
            ],
            [
              72.614844,
              19.057031
            ],
            [
              72.62168,
              19.050195
            ],
            [
              72.62168,
              19.047461
            ],
            [
              72.623047,
              19.046094
            ],
            [
              72.624414,
              19.046094
            ],
            [
              72.627148,
              19.043359
            ],
            [
              72.629883,
              19.043359
            ],
            [
              72.633984,
              19.047461
            ],
            [
              72.638086,
              19.047461
            ],
            [
              72.64082,
              19.050195
            ],
            [
              72.642187,
              19.050195
            ],
            [
              72.643555,
              19.051562
            ],
            [
              72.643555,
              19.05293
            ],
            [
              72.644922,
              19.054297
            ],
            [
              72.644922,
              19.057031
            ],
            [
              72.646289,
              19.058398
            ],
            [
              72.646289,
              19.061133
            ],
            [
              72.644922,
              19.0625
            ],
            [
              72.643555,
              19.0625
            ],
            [
              72.642187,
              19.063867
            ],
            [
              72.638086,
              19.065234
            ],
            [
              72.635352,
              19.067969
            ],
            [
              72.63125,
              19.067969
            ],
            [
              72.629883,
              19.069336
            ],
            [
              72.624414,
              19.069336
            ],
            [
              72.623047,
              19.067969
            ],
            [
              72.618945,
              19.067969
            ]
          ]
        ]
      }
    }
  ]
}