{
  "type": "FeatureCollection",
  "features": [
    {
      "type": "Feature",
      "properties": {
        "spill_id": "sentinel_272",
        "confidence": 0.97
      },
      "geometry": {
        "type": "Polygon",
        "coordinates": [
          [
            [
              72.848633,
              19.15
            ],
            [
              72.5,
              19.15
            ],
            [
              72.5,
              18.835547
            ],
            [
              72.530078,
              18.841016
            ],
            [
              72.520508,
              18.819141
            ],
            [
              72.525977,
              18.801367
            ],
            [
              72.658594,
              18.802734
            ],
            [
              72.649023,
              18.849219
            ],
            [
              72.670898,
              18.903906
            ],
            [
              72.716016,
              18.947656
            ],
            [
              72.754297,
              19.014648
            ],
            [
              72.773438,
              18.994141
            ],
            [
              72.789844,
              19.010547
            ],
            [
              72.848633,
              19.00918
            ],
            [
              72.848633,
              19.15
            ]
          ]
        ]
      }
    }
  ]
}