{
  "type": "FeatureCollection",
  "features": [
    {
      "type": "Feature",
      "properties": {
        "spill_id": "sentinel_603",
        "confidence": 0.76
      },
      "geometry": {
        "type": "Polygon",
        "coordinates": [
          [
            [
              72.688672,
              19.000977
            ],
            [
              72.688672,
              18.990039
            ],
            [
              72.692773,
              18.990039
            ],
            [
              72.694141,
              18.991406
            ],
            [
              72.694141,
              18.994141
            ],
            [
              72.695508,
              18.995508
            ],
            [
              72.695508,
              18.998242
            ],
            [
              72.694141,
              18.999609
            ],
            [
              72.692773,
              18.999609
            ],
            [
              72.691406,
              19.000977
            ],
            [
              72.688672,
              19.000977
            ]
          ]
        ]
      }
    },
    {
      "type": "Feature",
      "properties": {
        "spill_id": "sentinel_603",
        "confidence": 0.76
      },
      "geometry": {
        "type": "Polygon",
        "coordinates": [
          [
            [
              72.527344,
              19.05293
            ],
            [
              72.512305,
              19.051562
            ],
            [
              72.506836,
              19.043359
            ],
            [
              72.505469,
              19.032422
            ],
            [
              72.510938,
              19.007812
            ],
            [
              72.5,
              18.998242
            ],
            [
              72.5,
              18.860156
            ],
            [
              72.519141,
              18.851953
            ],
            [
              72.524609,
              18.857422
            ],
            [
              72.524609,
              18.868359
            ],
            [
              72.528711,
              18.872461
            ],
            [
              72.538281,
              18.872461
            ],
            [
              72.54375,
              18.8875
            ],
            [
              72.541016,
              18.89707
            ],
            [
              72.528711,
              18.908008
            ],
            [
              72.525977,
              18.917578
            ],
            [
              72.527344,
              18.927148
            ],
            [
              72.536914,
              18.933984
            ],
            [
              72.532812,
              18.961328
            ],
            [
              72.524609,
              18.975
            ],
            [
              72.538281,
              18.996875
            ],
            [
              72.532812,
              19.005078
            ],
            [
              72.536914,
              19.036523
            ],
            [
              72.531445,
              19.040625
            ],
            [
              72.531445,
              19.048828
            ],
            [
              72.527344,
              19.05293
            ]
          ]
        ]
      }
    },
    {
      "type": "Feature",
      "properties": {
        "spill_id": "sentinel_603",
        "confidence": 0.76
      },
      "geometry": {
        "type": "Polygon",
        "coordinates": [
          [
            [
              72.659961,
              19.15
            ],
            [
              72.670898,
              19.133594
            ],
            [
              72.649023,
              19.114453
            ],
            [
              72.651758,
              19.087109
            ],
            [
              72.700977,
              19.084375
            ],
            [
              72.696875,
              19.043359
            ],
            [
              72.706445,
              19.022852
            ],
            [
              72.726953,
              19.020117
            ],
            [
              72.747461,
              19.02832
            ],
            [
              72.759766,
              19.01875
            ],
            [
              72.7625,
              18.949023
            ],
            [
              72.770703,
              18.942188
            ],
            [
              72.788477,
              18.943555
            ],
            [
              72.803516,
              18.955859
            ],
            [
              72.824023,
              18.943555
            ],
            [
              72.84043,
              18.953125
            ],
            [
              72.845898,
              18.949023
            ],
            [
              72.848633,
              18.985938
            ],
            [
              72.832227,
              18.973633
            ],
            [
              72.828125,
              18.977734
            ],
            [
              72.834961,
              18.995508
            ],
            [
              72.848633,
              18.994141
            ],
            [
              72.848633,
              19.15
            ],
            [
              72.71875,
              19.15
            ],
            [
              72.685938,
              19.130859
            ],
            [
              72.670898,
              19.136328
            ],
            [
              72.690039,
              19.15
            ],
            [
              72.659961,
              19.15
            ]
          ]
        ]
      }
    },
    {
      "type": "Feature",
      "properties": {
        "spill_id": "sentinel_603",
        "confidence": 0.76
      },
      "geometry": {
        "type": "Polygon",
        "coordinates": [
          [
            [
              72.504102,
              19.15
            ],
            [
              72.5,
              19.145898
            ],
            [
              72.5,
              19.132227
            ],
            [
              72.504102,
              19.126758
            ],
            [
              72.506836,
              19.117188
            ],
            [
              72.505469,
              19.103516
            ],
            [
              72.520508,
              19.073438
            ],
            [
              72.519141,
              19.063867
            ],
            [
              72.524609,
              19.0625
            ],
            [
              72.531445,
              19.069336
            ],
            [
              72.535547,
              19.070703
            ],
            [
              72.535547,
              19.077539
            ],
            [
              72.541016,
              19.084375
            ],
            [
              72.541016,
              19.087109
            ],
            [
              72.536914,
              19.089844
            ],
            [
              72.530078,
              19.089844
            ],
            [
              72.525977,
              19.098047
            ],
            [
              72.525977,
              19.107617
            ],
            [
              72.528711,
              19.110352
            ],
            [
              72.528711,
              19.11582
            ],
            [
              72.525977,
              19.125391
            ],
            [
              72.524609,
              19.144531
            ],
            [
              72.521875,
              19.147266
            ],
            [
              72.521875,
              19.15
            ],
            [
              72.504102,
              19.15
            ]
          ]
        ]
      }
    }
  ]
}