{
  "type": "FeatureCollection",
  "features": [
    {
      "type": "Feature",
      "properties": {
        "spill_id": "sentinel_492",
        "confidence": 0.91
      },
      "geometry": {
        "type": "Polygon",
        "coordinates": [
          [
            [
              72.839062,
              19.026953
            ],
            [
              72.839062,
              19.014648
            ],
            [
              72.841797,
              19.011914
            ],
            [
              72.843164,
              19.011914
            ],
            [
              72.844531,
              19.010547
            ],
            [
              72.845898,
              19.010547
            ],
            [
              72.845898,
              19.011914
            ],
            [
              72.848633,
              19.014648
            ],
            [
              72.848633,
              19.025586
            ],
            [
              72.847266,
              19.025586
            ],
            [
              72.845898,
              19.026953
            ],
            [
              72.843164,
              19.026953
            ],
            [
              72.841797,
              19.025586
            ],
            [
              72.84043,
              19.025586
            ],
            [
              72.839062,
              19.026953
            ]
          ]
        ]
      }
    },
    {
      "type": "Feature",
      "properties": {
        "spill_id": "sentinel_492",
        "confidence": 0.91
      },
      "geometry": {
        "type": "Polygon",
        "coordinates": [
          [
            [
              72.739258,
              19.095312
            ],
            [
              72.739258,
              19.092578
            ],
            [
              72.743359,
              19.088477
            ],
            [
              72.743359,
              19.087109
            ],
            [
              72.744727,
              19.088477
            ],
            [
              72.754297,
              19.088477
            ],
            [
              72.755664,
              19.089844
            ],
            [
              72.757031,
              19.089844
            ],
            [
              72.757031,
              19.09668
            ],
            [
              72.75293,
              19.100781
            ],
            [
              72.751562,
              19.100781
            ],
            [
              72.750195,
              19.102148
            ],
            [
              72.746094,
              19.102148
            ],
            [
              72.743359,
              19.099414
            ],
            [
              72.741992,
              19.099414
            ],
            [
              72.741992,
              19.098047
            ],
            [
              72.739258,
              19.095312
            ]
          ]
        ]
      }
    },
    {
      "type": "Feature",
      "properties": {
        "spill_id": "sentinel_492",
        "confidence": 0.91
      },
      "geometry": {
        "type": "Polygon",
        "coordinates": [
          [
            [
              72.783008,
              19.15
            ],
            [
              72.788477,
              19.145898
            ],
            [
              72.788477,
              19.14043
            ],
            [
              72.799414,
              19.126758
            ],
            [
              72.799414,
              19.121289
            ],
            [
              72.813086,
              19.098047
            ],
            [
              72.811719,
              19.092578
            ],
            [
              72.81582,
              19.081641
            ],
            [
              72.825391,
              19.069336
            ],
            [
              72.834961,
              19.065234
            ],
            [
              72.834961,
              19.061133
            ],
            [
              72.829492,
              19.057031
            ],
            [
              72.833594,
              19.054297
            ],
            [
              72.829492,
              19.050195
            ],
            [
              72.837695,
              19.043359
            ],
            [
              72.848633,
              19.043359
            ],
            [
              72.848633,
              19.15
            ],
            [
              72.783008,
              19.15
            ]
          ]
        ]
      }
    },
    {
      "type": "Feature",
      "properties": {
        "spill_id": "sentinel_492",
        "confidence": 0.91
      },
      "geometry": {
        "type": "Polygon",
        "coordinates": [
          [
            [
              72.72832,
              19.15
            ],
            [
              72.726953,
              19.148633
            ],
            [
              72.726953,
              19.145898
            ],
            [
              72.725586,
              19.144531
            ],
            [
              72.724219,
              19.144531
            ],
            [
              72.724219,
              19.141797
            ],
            [
              72.725586,
              19.14043
            ],
            [
              72.724219,
              19.139062
            ],
            [
              72.724219,
              19.136328
            ],
            [
              72.722852,
              19.134961
            ],
            [
              72.721484,
              19.134961
            ],
            [
              72.722852,
              19.130859
            ],
            [
              72.725586,
              19.130859
            ],
            [
              72.731055,
              19.125391
            ],
            [
              72.732422,
              19.125391
            ],
            [
              72.733789,
              19.126758
            ],
            [
              72.735156,
              19.126758
            ],
            [
              72.736523,
              19.125391
            ],
            [
              72.737891,
              19.126758
            ],
            [
              72.743359,
              19.126758
            ],
            [
              72.744727,
              19.128125
            ],
            [
              72.746094,
              19.128125
            ],
            [
              72.746094,
              19.129492
            ],
            [
              72.751562,
              19.136328
            ],
            [
              72.751562,
              19.14043
            ],
            [
              72.75293,
              19.141797
            ],
            [
              72.75293,
              19.144531
            ],
            [
              72.748828,
              19.148633
            ],
            [
              72.750195,
              19.15
            ],
            [
              72.72832,
              19.15
            ]
          ]
        ]
      }
    },
    {
      "type": "Feature",
      "properties": {
        "spill_id": "sentinel_492",
        "confidence": 0.91
      },
      "geometry": {
        "type": "Polygon",
        "coordinates": [
          [
            [
              72.5,
              19.15
            ],
            [
              72.5,
              18.801367
            ],
            [
              72.763867,
              18.801367
            ],
            [
              72.746094,
              18.836914
            ],
            [
              72.707812,
              18.839648
            ],
            [
              72.726953,
              18.865625
            ],
            [
              72.774805,
              18.831445
            ],
            [
              72.792578,
              18.845117
            ],
            [
              72.810352,
              18.836914
            ],
            [
              72.787109,
              18.801367
            ],
            [
              72.817187,
              18.802734
            ],
            [
              72.811719,
              18.816406
            ],
            [
              72.826758,
              18.824609
            ],
            [
              72.837695,
              18.817773
            ],
            [
              72.825391,
              18.802734
            ],
            [
              72.84043,
              18.801367
            ],
            [
              72.848633,
              18.856055
            ],
            [
              72.828125,
              18.876562
            ],
            [
              72.774805,
              18.888867
            ],
            [
              72.72832,
              18.955859
            ],
            [
              72.669531,
              18.964062
            ],
            [
              72.623047,
              18.999609
            ],
            [
              72.632617,
              19.039258
            ],
            [
              72.651758,
              19.037891
            ],
            [
              72.655859,
              19.088477
            ],
            [
              72.68457,
              19.070703
            ],
            [
              72.695508,
              19.080273
            ],
            [
              72.691406,
              19.107617
            ],
            [
              72.666797,
              19.119922
            ],
            [
              72.676367,
              19.15
            ],
            [
              72.650391,
              19.15
            ],
            [
              72.628516,
              19.108984
            ],
            [
              72.5875,
              19.11582
            ],
            [
              72.584766,
              19.15
            ],
            [
              72.5,
              19.15
            ]
          ]
        ]
      }
    }
  ]
}