{
  "type": "FeatureCollection",
  "features": [
    {
      "type": "Feature",
      "properties": {
        "spill_id": "sentinel_512",
        "confidence": 0.98
      },
      "geometry": {
        "type": "Polygon",
        "coordinates": [
          [
            [
              72.5,
              18.888867
            ],
            [
              72.5,
              18.879297
            ],
            [
              72.502734,
              18.879297
            ],
            [
              72.504102,
              18.880664
            ],
            [
              72.505469,
              18.879297
            ],
            [
              72.505469,
              18.87793
            ],
            [
              72.506836,
              18.879297
            ],
            [
              72.506836,
              18.880664
            ],
            [
              72.508203,
              18.882031
            ],
            [
              72.508203,
              18.8875
            ],
            [
              72.505469,
              18.8875
            ],
            [
              72.504102,
              18.886133
            ],
            [
              72.502734,
              18.8875
            ],
            [
              72.501367,
              18.8875
            ],
            [
              72.5,
              18.888867
            ]
          ]
        ]
      }
    },
    {
      "type": "Feature",
      "properties": {
        "spill_id": "sentinel_512",
        "confidence": 0.98
      },
      "geometry": {
        "type": "Polygon",
        "coordinates": [
          [
            [
              72.5,
              19.15
            ],
            [
              72.5,
              19.013281
            ],
            [
              72.520508,
              18.988672
            ],
            [
              72.5,
              18.983203
            ],
            [
              72.5,
              18.951758
            ],
            [
              72.530078,
              18.916211
            ],
            [
              72.515039,
              18.862891
            ],
            [
              72.5,
              18.864258
            ],
            [
              72.505469,
              18.802734
            ],
            [
              72.848633,
              18.801367
            ],
            [
              72.848633,
              19.15
            ],
            [
              72.5,
              19.15
            ]
          ]
        ]
      }
    }
  ]
}