{
  "type": "FeatureCollection",
  "features": [
    {
      "type": "Feature",
      "properties": {
        "spill_id": "sentinel_725",
        "confidence": 0.89
      },
      "geometry": {
        "type": "Polygon",
        "coordinates": [
          [
            [
              72.680469,
              18.879297
            ],
            [
              72.677734,
              18.879297
            ],
            [
              72.675,
              18.876562
            ],
            [
              72.675,
              18.860156
            ],
            [
              72.673633,
              18.858789
            ],
            [
              72.673633,
              18.85332
            ],
            [
              72.675,
              18.851953
            ],
            [
              72.680469,
              18.851953
            ],
            [
              72.680469,
              18.85332
            ],
            [
              72.683203,
              18.856055
            ],
            [
              72.683203,
              18.858789
            ],
            [
              72.68457,
              18.860156
            ],
            [
              72.68457,
              18.861523
            ],
            [
              72.685938,
              18.862891
            ],
            [
              72.685938,
              18.866992
            ],
            [
              72.687305,
              18.868359
            ],
            [
              72.687305,
              18.875195
            ],
            [
              72.68457,
              18.87793
            ],
            [
              72.681836,
              18.87793
            ],
            [
              72.680469,
              18.879297
            ]
          ]
        ]
      }
    },
    {
      "type": "Feature",
      "properties": {
        "spill_id": "sentinel_725",
        "confidence": 0.89
      },
      "geometry": {
        "type": "Polygon",
        "coordinates": [
          [
            [
              72.638086,
              18.902539
            ],
            [
              72.635352,
              18.902539
            ],
            [
              72.633984,
              18.903906
            ],
            [
              72.629883,
              18.903906
            ],
            [
              72.629883,
              18.902539
            ],
            [
              72.627148,
              18.899805
            ],
            [
              72.627148,
              18.89707
            ],
            [
              72.625781,
              18.895703
            ],
            [
              72.625781,
              18.894336
            ],
            [
              72.624414,
              18.892969
            ],
            [
              72.624414,
              18.890234
            ],
            [
              72.623047,
              18.888867
            ],
            [
              72.623047,
              18.886133
            ],
            [
              72.624414,
              18.884766
            ],
            [
              72.624414,
              18.883398
            ],
            [
              72.627148,
              18.880664
            ],
            [
              72.63125,
              18.880664
            ],
            [
              72.635352,
              18.884766
            ],
            [
              72.635352,
              18.8875
            ],
            [
              72.636719,
              18.888867
            ],
            [
              72.636719,
              18.890234
            ],
            [
              72.638086,
              18.891602
            ],
            [
              72.638086,
              18.892969
            ],
            [
              72.639453,
              18.894336
            ],
            [
              72.639453,
              18.901172
            ],
            [
              72.638086,
              18.902539
            ]
          ]
        ]
      }
    },
    {
      "type": "Feature",
      "properties": {
        "spill_id": "sentinel_725",
        "confidence": 0.89
      },
      "geometry": {
        "type": "Polygon",
        "coordinates": [
          [
            [
              72.53418,
              18.929883
            ],
            [
              72.532812,
              18.928516
            ],
            [
              72.530078,
              18.928516
            ],
            [
              72.527344,
              18.925781
            ],
            [
              72.527344,
              18.92168
            ],
            [
              72.528711,
              18.920312
            ],
            [
              72.528711,
              18.917578
            ],
            [
              72.530078,
              18.916211
            ],
            [
              72.531445,
              18.916211
            ],
            [
              72.532812,
              18.917578
            ],
            [
              72.53418,
              18.917578
            ],
            [
              72.535547,
              18.918945
            ],
            [
              72.535547,
              18.920312
            ],
            [
              72.536914,
              18.92168
            ],
            [
              72.536914,
              18.925781
            ],
            [
              72.53418,
              18.928516
            ],
            [
              72.53418,
              18.929883
            ]
          ]
        ]
      }
    },
    {
      "type": "Feature",
      "properties": {
        "spill_id": "sentinel_725",
        "confidence": 0.89
      },
      "geometry": {
        "type": "Polygon",
        "coordinates": [
          [
            [
              72.666797,
              18.942188
            ],
            [
              72.66543,
              18.94082
            ],
            [
              72.66543,
              18.939453
            ],
            [
              72.664062,
              18.938086
            ],
            [
              72.664062,
              18.935352
            ],
            [
              72.662695,
              18.933984
            ],
            [
              72.662695,
              18.927148
            ],
            [
              72.664062,
              18.925781
            ],
            [
              72.664062,
              18.924414
            ],
            [
              72.66543,
              18.923047
            ],
            [
              72.666797,
              18.923047
            ],
            [
              72.668164,
              18.924414
            ],
            [
              72.669531,
              18.924414
            ],
            [
              72.670898,
              18.925781
            ],
            [
              72.672266,
              18.925781
            ],
            [
              72.676367,
              18.929883
            ],
            [
              72.676367,
              18.935352
            ],
            [
              72.670898,
              18.94082
            ],
            [
              72.668164,
              18.94082
            ],
            [
              72.666797,
              18.942188
            ]
          ]
        ]
      }
    },
    {
      "type": "Feature",
      "properties": {
        "spill_id": "sentinel_725",
        "confidence": 0.89
      },
      "geometry": {
        "type": "Polygon",
        "coordinates": [
          [
            [
              72.633984,
              18.950391
            ],
            [
              72.63125,
              18.950391
            ],
            [
              72.629883,
              18.951758
            ],
            [
              72.627148,
              18.951758
            ],
            [
              72.625781,
              18.953125
            ],
            [
              72.618945,
              18.951758
            ],
            [
              72.608008,
              18.94082
            ],
            [
              72.608008,
              18.939453
            ],
            [
              72.606641,
              18.938086
            ],
            [
              72.606641,
              18.927148
            ],
            [
              72.610742,
              18.920312
            ],
            [
              72.612109,
              18.920312
            ],
            [
              72.616211,
              18.917578
            ],
            [
              72.627148,
              18.917578
            ],
            [
              72.629883,
              18.920312
            ],
            [
              72.63125,
              18.920312
            ],
            [
              72.63125,
              18.92168
            ],
            [
              72.633984,
              18.924414
            ],
            [
              72.633984,
              18.925781
            ],
            [
              72.636719,
              18.929883
            ],
            [
              72.636719,
              18.932617
            ],
            [
              72.638086,
              18.933984
            ],
            [
              72.638086,
              18.944922
            ],
            [
              72.633984,
              18.950391
            ]
          ]
        ]
      }
    },
    {
      "type": "Feature",
      "properties": {
        "spill_id": "sentinel_725",
        "confidence": 0.89
      },
      "geometry": {
        "type": "Polygon",
        "coordinates": [
          [
            [
              72.769336,
              18.992773
            ],
            [
              72.767969,
              18.992773
            ],
            [
              72.766602,
              18.994141
            ],
            [
              72.763867,
              18.994141
            ],
            [
              72.7625,
              18.992773
            ],
            [
              72.759766,
              18.992773
            ],
            [
              72.758398,
              18.991406
            ],
            [
              72.757031,
              18.991406
            ],
            [
              72.754297,
              18.988672
            ],
            [
              72.75293,
              18.988672
            ],
            [
              72.747461,
              18.983203
            ],
            [
              72.750195,
              18.983203
            ],
            [
              72.75293,
              18.980469
            ],
            [
              72.754297,
              18.980469
            ],
            [
              72.755664,
              18.981836
            ],
            [
              72.757031,
              18.981836
            ],
            [
              72.758398,
              18.983203
            ],
            [
              72.759766,
              18.983203
            ],
            [
              72.761133,
              18.98457
            ],
            [
              72.7625,
              18.98457
            ],
            [
              72.763867,
              18.985938
            ],
            [
              72.765234,
              18.985938
            ],
            [
              72.769336,
              18.990039
            ],
            [
              72.769336,
              18.992773
            ]
          ]
        ]
      }
    },
    {
      "type": "Feature",
      "properties": {
        "spill_id": "sentinel_725",
        "confidence": 0.89
      },
      "geometry": {
        "type": "Polygon",
        "coordinates": [
          [
            [
              72.714648,
              18.992773
            ],
            [
              72.713281,
              18.992773
            ],
            [
              72.711914,
              18.994141
            ],
            [
              72.703711,
              18.994141
            ],
            [
              72.702344,
              18.992773
            ],
            [
              72.698242,
              18.991406
            ],
            [
              72.695508,
              18.988672
            ],
            [
              72.694141,
              18.988672
            ],
            [
              72.688672,
              18.983203
            ],
            [
              72.688672,
              18.981836
            ],
            [
              72.680469,
              18.973633
            ],
            [
              72.680469,
              18.968164
            ],
            [
              72.68457,
              18.964062
            ],
            [
              72.685938,
              18.964062
            ],
            [
              72.687305,
              18.962695
            ],
            [
              72.695508,
              18.962695
            ],
            [
              72.696875,
              18.964062
            ],
            [
              72.699609,
              18.964062
            ],
            [
              72.700977,
              18.96543
            ],
            [
              72.702344,
              18.96543
            ],
            [
              72.707812,
              18.970898
            ],
            [
              72.707812,
              18.972266
            ],
            [
              72.717383,
              18.981836
            ],
            [
              72.717383,
              18.98457
            ],
            [
              72.716016,
              18.985938
            ],
            [
              72.714648,
              18.992773
            ]
          ]
        ]
      }
    },
    {
      "type": "Feature",
      "properties": {
        "spill_id": "sentinel_725",
        "confidence": 0.89
      },
      "geometry": {
        "type": "Polygon",
        "coordinates": [
          [
            [
              72.785742,
              19.047461
            ],
            [
              72.780273,
              19.047461
            ],
            [
              72.778906,
              19.046094
            ],
            [
              72.774805,
              19.046094
            ],
            [
              72.77207,
              19.043359
            ],
            [
              72.770703,
              19.043359
            ],
            [
              72.767969,
              19.040625
            ],
            [
              72.767969,
              19.037891
            ],
            [
              72.770703,
              19.035156
            ],
            [
              72.770703,
              19.032422
            ],
            [
              72.774805,
              19.032422
            ],
            [
              72.776172,
              19.033789
            ],
            [
              72.776172,
              19.035156
            ],
            [
              72.785742,
              19.044727
            ],
            [
              72.785742,
              19.047461
            ]
          ]
        ]
      }
    },
    {
      "type": "Feature",
      "properties": {
        "spill_id": "sentinel_725",
        "confidence": 0.89
      },
      "geometry": {
        "type": "Polygon",
        "coordinates": [
          [
            [
              72.525977,
              19.102148
            ],
            [
              72.519141,
              19.102148
            ],
            [
              72.515039,
              19.104883
            ],
            [
              72.506836,
              19.104883
            ],
            [
              72.5,
              19.100781
            ],
            [
              72.5,
              19.07207
            ],
            [
              72.501367,
              19.07207
            ],
            [
              72.508203,
              19.067969
            ],
            [
              72.50957,
              19.069336
            ],
            [
              72.515039,
              19.069336
            ],
            [
              72.516406,
              19.070703
            ],
            [
              72.517773,
              19.070703
            ],
            [
              72.517773,
              19.073438
            ],
            [
              72.519141,
              19.074805
            ],
            [
              72.517773,
              19.076172
            ],
            [
              72.517773,
              19.078906
            ],
            [
              72.519141,
              19.080273
            ],
            [
              72.519141,
              19.083008
            ],
            [
              72.523242,
              19.089844
            ],
            [
              72.523242,
              19.092578
            ],
            [
              72.524609,
              19.093945
            ],
            [
              72.524609,
              19.09668
            ],
            [
              72.525977,
              19.098047
            ],
            [
              72.525977,
              19.102148
            ]
          ]
        ]
      }
    },
    {
      "type": "Feature",
      "properties": {
        "spill_id": "sentinel_725",
        "confidence": 0.89
      },
      "geometry": {
        "type": "Polygon",
        "coordinates": [
          [
            [
              72.848633,
              19.15
            ],
            [
              72.811719,
              19.141797
            ],
            [
              72.767969,
              19.15
            ],
            [
              72.743359,
              19.132227
            ],
            [
              72.721484,
              19.134961
            ],
            [
              72.716016,
              19.11582
            ],
            [
              72.669531,
              19.078906
            ],
            [
              72.653125,
              19.077539
            ],
            [
              72.618945,
              19.09668
            ],
            [
              72.612109,
              19.087109
            ],
            [
              72.624414,
              19.074805
            ],
            [
              72.595703,
              19.040625
            ],
            [
              72.535547,
              19.057031
            ],
            [
              72.542383,
              19.043359
            ],
            [
              72.59707,
              19.033789
            ],
            [
              72.603906,
              19.01875
            ],
            [
              72.571094,
              18.994141
            ],
            [
              72.524609,
              18.998242
            ],
            [
              72.505469,
              18.975
            ],
            [
              72.545117,
              18.983203
            ],
            [
              72.561523,
              18.970898
            ],
            [
              72.647656,
              19.003711
            ],
            [
              72.662695,
              18.987305
            ],
            [
              72.680469,
              18.994141
            ],
            [
              72.698242,
              19.016016
            ],
            [
              72.737891,
              19.033789
            ],
            [
              72.732422,
              19.046094
            ],
            [
              72.740625,
              19.055664
            ],
            [
              72.848633,
              19.095312
            ],
            [
              72.848633,
              19.15
            ]
          ]
        ]
      }
    },
    {
      "type": "Feature",
      "properties": {
        "spill_id": "sentinel_725",
        "confidence": 0.89
      },
      "geometry": {
        "type": "Polygon",
        "coordinates": [
          [
            [
              72.550586,
              19.15
            ],
            [
              72.547852,
              19.144531
            ],
            [
              72.538281,
              19.133594
            ],
            [
              72.535547,
              19.121289
            ],
            [
              72.531445,
              19.119922
            ],
            [
              72.530078,
              19.122656
            ],
            [
              72.528711,
              19.121289
            ],
            [
              72.527344,
              19.122656
            ],
            [
              72.528711,
              19.125391
            ],
            [
              72.525977,
              19.125391
            ],
            [
              72.527344,
              19.122656
            ],
            [
              72.523242,
              19.119922
            ],
            [
              72.523242,
              19.117188
            ],
            [
              72.527344,
              19.117188
            ],
            [
              72.53418,
              19.114453
            ],
            [
              72.536914,
              19.108984
            ],
            [
              72.542383,
              19.104883
            ],
            [
              72.554688,
              19.104883
            ],
            [
              72.557422,
              19.103516
            ],
            [
              72.562891,
              19.10625
            ],
            [
              72.568359,
              19.114453
            ],
            [
              72.573828,
              19.114453
            ],
            [
              72.57793,
              19.118555
            ],
            [
              72.579297,
              19.124023
            ],
            [
              72.572461,
              19.126758
            ],
            [
              72.568359,
              19.132227
            ],
            [
              72.565625,
              19.14043
            ],
            [
              72.565625,
              19.145898
            ],
            [
              72.562891,
              19.15
            ],
            [
              72.550586,
              19.15
            ]
          ]
        ]
      }
    }
  ]
}