{
  "type": "FeatureCollection",
  "features": [
    {
      "type": "Feature",
      "properties": {
        "spill_id": "sentinel_62",
        "confidence": 0.88
      },
      "geometry": {
        "type": "Polygon",
        "coordinates": [
          [
            [
              72.5,
              18.899805
            ],
            [
              72.5,
              18.868359
            ],
            [
              72.527344,
              18.871094
            ],
            [
              72.547852,
              18.856055
            ],
            [
              72.531445,
              18.816406
            ],
            [
              72.562891,
              18.813672
            ],
            [
              72.57793,
              18.801367
            ],
            [
              72.664062,
              18.801367
            ],
            [
              72.679102,
              18.821875
            ],
            [
              72.694141,
              18.828711
            ],
            [
              72.683203,
              18.861523
            ],
            [
              72.659961,
              18.884766
            ],
            [
              72.638086,
              18.891602
            ],
            [
              72.628516,
              18.902539
            ],
            [
              72.614844,
              18.902539
            ],
            [
              72.564258,
              18.928516
            ],
            [
              72.54375,
              18.908008
            ],
            [
              72.516406,
              18.909375
            ],
            [
              72.5,
              18.899805
            ]
          ]
        ]
      }
    },
    {
      "type": "Feature",
      "properties": {
        "spill_id": "sentinel_62",
        "confidence": 0.88
      },
      "geometry": {
        "type": "Polygon",
        "coordinates": [
          [
            [
              72.5,
              19.033789
            ],
            [
              72.5,
              19.011914
            ],
            [
              72.515039,
              19.011914
            ],
            [
              72.530078,
              18.992773
            ],
            [
              72.545117,
              18.987305
            ],
            [
              72.562891,
              18.970898
            ],
            [
              72.610742,
              18.954492
            ],
            [
              72.639453,
              18.928516
            ],
            [
              72.670898,
              18.932617
            ],
            [
              72.71875,
              18.908008
            ],
            [
              72.755664,
              18.865625
            ],
            [
              72.765234,
              18.868359
            ],
            [
              72.766602,
              18.888867
            ],
            [
              72.733789,
              18.936719
            ],
            [
              72.679102,
              18.959961
            ],
            [
              72.653125,
              18.961328
            ],
            [
              72.643555,
              18.970898
            ],
            [
              72.62168,
              18.972266
            ],
            [
              72.584766,
              18.996875
            ],
            [
              72.562891,
              18.995508
            ],
            [
              72.53418,
              19.021484
            ],
            [
              72.5,
              19.033789
            ]
          ]
        ]
      }
    }
  ]
}