{
  "type": "FeatureCollection",
  "features": [
    {
      "type": "Feature",
      "properties": {
        "spill_id": "sentinel_174",
        "confidence": 0.77
      },
      "geometry": {
        "type": "Polygon",
        "coordinates": [
          [
            [
              72.759766,
              18.812305
            ],
            [
              72.758398,
              18.812305
            ],
            [
              72.757031,
              18.813672
            ],
            [
              72.755664,
              18.813672
            ],
            [
              72.754297,
              18.812305
            ],
            [
              72.751562,
              18.812305
            ],
            [
              72.750195,
              18.810938
            ],
            [
              72.746094,
              18.810938
            ],
            [
              72.744727,
              18.80957
            ],
            [
              72.740625,
              18.80957
            ],
            [
              72.736523,
              18.805469
            ],
            [
              72.739258,
              18.802734
            ],
            [
              72.740625,
              18.802734
            ],
            [
              72.741992,
              18.801367
            ],
            [
              72.747461,
              18.801367
            ],
            [
              72.748828,
              18.802734
            ],
            [
              72.751562,
              18.802734
            ],
            [
              72.751562,
              18.804102
            ],
            [
              72.75293,
              18.805469
            ],
            [
              72.755664,
              18.805469
            ],
            [
              72.758398,
              18.808203
            ],
            [
              72.758398,
              18.80957
            ],
            [
              72.759766,
              18.810938
            ],
            [
              72.759766,
              18.812305
            ]
          ]
        ]
      }
    },
    {
      "type": "Feature",
      "properties": {
        "spill_id": "sentinel_174",
        "confidence": 0.77
      },
      "geometry": {
        "type": "Polygon",
        "coordinates": [
          [
            [
              72.5,
              18.895703
            ],
            [
              72.5,
              18.832812
            ],
            [
              72.504102,
              18.828711
            ],
            [
              72.50957,
              18.827344
            ],
            [
              72.517773,
              18.819141
            ],
            [
              72.530078,
              18.815039
            ],
            [
              72.541016,
              18.801367
            ],
            [
              72.565625,
              18.801367
            ],
            [
              72.566992,
              18.805469
            ],
            [
              72.557422,
              18.816406
            ],
            [
              72.554688,
              18.827344
            ],
            [
              72.550586,
              18.832812
            ],
            [
              72.550586,
              18.839648
            ],
            [
              72.525977,
              18.860156
            ],
            [
              72.521875,
              18.871094
            ],
            [
              72.523242,
              18.883398
            ],
            [
              72.516406,
              18.8875
            ],
            [
              72.510938,
              18.8875
            ],
            [
              72.5,
              18.895703
            ]
          ]
        ]
      }
    },
    {
      "type": "Feature",
      "properties": {
        "spill_id": "sentinel_174",
        "confidence": 0.77
      },
      "geometry": {
        "type": "Polygon",
        "coordinates": [
          [
            [
              72.590234,
              18.89707
            ],
            [
              72.591602,
              18.895703
            ],
            [
              72.591602,
              18.892969
            ],
            [
              72.592969,
              18.892969
            ],
            [
              72.594336,
              18.891602
            ],
            [
              72.595703,
              18.891602
            ],
            [
              72.599805,
              18.888867
            ],
            [
              72.603906,
              18.888867
            ],
            [
              72.605273,
              18.8875
            ],
            [
              72.606641,
              18.8875
            ],
            [
              72.608008,
              18.886133
            ],
            [
              72.610742,
              18.886133
            ],
            [
              72.612109,
              18.884766
            ],
            [
              72.613477,
              18.886133
            ],
            [
              72.614844,
              18.886133
            ],
            [
              72.616211,
              18.8875
            ],
            [
              72.617578,
              18.8875
            ],
            [
              72.616211,
              18.888867
            ],
            [
              72.616211,
              18.89707
            ],
            [
              72.614844,
              18.898438
            ],
            [
              72.614844,
              18.899805
            ],
            [
              72.613477,
              18.899805
            ],
            [
              72.612109,
              18.901172
            ],
            [
              72.608008,
              18.901172
            ],
            [
              72.606641,
              18.902539
            ],
            [
              72.602539,
              18.902539
            ],
            [
              72.601172,
              18.903906
            ],
            [
              72.59707,
              18.903906
            ],
            [
              72.595703,
              18.902539
            ],
            [
              72.594336,
              18.902539
            ],
            [
              72.591602,
              18.899805
            ],
            [
              72.591602,
              18.898438
            ],
            [
              72.590234,
              18.89707
            ]
          ]
        ]
      }
    },
    {
      "type": "Feature",
      "properties": {
        "spill_id": "sentinel_174",
        "confidence": 0.77
      },
      "geometry": {
        "type": "Polygon",
        "coordinates": [
          [
            [
              72.655859,
              18.972266
            ],
            [
              72.657227,
              18.962695
            ],
            [
              72.680469,
              18.955859
            ],
            [
              72.68457,
              18.951758
            ],
            [
              72.687305,
              18.943555
            ],
            [
              72.700977,
              18.925781
            ],
            [
              72.714648,
              18.918945
            ],
            [
              72.721484,
              18.920312
            ],
            [
              72.726953,
              18.924414
            ],
            [
              72.726953,
              18.929883
            ],
            [
              72.721484,
              18.93125
            ],
            [
              72.710547,
              18.938086
            ],
            [
              72.710547,
              18.946289
            ],
            [
              72.706445,
              18.950391
            ],
            [
              72.698242,
              18.953125
            ],
            [
              72.694141,
              18.958594
            ],
            [
              72.691406,
              18.959961
            ],
            [
              72.690039,
              18.958594
            ],
            [
              72.680469,
              18.966797
            ],
            [
              72.668164,
              18.970898
            ],
            [
              72.659961,
              18.970898
            ],
            [
              72.658594,
              18.972266
            ],
            [
              72.657227,
              18.970898
            ],
            [
              72.655859,
              18.972266
            ]
          ]
        ]
      }
    },
    {
      "type": "Feature",
      "properties": {
        "spill_id": "sentinel_174",
        "confidence": 0.77
      },
      "geometry": {
        "type": "Polygon",
        "coordinates": [
          [
            [
              72.729688,
              18.983203
            ],
            [
              72.729688,
              18.981836
            ],
            [
              72.72832,
              18.980469
            ],
            [
              72.72832,
              18.979102
            ],
            [
              72.729688,
              18.977734
            ],
            [
              72.729688,
              18.973633
            ],
            [
              72.732422,
              18.973633
            ],
            [
              72.733789,
              18.972266
            ],
            [
              72.739258,
              18.972266
            ],
            [
              72.743359,
              18.968164
            ],
            [
              72.744727,
              18.968164
            ],
            [
              72.750195,
              18.962695
            ],
            [
              72.755664,
              18.962695
            ],
            [
              72.757031,
              18.964062
            ],
            [
              72.758398,
              18.964062
            ],
            [
              72.758398,
              18.96543
            ],
            [
              72.759766,
              18.966797
            ],
            [
              72.759766,
              18.970898
            ],
            [
              72.758398,
              18.972266
            ],
            [
              72.758398,
              18.975
            ],
            [
              72.754297,
              18.979102
            ],
            [
              72.754297,
              18.980469
            ],
            [
              72.751562,
              18.983203
            ],
            [
              72.751562,
              18.98457
            ],
            [
              72.750195,
              18.985938
            ],
            [
              72.744727,
              18.985938
            ],
            [
              72.743359,
              18.987305
            ],
            [
              72.737891,
              18.987305
            ],
            [
              72.736523,
              18.985938
            ],
            [
              72.733789,
              18.985938
            ],
            [
              72.731055,
              18.983203
            ],
            [
              72.729688,
              18.983203
            ]
          ]
        ]
      }
    },
    {
      "type": "Feature",
      "properties": {
        "spill_id": "sentinel_174",
        "confidence": 0.77
      },
      "geometry": {
        "type": "Polygon",
        "coordinates": [
          [
            [
              72.77207,
              19.043359
            ],
            [
              72.774805,
              19.043359
            ],
            [
              72.777539,
              19.040625
            ],
            [
              72.778906,
              19.040625
            ],
            [
              72.781641,
              19.043359
            ],
            [
              72.785742,
              19.043359
            ],
            [
              72.787109,
              19.044727
            ],
            [
              72.789844,
              19.044727
            ],
            [
              72.795312,
              19.050195
            ],
            [
              72.795312,
              19.054297
            ],
            [
              72.793945,
              19.055664
            ],
            [
              72.787109,
              19.055664
            ],
            [
              72.785742,
              19.054297
            ],
            [
              72.783008,
              19.054297
            ],
            [
              72.780273,
              19.057031
            ],
            [
              72.778906,
              19.057031
            ],
            [
              72.777539,
              19.055664
            ],
            [
              72.777539,
              19.054297
            ],
            [
              72.774805,
              19.051562
            ],
            [
              72.774805,
              19.048828
            ],
            [
              72.77207,
              19.046094
            ],
            [
              72.77207,
              19.043359
            ]
          ]
        ]
      }
    },
    {
      "type": "Feature",
      "properties": {
        "spill_id": "sentinel_174",
        "confidence": 0.77
      },
      "geometry": {
        "type": "Polygon",
        "coordinates": [
          [
            [
              72.765234,
              19.15
            ],
            [
              72.773438,
              19.132227
            ],
            [
              72.802148,
              19.121289
            ],
            [
              72.810352,
              19.114453
            ],
            [
              72.821289,
              19.095312
            ],
            [
              72.834961,
              19.098047
            ],
            [
              72.839062,
              19.093945
            ],
            [
              72.837695,
              19.081641
            ],
            [
              72.834961,
              19.078906
            ],
            [
              72.829492,
              19.080273
            ],
            [
              72.824023,
              19.085742
            ],
            [
              72.817187,
              19.069336
            ],
            [
              72.833594,
              19.057031
            ],
            [
              72.839062,
              19.048828
            ],
            [
              72.848633,
              19.046094
            ],
            [
              72.848633,
              19.061133
            ],
            [
              72.845898,
              19.063867
            ],
            [
              72.848633,
              19.076172
            ],
            [
              72.848633,
              19.15
            ],
            [
              72.765234,
              19.15
            ]
          ]
        ]
      }
    },
    {
      "type": "Feature",
      "properties": {
        "spill_id": "sentinel_174",
        "confidence": 0.77
      },
      "geometry": {
        "type": "Polygon",
        "coordinates": [
          [
            [
              72.5,
              19.050195
            ],
            [
              72.516406,
              19.066602
            ],
            [
              72.539648,
              19.067969
            ],
            [
              72.57793,
              19.032422
            ],
            [
              72.583398,
              19.00918
            ],
            [
              72.602539,
              18.987305
            ],
            [
              72.642187,
              18.970898
            ],
            [
              72.639453,
              18.999609
            ],
            [
              72.592969,
              19.033789
            ],
            [
              72.595703,
              19.07207
            ],
            [
              72.644922,
              19.029687
            ],
            [
              72.632617,
              19.070703
            ],
            [
              72.668164,
              19.09668
            ],
            [
              72.70918,
              19.092578
            ],
            [
              72.741992,
              19.07207
            ],
            [
              72.7625,
              19.074805
            ],
            [
              72.776172,
              19.065234
            ],
            [
              72.784375,
              19.07207
            ],
            [
              72.777539,
              19.087109
            ],
            [
              72.789844,
              19.091211
            ],
            [
              72.735156,
              19.15
            ],
            [
              72.584766,
              19.15
            ],
            [
              72.573828,
              19.132227
            ],
            [
              72.536914,
              19.130859
            ],
            [
              72.547852,
              19.108984
            ],
            [
              72.569727,
              19.117188
            ],
            [
              72.575195,
              19.089844
            ],
            [
              72.556055,
              19.073438
            ],
            [
              72.539648,
              19.084375
            ],
            [
              72.5,
              19.087109
            ],
            [
              72.5,
              19.050195
            ]
          ]
        ]
      }
    }
  ]
}