{
  "type": "FeatureCollection",
  "features": [
    {
      "type": "Feature",
      "properties": {
        "spill_id": "sentinel_556",
        "confidence": 0.88
      },
      "geometry": {
        "type": "Polygon",
        "coordinates": [
          [
            [
              72.658594,
              18.808203
            ],
            [
              72.651758,
              18.813672
            ],
            [
              72.655859,
              18.823242
            ],
            [
              72.654492,
              18.827344
            ],
            [
              72.63125,
              18.831445
            ],
            [
              72.609375,
              18.830078
            ],
            [
              72.601172,
              18.832812
            ],
            [
              72.584766,
              18.832812
            ],
            [
              72.562891,
              18.820508
            ],
            [
              72.536914,
              18.813672
            ],
            [
              72.524609,
              18.816406
            ],
            [
              72.5,
              18.813672
            ],
            [
              72.5,
              18.802734
            ],
            [
              72.586133,
              18.801367
            ],
            [
              72.591602,
              18.805469
            ],
            [
              72.599805,
              18.801367
            ],
            [
              72.657227,
              18.801367
            ],
            [
              72.658594,
              18.808203
            ]
          ]
        ]
      }
    },
    {
      "type": "Feature",
      "properties": {
        "spill_id": "sentinel_556",
        "confidence": 0.88
      },
      "geometry": {
        "type": "Polygon",
        "coordinates": [
          [
            [
              72.848633,
              18.854688
            ],
            [
              72.836328,
              18.860156
            ],
            [
              72.833594,
              18.860156
            ],
            [
              72.832227,
              18.858789
            ],
            [
              72.829492,
              18.851953
            ],
            [
              72.834961,
              18.847852
            ],
            [
              72.834961,
              18.839648
            ],
            [
              72.830859,
              18.832812
            ],
            [
              72.822656,
              18.824609
            ],
            [
              72.819922,
              18.813672
            ],
            [
              72.814453,
              18.806836
            ],
            [
              72.81582,
              18.801367
            ],
            [
              72.84043,
              18.801367
            ],
            [
              72.844531,
              18.805469
            ],
            [
              72.845898,
              18.812305
            ],
            [
              72.848633,
              18.816406
            ],
            [
              72.848633,
              18.854688
            ]
          ]
        ]
      }
    },
    {
      "type": "Feature",
      "properties": {
        "spill_id": "sentinel_556",
        "confidence": 0.88
      },
      "geometry": {
        "type": "Polygon",
        "coordinates": [
          [
            [
              72.810352,
              18.944922
            ],
            [
              72.813086,
              18.942188
            ],
            [
              72.814453,
              18.938086
            ],
            [
              72.818555,
              18.938086
            ],
            [
              72.819922,
              18.939453
            ],
            [
              72.824023,
              18.94082
            ],
            [
              72.829492,
              18.946289
            ],
            [
              72.830859,
              18.946289
            ],
            [
              72.833594,
              18.949023
            ],
            [
              72.837695,
              18.950391
            ],
            [
              72.841797,
              18.954492
            ],
            [
              72.843164,
              18.954492
            ],
            [
              72.844531,
              18.958594
            ],
            [
              72.843164,
              18.959961
            ],
            [
              72.84043,
              18.959961
            ],
            [
              72.839062,
              18.961328
            ],
            [
              72.837695,
              18.961328
            ],
            [
              72.836328,
              18.962695
            ],
            [
              72.833594,
              18.962695
            ],
            [
              72.832227,
              18.964062
            ],
            [
              72.817187,
              18.964062
            ],
            [
              72.814453,
              18.961328
            ],
            [
              72.813086,
              18.961328
            ],
            [
              72.813086,
              18.959961
            ],
            [
              72.810352,
              18.955859
            ],
            [
              72.810352,
              18.944922
            ]
          ]
        ]
      }
    },
    {
      "type": "Feature",
      "properties": {
        "spill_id": "sentinel_556",
        "confidence": 0.88
      },
      "geometry": {
        "type": "Polygon",
        "coordinates": [
          [
            [
              72.848633,
              19.141797
            ],
            [
              72.833594,
              19.148633
            ],
            [
              72.799414,
              19.121289
            ],
            [
              72.780273,
              19.080273
            ],
            [
              72.713281,
              19.09668
            ],
            [
              72.729688,
              19.069336
            ],
            [
              72.70918,
              19.063867
            ],
            [
              72.694141,
              19.039258
            ],
            [
              72.668164,
              19.035156
            ],
            [
              72.676367,
              19.017383
            ],
            [
              72.659961,
              18.999609
            ],
            [
              72.707812,
              18.972266
            ],
            [
              72.685938,
              18.955859
            ],
            [
              72.699609,
              18.912109
            ],
            [
              72.608008,
              18.916211
            ],
            [
              72.5,
              18.96543
            ],
            [
              72.5,
              18.920312
            ],
            [
              72.521875,
              18.906641
            ],
            [
              72.516406,
              18.892969
            ],
            [
              72.5,
              18.894336
            ],
            [
              72.5,
              18.87793
            ],
            [
              72.5875,
              18.873828
            ],
            [
              72.627148,
              18.8875
            ],
            [
              72.681836,
              18.862891
            ],
            [
              72.692773,
              18.827344
            ],
            [
              72.706445,
              18.830078
            ],
            [
              72.744727,
              18.882031
            ],
            [
              72.777539,
              18.891602
            ],
            [
              72.787109,
              18.928516
            ],
            [
              72.811719,
              18.927148
            ],
            [
              72.781641,
              18.973633
            ],
            [
              72.777539,
              19.020117
            ],
            [
              72.843164,
              19.041992
            ],
            [
              72.75293,
              19.036523
            ],
            [
              72.848633,
              19.095312
            ],
            [
              72.839062,
              19.10625
            ],
            [
              72.848633,
              19.141797
            ]
          ]
        ]
      }
    }
  ]
}