{
  "type": "FeatureCollection",
  "features": [
    {
      "type": "Feature",
      "properties": {
        "spill_id": "sentinel_237",
        "confidence": 0.77
      },
      "geometry": {
        "type": "Polygon",
        "coordinates": [
          [
            [
              72.71875,
              18.851953
            ],
            [
              72.713281,
              18.851953
            ],
            [
              72.711914,
              18.849219
            ],
            [
              72.711914,
              18.835547
            ],
            [
              72.710547,
              18.83418
            ],
            [
              72.710547,
              18.831445
            ],
            [
              72.707812,
              18.825977
            ],
            [
              72.707812,
              18.819141
            ],
            [
              72.705078,
              18.816406
            ],
            [
              72.703711,
              18.816406
            ],
            [
              72.698242,
              18.812305
            ],
            [
              72.696875,
              18.80957
            ],
            [
              72.696875,
              18.806836
            ],
            [
              72.699609,
              18.805469
            ],
            [
              72.705078,
              18.805469
            ],
            [
              72.70918,
              18.80957
            ],
            [
              72.711914,
              18.816406
            ],
            [
              72.717383,
              18.819141
            ],
            [
              72.717383,
              18.820508
            ],
            [
              72.720117,
              18.823242
            ],
            [
              72.722852,
              18.828711
            ],
            [
              72.724219,
              18.84375
            ],
            [
              72.721484,
              18.849219
            ],
            [
              72.71875,
              18.851953
            ]
          ]
        ]
      }
    },
    {
      "type": "Feature",
      "properties": {
        "spill_id": "sentinel_237",
        "confidence": 0.77
      },
      "geometry": {
        "type": "Polygon",
        "coordinates": [
          [
            [
              72.603906,
              18.966797
            ],
            [
              72.603906,
              18.959961
            ],
            [
              72.605273,
              18.959961
            ],
            [
              72.613477,
              18.951758
            ],
            [
              72.616211,
              18.951758
            ],
            [
              72.617578,
              18.950391
            ],
            [
              72.623047,
              18.950391
            ],
            [
              72.63125,
              18.944922
            ],
            [
              72.635352,
              18.944922
            ],
            [
              72.636719,
              18.946289
            ],
            [
              72.636719,
              18.951758
            ],
            [
              72.635352,
              18.953125
            ],
            [
              72.635352,
              18.957227
            ],
            [
              72.632617,
              18.959961
            ],
            [
              72.632617,
              18.961328
            ],
            [
              72.63125,
              18.961328
            ],
            [
              72.627148,
              18.964062
            ],
            [
              72.624414,
              18.964062
            ],
            [
              72.623047,
              18.96543
            ],
            [
              72.612109,
              18.96543
            ],
            [
              72.610742,
              18.966797
            ],
            [
              72.603906,
              18.966797
            ]
          ]
        ]
      }
    },
    {
      "type": "Feature",
      "properties": {
        "spill_id": "sentinel_237",
        "confidence": 0.77
      },
      "geometry": {
        "type": "Polygon",
        "coordinates": [
          [
            [
              72.528711,
              18.976367
            ],
            [
              72.525977,
              18.979102
            ],
            [
              72.524609,
              18.979102
            ],
            [
              72.523242,
              18.980469
            ],
            [
              72.519141,
              18.980469
            ],
            [
              72.517773,
              18.979102
            ],
            [
              72.516406,
              18.979102
            ],
            [
              72.516406,
              18.977734
            ],
            [
              72.513672,
              18.975
            ],
            [
              72.513672,
              18.973633
            ],
            [
              72.515039,
              18.972266
            ],
            [
              72.515039,
              18.970898
            ],
            [
              72.517773,
              18.968164
            ],
            [
              72.520508,
              18.968164
            ],
            [
              72.521875,
              18.969531
            ],
            [
              72.523242,
              18.969531
            ],
            [
              72.528711,
              18.975
            ],
            [
              72.528711,
              18.976367
            ]
          ]
        ]
      }
    },
    {
      "type": "Feature",
      "properties": {
        "spill_id": "sentinel_237",
        "confidence": 0.77
      },
      "geometry": {
        "type": "Polygon",
        "coordinates": [
          [
            [
              72.774805,
              18.992773
            ],
            [
              72.770703,
              18.98457
            ],
            [
              72.77207,
              18.955859
            ],
            [
              72.777539,
              18.944922
            ],
            [
              72.778906,
              18.924414
            ],
            [
              72.784375,
              18.906641
            ],
            [
              72.781641,
              18.864258
            ],
            [
              72.785742,
              18.847852
            ],
            [
              72.777539,
              18.830078
            ],
            [
              72.773438,
              18.805469
            ],
            [
              72.776172,
              18.801367
            ],
            [
              72.781641,
              18.801367
            ],
            [
              72.792578,
              18.810938
            ],
            [
              72.792578,
              18.819141
            ],
            [
              72.799414,
              18.831445
            ],
            [
              72.813086,
              18.84375
            ],
            [
              72.807617,
              18.871094
            ],
            [
              72.813086,
              18.883398
            ],
            [
              72.813086,
              18.905273
            ],
            [
              72.810352,
              18.920312
            ],
            [
              72.79668,
              18.936719
            ],
            [
              72.793945,
              18.944922
            ],
            [
              72.788477,
              18.947656
            ],
            [
              72.791211,
              18.962695
            ],
            [
              72.785742,
              18.975
            ],
            [
              72.785742,
              18.985938
            ],
            [
              72.783008,
              18.991406
            ],
            [
              72.774805,
              18.992773
            ]
          ]
        ]
      }
    },
    {
      "type": "Feature",
      "properties": {
        "spill_id": "sentinel_237",
        "confidence": 0.77
      },
      "geometry": {
        "type": "Polygon",
        "coordinates": [
          [
            [
              72.811719,
              19.007812
            ],
            [
              72.804883,
              19.007812
            ],
            [
              72.800781,
              19.000977
            ],
            [
              72.800781,
              18.987305
            ],
            [
              72.799414,
              18.985938
            ],
            [
              72.799414,
              18.981836
            ],
            [
              72.798047,
              18.980469
            ],
            [
              72.798047,
              18.976367
            ],
            [
              72.799414,
              18.975
            ],
            [
              72.798047,
              18.973633
            ],
            [
              72.798047,
              18.962695
            ],
            [
              72.800781,
              18.962695
            ],
            [
              72.804883,
              18.96543
            ],
            [
              72.804883,
              18.966797
            ],
            [
              72.807617,
              18.970898
            ],
            [
              72.807617,
              18.973633
            ],
            [
              72.811719,
              18.977734
            ],
            [
              72.811719,
              18.979102
            ],
            [
              72.813086,
              18.980469
            ],
            [
              72.813086,
              18.98457
            ],
            [
              72.811719,
              18.985938
            ],
            [
              72.810352,
              18.990039
            ],
            [
              72.81582,
              18.996875
            ],
            [
              72.81582,
              19.000977
            ],
            [
              72.814453,
              19.002344
            ],
            [
              72.814453,
              19.005078
            ],
            [
              72.811719,
              19.007812
            ]
          ]
        ]
      }
    },
    {
      "type": "Feature",
      "properties": {
        "spill_id": "sentinel_237",
        "confidence": 0.77
      },
      "geometry": {
        "type": "Polygon",
        "coordinates": [
          [
            [
              72.610742,
              19.006445
            ],
            [
              72.609375,
              19.006445
            ],
            [
              72.608008,
              19.007812
            ],
            [
              72.59707,
              19.007812
            ],
            [
              72.595703,
              19.006445
            ],
            [
              72.586133,
              19.006445
            ],
            [
              72.584766,
              19.005078
            ],
            [
              72.584766,
              18.996875
            ],
            [
              72.586133,
              18.995508
            ],
            [
              72.586133,
              18.983203
            ],
            [
              72.5875,
              18.981836
            ],
            [
              72.5875,
              18.980469
            ],
            [
              72.590234,
              18.977734
            ],
            [
              72.590234,
              18.976367
            ],
            [
              72.594336,
              18.975
            ],
            [
              72.594336,
              18.976367
            ],
            [
              72.595703,
              18.977734
            ],
            [
              72.595703,
              18.980469
            ],
            [
              72.599805,
              18.98457
            ],
            [
              72.603906,
              18.985938
            ],
            [
              72.606641,
              18.988672
            ],
            [
              72.606641,
              18.990039
            ],
            [
              72.610742,
              18.996875
            ],
            [
              72.610742,
              18.999609
            ],
            [
              72.612109,
              19.000977
            ],
            [
              72.612109,
              19.005078
            ],
            [
              72.610742,
              19.006445
            ]
          ]
        ]
      }
    },
    {
      "type": "Feature",
      "properties": {
        "spill_id": "sentinel_237",
        "confidence": 0.77
      },
      "geometry": {
        "type": "Polygon",
        "coordinates": [
          [
            [
              72.698242,
              19.010547
            ],
            [
              72.696875,
              19.011914
            ],
            [
              72.690039,
              19.011914
            ],
            [
              72.679102,
              18.999609
            ],
            [
              72.672266,
              18.999609
            ],
            [
              72.670898,
              18.998242
            ],
            [
              72.668164,
              18.998242
            ],
            [
              72.661328,
              18.991406
            ],
            [
              72.655859,
              18.991406
            ],
            [
              72.653125,
              18.988672
            ],
            [
              72.653125,
              18.981836
            ],
            [
              72.655859,
              18.980469
            ],
            [
              72.661328,
              18.981836
            ],
            [
              72.661328,
              18.983203
            ],
            [
              72.66543,
              18.987305
            ],
            [
              72.66543,
              18.988672
            ],
            [
              72.669531,
              18.991406
            ],
            [
              72.676367,
              18.991406
            ],
            [
              72.677734,
              18.990039
            ],
            [
              72.681836,
              18.990039
            ],
            [
              72.685938,
              18.987305
            ],
            [
              72.688672,
              18.988672
            ],
            [
              72.691406,
              18.991406
            ],
            [
              72.692773,
              18.991406
            ],
            [
              72.696875,
              18.996875
            ],
            [
              72.696875,
              18.999609
            ],
            [
              72.698242,
              19.000977
            ],
            [
              72.698242,
              19.010547
            ]
          ]
        ]
      }
    },
    {
      "type": "Feature",
      "properties": {
        "spill_id": "sentinel_237",
        "confidence": 0.77
      },
      "geometry": {
        "type": "Polygon",
        "coordinates": [
          [
            [
              72.80625,
              19.084375
            ],
            [
              72.802148,
              19.080273
            ],
            [
              72.802148,
              19.076172
            ],
            [
              72.803516,
              19.074805
            ],
            [
              72.803516,
              19.065234
            ],
            [
              72.80625,
              19.0625
            ],
            [
              72.80625,
              19.059766
            ],
            [
              72.807617,
              19.059766
            ],
            [
              72.808984,
              19.058398
            ],
            [
              72.808984,
              19.057031
            ],
            [
              72.810352,
              19.058398
            ],
            [
              72.810352,
              19.065234
            ],
            [
              72.811719,
              19.066602
            ],
            [
              72.811719,
              19.080273
            ],
            [
              72.810352,
              19.081641
            ],
            [
              72.810352,
              19.084375
            ],
            [
              72.80625,
              19.084375
            ]
          ]
        ]
      }
    },
    {
      "type": "Feature",
      "properties": {
        "spill_id": "sentinel_237",
        "confidence": 0.77
      },
      "geometry": {
        "type": "Polygon",
        "coordinates": [
          [
            [
              72.803516,
              19.15
            ],
            [
              72.800781,
              19.147266
            ],
            [
              72.800781,
              19.145898
            ],
            [
              72.799414,
              19.144531
            ],
            [
              72.799414,
              19.132227
            ],
            [
              72.802148,
              19.129492
            ],
            [
              72.818555,
              19.129492
            ],
            [
              72.819922,
              19.130859
            ],
            [
              72.819922,
              19.133594
            ],
            [
              72.821289,
              19.134961
            ],
            [
              72.821289,
              19.137695
            ],
            [
              72.819922,
              19.139062
            ],
            [
              72.819922,
              19.144531
            ],
            [
              72.817187,
              19.147266
            ],
            [
              72.817187,
              19.148633
            ],
            [
              72.81582,
              19.15
            ],
            [
              72.803516,
              19.15
            ]
          ]
        ]
      }
    }
  ]
}