{
  "type": "FeatureCollection",
  "features": [
    {
      "type": "Feature",
      "properties": {
        "spill_id": "sentinel_154",
        "confidence": 0.76
      },
      "geometry": {
        "type": "Polygon",
        "coordinates": [
          [
            [
              72.654492,
              18.835547
            ],
            [
              72.654492,
              18.831445
            ],
            [
              72.655859,
              18.830078
            ],
            [
              72.655859,
              18.828711
            ],
            [
              72.657227,
              18.827344
            ],
            [
              72.657227,
              18.825977
            ],
            [
              72.658594,
              18.825977
            ],
            [
              72.661328,
              18.823242
            ],
            [
              72.668164,
              18.823242
            ],
            [
              72.669531,
              18.824609
            ],
            [
              72.670898,
              18.824609
            ],
            [
              72.672266,
              18.825977
            ],
            [
              72.672266,
              18.830078
            ],
            [
              72.666797,
              18.835547
            ],
            [
              72.66543,
              18.835547
            ],
            [
              72.664062,
              18.836914
            ],
            [
              72.655859,
              18.836914
            ],
            [
              72.654492,
              18.835547
            ]
          ]
        ]
      }
    },
    {
      "type": "Feature",
      "properties": {
        "spill_id": "sentinel_154",
        "confidence": 0.76
      },
      "geometry": {
        "type": "Polygon",
        "coordinates": [
          [
            [
              72.733789,
              18.842383
            ],
            [
              72.731055,
              18.842383
            ],
            [
              72.729688,
              18.841016
            ],
            [
              72.725586,
              18.839648
            ],
            [
              72.724219,
              18.838281
            ],
            [
              72.724219,
              18.83418
            ],
            [
              72.722852,
              18.832812
            ],
            [
              72.722852,
              18.828711
            ],
            [
              72.724219,
              18.827344
            ],
            [
              72.724219,
              18.816406
            ],
            [
              72.725586,
              18.815039
            ],
            [
              72.725586,
              18.806836
            ],
            [
              72.729688,
              18.804102
            ],
            [
              72.733789,
              18.805469
            ],
            [
              72.733789,
              18.806836
            ],
            [
              72.735156,
              18.808203
            ],
            [
              72.735156,
              18.819141
            ],
            [
              72.733789,
              18.820508
            ],
            [
              72.733789,
              18.825977
            ],
            [
              72.736523,
              18.830078
            ],
            [
              72.736523,
              18.841016
            ],
            [
              72.735156,
              18.841016
            ],
            [
              72.733789,
              18.842383
            ]
          ]
        ]
      }
    },
    {
      "type": "Feature",
      "properties": {
        "spill_id": "sentinel_154",
        "confidence": 0.76
      },
      "geometry": {
        "type": "Polygon",
        "coordinates": [
          [
            [
              72.828125,
              18.909375
            ],
            [
              72.822656,
              18.903906
            ],
            [
              72.819922,
              18.895703
            ],
            [
              72.821289,
              18.894336
            ],
            [
              72.821289,
              18.891602
            ],
            [
              72.825391,
              18.8875
            ],
            [
              72.825391,
              18.886133
            ],
            [
              72.834961,
              18.876562
            ],
            [
              72.836328,
              18.872461
            ],
            [
              72.839062,
              18.869727
            ],
            [
              72.84043,
              18.862891
            ],
            [
              72.844531,
              18.858789
            ],
            [
              72.845898,
              18.858789
            ],
            [
              72.845898,
              18.860156
            ],
            [
              72.848633,
              18.862891
            ],
            [
              72.848633,
              18.883398
            ],
            [
              72.844531,
              18.8875
            ],
            [
              72.843164,
              18.891602
            ],
            [
              72.836328,
              18.899805
            ],
            [
              72.834961,
              18.902539
            ],
            [
              72.834961,
              18.908008
            ],
            [
              72.833594,
              18.908008
            ],
            [
              72.832227,
              18.910742
            ],
            [
              72.828125,
              18.909375
            ]
          ]
        ]
      }
    },
    {
      "type": "Feature",
      "properties": {
        "spill_id": "sentinel_154",
        "confidence": 0.76
      },
      "geometry": {
        "type": "Polygon",
        "coordinates": [
          [
            [
              72.757031,
              18.903906
            ],
            [
              72.757031,
              18.899805
            ],
            [
              72.759766,
              18.89707
            ],
            [
              72.766602,
              18.898438
            ],
            [
              72.767969,
              18.89707
            ],
            [
              72.774805,
              18.89707
            ],
            [
              72.776172,
              18.895703
            ],
            [
              72.778906,
              18.895703
            ],
            [
              72.780273,
              18.894336
            ],
            [
              72.792578,
              18.894336
            ],
            [
              72.793945,
              18.895703
            ],
            [
              72.795312,
              18.895703
            ],
            [
              72.798047,
              18.898438
            ],
            [
              72.798047,
              18.899805
            ],
            [
              72.799414,
              18.901172
            ],
            [
              72.799414,
              18.905273
            ],
            [
              72.798047,
              18.905273
            ],
            [
              72.79668,
              18.906641
            ],
            [
              72.792578,
              18.906641
            ],
            [
              72.791211,
              18.908008
            ],
            [
              72.785742,
              18.908008
            ],
            [
              72.781641,
              18.910742
            ],
            [
              72.778906,
              18.910742
            ],
            [
              72.777539,
              18.912109
            ],
            [
              72.77207,
              18.912109
            ],
            [
              72.770703,
              18.913477
            ],
            [
              72.766602,
              18.913477
            ],
            [
              72.763867,
              18.910742
            ],
            [
              72.7625,
              18.906641
            ],
            [
              72.761133,
              18.905273
            ],
            [
              72.757031,
              18.903906
            ]
          ]
        ]
      }
    },
    {
      "type": "Feature",
      "properties": {
        "spill_id": "sentinel_154",
        "confidence": 0.76
      },
      "geometry": {
        "type": "Polygon",
        "coordinates": [
          [
            [
              72.502734,
              18.924414
            ],
            [
              72.502734,
              18.923047
            ],
            [
              72.506836,
              18.918945
            ],
            [
              72.50957,
              18.920312
            ],
            [
              72.510938,
              18.918945
            ],
            [
              72.520508,
              18.918945
            ],
            [
              72.521875,
              18.917578
            ],
            [
              72.524609,
              18.918945
            ],
            [
              72.53418,
              18.917578
            ],
            [
              72.54375,
              18.92168
            ],
            [
              72.557422,
              18.923047
            ],
            [
              72.562891,
              18.916211
            ],
            [
              72.568359,
              18.916211
            ],
            [
              72.568359,
              18.917578
            ],
            [
              72.560156,
              18.924414
            ],
            [
              72.557422,
              18.93125
            ],
            [
              72.549219,
              18.936719
            ],
            [
              72.535547,
              18.936719
            ],
            [
              72.53418,
              18.935352
            ],
            [
              72.530078,
              18.935352
            ],
            [
              72.527344,
              18.932617
            ],
            [
              72.519141,
              18.928516
            ],
            [
              72.50957,
              18.928516
            ],
            [
              72.502734,
              18.924414
            ]
          ]
        ]
      }
    },
    {
      "type": "Feature",
      "properties": {
        "spill_id": "sentinel_154",
        "confidence": 0.76
      },
      "geometry": {
        "type": "Polygon",
        "coordinates": [
          [
            [
              72.724219,
              18.994141
            ],
            [
              72.724219,
              18.987305
            ],
            [
              72.713281,
              18.981836
            ],
            [
              72.71875,
              18.972266
            ],
            [
              72.714648,
              18.966797
            ],
            [
              72.688672,
              18.972266
            ],
            [
              72.683203,
              18.976367
            ],
            [
              72.657227,
              18.977734
            ],
            [
              72.669531,
              18.972266
            ],
            [
              72.680469,
              18.953125
            ],
            [
              72.702344,
              18.935352
            ],
            [
              72.703711,
              18.93125
            ],
            [
              72.698242,
              18.923047
            ],
            [
              72.695508,
              18.903906
            ],
            [
              72.696875,
              18.892969
            ],
            [
              72.700977,
              18.890234
            ],
            [
              72.707812,
              18.891602
            ],
            [
              72.710547,
              18.909375
            ],
            [
              72.716016,
              18.916211
            ],
            [
              72.729688,
              18.916211
            ],
            [
              72.747461,
              18.92168
            ],
            [
              72.722852,
              18.932617
            ],
            [
              72.716016,
              18.951758
            ],
            [
              72.721484,
              18.957227
            ],
            [
              72.733789,
              18.955859
            ],
            [
              72.744727,
              18.961328
            ],
            [
              72.72832,
              18.972266
            ],
            [
              72.729688,
              18.979102
            ],
            [
              72.724219,
              18.987305
            ],
            [
              72.724219,
              18.994141
            ]
          ]
        ]
      }
    },
    {
      "type": "Feature",
      "properties": {
        "spill_id": "sentinel_154",
        "confidence": 0.76
      },
      "geometry": {
        "type": "Polygon",
        "coordinates": [
          [
            [
              72.811719,
              19.026953
            ],
            [
              72.807617,
              19.020117
            ],
            [
              72.793945,
              19.017383
            ],
            [
              72.789844,
              19.00918
            ],
            [
              72.770703,
              18.992773
            ],
            [
              72.759766,
              18.994141
            ],
            [
              72.757031,
              18.991406
            ],
            [
              72.758398,
              18.973633
            ],
            [
              72.747461,
              18.961328
            ],
            [
              72.75293,
              18.954492
            ],
            [
              72.758398,
              18.928516
            ],
            [
              72.7625,
              18.927148
            ],
            [
              72.776172,
              18.949023
            ],
            [
              72.803516,
              18.958594
            ],
            [
              72.799414,
              18.972266
            ],
            [
              72.803516,
              18.976367
            ],
            [
              72.808984,
              18.975
            ],
            [
              72.81582,
              18.96543
            ],
            [
              72.81582,
              18.946289
            ],
            [
              72.819922,
              18.932617
            ],
            [
              72.837695,
              18.910742
            ],
            [
              72.848633,
              18.914844
            ],
            [
              72.848633,
              18.939453
            ],
            [
              72.837695,
              18.959961
            ],
            [
              72.824023,
              18.973633
            ],
            [
              72.825391,
              18.995508
            ],
            [
              72.81582,
              19.024219
            ],
            [
              72.811719,
              19.026953
            ]
          ]
        ]
      }
    },
    {
      "type": "Feature",
      "properties": {
        "spill_id": "sentinel_154",
        "confidence": 0.76
      },
      "geometry": {
        "type": "Polygon",
        "coordinates": [
          [
            [
              72.5,
              19.035156
            ],
            [
              72.5,
              19.013281
            ],
            [
              72.50957,
              19.005078
            ],
            [
              72.519141,
              18.985938
            ],
            [
              72.519141,
              18.980469
            ],
            [
              72.505469,
              18.972266
            ],
            [
              72.504102,
              18.964062
            ],
            [
              72.523242,
              18.949023
            ],
            [
              72.541016,
              18.954492
            ],
            [
              72.549219,
              18.964062
            ],
            [
              72.562891,
              18.970898
            ],
            [
              72.591602,
              18.972266
            ],
            [
              72.617578,
              18.980469
            ],
            [
              72.651758,
              18.979102
            ],
            [
              72.647656,
              18.98457
            ],
            [
              72.627148,
              18.991406
            ],
            [
              72.598438,
              18.992773
            ],
            [
              72.580664,
              19.014648
            ],
            [
              72.57793,
              19.025586
            ],
            [
              72.571094,
              19.029687
            ],
            [
              72.568359,
              19.020117
            ],
            [
              72.576562,
              18.991406
            ],
            [
              72.569727,
              18.985938
            ],
            [
              72.557422,
              18.985938
            ],
            [
              72.536914,
              19.006445
            ],
            [
              72.516406,
              19.016016
            ],
            [
              72.516406,
              19.035156
            ],
            [
              72.5,
              19.035156
            ]
          ]
        ]
      }
    },
    {
      "type": "Feature",
      "properties": {
        "spill_id": "sentinel_154",
        "confidence": 0.76
      },
      "geometry": {
        "type": "Polygon",
        "coordinates": [
          [
            [
              72.609375,
              19.039258
            ],
            [
              72.613477,
              19.021484
            ],
            [
              72.64082,
              19.020117
            ],
            [
              72.654492,
              19.010547
            ],
            [
              72.670898,
              19.016016
            ],
            [
              72.695508,
              19.00918
            ],
            [
              72.700977,
              19.010547
            ],
            [
              72.703711,
              19.007812
            ],
            [
              72.703711,
              19.002344
            ],
            [
              72.710547,
              19.000977
            ],
            [
              72.714648,
              19.006445
            ],
            [
              72.716016,
              19.002344
            ],
            [
              72.713281,
              19.000977
            ],
            [
              72.716016,
              18.996875
            ],
            [
              72.721484,
              18.998242
            ],
            [
              72.722852,
              19.01875
            ],
            [
              72.716016,
              19.016016
            ],
            [
              72.710547,
              19.01875
            ],
            [
              72.702344,
              19.016016
            ],
            [
              72.696875,
              19.020117
            ],
            [
              72.680469,
              19.024219
            ],
            [
              72.666797,
              19.036523
            ],
            [
              72.646289,
              19.040625
            ],
            [
              72.642187,
              19.037891
            ],
            [
              72.636719,
              19.041992
            ],
            [
              72.629883,
              19.039258
            ],
            [
              72.610742,
              19.041992
            ],
            [
              72.609375,
              19.039258
            ]
          ]
        ]
      }
    },
    {
      "type": "Feature",
      "properties": {
        "spill_id": "sentinel_154",
        "confidence": 0.76
      },
      "geometry": {
        "type": "Polygon",
        "coordinates": [
          [
            [
              72.818555,
              19.095312
            ],
            [
              72.817187,
              19.095312
            ],
            [
              72.813086,
              19.091211
            ],
            [
              72.813086,
              19.089844
            ],
            [
              72.811719,
              19.088477
            ],
            [
              72.811719,
              19.087109
            ],
            [
              72.813086,
              19.085742
            ],
            [
              72.81582,
              19.085742
            ],
            [
              72.818555,
              19.088477
            ],
            [
              72.819922,
              19.088477
            ],
            [
              72.821289,
              19.089844
            ],
            [
              72.821289,
              19.092578
            ],
            [
              72.818555,
              19.095312
            ]
          ]
        ]
      }
    },
    {
      "type": "Feature",
      "properties": {
        "spill_id": "sentinel_154",
        "confidence": 0.76
      },
      "geometry": {
        "type": "Polygon",
        "coordinates": [
          [
            [
              72.573828,
              19.099414
            ],
            [
              72.571094,
              19.099414
            ],
            [
              72.569727,
              19.100781
            ],
            [
              72.560156,
              19.100781
            ],
            [
              72.557422,
              19.098047
            ],
            [
              72.557422,
              19.095312
            ],
            [
              72.562891,
              19.084375
            ],
            [
              72.562891,
              19.070703
            ],
            [
              72.561523,
              19.069336
            ],
            [
              72.561523,
              19.066602
            ],
            [
              72.558789,
              19.063867
            ],
            [
              72.55332,
              19.061133
            ],
            [
              72.550586,
              19.061133
            ],
            [
              72.547852,
              19.057031
            ],
            [
              72.547852,
              19.050195
            ],
            [
              72.549219,
              19.047461
            ],
            [
              72.55332,
              19.044727
            ],
            [
              72.560156,
              19.044727
            ],
            [
              72.562891,
              19.046094
            ],
            [
              72.565625,
              19.05293
            ],
            [
              72.572461,
              19.059766
            ],
            [
              72.573828,
              19.059766
            ],
            [
              72.573828,
              19.074805
            ],
            [
              72.580664,
              19.080273
            ],
            [
              72.579297,
              19.093945
            ],
            [
              72.576562,
              19.098047
            ],
            [
              72.573828,
              19.099414
            ]
          ]
        ]
      }
    },
    {
      "type": "Feature",
      "properties": {
        "spill_id": "sentinel_154",
        "confidence": 0.76
      },
      "geometry": {
        "type": "Polygon",
        "coordinates": [
          [
            [
              72.698242,
              19.107617
            ],
            [
              72.692773,
              19.102148
            ],
            [
              72.691406,
              19.102148
            ],
            [
              72.691406,
              19.095312
            ],
            [
              72.692773,
              19.093945
            ],
            [
              72.692773,
              19.092578
            ],
            [
              72.694141,
              19.092578
            ],
            [
              72.695508,
              19.091211
            ],
            [
              72.702344,
              19.091211
            ],
            [
              72.703711,
              19.092578
            ],
            [
              72.705078,
              19.092578
            ],
            [
              72.705078,
              19.093945
            ],
            [
              72.706445,
              19.095312
            ],
            [
              72.706445,
              19.098047
            ],
            [
              72.707812,
              19.099414
            ],
            [
              72.706445,
              19.100781
            ],
            [
              72.706445,
              19.102148
            ],
            [
              72.700977,
              19.107617
            ],
            [
              72.698242,
              19.107617
            ]
          ]
        ]
      }
    },
    {
      "type": "Feature",
      "properties": {
        "spill_id": "sentinel_154",
        "confidence": 0.76
      },
      "geometry": {
        "type": "Polygon",
        "coordinates": [
          [
            [
              72.680469,
              19.15
            ],
            [
              72.681836,
              19.15
            ],
            [
              72.68457,
              19.144531
            ],
            [
              72.691406,
              19.14043
            ],
            [
              72.702344,
              19.128125
            ],
            [
              72.711914,
              19.128125
            ],
            [
              72.716016,
              19.125391
            ],
            [
              72.722852,
              19.125391
            ],
            [
              72.732422,
              19.129492
            ],
            [
              72.735156,
              19.134961
            ],
            [
              72.735156,
              19.137695
            ],
            [
              72.743359,
              19.144531
            ],
            [
              72.740625,
              19.147266
            ],
            [
              72.741992,
              19.15
            ],
            [
              72.733789,
              19.15
            ],
            [
              72.732422,
              19.148633
            ],
            [
              72.729688,
              19.148633
            ],
            [
              72.72832,
              19.15
            ],
            [
              72.680469,
              19.15
            ]
          ]
        ]
      }
    },
    {
      "type": "Feature",
      "properties": {
        "spill_id": "sentinel_154",
        "confidence": 0.76
      },
      "geometry": {
        "type": "Polygon",
        "coordinates": [
          [
            [
              72.573828,
              19.15
            ],
            [
              72.573828,
              19.148633
            ],
            [
              72.571094,
              19.145898
            ],
            [
              72.571094,
              19.143164
            ],
            [
              72.568359,
              19.139062
            ],
            [
              72.568359,
              19.136328
            ],
            [
              72.572461,
              19.136328
            ],
            [
              72.573828,
              19.137695
            ],
            [
              72.57793,
              19.133594
            ],
            [
              72.57793,
              19.132227
            ],
            [
              72.580664,
              19.129492
            ],
            [
              72.580664,
              19.128125
            ],
            [
              72.583398,
              19.125391
            ],
            [
              72.584766,
              19.125391
            ],
            [
              72.586133,
              19.124023
            ],
            [
              72.590234,
              19.124023
            ],
            [
              72.591602,
              19.125391
            ],
            [
              72.592969,
              19.125391
            ],
            [
              72.595703,
              19.129492
            ],
            [
              72.595703,
              19.141797
            ],
            [
              72.594336,
              19.143164
            ],
            [
              72.594336,
              19.144531
            ],
            [
              72.592969,
              19.145898
            ],
            [
              72.591602,
              19.145898
            ],
            [
              72.588867,
              19.148633
            ],
            [
              72.588867,
              19.15
            ],
            [
              72.573828,
              19.15
            ]
          ]
        ]
      }
    }
  ]
}