{
  "type": "FeatureCollection",
  "features": [
    {
      "type": "Feature",
      "properties": {
        "spill_id": "sentinel_108",
        "confidence": 0.7
      },
      "geometry": {
        "type": "Polygon",
        "coordinates": [
          [
            [
              72.639453,
              18.804102
            ],
            [
              72.639453,
              18.802734
            ],
            [
              72.64082,
              18.801367
            ],
            [
              72.664062,
              18.801367
            ],
            [
              72.66543,
              18.802734
            ],
            [
              72.664062,
              18.804102
            ],
            [
              72.664062,
              18.805469
            ],
            [
              72.662695,
              18.806836
            ],
            [
              72.662695,
              18.812305
            ],
            [
              72.661328,
              18.813672
            ],
            [
              72.661328,
              18.815039
            ],
            [
              72.659961,
              18.813672
            ],
            [
              72.658594,
              18.815039
            ],
            [
              72.650391,
              18.815039
            ],
            [
              72.649023,
              18.813672
            ],
            [
              72.646289,
              18.813672
            ],
            [
              72.644922,
              18.812305
            ],
            [
              72.643555,
              18.812305
            ],
            [
              72.64082,
              18.80957
            ],
            [
              72.64082,
              18.805469
            ],
            [
              72.639453,
              18.804102
            ]
          ]
        ]
      }
    },
    {
      "type": "Feature",
      "properties": {
        "spill_id": "sentinel_108",
        "confidence": 0.7
      },
      "geometry": {
        "type": "Polygon",
        "coordinates": [
          [
            [
              72.694141,
              18.83418
            ],
            [
              72.692773,
              18.832812
            ],
            [
              72.692773,
              18.831445
            ],
            [
              72.687305,
              18.825977
            ],
            [
              72.688672,
              18.824609
            ],
            [
              72.690039,
              18.820508
            ],
            [
              72.691406,
              18.820508
            ],
            [
              72.694141,
              18.817773
            ],
            [
              72.700977,
              18.815039
            ],
            [
              72.711914,
              18.801367
            ],
            [
              72.722852,
              18.801367
            ],
            [
              72.724219,
              18.802734
            ],
            [
              72.722852,
              18.802734
            ],
            [
              72.716016,
              18.806836
            ],
            [
              72.716016,
              18.810938
            ],
            [
              72.710547,
              18.820508
            ],
            [
              72.710547,
              18.824609
            ],
            [
              72.70918,
              18.825977
            ],
            [
              72.707812,
              18.832812
            ],
            [
              72.698242,
              18.832812
            ],
            [
              72.696875,
              18.83418
            ],
            [
              72.694141,
              18.83418
            ]
          ]
        ]
      }
    },
    {
      "type": "Feature",
      "properties": {
        "spill_id": "sentinel_108",
        "confidence": 0.7
      },
      "geometry": {
        "type": "Polygon",
        "coordinates": [
          [
            [
              72.603906,
              18.872461
            ],
            [
              72.605273,
              18.865625
            ],
            [
              72.618945,
              18.851953
            ],
            [
              72.625781,
              18.850586
            ],
            [
              72.63125,
              18.851953
            ],
            [
              72.635352,
              18.857422
            ],
            [
              72.64082,
              18.856055
            ],
            [
              72.642187,
              18.857422
            ],
            [
              72.653125,
              18.850586
            ],
            [
              72.666797,
              18.849219
            ],
            [
              72.668164,
              18.850586
            ],
            [
              72.668164,
              18.858789
            ],
            [
              72.664062,
              18.865625
            ],
            [
              72.664062,
              18.875195
            ],
            [
              72.658594,
              18.880664
            ],
            [
              72.650391,
              18.884766
            ],
            [
              72.650391,
              18.891602
            ],
            [
              72.647656,
              18.892969
            ],
            [
              72.644922,
              18.899805
            ],
            [
              72.642187,
              18.898438
            ],
            [
              72.642187,
              18.892969
            ],
            [
              72.639453,
              18.890234
            ],
            [
              72.639453,
              18.87793
            ],
            [
              72.635352,
              18.873828
            ],
            [
              72.63125,
              18.873828
            ],
            [
              72.625781,
              18.871094
            ],
            [
              72.617578,
              18.87793
            ],
            [
              72.612109,
              18.879297
            ],
            [
              72.603906,
              18.872461
            ]
          ]
        ]
      }
    },
    {
      "type": "Feature",
      "properties": {
        "spill_id": "sentinel_108",
        "confidence": 0.7
      },
      "geometry": {
        "type": "Polygon",
        "coordinates": [
          [
            [
              72.748828,
              18.925781
            ],
            [
              72.748828,
              18.92168
            ],
            [
              72.75293,
              18.917578
            ],
            [
              72.75293,
              18.916211
            ],
            [
              72.758398,
              18.910742
            ],
            [
              72.763867,
              18.910742
            ],
            [
              72.766602,
              18.913477
            ],
            [
              72.766602,
              18.920312
            ],
            [
              72.765234,
              18.92168
            ],
            [
              72.765234,
              18.924414
            ],
            [
              72.7625,
              18.927148
            ],
            [
              72.761133,
              18.927148
            ],
            [
              72.759766,
              18.928516
            ],
            [
              72.754297,
              18.928516
            ],
            [
              72.75293,
              18.927148
            ],
            [
              72.751562,
              18.927148
            ],
            [
              72.750195,
              18.925781
            ],
            [
              72.748828,
              18.925781
            ]
          ]
        ]
      }
    },
    {
      "type": "Feature",
      "properties": {
        "spill_id": "sentinel_108",
        "confidence": 0.7
      },
      "geometry": {
        "type": "Polygon",
        "coordinates": [
          [
            [
              72.606641,
              18.959961
            ],
            [
              72.605273,
              18.958594
            ],
            [
              72.605273,
              18.947656
            ],
            [
              72.606641,
              18.946289
            ],
            [
              72.608008,
              18.942188
            ],
            [
              72.610742,
              18.939453
            ],
            [
              72.610742,
              18.938086
            ],
            [
              72.613477,
              18.935352
            ],
            [
              72.614844,
              18.935352
            ],
            [
              72.616211,
              18.933984
            ],
            [
              72.616211,
              18.932617
            ],
            [
              72.620312,
              18.93125
            ],
            [
              72.625781,
              18.925781
            ],
            [
              72.627148,
              18.925781
            ],
            [
              72.628516,
              18.924414
            ],
            [
              72.63125,
              18.924414
            ],
            [
              72.632617,
              18.925781
            ],
            [
              72.633984,
              18.925781
            ],
            [
              72.633984,
              18.933984
            ],
            [
              72.63125,
              18.936719
            ],
            [
              72.63125,
              18.938086
            ],
            [
              72.629883,
              18.939453
            ],
            [
              72.629883,
              18.942188
            ],
            [
              72.628516,
              18.943555
            ],
            [
              72.628516,
              18.947656
            ],
            [
              72.625781,
              18.950391
            ],
            [
              72.625781,
              18.951758
            ],
            [
              72.620312,
              18.957227
            ],
            [
              72.618945,
              18.957227
            ],
            [
              72.617578,
              18.958594
            ],
            [
              72.614844,
              18.958594
            ],
            [
              72.613477,
              18.959961
            ],
            [
              72.612109,
              18.959961
            ],
            [
              72.610742,
              18.958594
            ],
            [
              72.609375,
              18.959961
            ],
            [
              72.606641,
              18.959961
            ]
          ]
        ]
      }
    },
    {
      "type": "Feature",
      "properties": {
        "spill_id": "sentinel_108",
        "confidence": 0.7
      },
      "geometry": {
        "type": "Polygon",
        "coordinates": [
          [
            [
              72.711914,
              18.957227
            ],
            [
              72.711914,
              18.951758
            ],
            [
              72.714648,
              18.949023
            ],
            [
              72.717383,
              18.949023
            ],
            [
              72.721484,
              18.946289
            ],
            [
              72.726953,
              18.946289
            ],
            [
              72.731055,
              18.943555
            ],
            [
              72.735156,
              18.943555
            ],
            [
              72.736523,
              18.942188
            ],
            [
              72.739258,
              18.942188
            ],
            [
              72.740625,
              18.94082
            ],
            [
              72.741992,
              18.942188
            ],
            [
              72.743359,
              18.942188
            ],
            [
              72.746094,
              18.944922
            ],
            [
              72.746094,
              18.947656
            ],
            [
              72.744727,
              18.949023
            ],
            [
              72.744727,
              18.950391
            ],
            [
              72.741992,
              18.953125
            ],
            [
              72.740625,
              18.953125
            ],
            [
              72.732422,
              18.962695
            ],
            [
              72.731055,
              18.962695
            ],
            [
              72.729688,
              18.964062
            ],
            [
              72.71875,
              18.964062
            ],
            [
              72.717383,
              18.962695
            ],
            [
              72.716016,
              18.962695
            ],
            [
              72.713281,
              18.959961
            ],
            [
              72.713281,
              18.958594
            ],
            [
              72.711914,
              18.957227
            ]
          ]
        ]
      }
    },
    {
      "type": "Feature",
      "properties": {
        "spill_id": "sentinel_108",
        "confidence": 0.7
      },
      "geometry": {
        "type": "Polygon",
        "coordinates": [
          [
            [
              72.647656,
              19.078906
            ],
            [
              72.646289,
              19.080273
            ],
            [
              72.638086,
              19.080273
            ],
            [
              72.636719,
              19.081641
            ],
            [
              72.632617,
              19.081641
            ],
            [
              72.63125,
              19.080273
            ],
            [
              72.624414,
              19.080273
            ],
            [
              72.623047,
              19.078906
            ],
            [
              72.620312,
              19.078906
            ],
            [
              72.618945,
              19.077539
            ],
            [
              72.618945,
              19.076172
            ],
            [
              72.617578,
              19.074805
            ],
            [
              72.618945,
              19.073438
            ],
            [
              72.618945,
              19.07207
            ],
            [
              72.620312,
              19.07207
            ],
            [
              72.62168,
              19.070703
            ],
            [
              72.628516,
              19.070703
            ],
            [
              72.629883,
              19.07207
            ],
            [
              72.636719,
              19.07207
            ],
            [
              72.638086,
              19.070703
            ],
            [
              72.643555,
              19.070703
            ],
            [
              72.646289,
              19.073438
            ],
            [
              72.646289,
              19.074805
            ],
            [
              72.647656,
              19.076172
            ],
            [
              72.647656,
              19.078906
            ]
          ]
        ]
      }
    },
    {
      "type": "Feature",
      "properties": {
        "spill_id": "sentinel_108",
        "confidence": 0.7
      },
      "geometry": {
        "type": "Polygon",
        "coordinates": [
          [
            [
              72.606641,
              19.089844
            ],
            [
              72.601172,
              19.089844
            ],
            [
              72.599805,
              19.088477
            ],
            [
              72.59707,
              19.088477
            ],
            [
              72.594336,
              19.085742
            ],
            [
              72.588867,
              19.085742
            ],
            [
              72.588867,
              19.083008
            ],
            [
              72.591602,
              19.080273
            ],
            [
              72.591602,
              19.078906
            ],
            [
              72.592969,
              19.078906
            ],
            [
              72.594336,
              19.077539
            ],
            [
              72.595703,
              19.077539
            ],
            [
              72.59707,
              19.076172
            ],
            [
              72.605273,
              19.076172
            ],
            [
              72.606641,
              19.077539
            ],
            [
              72.606641,
              19.083008
            ],
            [
              72.608008,
              19.084375
            ],
            [
              72.608008,
              19.087109
            ],
            [
              72.606641,
              19.088477
            ],
            [
              72.606641,
              19.089844
            ]
          ]
        ]
      }
    },
    {
      "type": "Feature",
      "properties": {
        "spill_id": "sentinel_108",
        "confidence": 0.7
      },
      "geometry": {
        "type": "Polygon",
        "coordinates": [
          [
            [
              72.799414,
              19.121289
            ],
            [
              72.798047,
              19.119922
            ],
            [
              72.804883,
              19.108984
            ],
            [
              72.804883,
              19.095312
            ],
            [
              72.813086,
              19.087109
            ],
            [
              72.818555,
              19.074805
            ],
            [
              72.817187,
              19.0625
            ],
            [
              72.819922,
              19.055664
            ],
            [
              72.826758,
              19.051562
            ],
            [
              72.834961,
              19.051562
            ],
            [
              72.845898,
              19.047461
            ],
            [
              72.848633,
              19.048828
            ],
            [
              72.848633,
              19.081641
            ],
            [
              72.845898,
              19.083008
            ],
            [
              72.845898,
              19.088477
            ],
            [
              72.848633,
              19.091211
            ],
            [
              72.848633,
              19.098047
            ],
            [
              72.839062,
              19.09668
            ],
            [
              72.834961,
              19.102148
            ],
            [
              72.833594,
              19.110352
            ],
            [
              72.817187,
              19.121289
            ],
            [
              72.813086,
              19.122656
            ],
            [
              72.799414,
              19.121289
            ]
          ]
        ]
      }
    },
    {
      "type": "Feature",
      "properties": {
        "spill_id": "sentinel_108",
        "confidence": 0.7
      },
      "geometry": {
        "type": "Polygon",
        "coordinates": [
          [
            [
              72.632617,
              19.15
            ],
            [
              72.632617,
              19.144531
            ],
            [
              72.635352,
              19.141797
            ],
            [
              72.636719,
              19.130859
            ],
            [
              72.64082,
              19.125391
            ],
            [
              72.64082,
              19.122656
            ],
            [
              72.649023,
              19.124023
            ],
            [
              72.657227,
              19.117188
            ],
            [
              72.661328,
              19.11582
            ],
            [
              72.691406,
              19.11582
            ],
            [
              72.691406,
              19.118555
            ],
            [
              72.694141,
              19.119922
            ],
            [
              72.699609,
              19.126758
            ],
            [
              72.698242,
              19.129492
            ],
            [
              72.683203,
              19.128125
            ],
            [
              72.681836,
              19.129492
            ],
            [
              72.673633,
              19.130859
            ],
            [
              72.670898,
              19.134961
            ],
            [
              72.668164,
              19.134961
            ],
            [
              72.661328,
              19.139062
            ],
            [
              72.661328,
              19.145898
            ],
            [
              72.659961,
              19.147266
            ],
            [
              72.661328,
              19.15
            ],
            [
              72.632617,
              19.15
            ]
          ]
        ]
      }
    },
    {
      "type": "Feature",
      "properties": {
        "spill_id": "sentinel_108",
        "confidence": 0.7
      },
      "geometry": {
        "type": "Polygon",
        "coordinates": [
          [
            [
              72.55332,
              19.15
            ],
            [
              72.55332,
              19.14043
            ],
            [
              72.547852,
              19.134961
            ],
            [
              72.532812,
              19.136328
            ],
            [
              72.528711,
              19.129492
            ],
            [
              72.53418,
              19.117188
            ],
            [
              72.550586,
              19.099414
            ],
            [
              72.551953,
              19.083008
            ],
            [
              72.572461,
              19.022852
            ],
            [
              72.588867,
              19.000977
            ],
            [
              72.603906,
              18.991406
            ],
            [
              72.603906,
              18.985938
            ],
            [
              72.601172,
              19.011914
            ],
            [
              72.605273,
              19.020117
            ],
            [
              72.59707,
              19.026953
            ],
            [
              72.592969,
              19.037891
            ],
            [
              72.590234,
              19.067969
            ],
            [
              72.575195,
              19.087109
            ],
            [
              72.554688,
              19.102148
            ],
            [
              72.55332,
              19.118555
            ],
            [
              72.557422,
              19.121289
            ],
            [
              72.571094,
              19.11582
            ],
            [
              72.579297,
              19.128125
            ],
            [
              72.57793,
              19.143164
            ],
            [
              72.573828,
              19.15
            ],
            [
              72.55332,
              19.15
            ]
          ]
        ]
      }
    }
  ]
}