{
  "type": "FeatureCollection",
  "features": [
    {
      "type": "Feature",
      "properties": {
        "spill_id": "sentinel_620",
        "confidence": 0.76
      },
      "geometry": {
        "type": "Polygon",
        "coordinates": [
          [
            [
              72.761133,
              18.832812
            ],
            [
              72.747461,
              18.832812
            ],
            [
              72.747461,
              18.831445
            ],
            [
              72.746094,
              18.830078
            ],
            [
              72.746094,
              18.828711
            ],
            [
              72.744727,
              18.827344
            ],
            [
              72.744727,
              18.815039
            ],
            [
              72.747461,
              18.812305
            ],
            [
              72.747461,
              18.810938
            ],
            [
              72.748828,
              18.80957
            ],
            [
              72.75293,
              18.80957
            ],
            [
              72.759766,
              18.816406
            ],
            [
              72.759766,
              18.817773
            ],
            [
              72.761133,
              18.819141
            ],
            [
              72.761133,
              18.820508
            ],
            [
              72.7625,
              18.821875
            ],
            [
              72.7625,
              18.831445
            ],
            [
              72.761133,
              18.832812
            ]
          ]
        ]
      }
    },
    {
      "type": "Feature",
      "properties": {
        "spill_id": "sentinel_620",
        "confidence": 0.76
      },
      "geometry": {
        "type": "Polygon",
        "coordinates": [
          [
            [
              72.839062,
              18.87793
            ],
            [
              72.837695,
              18.879297
            ],
            [
              72.833594,
              18.879297
            ],
            [
              72.830859,
              18.876562
            ],
            [
              72.826758,
              18.87793
            ],
            [
              72.824023,
              18.875195
            ],
            [
              72.824023,
              18.873828
            ],
            [
              72.822656,
              18.872461
            ],
            [
              72.821289,
              18.872461
            ],
            [
              72.819922,
              18.871094
            ],
            [
              72.817187,
              18.871094
            ],
            [
              72.814453,
              18.868359
            ],
            [
              72.811719,
              18.868359
            ],
            [
              72.810352,
              18.866992
            ],
            [
              72.808984,
              18.866992
            ],
            [
              72.807617,
              18.865625
            ],
            [
              72.807617,
              18.862891
            ],
            [
              72.80625,
              18.861523
            ],
            [
              72.807617,
              18.860156
            ],
            [
              72.808984,
              18.856055
            ],
            [
              72.810352,
              18.856055
            ],
            [
              72.813086,
              18.858789
            ],
            [
              72.814453,
              18.858789
            ],
            [
              72.81582,
              18.860156
            ],
            [
              72.817187,
              18.860156
            ],
            [
              72.818555,
              18.861523
            ],
            [
              72.822656,
              18.862891
            ],
            [
              72.826758,
              18.866992
            ],
            [
              72.826758,
              18.869727
            ],
            [
              72.829492,
              18.873828
            ],
            [
              72.830859,
              18.873828
            ],
            [
              72.833594,
              18.871094
            ],
            [
              72.837695,
              18.871094
            ],
            [
              72.837695,
              18.872461
            ],
            [
              72.839062,
              18.873828
            ],
            [
              72.839062,
              18.87793
            ]
          ]
        ]
      }
    },
    {
      "type": "Feature",
      "properties": {
        "spill_id": "sentinel_620",
        "confidence": 0.76
      },
      "geometry": {
        "type": "Polygon",
        "coordinates": [
          [
            [
              72.732422,
              18.879297
            ],
            [
              72.72832,
              18.879297
            ],
            [
              72.726953,
              18.880664
            ],
            [
              72.725586,
              18.879297
            ],
            [
              72.722852,
              18.879297
            ],
            [
              72.720117,
              18.876562
            ],
            [
              72.720117,
              18.875195
            ],
            [
              72.71875,
              18.873828
            ],
            [
              72.71875,
              18.871094
            ],
            [
              72.717383,
              18.869727
            ],
            [
              72.717383,
              18.866992
            ],
            [
              72.716016,
              18.865625
            ],
            [
              72.716016,
              18.862891
            ],
            [
              72.714648,
              18.861523
            ],
            [
              72.714648,
              18.850586
            ],
            [
              72.716016,
              18.849219
            ],
            [
              72.716016,
              18.847852
            ],
            [
              72.717383,
              18.847852
            ],
            [
              72.71875,
              18.846484
            ],
            [
              72.721484,
              18.846484
            ],
            [
              72.729688,
              18.854688
            ],
            [
              72.729688,
              18.856055
            ],
            [
              72.732422,
              18.860156
            ],
            [
              72.732422,
              18.864258
            ],
            [
              72.733789,
              18.865625
            ],
            [
              72.733789,
              18.868359
            ],
            [
              72.735156,
              18.869727
            ],
            [
              72.735156,
              18.87793
            ],
            [
              72.733789,
              18.87793
            ],
            [
              72.732422,
              18.879297
            ]
          ]
        ]
      }
    },
    {
      "type": "Feature",
      "properties": {
        "spill_id": "sentinel_620",
        "confidence": 0.76
      },
      "geometry": {
        "type": "Polygon",
        "coordinates": [
          [
            [
              72.530078,
              18.94082
            ],
            [
              72.528711,
              18.94082
            ],
            [
              72.527344,
              18.942188
            ],
            [
              72.525977,
              18.942188
            ],
            [
              72.524609,
              18.94082
            ],
            [
              72.521875,
              18.94082
            ],
            [
              72.520508,
              18.939453
            ],
            [
              72.517773,
              18.939453
            ],
            [
              72.517773,
              18.935352
            ],
            [
              72.519141,
              18.935352
            ],
            [
              72.520508,
              18.933984
            ],
            [
              72.521875,
              18.933984
            ],
            [
              72.523242,
              18.932617
            ],
            [
              72.527344,
              18.932617
            ],
            [
              72.527344,
              18.933984
            ],
            [
              72.530078,
              18.936719
            ],
            [
              72.530078,
              18.94082
            ]
          ]
        ]
      }
    },
    {
      "type": "Feature",
      "properties": {
        "spill_id": "sentinel_620",
        "confidence": 0.76
      },
      "geometry": {
        "type": "Polygon",
        "coordinates": [
          [
            [
              72.848633,
              19.013281
            ],
            [
              72.841797,
              19.013281
            ],
            [
              72.837695,
              19.00918
            ],
            [
              72.834961,
              19.003711
            ],
            [
              72.833594,
              18.995508
            ],
            [
              72.830859,
              18.991406
            ],
            [
              72.829492,
              18.980469
            ],
            [
              72.824023,
              18.969531
            ],
            [
              72.824023,
              18.949023
            ],
            [
              72.825391,
              18.947656
            ],
            [
              72.825391,
              18.942188
            ],
            [
              72.830859,
              18.938086
            ],
            [
              72.841797,
              18.946289
            ],
            [
              72.844531,
              18.957227
            ],
            [
              72.848633,
              18.962695
            ],
            [
              72.848633,
              19.013281
            ]
          ]
        ]
      }
    },
    {
      "type": "Feature",
      "properties": {
        "spill_id": "sentinel_620",
        "confidence": 0.76
      },
      "geometry": {
        "type": "Polygon",
        "coordinates": [
          [
            [
              72.573828,
              19.013281
            ],
            [
              72.561523,
              19.013281
            ],
            [
              72.554688,
              19.006445
            ],
            [
              72.55332,
              19.002344
            ],
            [
              72.549219,
              18.996875
            ],
            [
              72.538281,
              18.992773
            ],
            [
              72.53418,
              18.988672
            ],
            [
              72.532812,
              18.985938
            ],
            [
              72.532812,
              18.980469
            ],
            [
              72.531445,
              18.979102
            ],
            [
              72.531445,
              18.959961
            ],
            [
              72.538281,
              18.958594
            ],
            [
              72.542383,
              18.962695
            ],
            [
              72.54375,
              18.966797
            ],
            [
              72.550586,
              18.972266
            ],
            [
              72.556055,
              18.991406
            ],
            [
              72.560156,
              18.995508
            ],
            [
              72.569727,
              18.999609
            ],
            [
              72.573828,
              19.003711
            ],
            [
              72.576562,
              19.00918
            ],
            [
              72.573828,
              19.013281
            ]
          ]
        ]
      }
    },
    {
      "type": "Feature",
      "properties": {
        "spill_id": "sentinel_620",
        "confidence": 0.76
      },
      "geometry": {
        "type": "Polygon",
        "coordinates": [
          [
            [
              72.523242,
              19.063867
            ],
            [
              72.519141,
              19.063867
            ],
            [
              72.517773,
              19.065234
            ],
            [
              72.512305,
              19.065234
            ],
            [
              72.510938,
              19.063867
            ],
            [
              72.505469,
              19.063867
            ],
            [
              72.502734,
              19.061133
            ],
            [
              72.502734,
              19.058398
            ],
            [
              72.501367,
              19.057031
            ],
            [
              72.5,
              19.057031
            ],
            [
              72.5,
              19.035156
            ],
            [
              72.506836,
              19.035156
            ],
            [
              72.515039,
              19.043359
            ],
            [
              72.516406,
              19.043359
            ],
            [
              72.517773,
              19.044727
            ],
            [
              72.521875,
              19.044727
            ],
            [
              72.523242,
              19.046094
            ],
            [
              72.524609,
              19.046094
            ],
            [
              72.527344,
              19.048828
            ],
            [
              72.528711,
              19.05293
            ],
            [
              72.527344,
              19.054297
            ],
            [
              72.527344,
              19.057031
            ],
            [
              72.523242,
              19.063867
            ]
          ]
        ]
      }
    },
    {
      "type": "Feature",
      "properties": {
        "spill_id": "sentinel_620",
        "confidence": 0.76
      },
      "geometry": {
        "type": "Polygon",
        "coordinates": [
          [
            [
              72.628516,
              19.100781
            ],
            [
              72.625781,
              19.103516
            ],
            [
              72.613477,
              19.103516
            ],
            [
              72.612109,
              19.102148
            ],
            [
              72.609375,
              19.102148
            ],
            [
              72.605273,
              19.098047
            ],
            [
              72.605273,
              19.095312
            ],
            [
              72.603906,
              19.093945
            ],
            [
              72.605273,
              19.092578
            ],
            [
              72.605273,
              19.091211
            ],
            [
              72.608008,
              19.088477
            ],
            [
              72.610742,
              19.088477
            ],
            [
              72.612109,
              19.087109
            ],
            [
              72.613477,
              19.088477
            ],
            [
              72.617578,
              19.088477
            ],
            [
              72.618945,
              19.089844
            ],
            [
              72.620312,
              19.089844
            ],
            [
              72.62168,
              19.091211
            ],
            [
              72.623047,
              19.091211
            ],
            [
              72.627148,
              19.095312
            ],
            [
              72.627148,
              19.09668
            ],
            [
              72.628516,
              19.098047
            ],
            [
              72.628516,
              19.100781
            ]
          ]
        ]
      }
    },
    {
      "type": "Feature",
      "properties": {
        "spill_id": "sentinel_620",
        "confidence": 0.76
      },
      "geometry": {
        "type": "Polygon",
        "coordinates": [
          [
            [
              72.832227,
              19.15
            ],
            [
              72.828125,
              19.136328
            ],
            [
              72.826758,
              19.073438
            ],
            [
              72.830859,
              19.046094
            ],
            [
              72.839062,
              19.035156
            ],
            [
              72.844531,
              19.033789
            ],
            [
              72.848633,
              19.036523
            ],
            [
              72.848633,
              19.088477
            ],
            [
              72.844531,
              19.09668
            ],
            [
              72.845898,
              19.10625
            ],
            [
              72.848633,
              19.110352
            ],
            [
              72.848633,
              19.15
            ],
            [
              72.832227,
              19.15
            ]
          ]
        ]
      }
    },
    {
      "type": "Feature",
      "properties": {
        "spill_id": "sentinel_620",
        "confidence": 0.76
      },
      "geometry": {
        "type": "Polygon",
        "coordinates": [
          [
            [
              72.732422,
              19.15
            ],
            [
              72.721484,
              19.15
            ],
            [
              72.721484,
              19.148633
            ],
            [
              72.722852,
              19.147266
            ],
            [
              72.724219,
              19.147266
            ],
            [
              72.726953,
              19.144531
            ],
            [
              72.725586,
              19.143164
            ],
            [
              72.725586,
              19.141797
            ],
            [
              72.724219,
              19.14043
            ],
            [
              72.722852,
              19.14043
            ],
            [
              72.722852,
              19.134961
            ],
            [
              72.724219,
              19.136328
            ],
            [
              72.725586,
              19.134961
            ],
            [
              72.726953,
              19.136328
            ],
            [
              72.726953,
              19.137695
            ],
            [
              72.729688,
              19.14043
            ],
            [
              72.729688,
              19.141797
            ],
            [
              72.732422,
              19.144531
            ],
            [
              72.732422,
              19.15
            ]
          ]
        ]
      }
    },
    {
      "type": "Feature",
      "properties": {
        "spill_id": "sentinel_620",
        "confidence": 0.76
      },
      "geometry": {
        "type": "Polygon",
        "coordinates": [
          [
            [
              72.696875,
              19.15
            ],
            [
              72.681836,
              19.15
            ],
            [
              72.680469,
              19.148633
            ],
            [
              72.680469,
              19.144531
            ],
            [
              72.681836,
              19.143164
            ],
            [
              72.681836,
              19.134961
            ],
            [
              72.683203,
              19.133594
            ],
            [
              72.685938,
              19.133594
            ],
            [
              72.692773,
              19.14043
            ],
            [
              72.694141,
              19.14043
            ],
            [
              72.694141,
              19.141797
            ],
            [
              72.696875,
              19.144531
            ],
            [
              72.696875,
              19.145898
            ],
            [
              72.695508,
              19.147266
            ],
            [
              72.695508,
              19.148633
            ],
            [
              72.696875,
              19.15
            ]
          ]
        ]
      }
    }
  ]
}