{
  "type": "FeatureCollection",
  "features": [
    {
      "type": "Feature",
      "properties": {
        "spill_id": "sentinel_682",
        "confidence": 0.84
      },
      "geometry": {
        "type": "Polygon",
        "coordinates": [
          [
            [
              72.687305,
              18.832812
            ],
            [
              72.687305,
              18.827344
            ],
            [
              72.688672,
              18.827344
            ],
            [
              72.690039,
              18.825977
            ],
            [
              72.691406,
              18.827344
            ],
            [
              72.694141,
              18.827344
            ],
            [
              72.696875,
              18.830078
            ],
            [
              72.696875,
              18.832812
            ],
            [
              72.695508,
              18.832812
            ],
            [
              72.694141,
              18.83418
            ],
            [
              72.688672,
              18.83418
            ],
            [
              72.687305,
              18.832812
            ]
          ]
        ]
      }
    },
    {
      "type": "Feature",
      "properties": {
        "spill_id": "sentinel_682",
        "confidence": 0.84
      },
      "geometry": {
        "type": "Polygon",
        "coordinates": [
          [
            [
              72.785742,
              19.043359
            ],
            [
              72.783008,
              19.046094
            ],
            [
              72.778906,
              19.046094
            ],
            [
              72.774805,
              19.041992
            ],
            [
              72.774805,
              19.040625
            ],
            [
              72.773438,
              19.039258
            ],
            [
              72.773438,
              19.035156
            ],
            [
              72.778906,
              19.035156
            ],
            [
              72.780273,
              19.036523
            ],
            [
              72.781641,
              19.036523
            ],
            [
              72.784375,
              19.039258
            ],
            [
              72.784375,
              19.040625
            ],
            [
              72.785742,
              19.041992
            ],
            [
              72.785742,
              19.043359
            ]
          ]
        ]
      }
    },
    {
      "type": "Feature",
      "properties": {
        "spill_id": "sentinel_682",
        "confidence": 0.84
      },
      "geometry": {
        "type": "Polygon",
        "coordinates": [
          [
            [
              72.698242,
              19.054297
            ],
            [
              72.694141,
              19.054297
            ],
            [
              72.68457,
              19.048828
            ],
            [
              72.681836,
              19.048828
            ],
            [
              72.679102,
              19.046094
            ],
            [
              72.679102,
              19.040625
            ],
            [
              72.680469,
              19.037891
            ],
            [
              72.673633,
              19.02832
            ],
            [
              72.673633,
              19.01875
            ],
            [
              72.676367,
              19.016016
            ],
            [
              72.676367,
              19.014648
            ],
            [
              72.680469,
              19.011914
            ],
            [
              72.685938,
              19.011914
            ],
            [
              72.691406,
              19.014648
            ],
            [
              72.695508,
              19.01875
            ],
            [
              72.698242,
              19.024219
            ],
            [
              72.698242,
              19.026953
            ],
            [
              72.705078,
              19.039258
            ],
            [
              72.705078,
              19.046094
            ],
            [
              72.703711,
              19.047461
            ],
            [
              72.703711,
              19.050195
            ],
            [
              72.698242,
              19.054297
            ]
          ]
        ]
      }
    },
    {
      "type": "Feature",
      "properties": {
        "spill_id": "sentinel_682",
        "confidence": 0.84
      },
      "geometry": {
        "type": "Polygon",
        "coordinates": [
          [
            [
              72.829492,
              19.09668
            ],
            [
              72.793945,
              19.092578
            ],
            [
              72.810352,
              19.021484
            ],
            [
              72.799414,
              19.000977
            ],
            [
              72.793945,
              19.007812
            ],
            [
              72.804883,
              19.024219
            ],
            [
              72.798047,
              19.02832
            ],
            [
              72.778906,
              19.00918
            ],
            [
              72.7625,
              19.007812
            ],
            [
              72.679102,
              18.908008
            ],
            [
              72.729688,
              18.928516
            ],
            [
              72.754297,
              18.962695
            ],
            [
              72.798047,
              18.995508
            ],
            [
              72.804883,
              18.973633
            ],
            [
              72.770703,
              18.939453
            ],
            [
              72.755664,
              18.936719
            ],
            [
              72.758398,
              18.927148
            ],
            [
              72.773438,
              18.936719
            ],
            [
              72.781641,
              18.929883
            ],
            [
              72.746094,
              18.908008
            ],
            [
              72.75293,
              18.898438
            ],
            [
              72.795312,
              18.906641
            ],
            [
              72.807617,
              18.894336
            ],
            [
              72.799414,
              18.883398
            ],
            [
              72.770703,
              18.879297
            ],
            [
              72.77207,
              18.871094
            ],
            [
              72.848633,
              18.886133
            ],
            [
              72.843164,
              18.901172
            ],
            [
              72.817187,
              18.901172
            ],
            [
              72.802148,
              18.913477
            ],
            [
              72.848633,
              18.991406
            ],
            [
              72.843164,
              19.017383
            ],
            [
              72.828125,
              19.011914
            ],
            [
              72.818555,
              19.033789
            ],
            [
              72.834961,
              19.088477
            ],
            [
              72.829492,
              19.09668
            ]
          ]
        ]
      }
    },
    {
      "type": "Feature",
      "properties": {
        "spill_id": "sentinel_682",
        "confidence": 0.84
      },
      "geometry": {
        "type": "Polygon",
        "coordinates": [
          [
            [
              72.695508,
              19.133594
            ],
            [
              72.694141,
              19.133594
            ],
            [
              72.692773,
              19.134961
            ],
            [
              72.691406,
              19.134961
            ],
            [
              72.690039,
              19.133594
            ],
            [
              72.687305,
              19.133594
            ],
            [
              72.68457,
              19.130859
            ],
            [
              72.683203,
              19.130859
            ],
            [
              72.683203,
              19.129492
            ],
            [
              72.681836,
              19.128125
            ],
            [
              72.680469,
              19.128125
            ],
            [
              72.680469,
              19.121289
            ],
            [
              72.681836,
              19.119922
            ],
            [
              72.685938,
              19.119922
            ],
            [
              72.696875,
              19.130859
            ],
            [
              72.695508,
              19.132227
            ],
            [
              72.695508,
              19.133594
            ]
          ]
        ]
      }
    },
    {
      "type": "Feature",
      "properties": {
        "spill_id": "sentinel_682",
        "confidence": 0.84
      },
      "geometry": {
        "type": "Polygon",
        "coordinates": [
          [
            [
              72.566992,
              19.15
            ],
            [
              72.549219,
              19.15
            ],
            [
              72.542383,
              19.141797
            ],
            [
              72.532812,
              19.14043
            ],
            [
              72.530078,
              19.137695
            ],
            [
              72.528711,
              19.130859
            ],
            [
              72.521875,
              19.124023
            ],
            [
              72.521875,
              19.121289
            ],
            [
              72.528711,
              19.114453
            ],
            [
              72.53418,
              19.098047
            ],
            [
              72.530078,
              19.092578
            ],
            [
              72.515039,
              19.083008
            ],
            [
              72.5,
              19.083008
            ],
            [
              72.5,
              19.063867
            ],
            [
              72.508203,
              19.063867
            ],
            [
              72.520508,
              19.067969
            ],
            [
              72.530078,
              19.074805
            ],
            [
              72.557422,
              19.083008
            ],
            [
              72.569727,
              19.089844
            ],
            [
              72.569727,
              19.09668
            ],
            [
              72.558789,
              19.098047
            ],
            [
              72.55332,
              19.102148
            ],
            [
              72.55332,
              19.108984
            ],
            [
              72.565625,
              19.126758
            ],
            [
              72.569727,
              19.139062
            ],
            [
              72.569727,
              19.145898
            ],
            [
              72.566992,
              19.15
            ]
          ]
        ]
      }
    }
  ]
}