{
  "type": "FeatureCollection",
  "features": [
    {
      "type": "Feature",
      "properties": {
        "spill_id": "sentinel_368",
        "confidence": 0.85
      },
      "geometry": {
        "type": "Polygon",
        "coordinates": [
          [
            [
              72.5,
              18.942188
            ],
            [
              72.5,
              18.902539
            ],
            [
              72.516406,
              18.883398
            ],
            [
              72.520508,
              18.869727
            ],
            [
              72.536914,
              18.861523
            ],
            [
              72.54375,
              18.851953
            ],
            [
              72.539648,
              18.845117
            ],
            [
              72.5,
              18.836914
            ],
            [
              72.5,
              18.802734
            ],
            [
              72.523242,
              18.801367
            ],
            [
              72.536914,
              18.813672
            ],
            [
              72.562891,
              18.801367
            ],
            [
              72.623047,
              18.801367
            ],
            [
              72.624414,
              18.80957
            ],
            [
              72.616211,
              18.825977
            ],
            [
              72.603906,
              18.836914
            ],
            [
              72.605273,
              18.851953
            ],
            [
              72.584766,
              18.883398
            ],
            [
              72.545117,
              18.902539
            ],
            [
              72.542383,
              18.918945
            ],
            [
              72.550586,
              18.938086
            ],
            [
              72.54375,
              18.947656
            ],
            [
              72.532812,
              18.949023
            ],
            [
              72.525977,
              18.925781
            ],
            [
              72.5,
              18.942188
            ]
          ]
        ]
      }
    },
    {
      "type": "Feature",
      "properties": {
        "spill_id": "sentinel_368",
        "confidence": 0.85
      },
      "geometry": {
        "type": "Polygon",
        "coordinates": [
          [
            [
              72.848633,
              18.998242
            ],
            [
              72.819922,
              18.990039
            ],
            [
              72.799414,
              18.954492
            ],
            [
              72.785742,
              18.943555
            ],
            [
              72.781641,
              18.92168
            ],
            [
              72.751562,
              18.908008
            ],
            [
              72.739258,
              18.880664
            ],
            [
              72.696875,
              18.884766
            ],
            [
              72.70918,
              18.856055
            ],
            [
              72.705078,
              18.846484
            ],
            [
              72.717383,
              18.828711
            ],
            [
              72.743359,
              18.827344
            ],
            [
              72.780273,
              18.804102
            ],
            [
              72.783008,
              18.830078
            ],
            [
              72.767969,
              18.854688
            ],
            [
              72.799414,
              18.87793
            ],
            [
              72.821289,
              18.87793
            ],
            [
              72.848633,
              18.861523
            ],
            [
              72.848633,
              18.975
            ],
            [
              72.844531,
              18.979102
            ],
            [
              72.848633,
              18.998242
            ]
          ]
        ]
      }
    },
    {
      "type": "Feature",
      "properties": {
        "spill_id": "sentinel_368",
        "confidence": 0.85
      },
      "geometry": {
        "type": "Polygon",
        "coordinates": [
          [
            [
              72.5,
              19.102148
            ],
            [
              72.5,
              19.067969
            ],
            [
              72.510938,
              19.051562
            ],
            [
              72.506836,
              19.02832
            ],
            [
              72.513672,
              19.022852
            ],
            [
              72.528711,
              19.029687
            ],
            [
              72.565625,
              19.010547
            ],
            [
              72.572461,
              19.014648
            ],
            [
              72.5875,
              19.016016
            ],
            [
              72.590234,
              19.01875
            ],
            [
              72.590234,
              19.040625
            ],
            [
              72.583398,
              19.057031
            ],
            [
              72.591602,
              19.069336
            ],
            [
              72.599805,
              19.063867
            ],
            [
              72.605273,
              19.047461
            ],
            [
              72.618945,
              19.036523
            ],
            [
              72.627148,
              19.037891
            ],
            [
              72.63125,
              19.043359
            ],
            [
              72.614844,
              19.066602
            ],
            [
              72.599805,
              19.069336
            ],
            [
              72.579297,
              19.089844
            ],
            [
              72.564258,
              19.095312
            ],
            [
              72.53418,
              19.095312
            ],
            [
              72.5,
              19.102148
            ]
          ]
        ]
      }
    },
    {
      "type": "Feature",
      "properties": {
        "spill_id": "sentinel_368",
        "confidence": 0.85
      },
      "geometry": {
        "type": "Polygon",
        "coordinates": [
          [
            [
              72.848633,
              19.128125
            ],
            [
              72.825391,
              19.119922
            ],
            [
              72.788477,
              19.122656
            ],
            [
              72.800781,
              19.087109
            ],
            [
              72.800781,
              19.077539
            ],
            [
              72.795312,
              19.073438
            ],
            [
              72.747461,
              19.083008
            ],
            [
              72.721484,
              19.073438
            ],
            [
              72.691406,
              19.080273
            ],
            [
              72.683203,
              19.088477
            ],
            [
              72.664062,
              19.088477
            ],
            [
              72.649023,
              19.074805
            ],
            [
              72.64082,
              19.074805
            ],
            [
              72.635352,
              19.065234
            ],
            [
              72.643555,
              19.066602
            ],
            [
              72.672266,
              19.051562
            ],
            [
              72.706445,
              19.048828
            ],
            [
              72.721484,
              19.039258
            ],
            [
              72.731055,
              19.039258
            ],
            [
              72.744727,
              19.048828
            ],
            [
              72.77207,
              19.039258
            ],
            [
              72.795312,
              19.016016
            ],
            [
              72.828125,
              19.017383
            ],
            [
              72.848633,
              19.026953
            ],
            [
              72.848633,
              19.128125
            ]
          ]
        ]
      }
    },
    {
      "type": "Feature",
      "properties": {
        "spill_id": "sentinel_368",
        "confidence": 0.85
      },
      "geometry": {
        "type": "Polygon",
        "coordinates": [
          [
            [
              72.766602,
              19.148633
            ],
            [
              72.770703,
              19.144531
            ],
            [
              72.770703,
              19.143164
            ],
            [
              72.776172,
              19.143164
            ],
            [
              72.777539,
              19.144531
            ],
            [
              72.778906,
              19.144531
            ],
            [
              72.778906,
              19.148633
            ],
            [
              72.780273,
              19.15
            ],
            [
              72.766602,
              19.15
            ],
            [
              72.766602,
              19.148633
            ]
          ]
        ]
      }
    }
  ]
}