{
  "type": "FeatureCollection",
  "features": [
    {
      "type": "Feature",
      "properties": {
        "spill_id": "sentinel_342",
        "confidence": 0.81
      },
      "geometry": {
        "type": "Polygon",
        "coordinates": [
          [
            [
              72.721484,
              18.886133
            ],
            [
              72.720117,
              18.884766
            ],
            [
              72.720117,
              18.87793
            ],
            [
              72.721484,
              18.876562
            ],
            [
              72.721484,
              18.875195
            ],
            [
              72.726953,
              18.869727
            ],
            [
              72.729688,
              18.869727
            ],
            [
              72.732422,
              18.872461
            ],
            [
              72.732422,
              18.880664
            ],
            [
              72.731055,
              18.882031
            ],
            [
              72.731055,
              18.883398
            ],
            [
              72.729688,
              18.884766
            ],
            [
              72.72832,
              18.884766
            ],
            [
              72.726953,
              18.886133
            ],
            [
              72.721484,
              18.886133
            ]
          ]
        ]
      }
    },
    {
      "type": "Feature",
      "properties": {
        "spill_id": "sentinel_342",
        "confidence": 0.81
      },
      "geometry": {
        "type": "Polygon",
        "coordinates": [
          [
            [
              72.606641,
              18.914844
            ],
            [
              72.605273,
              18.914844
            ],
            [
              72.602539,
              18.912109
            ],
            [
              72.601172,
              18.912109
            ],
            [
              72.601172,
              18.910742
            ],
            [
              72.598438,
              18.908008
            ],
            [
              72.598438,
              18.905273
            ],
            [
              72.59707,
              18.903906
            ],
            [
              72.59707,
              18.899805
            ],
            [
              72.595703,
              18.898438
            ],
            [
              72.595703,
              18.895703
            ],
            [
              72.59707,
              18.894336
            ],
            [
              72.59707,
              18.892969
            ],
            [
              72.598438,
              18.891602
            ],
            [
              72.601172,
              18.891602
            ],
            [
              72.603906,
              18.894336
            ],
            [
              72.603906,
              18.895703
            ],
            [
              72.605273,
              18.89707
            ],
            [
              72.605273,
              18.898438
            ],
            [
              72.606641,
              18.899805
            ],
            [
              72.606641,
              18.901172
            ],
            [
              72.608008,
              18.902539
            ],
            [
              72.608008,
              18.903906
            ],
            [
              72.609375,
              18.905273
            ],
            [
              72.609375,
              18.912109
            ],
            [
              72.606641,
              18.914844
            ]
          ]
        ]
      }
    },
    {
      "type": "Feature",
      "properties": {
        "spill_id": "sentinel_342",
        "confidence": 0.81
      },
      "geometry": {
        "type": "Polygon",
        "coordinates": [
          [
            [
              72.664062,
              19.047461
            ],
            [
              72.655859,
              19.047461
            ],
            [
              72.654492,
              19.046094
            ],
            [
              72.650391,
              19.044727
            ],
            [
              72.646289,
              19.040625
            ],
            [
              72.646289,
              19.036523
            ],
            [
              72.653125,
              19.026953
            ],
            [
              72.653125,
              19.021484
            ],
            [
              72.654492,
              19.020117
            ],
            [
              72.654492,
              19.016016
            ],
            [
              72.655859,
              19.014648
            ],
            [
              72.655859,
              19.013281
            ],
            [
              72.658594,
              19.013281
            ],
            [
              72.664062,
              19.01875
            ],
            [
              72.664062,
              19.020117
            ],
            [
              72.66543,
              19.021484
            ],
            [
              72.66543,
              19.029687
            ],
            [
              72.666797,
              19.031055
            ],
            [
              72.666797,
              19.033789
            ],
            [
              72.668164,
              19.035156
            ],
            [
              72.668164,
              19.036523
            ],
            [
              72.672266,
              19.040625
            ],
            [
              72.672266,
              19.043359
            ],
            [
              72.670898,
              19.044727
            ],
            [
              72.669531,
              19.043359
            ],
            [
              72.666797,
              19.046094
            ],
            [
              72.66543,
              19.046094
            ],
            [
              72.664062,
              19.047461
            ]
          ]
        ]
      }
    },
    {
      "type": "Feature",
      "properties": {
        "spill_id": "sentinel_342",
        "confidence": 0.81
      },
      "geometry": {
        "type": "Polygon",
        "coordinates": [
          [
            [
              72.77207,
              19.078906
            ],
            [
              72.767969,
              19.078906
            ],
            [
              72.767969,
              19.077539
            ],
            [
              72.765234,
              19.074805
            ],
            [
              72.765234,
              19.067969
            ],
            [
              72.763867,
              19.066602
            ],
            [
              72.763867,
              19.0625
            ],
            [
              72.757031,
              19.054297
            ],
            [
              72.754297,
              19.047461
            ],
            [
              72.751562,
              19.044727
            ],
            [
              72.751562,
              19.041992
            ],
            [
              72.748828,
              19.039258
            ],
            [
              72.746094,
              19.032422
            ],
            [
              72.743359,
              19.029687
            ],
            [
              72.743359,
              19.025586
            ],
            [
              72.744727,
              19.024219
            ],
            [
              72.748828,
              19.024219
            ],
            [
              72.750195,
              19.025586
            ],
            [
              72.755664,
              19.026953
            ],
            [
              72.763867,
              19.035156
            ],
            [
              72.765234,
              19.040625
            ],
            [
              72.766602,
              19.041992
            ],
            [
              72.766602,
              19.044727
            ],
            [
              72.767969,
              19.046094
            ],
            [
              72.767969,
              19.05293
            ],
            [
              72.763867,
              19.059766
            ],
            [
              72.765234,
              19.0625
            ],
            [
              72.767969,
              19.063867
            ],
            [
              72.774805,
              19.070703
            ],
            [
              72.776172,
              19.073438
            ],
            [
              72.77207,
              19.078906
            ]
          ]
        ]
      }
    },
    {
      "type": "Feature",
      "properties": {
        "spill_id": "sentinel_342",
        "confidence": 0.81
      },
      "geometry": {
        "type": "Polygon",
        "coordinates": [
          [
            [
              72.798047,
              19.087109
            ],
            [
              72.792578,
              19.087109
            ],
            [
              72.791211,
              19.085742
            ],
            [
              72.789844,
              19.085742
            ],
            [
              72.789844,
              19.084375
            ],
            [
              72.788477,
              19.083008
            ],
            [
              72.788477,
              19.081641
            ],
            [
              72.787109,
              19.080273
            ],
            [
              72.787109,
              19.078906
            ],
            [
              72.785742,
              19.077539
            ],
            [
              72.785742,
              19.07207
            ],
            [
              72.787109,
              19.070703
            ],
            [
              72.791211,
              19.070703
            ],
            [
              72.792578,
              19.07207
            ],
            [
              72.793945,
              19.07207
            ],
            [
              72.79668,
              19.074805
            ],
            [
              72.79668,
              19.076172
            ],
            [
              72.798047,
              19.077539
            ],
            [
              72.798047,
              19.087109
            ]
          ]
        ]
      }
    },
    {
      "type": "Feature",
      "properties": {
        "spill_id": "sentinel_342",
        "confidence": 0.81
      },
      "geometry": {
        "type": "Polygon",
        "coordinates": [
          [
            [
              72.582031,
              19.098047
            ],
            [
              72.580664,
              19.09668
            ],
            [
              72.579297,
              19.09668
            ],
            [
              72.579297,
              19.095312
            ],
            [
              72.57793,
              19.093945
            ],
            [
              72.57793,
              19.091211
            ],
            [
              72.579297,
              19.089844
            ],
            [
              72.579297,
              19.083008
            ],
            [
              72.582031,
              19.080273
            ],
            [
              72.582031,
              19.078906
            ],
            [
              72.584766,
              19.078906
            ],
            [
              72.584766,
              19.080273
            ],
            [
              72.586133,
              19.081641
            ],
            [
              72.586133,
              19.084375
            ],
            [
              72.5875,
              19.085742
            ],
            [
              72.5875,
              19.088477
            ],
            [
              72.588867,
              19.089844
            ],
            [
              72.588867,
              19.092578
            ],
            [
              72.584766,
              19.09668
            ],
            [
              72.583398,
              19.09668
            ],
            [
              72.582031,
              19.098047
            ]
          ]
        ]
      }
    },
    {
      "type": "Feature",
      "properties": {
        "spill_id": "sentinel_342",
        "confidence": 0.81
      },
      "geometry": {
        "type": "Polygon",
        "coordinates": [
          [
            [
              72.653125,
              19.092578
            ],
            [
              72.644922,
              19.089844
            ],
            [
              72.64082,
              19.093945
            ],
            [
              72.635352,
              19.130859
            ],
            [
              72.620312,
              19.139062
            ],
            [
              72.616211,
              19.126758
            ],
            [
              72.618945,
              19.108984
            ],
            [
              72.629883,
              19.091211
            ],
            [
              72.629883,
              19.07207
            ],
            [
              72.616211,
              19.07207
            ],
            [
              72.594336,
              19.048828
            ],
            [
              72.5875,
              19.048828
            ],
            [
              72.580664,
              19.058398
            ],
            [
              72.582031,
              19.074805
            ],
            [
              72.554688,
              19.047461
            ],
            [
              72.531445,
              19.05293
            ],
            [
              72.517773,
              19.07207
            ],
            [
              72.5,
              19.067969
            ],
            [
              72.5,
              19.055664
            ],
            [
              72.531445,
              19.035156
            ],
            [
              72.561523,
              19.037891
            ],
            [
              72.576562,
              19.025586
            ],
            [
              72.628516,
              19.032422
            ],
            [
              72.635352,
              19.040625
            ],
            [
              72.638086,
              19.073438
            ],
            [
              72.653125,
              19.087109
            ],
            [
              72.653125,
              19.092578
            ]
          ]
        ]
      }
    },
    {
      "type": "Feature",
      "properties": {
        "spill_id": "sentinel_342",
        "confidence": 0.81
      },
      "geometry": {
        "type": "Polygon",
        "coordinates": [
          [
            [
              72.538281,
              19.15
            ],
            [
              72.538281,
              19.144531
            ],
            [
              72.545117,
              19.130859
            ],
            [
              72.545117,
              19.117188
            ],
            [
              72.549219,
              19.108984
            ],
            [
              72.549219,
              19.104883
            ],
            [
              72.550586,
              19.102148
            ],
            [
              72.554688,
              19.099414
            ],
            [
              72.565625,
              19.099414
            ],
            [
              72.566992,
              19.100781
            ],
            [
              72.569727,
              19.100781
            ],
            [
              72.580664,
              19.113086
            ],
            [
              72.580664,
              19.121289
            ],
            [
              72.57793,
              19.126758
            ],
            [
              72.573828,
              19.130859
            ],
            [
              72.565625,
              19.132227
            ],
            [
              72.560156,
              19.134961
            ],
            [
              72.55332,
              19.141797
            ],
            [
              72.549219,
              19.15
            ],
            [
              72.538281,
              19.15
            ]
          ]
        ]
      }
    }
  ]
}