{
  "type": "FeatureCollection",
  "features": [
    {
      "type": "Feature",
      "properties": {
        "spill_id": "sentinel_239",
        "confidence": 0.87
      },
      "geometry": {
        "type": "Polygon",
        "coordinates": [
          [
            [
              72.5,
              18.819141
            ],
            [
              72.5,
              18.802734
            ],
            [
              72.501367,
              18.802734
            ],
            [
              72.502734,
              18.801367
            ],
            [
              72.516406,
              18.801367
            ],
            [
              72.517773,
              18.802734
            ],
            [
              72.517773,
              18.804102
            ],
            [
              72.519141,
              18.805469
            ],
            [
              72.519141,
              18.80957
            ],
            [
              72.515039,
              18.813672
            ],
            [
              72.513672,
              18.813672
            ],
            [
              72.512305,
              18.812305
            ],
            [
              72.510938,
              18.813672
            ],
            [
              72.506836,
              18.813672
            ],
            [
              72.505469,
              18.815039
            ],
            [
              72.504102,
              18.815039
            ],
            [
              72.5,
              18.819141
            ]
          ]
        ]
      }
    },
    {
      "type": "Feature",
      "properties": {
        "spill_id": "sentinel_239",
        "confidence": 0.87
      },
      "geometry": {
        "type": "Polygon",
        "coordinates": [
          [
            [
              72.848633,
              18.998242
            ],
            [
              72.848633,
              19.016016
            ],
            [
              72.844531,
              19.020117
            ],
            [
              72.845898,
              19.031055
            ],
            [
              72.837695,
              19.036523
            ],
            [
              72.81582,
              19.037891
            ],
            [
              72.802148,
              19.029687
            ],
            [
              72.793945,
              19.020117
            ],
            [
              72.780273,
              19.020117
            ],
            [
              72.77207,
              19.02832
            ],
            [
              72.754297,
              19.033789
            ],
            [
              72.735156,
              19.031055
            ],
            [
              72.726953,
              19.022852
            ],
            [
              72.726953,
              19.017383
            ],
            [
              72.735156,
              19.00918
            ],
            [
              72.751562,
              19.005078
            ],
            [
              72.759766,
              19.006445
            ],
            [
              72.769336,
              19.000977
            ],
            [
              72.787109,
              18.999609
            ],
            [
              72.804883,
              18.992773
            ],
            [
              72.841797,
              18.988672
            ],
            [
              72.848633,
              18.998242
            ]
          ]
        ]
      }
    },
    {
      "type": "Feature",
      "properties": {
        "spill_id": "sentinel_239",
        "confidence": 0.87
      },
      "geometry": {
        "type": "Polygon",
        "coordinates": [
          [
            [
              72.703711,
              19.069336
            ],
            [
              72.700977,
              19.069336
            ],
            [
              72.699609,
              19.067969
            ],
            [
              72.698242,
              19.067969
            ],
            [
              72.696875,
              19.066602
            ],
            [
              72.695508,
              19.066602
            ],
            [
              72.692773,
              19.063867
            ],
            [
              72.691406,
              19.063867
            ],
            [
              72.690039,
              19.0625
            ],
            [
              72.688672,
              19.0625
            ],
            [
              72.683203,
              19.057031
            ],
            [
              72.683203,
              19.051562
            ],
            [
              72.681836,
              19.050195
            ],
            [
              72.683203,
              19.048828
            ],
            [
              72.683203,
              19.047461
            ],
            [
              72.68457,
              19.046094
            ],
            [
              72.695508,
              19.046094
            ],
            [
              72.695508,
              19.047461
            ],
            [
              72.698242,
              19.050195
            ],
            [
              72.698242,
              19.051562
            ],
            [
              72.699609,
              19.05293
            ],
            [
              72.699609,
              19.055664
            ],
            [
              72.700977,
              19.057031
            ],
            [
              72.700977,
              19.059766
            ],
            [
              72.702344,
              19.061133
            ],
            [
              72.702344,
              19.063867
            ],
            [
              72.703711,
              19.065234
            ],
            [
              72.703711,
              19.069336
            ]
          ]
        ]
      }
    },
    {
      "type": "Feature",
      "properties": {
        "spill_id": "sentinel_239",
        "confidence": 0.87
      },
      "geometry": {
        "type": "Polygon",
        "coordinates": [
          [
            [
              72.834961,
              19.15
            ],
            [
              72.834961,
              19.148633
            ],
            [
              72.836328,
              19.147266
            ],
            [
              72.836328,
              19.139062
            ],
            [
              72.84043,
              19.134961
            ],
            [
              72.848633,
              19.134961
            ],
            [
              72.848633,
              19.15
            ],
            [
              72.834961,
              19.15
            ]
          ]
        ]
      }
    },
    {
      "type": "Feature",
      "properties": {
        "spill_id": "sentinel_239",
        "confidence": 0.87
      },
      "geometry": {
        "type": "Polygon",
        "coordinates": [
          [
            [
              72.633984,
              19.147266
            ],
            [
              72.639453,
              19.134961
            ],
            [
              72.654492,
              19.132227
            ],
            [
              72.672266,
              19.119922
            ],
            [
              72.698242,
              19.11582
            ],
            [
              72.713281,
              19.102148
            ],
            [
              72.721484,
              19.103516
            ],
            [
              72.736523,
              19.117188
            ],
            [
              72.757031,
              19.11582
            ],
            [
              72.783008,
              19.121289
            ],
            [
              72.808984,
              19.11582
            ],
            [
              72.814453,
              19.122656
            ],
            [
              72.813086,
              19.132227
            ],
            [
              72.79668,
              19.15
            ],
            [
              72.759766,
              19.15
            ],
            [
              72.759766,
              19.137695
            ],
            [
              72.751562,
              19.132227
            ],
            [
              72.732422,
              19.136328
            ],
            [
              72.710547,
              19.134961
            ],
            [
              72.666797,
              19.15
            ],
            [
              72.635352,
              19.15
            ],
            [
              72.633984,
              19.147266
            ]
          ]
        ]
      }
    },
    {
      "type": "Feature",
      "properties": {
        "spill_id": "sentinel_239",
        "confidence": 0.87
      },
      "geometry": {
        "type": "Polygon",
        "coordinates": [
          [
            [
              72.5,
              19.15
            ],
            [
              72.5,
              19.066602
            ],
            [
              72.558789,
              18.999609
            ],
            [
              72.538281,
              18.995508
            ],
            [
              72.5,
              19.024219
            ],
            [
              72.5,
              18.903906
            ],
            [
              72.520508,
              18.892969
            ],
            [
              72.502734,
              18.888867
            ],
            [
              72.5,
              18.856055
            ],
            [
              72.519141,
              18.825977
            ],
            [
              72.551953,
              18.827344
            ],
            [
              72.584766,
              18.858789
            ],
            [
              72.646289,
              18.828711
            ],
            [
              72.683203,
              18.831445
            ],
            [
              72.71875,
              18.808203
            ],
            [
              72.732422,
              18.83418
            ],
            [
              72.848633,
              18.832812
            ],
            [
              72.848633,
              18.871094
            ],
            [
              72.813086,
              18.860156
            ],
            [
              72.765234,
              18.872461
            ],
            [
              72.696875,
              18.936719
            ],
            [
              72.644922,
              18.946289
            ],
            [
              72.614844,
              18.990039
            ],
            [
              72.653125,
              18.996875
            ],
            [
              72.688672,
              18.959961
            ],
            [
              72.711914,
              18.969531
            ],
            [
              72.681836,
              18.990039
            ],
            [
              72.683203,
              19.003711
            ],
            [
              72.647656,
              19.010547
            ],
            [
              72.670898,
              19.039258
            ],
            [
              72.602539,
              19.01875
            ],
            [
              72.601172,
              19.043359
            ],
            [
              72.535547,
              19.080273
            ],
            [
              72.513672,
              19.119922
            ],
            [
              72.516406,
              19.15
            ],
            [
              72.5,
              19.15
            ]
          ]
        ]
      }
    }
  ]
}