{
  "type": "FeatureCollection",
  "features": [
    {
      "type": "Feature",
      "properties": {
        "spill_id": "sentinel_4",
        "confidence": 0.97
      },
      "geometry": {
        "type": "Polygon",
        "coordinates": [
          [
            [
              72.845898,
              18.835547
            ],
            [
              72.845898,
              18.83418
            ],
            [
              72.843164,
              18.831445
            ],
            [
              72.843164,
              18.830078
            ],
            [
              72.841797,
              18.828711
            ],
            [
              72.841797,
              18.827344
            ],
            [
              72.84043,
              18.825977
            ],
            [
              72.84043,
              18.824609
            ],
            [
              72.841797,
              18.823242
            ],
            [
              72.841797,
              18.821875
            ],
            [
              72.844531,
              18.819141
            ],
            [
              72.848633,
              18.819141
            ],
            [
              72.848633,
              18.835547
            ],
            [
              72.845898,
              18.835547
            ]
          ]
        ]
      }
    },
    {
      "type": "Feature",
      "properties": {
        "spill_id": "sentinel_4",
        "confidence": 0.97
      },
      "geometry": {
        "type": "Polygon",
        "coordinates": [
          [
            [
              72.5,
              19.15
            ],
            [
              72.501367,
              18.808203
            ],
            [
              72.556055,
              18.801367
            ],
            [
              72.565625,
              18.824609
            ],
            [
              72.590234,
              18.84375
            ],
            [
              72.624414,
              18.846484
            ],
            [
              72.625781,
              18.861523
            ],
            [
              72.659961,
              18.891602
            ],
            [
              72.776172,
              18.884766
            ],
            [
              72.834961,
              18.923047
            ],
            [
              72.836328,
              18.871094
            ],
            [
              72.848633,
              18.850586
            ],
            [
              72.848633,
              19.15
            ],
            [
              72.5,
              19.15
            ]
          ]
        ]
      }
    }
  ]
}