{
  "type": "FeatureCollection",
  "features": [
    {
      "type": "Feature",
      "properties": {
        "spill_id": "sentinel_586",
        "confidence": 0.85
      },
      "geometry": {
        "type": "Polygon",
        "coordinates": [
          [
            [
              72.63125,
              18.810938
            ],
            [
              72.63125,
              18.802734
            ],
            [
              72.632617,
              18.801367
            ],
            [
              72.638086,
              18.801367
            ],
            [
              72.639453,
              18.802734
            ],
            [
              72.639453,
              18.808203
            ],
            [
              72.636719,
              18.810938
            ],
            [
              72.63125,
              18.810938
            ]
          ]
        ]
      }
    },
    {
      "type": "Feature",
      "properties": {
        "spill_id": "sentinel_586",
        "confidence": 0.85
      },
      "geometry": {
        "type": "Polygon",
        "coordinates": [
          [
            [
              72.605273,
              18.821875
            ],
            [
              72.602539,
              18.821875
            ],
            [
              72.601172,
              18.820508
            ],
            [
              72.599805,
              18.821875
            ],
            [
              72.59707,
              18.819141
            ],
            [
              72.592969,
              18.819141
            ],
            [
              72.591602,
              18.817773
            ],
            [
              72.590234,
              18.817773
            ],
            [
              72.588867,
              18.816406
            ],
            [
              72.5875,
              18.816406
            ],
            [
              72.586133,
              18.815039
            ],
            [
              72.584766,
              18.815039
            ],
            [
              72.584766,
              18.813672
            ],
            [
              72.583398,
              18.812305
            ],
            [
              72.583398,
              18.80957
            ],
            [
              72.580664,
              18.805469
            ],
            [
              72.580664,
              18.802734
            ],
            [
              72.582031,
              18.801367
            ],
            [
              72.59707,
              18.801367
            ],
            [
              72.598438,
              18.802734
            ],
            [
              72.598438,
              18.804102
            ],
            [
              72.601172,
              18.808203
            ],
            [
              72.601172,
              18.812305
            ],
            [
              72.602539,
              18.813672
            ],
            [
              72.602539,
              18.817773
            ],
            [
              72.605273,
              18.821875
            ]
          ]
        ]
      }
    },
    {
      "type": "Feature",
      "properties": {
        "spill_id": "sentinel_586",
        "confidence": 0.85
      },
      "geometry": {
        "type": "Polygon",
        "coordinates": [
          [
            [
              72.669531,
              18.890234
            ],
            [
              72.662695,
              18.888867
            ],
            [
              72.661328,
              18.890234
            ],
            [
              72.661328,
              18.883398
            ],
            [
              72.658594,
              18.879297
            ],
            [
              72.647656,
              18.882031
            ],
            [
              72.638086,
              18.879297
            ],
            [
              72.635352,
              18.876562
            ],
            [
              72.635352,
              18.868359
            ],
            [
              72.639453,
              18.862891
            ],
            [
              72.644922,
              18.846484
            ],
            [
              72.642187,
              18.838281
            ],
            [
              72.642187,
              18.827344
            ],
            [
              72.647656,
              18.821875
            ],
            [
              72.653125,
              18.821875
            ],
            [
              72.654492,
              18.835547
            ],
            [
              72.662695,
              18.860156
            ],
            [
              72.662695,
              18.871094
            ],
            [
              72.664062,
              18.872461
            ],
            [
              72.669531,
              18.871094
            ],
            [
              72.675,
              18.866992
            ],
            [
              72.680469,
              18.866992
            ],
            [
              72.68457,
              18.871094
            ],
            [
              72.681836,
              18.879297
            ],
            [
              72.675,
              18.882031
            ],
            [
              72.669531,
              18.890234
            ]
          ]
        ]
      }
    },
    {
      "type": "Feature",
      "properties": {
        "spill_id": "sentinel_586",
        "confidence": 0.85
      },
      "geometry": {
        "type": "Polygon",
        "coordinates": [
          [
            [
              72.841797,
              18.917578
            ],
            [
              72.833594,
              18.917578
            ],
            [
              72.830859,
              18.914844
            ],
            [
              72.830859,
              18.912109
            ],
            [
              72.829492,
              18.910742
            ],
            [
              72.829492,
              18.902539
            ],
            [
              72.830859,
              18.901172
            ],
            [
              72.830859,
              18.898438
            ],
            [
              72.832227,
              18.89707
            ],
            [
              72.832227,
              18.895703
            ],
            [
              72.834961,
              18.892969
            ],
            [
              72.834961,
              18.891602
            ],
            [
              72.836328,
              18.890234
            ],
            [
              72.836328,
              18.888867
            ],
            [
              72.834961,
              18.8875
            ],
            [
              72.833594,
              18.8875
            ],
            [
              72.833594,
              18.886133
            ],
            [
              72.830859,
              18.882031
            ],
            [
              72.833594,
              18.879297
            ],
            [
              72.836328,
              18.879297
            ],
            [
              72.837695,
              18.87793
            ],
            [
              72.839062,
              18.879297
            ],
            [
              72.843164,
              18.879297
            ],
            [
              72.844531,
              18.880664
            ],
            [
              72.845898,
              18.884766
            ],
            [
              72.848633,
              18.8875
            ],
            [
              72.848633,
              18.909375
            ],
            [
              72.841797,
              18.917578
            ]
          ]
        ]
      }
    },
    {
      "type": "Feature",
      "properties": {
        "spill_id": "sentinel_586",
        "confidence": 0.85
      },
      "geometry": {
        "type": "Polygon",
        "coordinates": [
          [
            [
              72.531445,
              18.932617
            ],
            [
              72.520508,
              18.932617
            ],
            [
              72.519141,
              18.933984
            ],
            [
              72.513672,
              18.933984
            ],
            [
              72.50957,
              18.938086
            ],
            [
              72.508203,
              18.936719
            ],
            [
              72.506836,
              18.938086
            ],
            [
              72.506836,
              18.935352
            ],
            [
              72.504102,
              18.93125
            ],
            [
              72.502734,
              18.92168
            ],
            [
              72.5,
              18.918945
            ],
            [
              72.5,
              18.888867
            ],
            [
              72.508203,
              18.888867
            ],
            [
              72.50957,
              18.890234
            ],
            [
              72.512305,
              18.890234
            ],
            [
              72.525977,
              18.905273
            ],
            [
              72.528711,
              18.906641
            ],
            [
              72.535547,
              18.906641
            ],
            [
              72.539648,
              18.913477
            ],
            [
              72.535547,
              18.92168
            ],
            [
              72.535547,
              18.927148
            ],
            [
              72.531445,
              18.932617
            ]
          ]
        ]
      }
    },
    {
      "type": "Feature",
      "properties": {
        "spill_id": "sentinel_586",
        "confidence": 0.85
      },
      "geometry": {
        "type": "Polygon",
        "coordinates": [
          [
            [
              72.5,
              19.15
            ],
            [
              72.5,
              19.102148
            ],
            [
              72.515039,
              19.093945
            ],
            [
              72.5,
              19.088477
            ],
            [
              72.5,
              19.063867
            ],
            [
              72.516406,
              19.061133
            ],
            [
              72.516406,
              19.029687
            ],
            [
              72.541016,
              19.013281
            ],
            [
              72.53418,
              19.000977
            ],
            [
              72.5,
              19.022852
            ],
            [
              72.5,
              18.988672
            ],
            [
              72.515039,
              18.970898
            ],
            [
              72.538281,
              18.983203
            ],
            [
              72.572461,
              18.969531
            ],
            [
              72.557422,
              18.955859
            ],
            [
              72.588867,
              18.94082
            ],
            [
              72.57793,
              18.879297
            ],
            [
              72.603906,
              18.860156
            ],
            [
              72.620312,
              18.873828
            ],
            [
              72.608008,
              18.98457
            ],
            [
              72.655859,
              18.992773
            ],
            [
              72.649023,
              18.891602
            ],
            [
              72.694141,
              18.942188
            ],
            [
              72.669531,
              18.98457
            ],
            [
              72.676367,
              19.016016
            ],
            [
              72.649023,
              19.01875
            ],
            [
              72.658594,
              19.048828
            ],
            [
              72.632617,
              19.02832
            ],
            [
              72.617578,
              19.051562
            ],
            [
              72.618945,
              19.07207
            ],
            [
              72.633984,
              19.074805
            ],
            [
              72.627148,
              19.111719
            ],
            [
              72.655859,
              19.10625
            ],
            [
              72.66543,
              19.15
            ],
            [
              72.642187,
              19.137695
            ],
            [
              72.623047,
              19.15
            ],
            [
              72.561523,
              19.15
            ],
            [
              72.554688,
              19.129492
            ],
            [
              72.569727,
              19.108984
            ],
            [
              72.556055,
              19.093945
            ],
            [
              72.519141,
              19.148633
            ],
            [
              72.5,
              19.15
            ]
          ]
        ]
      }
    }
  ]
}