{
  "type": "FeatureCollection",
  "features": [
    {
      "type": "Feature",
      "properties": {
        "spill_id": "sentinel_716",
        "confidence": 0.96
      },
      "geometry": {
        "type": "Polygon",
        "coordinates": [
          [
            [
              72.620312,
              19.125391
            ],
            [
              72.617578,
              19.128125
            ],
            [
              72.614844,
              19.128125
            ],
            [
              72.613477,
              19.126758
            ],
            [
              72.613477,
              19.125391
            ],
            [
              72.610742,
              19.122656
            ],
            [
              72.609375,
              19.124023
            ],
            [
              72.608008,
              19.124023
            ],
            [
              72.606641,
              19.122656
            ],
            [
              72.606641,
              19.119922
            ],
            [
              72.609375,
              19.117188
            ],
            [
              72.614844,
              19.117188
            ],
            [
              72.620312,
              19.122656
            ],
            [
              72.620312,
              19.125391
            ]
          ]
        ]
      }
    },
    {
      "type": "Feature",
      "properties": {
        "spill_id": "sentinel_716",
        "confidence": 0.96
      },
      "geometry": {
        "type": "Polygon",
        "coordinates": [
          [
            [
              72.601172,
              19.15
            ],
            [
              72.601172,
              19.148633
            ],
            [
              72.602539,
              19.148633
            ],
            [
              72.606641,
              19.143164
            ],
            [
              72.606641,
              19.141797
            ],
            [
              72.605273,
              19.14043
            ],
            [
              72.605273,
              19.137695
            ],
            [
              72.608008,
              19.137695
            ],
            [
              72.612109,
              19.134961
            ],
            [
              72.617578,
              19.134961
            ],
            [
              72.618945,
              19.136328
            ],
            [
              72.620312,
              19.136328
            ],
            [
              72.623047,
              19.139062
            ],
            [
              72.623047,
              19.14043
            ],
            [
              72.624414,
              19.141797
            ],
            [
              72.624414,
              19.144531
            ],
            [
              72.628516,
              19.147266
            ],
            [
              72.629883,
              19.145898
            ],
            [
              72.63125,
              19.145898
            ],
            [
              72.632617,
              19.144531
            ],
            [
              72.635352,
              19.144531
            ],
            [
              72.636719,
              19.143164
            ],
            [
              72.64082,
              19.143164
            ],
            [
              72.642187,
              19.144531
            ],
            [
              72.642187,
              19.15
            ],
            [
              72.601172,
              19.15
            ]
          ]
        ]
      }
    },
    {
      "type": "Feature",
      "properties": {
        "spill_id": "sentinel_716",
        "confidence": 0.96
      },
      "geometry": {
        "type": "Polygon",
        "coordinates": [
          [
            [
              72.5,
              19.15
            ],
            [
              72.5,
              18.801367
            ],
            [
              72.848633,
              18.801367
            ],
            [
              72.847266,
              18.864258
            ],
            [
              72.800781,
              18.860156
            ],
            [
              72.755664,
              18.882031
            ],
            [
              72.707812,
              18.925781
            ],
            [
              72.633984,
              18.968164
            ],
            [
              72.659961,
              18.981836
            ],
            [
              72.632617,
              18.996875
            ],
            [
              72.646289,
              19.01875
            ],
            [
              72.642187,
              19.047461
            ],
            [
              72.673633,
              19.073438
            ],
            [
              72.64082,
              19.066602
            ],
            [
              72.565625,
              19.118555
            ],
            [
              72.575195,
              19.15
            ],
            [
              72.5,
              19.15
            ]
          ]
        ]
      }
    }
  ]
}