{
  "type": "FeatureCollection",
  "features": [
    {
      "type": "Feature",
      "properties": {
        "spill_id": "sentinel_206",
        "confidence": 0.84
      },
      "geometry": {
        "type": "Polygon",
        "coordinates": [
          [
            [
              72.720117,
              18.836914
            ],
            [
              72.711914,
              18.830078
            ],
            [
              72.711914,
              18.828711
            ],
            [
              72.70918,
              18.825977
            ],
            [
              72.70918,
              18.824609
            ],
            [
              72.707812,
              18.823242
            ],
            [
              72.707812,
              18.821875
            ],
            [
              72.70918,
              18.820508
            ],
            [
              72.70918,
              18.813672
            ],
            [
              72.711914,
              18.80957
            ],
            [
              72.716016,
              18.808203
            ],
            [
              72.721484,
              18.802734
            ],
            [
              72.722852,
              18.802734
            ],
            [
              72.724219,
              18.801367
            ],
            [
              72.731055,
              18.801367
            ],
            [
              72.732422,
              18.802734
            ],
            [
              72.732422,
              18.804102
            ],
            [
              72.735156,
              18.806836
            ],
            [
              72.735156,
              18.80957
            ],
            [
              72.736523,
              18.810938
            ],
            [
              72.735156,
              18.812305
            ],
            [
              72.735156,
              18.816406
            ],
            [
              72.732422,
              18.819141
            ],
            [
              72.732422,
              18.827344
            ],
            [
              72.733789,
              18.828711
            ],
            [
              72.733789,
              18.832812
            ],
            [
              72.731055,
              18.835547
            ],
            [
              72.726953,
              18.835547
            ],
            [
              72.725586,
              18.836914
            ],
            [
              72.720117,
              18.836914
            ]
          ]
        ]
      }
    },
    {
      "type": "Feature",
      "properties": {
        "spill_id": "sentinel_206",
        "confidence": 0.84
      },
      "geometry": {
        "type": "Polygon",
        "coordinates": [
          [
            [
              72.847266,
              18.869727
            ],
            [
              72.845898,
              18.871094
            ],
            [
              72.841797,
              18.871094
            ],
            [
              72.84043,
              18.872461
            ],
            [
              72.839062,
              18.872461
            ],
            [
              72.837695,
              18.871094
            ],
            [
              72.833594,
              18.871094
            ],
            [
              72.832227,
              18.869727
            ],
            [
              72.830859,
              18.869727
            ],
            [
              72.829492,
              18.868359
            ],
            [
              72.825391,
              18.868359
            ],
            [
              72.824023,
              18.866992
            ],
            [
              72.822656,
              18.866992
            ],
            [
              72.821289,
              18.865625
            ],
            [
              72.821289,
              18.864258
            ],
            [
              72.822656,
              18.864258
            ],
            [
              72.824023,
              18.862891
            ],
            [
              72.841797,
              18.862891
            ],
            [
              72.843164,
              18.864258
            ],
            [
              72.844531,
              18.864258
            ],
            [
              72.847266,
              18.866992
            ],
            [
              72.847266,
              18.869727
            ]
          ]
        ]
      }
    },
    {
      "type": "Feature",
      "properties": {
        "spill_id": "sentinel_206",
        "confidence": 0.84
      },
      "geometry": {
        "type": "Polygon",
        "coordinates": [
          [
            [
              72.828125,
              18.918945
            ],
            [
              72.824023,
              18.918945
            ],
            [
              72.821289,
              18.916211
            ],
            [
              72.821289,
              18.913477
            ],
            [
              72.817187,
              18.908008
            ],
            [
              72.810352,
              18.908008
            ],
            [
              72.808984,
              18.906641
            ],
            [
              72.804883,
              18.906641
            ],
            [
              72.803516,
              18.905273
            ],
            [
              72.803516,
              18.901172
            ],
            [
              72.804883,
              18.899805
            ],
            [
              72.804883,
              18.89707
            ],
            [
              72.808984,
              18.891602
            ],
            [
              72.808984,
              18.886133
            ],
            [
              72.811719,
              18.883398
            ],
            [
              72.813086,
              18.883398
            ],
            [
              72.818555,
              18.8875
            ],
            [
              72.821289,
              18.8875
            ],
            [
              72.822656,
              18.888867
            ],
            [
              72.834961,
              18.890234
            ],
            [
              72.836328,
              18.891602
            ],
            [
              72.837695,
              18.891602
            ],
            [
              72.84043,
              18.895703
            ],
            [
              72.84043,
              18.901172
            ],
            [
              72.839062,
              18.902539
            ],
            [
              72.837695,
              18.906641
            ],
            [
              72.832227,
              18.912109
            ],
            [
              72.830859,
              18.916211
            ],
            [
              72.828125,
              18.918945
            ]
          ]
        ]
      }
    },
    {
      "type": "Feature",
      "properties": {
        "spill_id": "sentinel_206",
        "confidence": 0.84
      },
      "geometry": {
        "type": "Polygon",
        "coordinates": [
          [
            [
              72.761133,
              18.953125
            ],
            [
              72.755664,
              18.946289
            ],
            [
              72.755664,
              18.943555
            ],
            [
              72.754297,
              18.942188
            ],
            [
              72.754297,
              18.935352
            ],
            [
              72.757031,
              18.932617
            ],
            [
              72.7625,
              18.932617
            ],
            [
              72.763867,
              18.933984
            ],
            [
              72.77207,
              18.933984
            ],
            [
              72.777539,
              18.925781
            ],
            [
              72.778906,
              18.918945
            ],
            [
              72.784375,
              18.914844
            ],
            [
              72.788477,
              18.914844
            ],
            [
              72.792578,
              18.920312
            ],
            [
              72.792578,
              18.93125
            ],
            [
              72.788477,
              18.939453
            ],
            [
              72.778906,
              18.950391
            ],
            [
              72.776172,
              18.951758
            ],
            [
              72.773438,
              18.951758
            ],
            [
              72.77207,
              18.953125
            ],
            [
              72.761133,
              18.953125
            ]
          ]
        ]
      }
    },
    {
      "type": "Feature",
      "properties": {
        "spill_id": "sentinel_206",
        "confidence": 0.84
      },
      "geometry": {
        "type": "Polygon",
        "coordinates": [
          [
            [
              72.824023,
              18.980469
            ],
            [
              72.824023,
              18.983203
            ],
            [
              72.817187,
              18.988672
            ],
            [
              72.818555,
              18.992773
            ],
            [
              72.822656,
              18.995508
            ],
            [
              72.822656,
              19.002344
            ],
            [
              72.819922,
              19.005078
            ],
            [
              72.808984,
              19.005078
            ],
            [
              72.804883,
              19.002344
            ],
            [
              72.800781,
              19.002344
            ],
            [
              72.799414,
              19.000977
            ],
            [
              72.785742,
              19.000977
            ],
            [
              72.777539,
              18.996875
            ],
            [
              72.777539,
              18.994141
            ],
            [
              72.778906,
              18.994141
            ],
            [
              72.783008,
              18.988672
            ],
            [
              72.789844,
              18.985938
            ],
            [
              72.792578,
              18.983203
            ],
            [
              72.795312,
              18.983203
            ],
            [
              72.79668,
              18.981836
            ],
            [
              72.804883,
              18.981836
            ],
            [
              72.80625,
              18.980469
            ],
            [
              72.811719,
              18.980469
            ],
            [
              72.813086,
              18.979102
            ],
            [
              72.822656,
              18.979102
            ],
            [
              72.824023,
              18.980469
            ]
          ]
        ]
      }
    },
    {
      "type": "Feature",
      "properties": {
        "spill_id": "sentinel_206",
        "confidence": 0.84
      },
      "geometry": {
        "type": "Polygon",
        "coordinates": [
          [
            [
              72.646289,
              19.058398
            ],
            [
              72.647656,
              19.058398
            ],
            [
              72.649023,
              19.057031
            ],
            [
              72.696875,
              19.057031
            ],
            [
              72.698242,
              19.058398
            ],
            [
              72.692773,
              19.063867
            ],
            [
              72.691406,
              19.063867
            ],
            [
              72.690039,
              19.065234
            ],
            [
              72.687305,
              19.065234
            ],
            [
              72.685938,
              19.066602
            ],
            [
              72.683203,
              19.066602
            ],
            [
              72.681836,
              19.067969
            ],
            [
              72.677734,
              19.067969
            ],
            [
              72.676367,
              19.069336
            ],
            [
              72.669531,
              19.069336
            ],
            [
              72.668164,
              19.067969
            ],
            [
              72.66543,
              19.067969
            ],
            [
              72.664062,
              19.066602
            ],
            [
              72.659961,
              19.065234
            ],
            [
              72.657227,
              19.0625
            ],
            [
              72.655859,
              19.0625
            ],
            [
              72.654492,
              19.061133
            ],
            [
              72.650391,
              19.061133
            ],
            [
              72.646289,
              19.058398
            ]
          ]
        ]
      }
    },
    {
      "type": "Feature",
      "properties": {
        "spill_id": "sentinel_206",
        "confidence": 0.84
      },
      "geometry": {
        "type": "Polygon",
        "coordinates": [
          [
            [
              72.5,
              19.069336
            ],
            [
              72.501367,
              18.805469
            ],
            [
              72.564258,
              18.801367
            ],
            [
              72.571094,
              18.816406
            ],
            [
              72.554688,
              18.872461
            ],
            [
              72.530078,
              18.908008
            ],
            [
              72.551953,
              18.969531
            ],
            [
              72.594336,
              18.947656
            ],
            [
              72.572461,
              18.925781
            ],
            [
              72.57793,
              18.908008
            ],
            [
              72.650391,
              18.935352
            ],
            [
              72.662695,
              18.927148
            ],
            [
              72.651758,
              18.908008
            ],
            [
              72.664062,
              18.903906
            ],
            [
              72.70918,
              18.924414
            ],
            [
              72.758398,
              18.879297
            ],
            [
              72.733789,
              18.93125
            ],
            [
              72.741992,
              18.955859
            ],
            [
              72.721484,
              18.983203
            ],
            [
              72.765234,
              18.999609
            ],
            [
              72.750195,
              19.014648
            ],
            [
              72.744727,
              18.999609
            ],
            [
              72.575195,
              19.057031
            ],
            [
              72.530078,
              19.057031
            ],
            [
              72.5,
              19.069336
            ]
          ]
        ]
      }
    },
    {
      "type": "Feature",
      "properties": {
        "spill_id": "sentinel_206",
        "confidence": 0.84
      },
      "geometry": {
        "type": "Polygon",
        "coordinates": [
          [
            [
              72.586133,
              19.113086
            ],
            [
              72.586133,
              19.104883
            ],
            [
              72.5875,
              19.102148
            ],
            [
              72.590234,
              19.100781
            ],
            [
              72.602539,
              19.087109
            ],
            [
              72.606641,
              19.087109
            ],
            [
              72.613477,
              19.092578
            ],
            [
              72.62168,
              19.092578
            ],
            [
              72.627148,
              19.095312
            ],
            [
              72.635352,
              19.103516
            ],
            [
              72.638086,
              19.104883
            ],
            [
              72.642187,
              19.104883
            ],
            [
              72.647656,
              19.107617
            ],
            [
              72.647656,
              19.108984
            ],
            [
              72.63125,
              19.108984
            ],
            [
              72.624414,
              19.111719
            ],
            [
              72.598438,
              19.114453
            ],
            [
              72.594336,
              19.118555
            ],
            [
              72.590234,
              19.118555
            ],
            [
              72.590234,
              19.117188
            ],
            [
              72.586133,
              19.113086
            ]
          ]
        ]
      }
    },
    {
      "type": "Feature",
      "properties": {
        "spill_id": "sentinel_206",
        "confidence": 0.84
      },
      "geometry": {
        "type": "Polygon",
        "coordinates": [
          [
            [
              72.653125,
              19.110352
            ],
            [
              72.670898,
              19.098047
            ],
            [
              72.700977,
              19.092578
            ],
            [
              72.721484,
              19.074805
            ],
            [
              72.743359,
              19.065234
            ],
            [
              72.843164,
              19.0625
            ],
            [
              72.848633,
              19.066602
            ],
            [
              72.848633,
              19.091211
            ],
            [
              72.784375,
              19.129492
            ],
            [
              72.761133,
              19.15
            ],
            [
              72.71875,
              19.15
            ],
            [
              72.720117,
              19.132227
            ],
            [
              72.735156,
              19.118555
            ],
            [
              72.765234,
              19.114453
            ],
            [
              72.788477,
              19.093945
            ],
            [
              72.784375,
              19.080273
            ],
            [
              72.746094,
              19.084375
            ],
            [
              72.733789,
              19.093945
            ],
            [
              72.711914,
              19.09668
            ],
            [
              72.666797,
              19.145898
            ],
            [
              72.653125,
              19.110352
            ]
          ]
        ]
      }
    },
    {
      "type": "Feature",
      "properties": {
        "spill_id": "sentinel_206",
        "confidence": 0.84
      },
      "geometry": {
        "type": "Polygon",
        "coordinates": [
          [
            [
              72.519141,
              19.15
            ],
            [
              72.519141,
              19.148633
            ],
            [
              72.530078,
              19.137695
            ],
            [
              72.530078,
              19.136328
            ],
            [
              72.535547,
              19.129492
            ],
            [
              72.535547,
              19.128125
            ],
            [
              72.536914,
              19.126758
            ],
            [
              72.538281,
              19.122656
            ],
            [
              72.541016,
              19.119922
            ],
            [
              72.541016,
              19.118555
            ],
            [
              72.54375,
              19.11582
            ],
            [
              72.545117,
              19.11582
            ],
            [
              72.546484,
              19.114453
            ],
            [
              72.549219,
              19.114453
            ],
            [
              72.549219,
              19.117188
            ],
            [
              72.550586,
              19.118555
            ],
            [
              72.550586,
              19.128125
            ],
            [
              72.551953,
              19.129492
            ],
            [
              72.551953,
              19.141797
            ],
            [
              72.55332,
              19.143164
            ],
            [
              72.55332,
              19.147266
            ],
            [
              72.551953,
              19.148633
            ],
            [
              72.551953,
              19.15
            ],
            [
              72.519141,
              19.15
            ]
          ]
        ]
      }
    }
  ]
}