{
  "type": "FeatureCollection",
  "features": [
    {
      "type": "Feature",
      "properties": {
        "spill_id": "sentinel_510",
        "confidence": 0.86
      },
      "geometry": {
        "type": "Polygon",
        "coordinates": [
          [
            [
              72.538281,
              18.969531
            ],
            [
              72.536914,
              18.969531
            ],
            [
              72.532812,
              18.96543
            ],
            [
              72.532812,
              18.962695
            ],
            [
              72.530078,
              18.959961
            ],
            [
              72.530078,
              18.958594
            ],
            [
              72.535547,
              18.958594
            ],
            [
              72.536914,
              18.959961
            ],
            [
              72.538281,
              18.959961
            ],
            [
              72.539648,
              18.961328
            ],
            [
              72.539648,
              18.968164
            ],
            [
              72.538281,
              18.969531
            ]
          ]
        ]
      }
    },
    {
      "type": "Feature",
      "properties": {
        "spill_id": "sentinel_510",
        "confidence": 0.86
      },
      "geometry": {
        "type": "Polygon",
        "coordinates": [
          [
            [
              72.649023,
              18.987305
            ],
            [
              72.647656,
              18.988672
            ],
            [
              72.643555,
              18.988672
            ],
            [
              72.64082,
              18.985938
            ],
            [
              72.636719,
              18.985938
            ],
            [
              72.635352,
              18.98457
            ],
            [
              72.633984,
              18.98457
            ],
            [
              72.632617,
              18.983203
            ],
            [
              72.632617,
              18.980469
            ],
            [
              72.633984,
              18.979102
            ],
            [
              72.633984,
              18.977734
            ],
            [
              72.636719,
              18.977734
            ],
            [
              72.638086,
              18.976367
            ],
            [
              72.639453,
              18.976367
            ],
            [
              72.64082,
              18.977734
            ],
            [
              72.643555,
              18.977734
            ],
            [
              72.647656,
              18.981836
            ],
            [
              72.647656,
              18.983203
            ],
            [
              72.649023,
              18.98457
            ],
            [
              72.649023,
              18.987305
            ]
          ]
        ]
      }
    },
    {
      "type": "Feature",
      "properties": {
        "spill_id": "sentinel_510",
        "confidence": 0.86
      },
      "geometry": {
        "type": "Polygon",
        "coordinates": [
          [
            [
              72.714648,
              19.021484
            ],
            [
              72.702344,
              19.011914
            ],
            [
              72.669531,
              19.01875
            ],
            [
              72.68457,
              18.990039
            ],
            [
              72.672266,
              18.988672
            ],
            [
              72.664062,
              18.968164
            ],
            [
              72.680469,
              18.966797
            ],
            [
              72.675,
              18.932617
            ],
            [
              72.655859,
              18.910742
            ],
            [
              72.662695,
              18.89707
            ],
            [
              72.681836,
              18.886133
            ],
            [
              72.690039,
              18.858789
            ],
            [
              72.675,
              18.858789
            ],
            [
              72.657227,
              18.871094
            ],
            [
              72.651758,
              18.891602
            ],
            [
              72.613477,
              18.883398
            ],
            [
              72.612109,
              18.869727
            ],
            [
              72.646289,
              18.846484
            ],
            [
              72.651758,
              18.832812
            ],
            [
              72.633984,
              18.821875
            ],
            [
              72.609375,
              18.839648
            ],
            [
              72.59707,
              18.839648
            ],
            [
              72.5875,
              18.801367
            ],
            [
              72.654492,
              18.802734
            ],
            [
              72.666797,
              18.812305
            ],
            [
              72.703711,
              18.801367
            ],
            [
              72.726953,
              18.80957
            ],
            [
              72.722852,
              18.857422
            ],
            [
              72.713281,
              18.861523
            ],
            [
              72.706445,
              18.888867
            ],
            [
              72.724219,
              18.901172
            ],
            [
              72.707812,
              18.909375
            ],
            [
              72.717383,
              18.932617
            ],
            [
              72.711914,
              18.944922
            ],
            [
              72.717383,
              18.977734
            ],
            [
              72.700977,
              19.000977
            ],
            [
              72.714648,
              19.021484
            ]
          ]
        ]
      }
    },
    {
      "type": "Feature",
      "properties": {
        "spill_id": "sentinel_510",
        "confidence": 0.86
      },
      "geometry": {
        "type": "Polygon",
        "coordinates": [
          [
            [
              72.716016,
              19.076172
            ],
            [
              72.713281,
              19.07207
            ],
            [
              72.713281,
              19.0625
            ],
            [
              72.70918,
              19.055664
            ],
            [
              72.70918,
              19.046094
            ],
            [
              72.710547,
              19.044727
            ],
            [
              72.717383,
              19.044727
            ],
            [
              72.722852,
              19.047461
            ],
            [
              72.72832,
              19.041992
            ],
            [
              72.731055,
              19.040625
            ],
            [
              72.735156,
              19.040625
            ],
            [
              72.737891,
              19.037891
            ],
            [
              72.736523,
              19.035156
            ],
            [
              72.737891,
              19.032422
            ],
            [
              72.741992,
              19.032422
            ],
            [
              72.744727,
              19.036523
            ],
            [
              72.746094,
              19.041992
            ],
            [
              72.743359,
              19.044727
            ],
            [
              72.736523,
              19.048828
            ],
            [
              72.735156,
              19.054297
            ],
            [
              72.729688,
              19.058398
            ],
            [
              72.729688,
              19.063867
            ],
            [
              72.72832,
              19.065234
            ],
            [
              72.72832,
              19.073438
            ],
            [
              72.729688,
              19.074805
            ],
            [
              72.729688,
              19.077539
            ],
            [
              72.726953,
              19.078906
            ],
            [
              72.722852,
              19.076172
            ],
            [
              72.720117,
              19.076172
            ],
            [
              72.71875,
              19.077539
            ],
            [
              72.716016,
              19.076172
            ]
          ]
        ]
      }
    },
    {
      "type": "Feature",
      "properties": {
        "spill_id": "sentinel_510",
        "confidence": 0.86
      },
      "geometry": {
        "type": "Polygon",
        "coordinates": [
          [
            [
              72.755664,
              19.125391
            ],
            [
              72.755664,
              19.121289
            ],
            [
              72.758398,
              19.121289
            ],
            [
              72.759766,
              19.119922
            ],
            [
              72.765234,
              19.119922
            ],
            [
              72.766602,
              19.118555
            ],
            [
              72.767969,
              19.118555
            ],
            [
              72.767969,
              19.124023
            ],
            [
              72.766602,
              19.124023
            ],
            [
              72.765234,
              19.125391
            ],
            [
              72.763867,
              19.125391
            ],
            [
              72.7625,
              19.126758
            ],
            [
              72.7625,
              19.128125
            ],
            [
              72.761133,
              19.126758
            ],
            [
              72.757031,
              19.126758
            ],
            [
              72.755664,
              19.125391
            ]
          ]
        ]
      }
    },
    {
      "type": "Feature",
      "properties": {
        "spill_id": "sentinel_510",
        "confidence": 0.86
      },
      "geometry": {
        "type": "Polygon",
        "coordinates": [
          [
            [
              72.770703,
              19.14043
            ],
            [
              72.770703,
              19.136328
            ],
            [
              72.77207,
              19.134961
            ],
            [
              72.773438,
              19.134961
            ],
            [
              72.774805,
              19.133594
            ],
            [
              72.778906,
              19.133594
            ],
            [
              72.784375,
              19.128125
            ],
            [
              72.784375,
              19.126758
            ],
            [
              72.787109,
              19.124023
            ],
            [
              72.788477,
              19.124023
            ],
            [
              72.789844,
              19.122656
            ],
            [
              72.798047,
              19.122656
            ],
            [
              72.799414,
              19.124023
            ],
            [
              72.800781,
              19.124023
            ],
            [
              72.802148,
              19.125391
            ],
            [
              72.802148,
              19.126758
            ],
            [
              72.80625,
              19.133594
            ],
            [
              72.80625,
              19.137695
            ],
            [
              72.804883,
              19.139062
            ],
            [
              72.803516,
              19.137695
            ],
            [
              72.792578,
              19.137695
            ],
            [
              72.788477,
              19.134961
            ],
            [
              72.785742,
              19.134961
            ],
            [
              72.784375,
              19.136328
            ],
            [
              72.783008,
              19.136328
            ],
            [
              72.777539,
              19.141797
            ],
            [
              72.774805,
              19.141797
            ],
            [
              72.773438,
              19.14043
            ],
            [
              72.770703,
              19.14043
            ]
          ]
        ]
      }
    },
    {
      "type": "Feature",
      "properties": {
        "spill_id": "sentinel_510",
        "confidence": 0.86
      },
      "geometry": {
        "type": "Polygon",
        "coordinates": [
          [
            [
              72.848633,
              19.15
            ],
            [
              72.825391,
              19.15
            ],
            [
              72.810352,
              19.098047
            ],
            [
              72.79668,
              19.084375
            ],
            [
              72.778906,
              19.048828
            ],
            [
              72.758398,
              19.032422
            ],
            [
              72.743359,
              19.011914
            ],
            [
              72.741992,
              18.991406
            ],
            [
              72.755664,
              18.98457
            ],
            [
              72.757031,
              18.970898
            ],
            [
              72.773438,
              18.946289
            ],
            [
              72.783008,
              18.943555
            ],
            [
              72.802148,
              18.955859
            ],
            [
              72.80625,
              18.932617
            ],
            [
              72.810352,
              18.93125
            ],
            [
              72.819922,
              18.943555
            ],
            [
              72.826758,
              18.977734
            ],
            [
              72.81582,
              18.992773
            ],
            [
              72.818555,
              19.025586
            ],
            [
              72.80625,
              19.039258
            ],
            [
              72.804883,
              19.051562
            ],
            [
              72.817187,
              19.054297
            ],
            [
              72.829492,
              19.032422
            ],
            [
              72.841797,
              19.041992
            ],
            [
              72.843164,
              19.063867
            ],
            [
              72.837695,
              19.081641
            ],
            [
              72.848633,
              19.098047
            ],
            [
              72.848633,
              19.15
            ]
          ]
        ]
      }
    }
  ]
}