{
  "type": "FeatureCollection",
  "features": [
    {
      "type": "Feature",
      "properties": {
        "spill_id": "sentinel_416",
        "confidence": 0.86
      },
      "geometry": {
        "type": "Polygon",
        "coordinates": [
          [
            [
              72.843164,
              19.15
            ],
            [
              72.778906,
              19.15
            ],
            [
              72.795312,
              19.122656
            ],
            [
              72.743359,
              19.110352
            ],
            [
              72.721484,
              19.15
            ],
            [
              72.691406,
              19.144531
            ],
            [
              72.763867,
              19.02832
            ],
            [
              72.72832,
              18.947656
            ],
            [
              72.736523,
              18.925781
            ],
            [
              72.773438,
              18.914844
            ],
            [
              72.776172,
              18.861523
            ],
            [
              72.75293,
              18.857422
            ],
            [
              72.757031,
              18.894336
            ],
            [
              72.729688,
              18.866992
            ],
            [
              72.662695,
              18.942188
            ],
            [
              72.62168,
              18.925781
            ],
            [
              72.62168,
              18.908008
            ],
            [
              72.5,
              19.017383
            ],
            [
              72.5,
              18.981836
            ],
            [
              72.547852,
              18.920312
            ],
            [
              72.566992,
              18.918945
            ],
            [
              72.528711,
              18.821875
            ],
            [
              72.5,
              18.825977
            ],
            [
              72.5,
              18.801367
            ],
            [
              72.848633,
              18.801367
            ],
            [
              72.848633,
              19.057031
            ],
            [
              72.795312,
              19.117188
            ],
            [
              72.847266,
              19.088477
            ],
            [
              72.843164,
              19.15
            ]
          ]
        ]
      }
    }
  ]
}