{
  "type": "FeatureCollection",
  "features": [
    {
      "type": "Feature",
      "properties": {
        "spill_id": "sentinel_524",
        "confidence": 0.9
      },
      "geometry": {
        "type": "Polygon",
        "coordinates": [
          [
            [
              72.747461,
              18.828711
            ],
            [
              72.747461,
              18.824609
            ],
            [
              72.746094,
              18.821875
            ],
            [
              72.750195,
              18.816406
            ],
            [
              72.750195,
              18.815039
            ],
            [
              72.754297,
              18.810938
            ],
            [
              72.755664,
              18.808203
            ],
            [
              72.755664,
              18.802734
            ],
            [
              72.757031,
              18.801367
            ],
            [
              72.780273,
              18.801367
            ],
            [
              72.781641,
              18.802734
            ],
            [
              72.781641,
              18.804102
            ],
            [
              72.785742,
              18.80957
            ],
            [
              72.785742,
              18.812305
            ],
            [
              72.784375,
              18.815039
            ],
            [
              72.776172,
              18.823242
            ],
            [
              72.776172,
              18.83418
            ],
            [
              72.774805,
              18.835547
            ],
            [
              72.763867,
              18.835547
            ],
            [
              72.758398,
              18.832812
            ],
            [
              72.75293,
              18.832812
            ],
            [
              72.747461,
              18.828711
            ]
          ]
        ]
      }
    },
    {
      "type": "Feature",
      "properties": {
        "spill_id": "sentinel_524",
        "confidence": 0.9
      },
      "geometry": {
        "type": "Polygon",
        "coordinates": [
          [
            [
              72.761133,
              18.959961
            ],
            [
              72.759766,
              18.961328
            ],
            [
              72.757031,
              18.961328
            ],
            [
              72.755664,
              18.959961
            ],
            [
              72.754297,
              18.959961
            ],
            [
              72.75293,
              18.961328
            ],
            [
              72.751562,
              18.961328
            ],
            [
              72.743359,
              18.953125
            ],
            [
              72.741992,
              18.953125
            ],
            [
              72.741992,
              18.949023
            ],
            [
              72.744727,
              18.946289
            ],
            [
              72.750195,
              18.946289
            ],
            [
              72.758398,
              18.954492
            ],
            [
              72.758398,
              18.955859
            ],
            [
              72.761133,
              18.958594
            ],
            [
              72.761133,
              18.959961
            ]
          ]
        ]
      }
    },
    {
      "type": "Feature",
      "properties": {
        "spill_id": "sentinel_524",
        "confidence": 0.9
      },
      "geometry": {
        "type": "Polygon",
        "coordinates": [
          [
            [
              72.825391,
              19.057031
            ],
            [
              72.813086,
              19.048828
            ],
            [
              72.810352,
              19.043359
            ],
            [
              72.810352,
              19.032422
            ],
            [
              72.81582,
              19.026953
            ],
            [
              72.81582,
              19.025586
            ],
            [
              72.817187,
              19.026953
            ],
            [
              72.824023,
              19.026953
            ],
            [
              72.826758,
              19.025586
            ],
            [
              72.830859,
              19.020117
            ],
            [
              72.833594,
              19.020117
            ],
            [
              72.834961,
              19.01875
            ],
            [
              72.84043,
              19.01875
            ],
            [
              72.847266,
              19.021484
            ],
            [
              72.848633,
              19.022852
            ],
            [
              72.848633,
              19.050195
            ],
            [
              72.843164,
              19.048828
            ],
            [
              72.836328,
              19.040625
            ],
            [
              72.832227,
              19.040625
            ],
            [
              72.829492,
              19.041992
            ],
            [
              72.826758,
              19.046094
            ],
            [
              72.828125,
              19.047461
            ],
            [
              72.832227,
              19.047461
            ],
            [
              72.836328,
              19.051562
            ],
            [
              72.836328,
              19.057031
            ],
            [
              72.834961,
              19.058398
            ],
            [
              72.825391,
              19.057031
            ]
          ]
        ]
      }
    },
    {
      "type": "Feature",
      "properties": {
        "spill_id": "sentinel_524",
        "confidence": 0.9
      },
      "geometry": {
        "type": "Polygon",
        "coordinates": [
          [
            [
              72.5,
              18.804102
            ],
            [
              72.565625,
              18.801367
            ],
            [
              72.562891,
              18.815039
            ],
            [
              72.57793,
              18.819141
            ],
            [
              72.599805,
              18.801367
            ],
            [
              72.639453,
              18.802734
            ],
            [
              72.644922,
              18.841016
            ],
            [
              72.623047,
              18.864258
            ],
            [
              72.683203,
              18.876562
            ],
            [
              72.699609,
              18.973633
            ],
            [
              72.685938,
              18.990039
            ],
            [
              72.695508,
              19.02832
            ],
            [
              72.716016,
              19.040625
            ],
            [
              72.711914,
              19.0625
            ],
            [
              72.736523,
              19.069336
            ],
            [
              72.746094,
              19.057031
            ],
            [
              72.724219,
              19.046094
            ],
            [
              72.726953,
              19.032422
            ],
            [
              72.773438,
              19.021484
            ],
            [
              72.735156,
              18.975
            ],
            [
              72.848633,
              18.991406
            ],
            [
              72.81582,
              19.017383
            ],
            [
              72.781641,
              19.017383
            ],
            [
              72.784375,
              19.039258
            ],
            [
              72.757031,
              19.081641
            ],
            [
              72.791211,
              19.118555
            ],
            [
              72.828125,
              19.121289
            ],
            [
              72.843164,
              19.15
            ],
            [
              72.5,
              19.15
            ],
            [
              72.5,
              18.804102
            ]
          ]
        ]
      }
    }
  ]
}