{
  "type": "FeatureCollection",
  "features": [
    {
      "type": "Feature",
      "properties": {
        "spill_id": "sentinel_24",
        "confidence": 0.91
      },
      "geometry": {
        "type": "Polygon",
        "coordinates": [
          [
            [
              72.502734,
              19.15
            ],
            [
              72.5,
              18.801367
            ],
            [
              72.848633,
              18.801367
            ],
            [
              72.848633,
              19.15
            ],
            [
              72.726953,
              19.15
            ],
            [
              72.724219,
              19.136328
            ],
            [
              72.706445,
              19.137695
            ],
            [
              72.705078,
              19.15
            ],
            [
              72.502734,
              19.15
            ]
          ]
        ]
      }
    }
  ]
}