{
  "type": "FeatureCollection",
  "features": [
    {
      "type": "Feature",
      "properties": {
        "spill_id": "sentinel_76",
        "confidence": 0.74
      },
      "geometry": {
        "type": "Polygon",
        "coordinates": [
          [
            [
              72.773438,
              18.918945
            ],
            [
              72.773438,
              18.917578
            ],
            [
              72.788477,
              18.902539
            ],
            [
              72.789844,
              18.902539
            ],
            [
              72.791211,
              18.901172
            ],
            [
              72.793945,
              18.901172
            ],
            [
              72.795312,
              18.899805
            ],
            [
              72.79668,
              18.901172
            ],
            [
              72.798047,
              18.901172
            ],
            [
              72.798047,
              18.906641
            ],
            [
              72.79668,
              18.908008
            ],
            [
              72.79668,
              18.909375
            ],
            [
              72.795312,
              18.910742
            ],
            [
              72.795312,
              18.913477
            ],
            [
              72.791211,
              18.917578
            ],
            [
              72.789844,
              18.917578
            ],
            [
              72.788477,
              18.918945
            ],
            [
              72.787109,
              18.918945
            ],
            [
              72.785742,
              18.920312
            ],
            [
              72.781641,
              18.920312
            ],
            [
              72.780273,
              18.92168
            ],
            [
              72.776172,
              18.92168
            ],
            [
              72.773438,
              18.918945
            ]
          ]
        ]
      }
    },
    {
      "type": "Feature",
      "properties": {
        "spill_id": "sentinel_76",
        "confidence": 0.74
      },
      "geometry": {
        "type": "Polygon",
        "coordinates": [
          [
            [
              72.681836,
              19.032422
            ],
            [
              72.690039,
              19.021484
            ],
            [
              72.722852,
              19.00918
            ],
            [
              72.724219,
              19.000977
            ],
            [
              72.736523,
              18.998242
            ],
            [
              72.757031,
              18.98457
            ],
            [
              72.795312,
              18.944922
            ],
            [
              72.830859,
              18.917578
            ],
            [
              72.844531,
              18.898438
            ],
            [
              72.847266,
              18.899805
            ],
            [
              72.845898,
              18.950391
            ],
            [
              72.84043,
              18.964062
            ],
            [
              72.836328,
              18.966797
            ],
            [
              72.826758,
              18.964062
            ],
            [
              72.824023,
              18.951758
            ],
            [
              72.829492,
              18.942188
            ],
            [
              72.824023,
              18.94082
            ],
            [
              72.783008,
              18.968164
            ],
            [
              72.754297,
              19.000977
            ],
            [
              72.725586,
              19.007812
            ],
            [
              72.71875,
              19.01875
            ],
            [
              72.702344,
              19.02832
            ],
            [
              72.681836,
              19.032422
            ]
          ]
        ]
      }
    },
    {
      "type": "Feature",
      "properties": {
        "spill_id": "sentinel_76",
        "confidence": 0.74
      },
      "geometry": {
        "type": "Polygon",
        "coordinates": [
          [
            [
              72.7625,
              19.076172
            ],
            [
              72.761133,
              19.070703
            ],
            [
              72.766602,
              19.063867
            ],
            [
              72.765234,
              19.057031
            ],
            [
              72.774805,
              19.036523
            ],
            [
              72.778906,
              19.020117
            ],
            [
              72.787109,
              19.013281
            ],
            [
              72.793945,
              19.011914
            ],
            [
              72.799414,
              19.006445
            ],
            [
              72.808984,
              19.002344
            ],
            [
              72.811719,
              18.996875
            ],
            [
              72.824023,
              18.985938
            ],
            [
              72.828125,
              18.975
            ],
            [
              72.832227,
              18.970898
            ],
            [
              72.841797,
              18.976367
            ],
            [
              72.839062,
              18.985938
            ],
            [
              72.785742,
              19.046094
            ],
            [
              72.784375,
              19.055664
            ],
            [
              72.777539,
              19.066602
            ],
            [
              72.766602,
              19.076172
            ],
            [
              72.7625,
              19.076172
            ]
          ]
        ]
      }
    },
    {
      "type": "Feature",
      "properties": {
        "spill_id": "sentinel_76",
        "confidence": 0.74
      },
      "geometry": {
        "type": "Polygon",
        "coordinates": [
          [
            [
              72.545117,
              19.087109
            ],
            [
              72.54375,
              19.088477
            ],
            [
              72.535547,
              19.088477
            ],
            [
              72.53418,
              19.087109
            ],
            [
              72.531445,
              19.087109
            ],
            [
              72.530078,
              19.085742
            ],
            [
              72.528711,
              19.085742
            ],
            [
              72.527344,
              19.084375
            ],
            [
              72.525977,
              19.084375
            ],
            [
              72.521875,
              19.080273
            ],
            [
              72.521875,
              19.077539
            ],
            [
              72.523242,
              19.076172
            ],
            [
              72.523242,
              19.07207
            ],
            [
              72.525977,
              19.069336
            ],
            [
              72.531445,
              19.069336
            ],
            [
              72.532812,
              19.070703
            ],
            [
              72.53418,
              19.070703
            ],
            [
              72.535547,
              19.07207
            ],
            [
              72.538281,
              19.07207
            ],
            [
              72.542383,
              19.076172
            ],
            [
              72.542383,
              19.077539
            ],
            [
              72.545117,
              19.080273
            ],
            [
              72.545117,
              19.087109
            ]
          ]
        ]
      }
    },
    {
      "type": "Feature",
      "properties": {
        "spill_id": "sentinel_76",
        "confidence": 0.74
      },
      "geometry": {
        "type": "Polygon",
        "coordinates": [
          [
            [
              72.576562,
              19.092578
            ],
            [
              72.576562,
              19.088477
            ],
            [
              72.580664,
              19.083008
            ],
            [
              72.580664,
              19.078906
            ],
            [
              72.582031,
              19.077539
            ],
            [
              72.582031,
              19.076172
            ],
            [
              72.583398,
              19.076172
            ],
            [
              72.584766,
              19.074805
            ],
            [
              72.5875,
              19.074805
            ],
            [
              72.592969,
              19.070703
            ],
            [
              72.59707,
              19.070703
            ],
            [
              72.598438,
              19.069336
            ],
            [
              72.605273,
              19.067969
            ],
            [
              72.609375,
              19.065234
            ],
            [
              72.613477,
              19.065234
            ],
            [
              72.614844,
              19.066602
            ],
            [
              72.616211,
              19.066602
            ],
            [
              72.616211,
              19.074805
            ],
            [
              72.614844,
              19.076172
            ],
            [
              72.613477,
              19.080273
            ],
            [
              72.610742,
              19.083008
            ],
            [
              72.608008,
              19.083008
            ],
            [
              72.606641,
              19.084375
            ],
            [
              72.603906,
              19.084375
            ],
            [
              72.599805,
              19.087109
            ],
            [
              72.59707,
              19.087109
            ],
            [
              72.595703,
              19.088477
            ],
            [
              72.588867,
              19.089844
            ],
            [
              72.583398,
              19.093945
            ],
            [
              72.57793,
              19.093945
            ],
            [
              72.576562,
              19.092578
            ]
          ]
        ]
      }
    },
    {
      "type": "Feature",
      "properties": {
        "spill_id": "sentinel_76",
        "confidence": 0.74
      },
      "geometry": {
        "type": "Polygon",
        "coordinates": [
          [
            [
              72.679102,
              19.15
            ],
            [
              72.679102,
              19.145898
            ],
            [
              72.683203,
              19.141797
            ],
            [
              72.691406,
              19.139062
            ],
            [
              72.707812,
              19.122656
            ],
            [
              72.70918,
              19.122656
            ],
            [
              72.711914,
              19.119922
            ],
            [
              72.714648,
              19.119922
            ],
            [
              72.717383,
              19.117188
            ],
            [
              72.726953,
              19.111719
            ],
            [
              72.729688,
              19.111719
            ],
            [
              72.732422,
              19.114453
            ],
            [
              72.731055,
              19.11582
            ],
            [
              72.731055,
              19.118555
            ],
            [
              72.726953,
              19.119922
            ],
            [
              72.721484,
              19.125391
            ],
            [
              72.721484,
              19.129492
            ],
            [
              72.717383,
              19.136328
            ],
            [
              72.717383,
              19.143164
            ],
            [
              72.711914,
              19.15
            ],
            [
              72.679102,
              19.15
            ]
          ]
        ]
      }
    }
  ]
}