{
  "type": "FeatureCollection",
  "features": [
    {
      "type": "Feature",
      "properties": {
        "spill_id": "sentinel_31",
        "confidence": 0.85
      },
      "geometry": {
        "type": "Polygon",
        "coordinates": [
          [
            [
              72.66543,
              19.099414
            ],
            [
              72.666797,
              19.098047
            ],
            [
              72.666797,
              19.09668
            ],
            [
              72.672266,
              19.091211
            ],
            [
              72.676367,
              19.091211
            ],
            [
              72.677734,
              19.092578
            ],
            [
              72.677734,
              19.093945
            ],
            [
              72.679102,
              19.095312
            ],
            [
              72.679102,
              19.098047
            ],
            [
              72.676367,
              19.100781
            ],
            [
              72.666797,
              19.100781
            ],
            [
              72.66543,
              19.099414
            ]
          ]
        ]
      }
    },
    {
      "type": "Feature",
      "properties": {
        "spill_id": "sentinel_31",
        "confidence": 0.85
      },
      "geometry": {
        "type": "Polygon",
        "coordinates": [
          [
            [
              72.588867,
              19.15
            ],
            [
              72.594336,
              19.133594
            ],
            [
              72.612109,
              19.126758
            ],
            [
              72.606641,
              19.108984
            ],
            [
              72.568359,
              19.114453
            ],
            [
              72.575195,
              19.100781
            ],
            [
              72.591602,
              19.107617
            ],
            [
              72.5875,
              19.088477
            ],
            [
              72.550586,
              19.051562
            ],
            [
              72.515039,
              19.033789
            ],
            [
              72.512305,
              19.010547
            ],
            [
              72.535547,
              18.998242
            ],
            [
              72.564258,
              19.016016
            ],
            [
              72.586133,
              18.983203
            ],
            [
              72.606641,
              19.003711
            ],
            [
              72.635352,
              18.990039
            ],
            [
              72.635352,
              18.972266
            ],
            [
              72.657227,
              18.946289
            ],
            [
              72.643555,
              18.894336
            ],
            [
              72.623047,
              18.902539
            ],
            [
              72.590234,
              18.957227
            ],
            [
              72.580664,
              18.959961
            ],
            [
              72.576562,
              18.943555
            ],
            [
              72.610742,
              18.886133
            ],
            [
              72.639453,
              18.866992
            ],
            [
              72.632617,
              18.802734
            ],
            [
              72.661328,
              18.801367
            ],
            [
              72.662695,
              18.856055
            ],
            [
              72.683203,
              18.935352
            ],
            [
              72.673633,
              19.050195
            ],
            [
              72.635352,
              19.128125
            ],
            [
              72.644922,
              19.15
            ],
            [
              72.588867,
              19.15
            ]
          ]
        ]
      }
    }
  ]
}