{
  "type": "FeatureCollection",
  "features": [
    {
      "type": "Feature",
      "properties": {
        "spill_id": "sentinel_759",
        "confidence": 0.83
      },
      "geometry": {
        "type": "Polygon",
        "coordinates": [
          [
            [
              72.5,
              18.96543
            ],
            [
              72.5,
              18.950391
            ],
            [
              72.513672,
              18.933984
            ],
            [
              72.516406,
              18.912109
            ],
            [
              72.520508,
              18.908008
            ],
            [
              72.550586,
              18.93125
            ],
            [
              72.569727,
              18.925781
            ],
            [
              72.576562,
              18.928516
            ],
            [
              72.584766,
              18.942188
            ],
            [
              72.598438,
              18.946289
            ],
            [
              72.618945,
              18.939453
            ],
            [
              72.644922,
              18.923047
            ],
            [
              72.680469,
              18.883398
            ],
            [
              72.699609,
              18.879297
            ],
            [
              72.707812,
              18.886133
            ],
            [
              72.70918,
              18.898438
            ],
            [
              72.702344,
              18.920312
            ],
            [
              72.688672,
              18.93125
            ],
            [
              72.659961,
              18.936719
            ],
            [
              72.625781,
              18.966797
            ],
            [
              72.564258,
              18.968164
            ],
            [
              72.531445,
              18.959961
            ],
            [
              72.5,
              18.96543
            ]
          ]
        ]
      }
    },
    {
      "type": "Feature",
      "properties": {
        "spill_id": "sentinel_759",
        "confidence": 0.83
      },
      "geometry": {
        "type": "Polygon",
        "coordinates": [
          [
            [
              72.5,
              19.069336
            ],
            [
              72.506836,
              19.051562
            ],
            [
              72.532812,
              19.041992
            ],
            [
              72.560156,
              19.046094
            ],
            [
              72.601172,
              19.00918
            ],
            [
              72.677734,
              18.985938
            ],
            [
              72.694141,
              18.957227
            ],
            [
              72.740625,
              18.938086
            ],
            [
              72.751562,
              18.916211
            ],
            [
              72.787109,
              18.894336
            ],
            [
              72.821289,
              18.882031
            ],
            [
              72.848633,
              18.886133
            ],
            [
              72.848633,
              18.976367
            ],
            [
              72.77207,
              18.996875
            ],
            [
              72.736523,
              19.017383
            ],
            [
              72.733789,
              19.024219
            ],
            [
              72.755664,
              19.036523
            ],
            [
              72.757031,
              19.048828
            ],
            [
              72.646289,
              19.083008
            ],
            [
              72.638086,
              19.063867
            ],
            [
              72.646289,
              19.057031
            ],
            [
              72.639453,
              19.055664
            ],
            [
              72.610742,
              19.07207
            ],
            [
              72.59707,
              19.09668
            ],
            [
              72.573828,
              19.09668
            ],
            [
              72.571094,
              19.084375
            ],
            [
              72.551953,
              19.081641
            ],
            [
              72.541016,
              19.066602
            ],
            [
              72.523242,
              19.065234
            ],
            [
              72.508203,
              19.074805
            ],
            [
              72.5,
              19.069336
            ]
          ]
        ]
      }
    },
    {
      "type": "Feature",
      "properties": {
        "spill_id": "sentinel_759",
        "confidence": 0.83
      },
      "geometry": {
        "type": "Polygon",
        "coordinates": [
          [
            [
              72.677734,
              19.15
            ],
            [
              72.680469,
              19.139062
            ],
            [
              72.676367,
              19.134961
            ],
            [
              72.676367,
              19.126758
            ],
            [
              72.700977,
              19.107617
            ],
            [
              72.696875,
              19.103516
            ],
            [
              72.683203,
              19.099414
            ],
            [
              72.687305,
              19.091211
            ],
            [
              72.703711,
              19.089844
            ],
            [
              72.720117,
              19.093945
            ],
            [
              72.747461,
              19.095312
            ],
            [
              72.755664,
              19.098047
            ],
            [
              72.7625,
              19.104883
            ],
            [
              72.788477,
              19.10625
            ],
            [
              72.802148,
              19.102148
            ],
            [
              72.808984,
              19.10625
            ],
            [
              72.811719,
              19.114453
            ],
            [
              72.80625,
              19.130859
            ],
            [
              72.789844,
              19.144531
            ],
            [
              72.788477,
              19.15
            ],
            [
              72.677734,
              19.15
            ]
          ]
        ]
      }
    }
  ]
}