{
  "type": "FeatureCollection",
  "features": [
    {
      "type": "Feature",
      "properties": {
        "spill_id": "sentinel_401",
        "confidence": 0.85
      },
      "geometry": {
        "type": "Polygon",
        "coordinates": [
          [
            [
              72.700977,
              18.805469
            ],
            [
              72.700977,
              18.804102
            ],
            [
              72.703711,
              18.801367
            ],
            [
              72.716016,
              18.801367
            ],
            [
              72.716016,
              18.802734
            ],
            [
              72.717383,
              18.804102
            ],
            [
              72.717383,
              18.80957
            ],
            [
              72.716016,
              18.810938
            ],
            [
              72.70918,
              18.810938
            ],
            [
              72.707812,
              18.80957
            ],
            [
              72.706445,
              18.80957
            ],
            [
              72.705078,
              18.808203
            ],
            [
              72.703711,
              18.808203
            ],
            [
              72.700977,
              18.805469
            ]
          ]
        ]
      }
    },
    {
      "type": "Feature",
      "properties": {
        "spill_id": "sentinel_401",
        "confidence": 0.85
      },
      "geometry": {
        "type": "Polygon",
        "coordinates": [
          [
            [
              72.843164,
              19.01875
            ],
            [
              72.834961,
              19.01875
            ],
            [
              72.833594,
              19.017383
            ],
            [
              72.832227,
              19.017383
            ],
            [
              72.830859,
              19.016016
            ],
            [
              72.830859,
              19.014648
            ],
            [
              72.829492,
              19.013281
            ],
            [
              72.829492,
              19.011914
            ],
            [
              72.828125,
              19.010547
            ],
            [
              72.828125,
              19.006445
            ],
            [
              72.826758,
              19.005078
            ],
            [
              72.826758,
              19.003711
            ],
            [
              72.825391,
              19.002344
            ],
            [
              72.825391,
              18.996875
            ],
            [
              72.824023,
              18.995508
            ],
            [
              72.824023,
              18.994141
            ],
            [
              72.826758,
              18.994141
            ],
            [
              72.828125,
              18.995508
            ],
            [
              72.829492,
              18.995508
            ],
            [
              72.833594,
              18.999609
            ],
            [
              72.834961,
              18.999609
            ],
            [
              72.839062,
              19.003711
            ],
            [
              72.839062,
              19.005078
            ],
            [
              72.841797,
              19.007812
            ],
            [
              72.841797,
              19.00918
            ],
            [
              72.843164,
              19.010547
            ],
            [
              72.843164,
              19.013281
            ],
            [
              72.844531,
              19.014648
            ],
            [
              72.844531,
              19.016016
            ],
            [
              72.843164,
              19.017383
            ],
            [
              72.843164,
              19.01875
            ]
          ]
        ]
      }
    },
    {
      "type": "Feature",
      "properties": {
        "spill_id": "sentinel_401",
        "confidence": 0.85
      },
      "geometry": {
        "type": "Polygon",
        "coordinates": [
          [
            [
              72.778906,
              19.084375
            ],
            [
              72.773438,
              19.083008
            ],
            [
              72.759766,
              19.059766
            ],
            [
              72.750195,
              19.031055
            ],
            [
              72.754297,
              19.005078
            ],
            [
              72.744727,
              18.990039
            ],
            [
              72.744727,
              18.970898
            ],
            [
              72.755664,
              18.936719
            ],
            [
              72.726953,
              18.875195
            ],
            [
              72.726953,
              18.849219
            ],
            [
              72.732422,
              18.849219
            ],
            [
              72.746094,
              18.862891
            ],
            [
              72.746094,
              18.87793
            ],
            [
              72.761133,
              18.883398
            ],
            [
              72.754297,
              18.901172
            ],
            [
              72.770703,
              18.942188
            ],
            [
              72.769336,
              18.96543
            ],
            [
              72.763867,
              18.972266
            ],
            [
              72.769336,
              19.002344
            ],
            [
              72.765234,
              19.029687
            ],
            [
              72.780273,
              19.066602
            ],
            [
              72.778906,
              19.084375
            ]
          ]
        ]
      }
    },
    {
      "type": "Feature",
      "properties": {
        "spill_id": "sentinel_401",
        "confidence": 0.85
      },
      "geometry": {
        "type": "Polygon",
        "coordinates": [
          [
            [
              72.785742,
              19.15
            ],
            [
              72.780273,
              19.15
            ],
            [
              72.776172,
              19.144531
            ],
            [
              72.776172,
              19.134961
            ],
            [
              72.774805,
              19.133594
            ],
            [
              72.774805,
              19.130859
            ],
            [
              72.77207,
              19.125391
            ],
            [
              72.77207,
              19.104883
            ],
            [
              72.773438,
              19.103516
            ],
            [
              72.773438,
              19.099414
            ],
            [
              72.776172,
              19.095312
            ],
            [
              72.780273,
              19.09668
            ],
            [
              72.783008,
              19.100781
            ],
            [
              72.783008,
              19.10625
            ],
            [
              72.784375,
              19.107617
            ],
            [
              72.784375,
              19.114453
            ],
            [
              72.785742,
              19.11582
            ],
            [
              72.785742,
              19.121289
            ],
            [
              72.787109,
              19.122656
            ],
            [
              72.787109,
              19.139062
            ],
            [
              72.785742,
              19.14043
            ],
            [
              72.785742,
              19.15
            ]
          ]
        ]
      }
    },
    {
      "type": "Feature",
      "properties": {
        "spill_id": "sentinel_401",
        "confidence": 0.85
      },
      "geometry": {
        "type": "Polygon",
        "coordinates": [
          [
            [
              72.714648,
              19.15
            ],
            [
              72.687305,
              19.15
            ],
            [
              72.685938,
              19.145898
            ],
            [
              72.680469,
              19.141797
            ],
            [
              72.675,
              19.147266
            ],
            [
              72.672266,
              19.145898
            ],
            [
              72.672266,
              19.141797
            ],
            [
              72.677734,
              19.136328
            ],
            [
              72.673633,
              19.129492
            ],
            [
              72.666797,
              19.124023
            ],
            [
              72.657227,
              19.098047
            ],
            [
              72.659961,
              19.091211
            ],
            [
              72.670898,
              19.085742
            ],
            [
              72.669531,
              19.074805
            ],
            [
              72.672266,
              19.065234
            ],
            [
              72.676367,
              19.065234
            ],
            [
              72.68457,
              19.070703
            ],
            [
              72.688672,
              19.092578
            ],
            [
              72.694141,
              19.100781
            ],
            [
              72.698242,
              19.11582
            ],
            [
              72.707812,
              19.136328
            ],
            [
              72.713281,
              19.143164
            ],
            [
              72.714648,
              19.15
            ]
          ]
        ]
      }
    }
  ]
}