{
  "type": "FeatureCollection",
  "features": [
    {
      "type": "Feature",
      "properties": {
        "spill_id": "sentinel_662",
        "confidence": 0.93
      },
      "geometry": {
        "type": "Polygon",
        "coordinates": [
          [
            [
              72.598438,
              19.15
            ],
            [
              72.5,
              19.15
            ],
            [
              72.5,
              19.048828
            ],
            [
              72.506836,
              19.048828
            ],
            [
              72.515039,
              19.057031
            ],
            [
              72.525977,
              19.055664
            ],
            [
              72.531445,
              19.073438
            ],
            [
              72.557422,
              19.081641
            ],
            [
              72.575195,
              19.100781
            ],
            [
              72.5875,
              19.103516
            ],
            [
              72.595703,
              19.125391
            ],
            [
              72.598438,
              19.15
            ]
          ]
        ]
      }
    }
  ]
}