{
  "type": "FeatureCollection",
  "features": [
    {
      "type": "Feature",
      "properties": {
        "spill_id": "sentinel_484",
        "confidence": 0.81
      },
      "geometry": {
        "type": "Polygon",
        "coordinates": [
          [
            [
              72.545117,
              18.849219
            ],
            [
              72.542383,
              18.849219
            ],
            [
              72.541016,
              18.847852
            ],
            [
              72.539648,
              18.847852
            ],
            [
              72.539648,
              18.846484
            ],
            [
              72.538281,
              18.845117
            ],
            [
              72.538281,
              18.842383
            ],
            [
              72.539648,
              18.841016
            ],
            [
              72.539648,
              18.836914
            ],
            [
              72.542383,
              18.836914
            ],
            [
              72.545117,
              18.839648
            ],
            [
              72.545117,
              18.841016
            ],
            [
              72.546484,
              18.842383
            ],
            [
              72.546484,
              18.847852
            ],
            [
              72.545117,
              18.849219
            ]
          ]
        ]
      }
    },
    {
      "type": "Feature",
      "properties": {
        "spill_id": "sentinel_484",
        "confidence": 0.81
      },
      "geometry": {
        "type": "Polygon",
        "coordinates": [
          [
            [
              72.788477,
              18.888867
            ],
            [
              72.788477,
              18.886133
            ],
            [
              72.787109,
              18.884766
            ],
            [
              72.787109,
              18.880664
            ],
            [
              72.788477,
              18.880664
            ],
            [
              72.789844,
              18.879297
            ],
            [
              72.792578,
              18.879297
            ],
            [
              72.793945,
              18.87793
            ],
            [
              72.795312,
              18.87793
            ],
            [
              72.798047,
              18.875195
            ],
            [
              72.79668,
              18.873828
            ],
            [
              72.79668,
              18.871094
            ],
            [
              72.798047,
              18.869727
            ],
            [
              72.798047,
              18.866992
            ],
            [
              72.800781,
              18.864258
            ],
            [
              72.800781,
              18.862891
            ],
            [
              72.802148,
              18.862891
            ],
            [
              72.803516,
              18.864258
            ],
            [
              72.803516,
              18.869727
            ],
            [
              72.798047,
              18.875195
            ],
            [
              72.798047,
              18.87793
            ],
            [
              72.800781,
              18.882031
            ],
            [
              72.800781,
              18.884766
            ],
            [
              72.799414,
              18.886133
            ],
            [
              72.799414,
              18.8875
            ],
            [
              72.798047,
              18.8875
            ],
            [
              72.793945,
              18.890234
            ],
            [
              72.792578,
              18.890234
            ],
            [
              72.791211,
              18.888867
            ],
            [
              72.788477,
              18.888867
            ]
          ]
        ]
      }
    },
    {
      "type": "Feature",
      "properties": {
        "spill_id": "sentinel_484",
        "confidence": 0.81
      },
      "geometry": {
        "type": "Polygon",
        "coordinates": [
          [
            [
              72.754297,
              18.920312
            ],
            [
              72.750195,
              18.916211
            ],
            [
              72.748828,
              18.908008
            ],
            [
              72.747461,
              18.906641
            ],
            [
              72.747461,
              18.902539
            ],
            [
              72.748828,
              18.901172
            ],
            [
              72.748828,
              18.892969
            ],
            [
              72.750195,
              18.891602
            ],
            [
              72.751562,
              18.883398
            ],
            [
              72.754297,
              18.87793
            ],
            [
              72.754297,
              18.868359
            ],
            [
              72.758398,
              18.865625
            ],
            [
              72.763867,
              18.865625
            ],
            [
              72.770703,
              18.869727
            ],
            [
              72.776172,
              18.882031
            ],
            [
              72.778906,
              18.884766
            ],
            [
              72.778906,
              18.888867
            ],
            [
              72.77207,
              18.894336
            ],
            [
              72.769336,
              18.899805
            ],
            [
              72.769336,
              18.905273
            ],
            [
              72.767969,
              18.906641
            ],
            [
              72.767969,
              18.910742
            ],
            [
              72.766602,
              18.912109
            ],
            [
              72.765234,
              18.917578
            ],
            [
              72.761133,
              18.920312
            ],
            [
              72.754297,
              18.920312
            ]
          ]
        ]
      }
    },
    {
      "type": "Feature",
      "properties": {
        "spill_id": "sentinel_484",
        "confidence": 0.81
      },
      "geometry": {
        "type": "Polygon",
        "coordinates": [
          [
            [
              72.81582,
              18.939453
            ],
            [
              72.81582,
              18.938086
            ],
            [
              72.814453,
              18.936719
            ],
            [
              72.814453,
              18.933984
            ],
            [
              72.81582,
              18.932617
            ],
            [
              72.81582,
              18.93125
            ],
            [
              72.817187,
              18.929883
            ],
            [
              72.817187,
              18.928516
            ],
            [
              72.818555,
              18.928516
            ],
            [
              72.819922,
              18.927148
            ],
            [
              72.824023,
              18.927148
            ],
            [
              72.825391,
              18.928516
            ],
            [
              72.826758,
              18.928516
            ],
            [
              72.830859,
              18.932617
            ],
            [
              72.830859,
              18.936719
            ],
            [
              72.828125,
              18.939453
            ],
            [
              72.825391,
              18.939453
            ],
            [
              72.824023,
              18.94082
            ],
            [
              72.818555,
              18.94082
            ],
            [
              72.817187,
              18.939453
            ],
            [
              72.81582,
              18.939453
            ]
          ]
        ]
      }
    },
    {
      "type": "Feature",
      "properties": {
        "spill_id": "sentinel_484",
        "confidence": 0.81
      },
      "geometry": {
        "type": "Polygon",
        "coordinates": [
          [
            [
              72.758398,
              18.983203
            ],
            [
              72.755664,
              18.980469
            ],
            [
              72.755664,
              18.979102
            ],
            [
              72.754297,
              18.977734
            ],
            [
              72.754297,
              18.975
            ],
            [
              72.755664,
              18.973633
            ],
            [
              72.755664,
              18.969531
            ],
            [
              72.757031,
              18.968164
            ],
            [
              72.757031,
              18.966797
            ],
            [
              72.758398,
              18.96543
            ],
            [
              72.758398,
              18.964062
            ],
            [
              72.759766,
              18.962695
            ],
            [
              72.761133,
              18.962695
            ],
            [
              72.7625,
              18.961328
            ],
            [
              72.767969,
              18.961328
            ],
            [
              72.769336,
              18.962695
            ],
            [
              72.770703,
              18.962695
            ],
            [
              72.77207,
              18.964062
            ],
            [
              72.773438,
              18.964062
            ],
            [
              72.776172,
              18.966797
            ],
            [
              72.776172,
              18.973633
            ],
            [
              72.774805,
              18.975
            ],
            [
              72.774805,
              18.976367
            ],
            [
              72.773438,
              18.977734
            ],
            [
              72.773438,
              18.979102
            ],
            [
              72.769336,
              18.983203
            ],
            [
              72.758398,
              18.983203
            ]
          ]
        ]
      }
    },
    {
      "type": "Feature",
      "properties": {
        "spill_id": "sentinel_484",
        "confidence": 0.81
      },
      "geometry": {
        "type": "Polygon",
        "coordinates": [
          [
            [
              72.826758,
              19.010547
            ],
            [
              72.826758,
              19.007812
            ],
            [
              72.828125,
              19.006445
            ],
            [
              72.829492,
              19.006445
            ],
            [
              72.830859,
              19.005078
            ],
            [
              72.830859,
              19.002344
            ],
            [
              72.832227,
              19.000977
            ],
            [
              72.833594,
              19.000977
            ],
            [
              72.834961,
              18.999609
            ],
            [
              72.836328,
              19.000977
            ],
            [
              72.837695,
              19.000977
            ],
            [
              72.839062,
              19.002344
            ],
            [
              72.84043,
              19.002344
            ],
            [
              72.841797,
              19.003711
            ],
            [
              72.841797,
              19.005078
            ],
            [
              72.843164,
              19.006445
            ],
            [
              72.843164,
              19.007812
            ],
            [
              72.841797,
              19.00918
            ],
            [
              72.841797,
              19.010547
            ],
            [
              72.832227,
              19.010547
            ],
            [
              72.830859,
              19.011914
            ],
            [
              72.828125,
              19.011914
            ],
            [
              72.826758,
              19.010547
            ]
          ]
        ]
      }
    },
    {
      "type": "Feature",
      "properties": {
        "spill_id": "sentinel_484",
        "confidence": 0.81
      },
      "geometry": {
        "type": "Polygon",
        "coordinates": [
          [
            [
              72.662695,
              19.022852
            ],
            [
              72.659961,
              19.025586
            ],
            [
              72.655859,
              19.025586
            ],
            [
              72.654492,
              19.024219
            ],
            [
              72.651758,
              19.024219
            ],
            [
              72.649023,
              19.021484
            ],
            [
              72.649023,
              19.017383
            ],
            [
              72.650391,
              19.016016
            ],
            [
              72.657227,
              19.016016
            ],
            [
              72.658594,
              19.017383
            ],
            [
              72.659961,
              19.017383
            ],
            [
              72.659961,
              19.01875
            ],
            [
              72.662695,
              19.021484
            ],
            [
              72.662695,
              19.022852
            ]
          ]
        ]
      }
    },
    {
      "type": "Feature",
      "properties": {
        "spill_id": "sentinel_484",
        "confidence": 0.81
      },
      "geometry": {
        "type": "Polygon",
        "coordinates": [
          [
            [
              72.580664,
              19.025586
            ],
            [
              72.57793,
              19.02832
            ],
            [
              72.575195,
              19.02832
            ],
            [
              72.558789,
              19.020117
            ],
            [
              72.541016,
              19.020117
            ],
            [
              72.535547,
              19.017383
            ],
            [
              72.524609,
              19.005078
            ],
            [
              72.506836,
              18.999609
            ],
            [
              72.502734,
              18.995508
            ],
            [
              72.502734,
              18.992773
            ],
            [
              72.506836,
              18.987305
            ],
            [
              72.519141,
              18.983203
            ],
            [
              72.530078,
              18.975
            ],
            [
              72.539648,
              18.975
            ],
            [
              72.558789,
              18.994141
            ],
            [
              72.568359,
              18.995508
            ],
            [
              72.572461,
              18.992773
            ],
            [
              72.579297,
              18.996875
            ],
            [
              72.580664,
              18.999609
            ],
            [
              72.580664,
              19.00918
            ],
            [
              72.579297,
              19.010547
            ],
            [
              72.580664,
              19.025586
            ]
          ]
        ]
      }
    },
    {
      "type": "Feature",
      "properties": {
        "spill_id": "sentinel_484",
        "confidence": 0.81
      },
      "geometry": {
        "type": "Polygon",
        "coordinates": [
          [
            [
              72.659961,
              19.061133
            ],
            [
              72.662695,
              19.054297
            ],
            [
              72.666797,
              19.055664
            ],
            [
              72.673633,
              19.055664
            ],
            [
              72.675,
              19.054297
            ],
            [
              72.675,
              19.046094
            ],
            [
              72.676367,
              19.044727
            ],
            [
              72.675,
              19.041992
            ],
            [
              72.679102,
              19.029687
            ],
            [
              72.681836,
              19.026953
            ],
            [
              72.685938,
              19.026953
            ],
            [
              72.691406,
              19.022852
            ],
            [
              72.707812,
              19.01875
            ],
            [
              72.71875,
              19.013281
            ],
            [
              72.731055,
              19.013281
            ],
            [
              72.731055,
              19.022852
            ],
            [
              72.726953,
              19.026953
            ],
            [
              72.698242,
              19.036523
            ],
            [
              72.695508,
              19.039258
            ],
            [
              72.695508,
              19.058398
            ],
            [
              72.692773,
              19.063867
            ],
            [
              72.68457,
              19.067969
            ],
            [
              72.664062,
              19.066602
            ],
            [
              72.659961,
              19.061133
            ]
          ]
        ]
      }
    },
    {
      "type": "Feature",
      "properties": {
        "spill_id": "sentinel_484",
        "confidence": 0.81
      },
      "geometry": {
        "type": "Polygon",
        "coordinates": [
          [
            [
              72.606641,
              19.066602
            ],
            [
              72.608008,
              19.065234
            ],
            [
              72.606641,
              19.063867
            ],
            [
              72.609375,
              19.061133
            ],
            [
              72.609375,
              19.059766
            ],
            [
              72.610742,
              19.059766
            ],
            [
              72.612109,
              19.058398
            ],
            [
              72.614844,
              19.058398
            ],
            [
              72.616211,
              19.057031
            ],
            [
              72.624414,
              19.057031
            ],
            [
              72.625781,
              19.055664
            ],
            [
              72.632617,
              19.055664
            ],
            [
              72.633984,
              19.057031
            ],
            [
              72.644922,
              19.057031
            ],
            [
              72.649023,
              19.061133
            ],
            [
              72.649023,
              19.063867
            ],
            [
              72.643555,
              19.069336
            ],
            [
              72.642187,
              19.069336
            ],
            [
              72.639453,
              19.07207
            ],
            [
              72.633984,
              19.07207
            ],
            [
              72.632617,
              19.073438
            ],
            [
              72.618945,
              19.073438
            ],
            [
              72.617578,
              19.07207
            ],
            [
              72.612109,
              19.07207
            ],
            [
              72.609375,
              19.069336
            ],
            [
              72.608008,
              19.069336
            ],
            [
              72.608008,
              19.067969
            ],
            [
              72.606641,
              19.066602
            ]
          ]
        ]
      }
    },
    {
      "type": "Feature",
      "properties": {
        "spill_id": "sentinel_484",
        "confidence": 0.81
      },
      "geometry": {
        "type": "Polygon",
        "coordinates": [
          [
            [
              72.789844,
              19.083008
            ],
            [
              72.789844,
              19.078906
            ],
            [
              72.791211,
              19.077539
            ],
            [
              72.800781,
              19.077539
            ],
            [
              72.802148,
              19.076172
            ],
            [
              72.80625,
              19.076172
            ],
            [
              72.807617,
              19.077539
            ],
            [
              72.80625,
              19.078906
            ],
            [
              72.804883,
              19.078906
            ],
            [
              72.803516,
              19.080273
            ],
            [
              72.802148,
              19.080273
            ],
            [
              72.799414,
              19.083008
            ],
            [
              72.798047,
              19.083008
            ],
            [
              72.79668,
              19.084375
            ],
            [
              72.791211,
              19.084375
            ],
            [
              72.789844,
              19.083008
            ]
          ]
        ]
      }
    },
    {
      "type": "Feature",
      "properties": {
        "spill_id": "sentinel_484",
        "confidence": 0.81
      },
      "geometry": {
        "type": "Polygon",
        "coordinates": [
          [
            [
              72.670898,
              19.089844
            ],
            [
              72.669531,
              19.088477
            ],
            [
              72.669531,
              19.083008
            ],
            [
              72.670898,
              19.081641
            ],
            [
              72.670898,
              19.080273
            ],
            [
              72.672266,
              19.078906
            ],
            [
              72.672266,
              19.077539
            ],
            [
              72.673633,
              19.077539
            ],
            [
              72.675,
              19.076172
            ],
            [
              72.677734,
              19.076172
            ],
            [
              72.68457,
              19.083008
            ],
            [
              72.68457,
              19.087109
            ],
            [
              72.683203,
              19.087109
            ],
            [
              72.681836,
              19.088477
            ],
            [
              72.675,
              19.088477
            ],
            [
              72.673633,
              19.089844
            ],
            [
              72.670898,
              19.089844
            ]
          ]
        ]
      }
    },
    {
      "type": "Feature",
      "properties": {
        "spill_id": "sentinel_484",
        "confidence": 0.81
      },
      "geometry": {
        "type": "Polygon",
        "coordinates": [
          [
            [
              72.5,
              19.022852
            ],
            [
              72.506836,
              19.01875
            ],
            [
              72.519141,
              19.024219
            ],
            [
              72.528711,
              19.022852
            ],
            [
              72.523242,
              19.033789
            ],
            [
              72.528711,
              19.041992
            ],
            [
              72.538281,
              19.046094
            ],
            [
              72.550586,
              19.046094
            ],
            [
              72.579297,
              19.05293
            ],
            [
              72.594336,
              19.061133
            ],
            [
              72.59707,
              19.065234
            ],
            [
              72.5875,
              19.07207
            ],
            [
              72.5875,
              19.077539
            ],
            [
              72.57793,
              19.092578
            ],
            [
              72.565625,
              19.093945
            ],
            [
              72.542383,
              19.084375
            ],
            [
              72.508203,
              19.095312
            ],
            [
              72.5,
              19.091211
            ],
            [
              72.5,
              19.022852
            ]
          ]
        ]
      }
    },
    {
      "type": "Feature",
      "properties": {
        "spill_id": "sentinel_484",
        "confidence": 0.81
      },
      "geometry": {
        "type": "Polygon",
        "coordinates": [
          [
            [
              72.62168,
              19.114453
            ],
            [
              72.642187,
              19.11582
            ],
            [
              72.658594,
              19.122656
            ],
            [
              72.66543,
              19.129492
            ],
            [
              72.669531,
              19.130859
            ],
            [
              72.691406,
              19.125391
            ],
            [
              72.696875,
              19.129492
            ],
            [
              72.694141,
              19.134961
            ],
            [
              72.698242,
              19.143164
            ],
            [
              72.695508,
              19.15
            ],
            [
              72.673633,
              19.15
            ],
            [
              72.669531,
              19.145898
            ],
            [
              72.658594,
              19.144531
            ],
            [
              72.653125,
              19.15
            ],
            [
              72.633984,
              19.15
            ],
            [
              72.635352,
              19.137695
            ],
            [
              72.638086,
              19.132227
            ],
            [
              72.635352,
              19.128125
            ],
            [
              72.628516,
              19.125391
            ],
            [
              72.62168,
              19.118555
            ],
            [
              72.62168,
              19.114453
            ]
          ]
        ]
      }
    },
    {
      "type": "Feature",
      "properties": {
        "spill_id": "sentinel_484",
        "confidence": 0.81
      },
      "geometry": {
        "type": "Polygon",
        "coordinates": [
          [
            [
              72.59707,
              19.15
            ],
            [
              72.598438,
              19.148633
            ],
            [
              72.599805,
              19.148633
            ],
            [
              72.602539,
              19.145898
            ],
            [
              72.602539,
              19.144531
            ],
            [
              72.605273,
              19.141797
            ],
            [
              72.606641,
              19.141797
            ],
            [
              72.608008,
              19.143164
            ],
            [
              72.609375,
              19.143164
            ],
            [
              72.610742,
              19.144531
            ],
            [
              72.610742,
              19.145898
            ],
            [
              72.608008,
              19.148633
            ],
            [
              72.608008,
              19.15
            ],
            [
              72.59707,
              19.15
            ]
          ]
        ]
      }
    }
  ]
}