{
  "type": "FeatureCollection",
  "features": [
    {
      "type": "Feature",
      "properties": {
        "spill_id": "sentinel_39",
        "confidence": 0.84
      },
      "geometry": {
        "type": "Polygon",
        "coordinates": [
          [
            [
              72.843164,
              18.981836
            ],
            [
              72.804883,
              18.996875
            ],
            [
              72.798047,
              18.981836
            ],
            [
              72.81582,
              18.972266
            ],
            [
              72.777539,
              18.968164
            ],
            [
              72.79668,
              18.924414
            ],
            [
              72.788477,
              18.918945
            ],
            [
              72.773438,
              18.925781
            ],
            [
              72.767969,
              18.913477
            ],
            [
              72.736523,
              18.892969
            ],
            [
              72.726953,
              18.906641
            ],
            [
              72.732422,
              18.920312
            ],
            [
              72.758398,
              18.935352
            ],
            [
              72.770703,
              18.928516
            ],
            [
              72.774805,
              18.94082
            ],
            [
              72.747461,
              18.954492
            ],
            [
              72.713281,
              18.944922
            ],
            [
              72.696875,
              18.972266
            ],
            [
              72.677734,
              18.979102
            ],
            [
              72.679102,
              18.933984
            ],
            [
              72.696875,
              18.902539
            ],
            [
              72.698242,
              18.87793
            ],
            [
              72.716016,
              18.864258
            ],
            [
              72.746094,
              18.858789
            ],
            [
              72.767969,
              18.879297
            ],
            [
              72.780273,
              18.903906
            ],
            [
              72.819922,
              18.909375
            ],
            [
              72.828125,
              18.89707
            ],
            [
              72.825391,
              18.879297
            ],
            [
              72.845898,
              18.868359
            ],
            [
              72.848633,
              18.966797
            ],
            [
              72.843164,
              18.981836
            ]
          ]
        ]
      }
    },
    {
      "type": "Feature",
      "properties": {
        "spill_id": "sentinel_39",
        "confidence": 0.84
      },
      "geometry": {
        "type": "Polygon",
        "coordinates": [
          [
            [
              72.705078,
              19.144531
            ],
            [
              72.705078,
              19.14043
            ],
            [
              72.703711,
              19.139062
            ],
            [
              72.705078,
              19.137695
            ],
            [
              72.705078,
              19.134961
            ],
            [
              72.707812,
              19.132227
            ],
            [
              72.707812,
              19.130859
            ],
            [
              72.70918,
              19.129492
            ],
            [
              72.70918,
              19.126758
            ],
            [
              72.710547,
              19.125391
            ],
            [
              72.710547,
              19.122656
            ],
            [
              72.711914,
              19.121289
            ],
            [
              72.713281,
              19.122656
            ],
            [
              72.71875,
              19.122656
            ],
            [
              72.725586,
              19.128125
            ],
            [
              72.729688,
              19.129492
            ],
            [
              72.733789,
              19.133594
            ],
            [
              72.733789,
              19.134961
            ],
            [
              72.732422,
              19.136328
            ],
            [
              72.731055,
              19.136328
            ],
            [
              72.729688,
              19.137695
            ],
            [
              72.725586,
              19.139062
            ],
            [
              72.721484,
              19.143164
            ],
            [
              72.71875,
              19.143164
            ],
            [
              72.717383,
              19.144531
            ],
            [
              72.716016,
              19.144531
            ],
            [
              72.711914,
              19.147266
            ],
            [
              72.707812,
              19.147266
            ],
            [
              72.705078,
              19.144531
            ]
          ]
        ]
      }
    },
    {
      "type": "Feature",
      "properties": {
        "spill_id": "sentinel_39",
        "confidence": 0.84
      },
      "geometry": {
        "type": "Polygon",
        "coordinates": [
          [
            [
              72.754297,
              19.133594
            ],
            [
              72.755664,
              19.132227
            ],
            [
              72.755664,
              19.130859
            ],
            [
              72.763867,
              19.130859
            ],
            [
              72.765234,
              19.132227
            ],
            [
              72.766602,
              19.132227
            ],
            [
              72.767969,
              19.133594
            ],
            [
              72.769336,
              19.133594
            ],
            [
              72.774805,
              19.139062
            ],
            [
              72.774805,
              19.14043
            ],
            [
              72.777539,
              19.143164
            ],
            [
              72.777539,
              19.15
            ],
            [
              72.755664,
              19.15
            ],
            [
              72.755664,
              19.145898
            ],
            [
              72.754297,
              19.144531
            ],
            [
              72.754297,
              19.133594
            ]
          ]
        ]
      }
    },
    {
      "type": "Feature",
      "properties": {
        "spill_id": "sentinel_39",
        "confidence": 0.84
      },
      "geometry": {
        "type": "Polygon",
        "coordinates": [
          [
            [
              72.566992,
              19.14043
            ],
            [
              72.565625,
              19.141797
            ],
            [
              72.565625,
              19.143164
            ],
            [
              72.558789,
              19.15
            ],
            [
              72.551953,
              19.15
            ],
            [
              72.549219,
              19.147266
            ],
            [
              72.549219,
              19.145898
            ],
            [
              72.542383,
              19.139062
            ],
            [
              72.541016,
              19.139062
            ],
            [
              72.539648,
              19.137695
            ],
            [
              72.531445,
              19.137695
            ],
            [
              72.530078,
              19.136328
            ],
            [
              72.527344,
              19.136328
            ],
            [
              72.524609,
              19.133594
            ],
            [
              72.523242,
              19.133594
            ],
            [
              72.523242,
              19.129492
            ],
            [
              72.524609,
              19.129492
            ],
            [
              72.528711,
              19.126758
            ],
            [
              72.53418,
              19.126758
            ],
            [
              72.538281,
              19.129492
            ],
            [
              72.542383,
              19.129492
            ],
            [
              72.54375,
              19.128125
            ],
            [
              72.547852,
              19.126758
            ],
            [
              72.554688,
              19.133594
            ],
            [
              72.557422,
              19.133594
            ],
            [
              72.558789,
              19.134961
            ],
            [
              72.561523,
              19.134961
            ],
            [
              72.562891,
              19.136328
            ],
            [
              72.566992,
              19.137695
            ],
            [
              72.566992,
              19.14043
            ]
          ]
        ]
      }
    }
  ]
}