{
  "type": "FeatureCollection",
  "features": [
    {
      "type": "Feature",
      "properties": {
        "spill_id": "sentinel_422",
        "confidence": 0.95
      },
      "geometry": {
        "type": "Polygon",
        "coordinates": [
          [
            [
              72.5,
              19.15
            ],
            [
              72.5,
              18.801367
            ],
            [
              72.623047,
              18.801367
            ],
            [
              72.624414,
              18.820508
            ],
            [
              72.643555,
              18.801367
            ],
            [
              72.848633,
              18.801367
            ],
            [
              72.844531,
              18.950391
            ],
            [
              72.793945,
              18.977734
            ],
            [
              72.791211,
              19.011914
            ],
            [
              72.763867,
              19.036523
            ],
            [
              72.774805,
              19.050195
            ],
            [
              72.802148,
              19.048828
            ],
            [
              72.848633,
              19.029687
            ],
            [
              72.848633,
              19.15
            ],
            [
              72.5,
              19.15
            ]
          ]
        ]
      }
    }
  ]
}