{
  "type": "FeatureCollection",
  "features": [
    {
      "type": "Feature",
      "properties": {
        "spill_id": "sentinel_0",
        "confidence": 0.97
      },
      "geometry": {
        "type": "Polygon",
        "coordinates": [
          [
            [
              72.5,
              18.977734
            ],
            [
              72.50957,
              18.976367
            ],
            [
              72.530078,
              18.983203
            ],
            [
              72.560156,
              18.981836
            ],
            [
              72.568359,
              18.987305
            ],
            [
              72.592969,
              18.990039
            ],
            [
              72.603906,
              18.996875
            ],
            [
              72.608008,
              19.003711
            ],
            [
              72.608008,
              19.029687
            ],
            [
              72.601172,
              19.035156
            ],
            [
              72.592969,
              19.036523
            ],
            [
              72.566992,
              19.035156
            ],
            [
              72.549219,
              19.037891
            ],
            [
              72.539648,
              19.041992
            ],
            [
              72.531445,
              19.050195
            ],
            [
              72.521875,
              19.051562
            ],
            [
              72.505469,
              19.040625
            ],
            [
              72.510938,
              19.016016
            ],
            [
              72.5,
              19.005078
            ],
            [
              72.5,
              18.977734
            ]
          ]
        ]
      }
    },
    {
      "type": "Feature",
      "properties": {
        "spill_id": "sentinel_0",
        "confidence": 0.97
      },
      "geometry": {
        "type": "Polygon",
        "coordinates": [
          [
            [
              72.848633,
              19.15
            ],
            [
              72.598438,
              19.15
            ],
            [
              72.624414,
              19.110352
            ],
            [
              72.57793,
              19.099414
            ],
            [
              72.566992,
              19.077539
            ],
            [
              72.632617,
              19.055664
            ],
            [
              72.64082,
              19.032422
            ],
            [
              72.603906,
              18.983203
            ],
            [
              72.524609,
              18.949023
            ],
            [
              72.505469,
              18.928516
            ],
            [
              72.5,
              18.801367
            ],
            [
              72.705078,
              18.801367
            ],
            [
              72.776172,
              18.862891
            ],
            [
              72.781641,
              18.902539
            ],
            [
              72.830859,
              18.917578
            ],
            [
              72.848633,
              18.936719
            ],
            [
              72.848633,
              19.15
            ]
          ]
        ]
      }
    }
  ]
}