{
  "type": "FeatureCollection",
  "features": [
    {
      "type": "Feature",
      "properties": {
        "spill_id": "sentinel_700",
        "confidence": 0.77
      },
      "geometry": {
        "type": "Polygon",
        "coordinates": [
          [
            [
              72.566992,
              18.835547
            ],
            [
              72.561523,
              18.830078
            ],
            [
              72.561523,
              18.828711
            ],
            [
              72.558789,
              18.824609
            ],
            [
              72.558789,
              18.821875
            ],
            [
              72.556055,
              18.817773
            ],
            [
              72.556055,
              18.813672
            ],
            [
              72.554688,
              18.812305
            ],
            [
              72.554688,
              18.80957
            ],
            [
              72.556055,
              18.808203
            ],
            [
              72.556055,
              18.804102
            ],
            [
              72.558789,
              18.801367
            ],
            [
              72.579297,
              18.801367
            ],
            [
              72.583398,
              18.808203
            ],
            [
              72.583398,
              18.812305
            ],
            [
              72.582031,
              18.813672
            ],
            [
              72.582031,
              18.817773
            ],
            [
              72.580664,
              18.819141
            ],
            [
              72.580664,
              18.83418
            ],
            [
              72.579297,
              18.835547
            ],
            [
              72.566992,
              18.835547
            ]
          ]
        ]
      }
    },
    {
      "type": "Feature",
      "properties": {
        "spill_id": "sentinel_700",
        "confidence": 0.77
      },
      "geometry": {
        "type": "Polygon",
        "coordinates": [
          [
            [
              72.802148,
              18.871094
            ],
            [
              72.798047,
              18.865625
            ],
            [
              72.798047,
              18.858789
            ],
            [
              72.804883,
              18.842383
            ],
            [
              72.811719,
              18.832812
            ],
            [
              72.811719,
              18.821875
            ],
            [
              72.807617,
              18.812305
            ],
            [
              72.807617,
              18.802734
            ],
            [
              72.808984,
              18.801367
            ],
            [
              72.841797,
              18.801367
            ],
            [
              72.845898,
              18.805469
            ],
            [
              72.848633,
              18.812305
            ],
            [
              72.843164,
              18.819141
            ],
            [
              72.845898,
              18.830078
            ],
            [
              72.844531,
              18.832812
            ],
            [
              72.834961,
              18.838281
            ],
            [
              72.833594,
              18.842383
            ],
            [
              72.828125,
              18.847852
            ],
            [
              72.824023,
              18.858789
            ],
            [
              72.814453,
              18.868359
            ],
            [
              72.80625,
              18.872461
            ],
            [
              72.802148,
              18.871094
            ]
          ]
        ]
      }
    },
    {
      "type": "Feature",
      "properties": {
        "spill_id": "sentinel_700",
        "confidence": 0.77
      },
      "geometry": {
        "type": "Polygon",
        "coordinates": [
          [
            [
              72.751562,
              18.917578
            ],
            [
              72.739258,
              18.917578
            ],
            [
              72.736523,
              18.914844
            ],
            [
              72.732422,
              18.890234
            ],
            [
              72.71875,
              18.854688
            ],
            [
              72.699609,
              18.828711
            ],
            [
              72.699609,
              18.820508
            ],
            [
              72.706445,
              18.813672
            ],
            [
              72.705078,
              18.810938
            ],
            [
              72.710547,
              18.810938
            ],
            [
              72.71875,
              18.801367
            ],
            [
              72.735156,
              18.801367
            ],
            [
              72.740625,
              18.810938
            ],
            [
              72.740625,
              18.823242
            ],
            [
              72.737891,
              18.832812
            ],
            [
              72.743359,
              18.854688
            ],
            [
              72.748828,
              18.864258
            ],
            [
              72.747461,
              18.886133
            ],
            [
              72.75293,
              18.902539
            ],
            [
              72.751562,
              18.917578
            ]
          ]
        ]
      }
    },
    {
      "type": "Feature",
      "properties": {
        "spill_id": "sentinel_700",
        "confidence": 0.77
      },
      "geometry": {
        "type": "Polygon",
        "coordinates": [
          [
            [
              72.735156,
              19.02832
            ],
            [
              72.729688,
              19.024219
            ],
            [
              72.72832,
              19.020117
            ],
            [
              72.72832,
              19.003711
            ],
            [
              72.736523,
              18.985938
            ],
            [
              72.736523,
              18.951758
            ],
            [
              72.739258,
              18.936719
            ],
            [
              72.743359,
              18.93125
            ],
            [
              72.748828,
              18.93125
            ],
            [
              72.754297,
              18.938086
            ],
            [
              72.759766,
              18.958594
            ],
            [
              72.758398,
              18.981836
            ],
            [
              72.761133,
              19.000977
            ],
            [
              72.75293,
              19.021484
            ],
            [
              72.748828,
              19.025586
            ],
            [
              72.735156,
              19.02832
            ]
          ]
        ]
      }
    },
    {
      "type": "Feature",
      "properties": {
        "spill_id": "sentinel_700",
        "confidence": 0.77
      },
      "geometry": {
        "type": "Polygon",
        "coordinates": [
          [
            [
              72.720117,
              19.107617
            ],
            [
              72.720117,
              19.10625
            ],
            [
              72.71875,
              19.104883
            ],
            [
              72.71875,
              19.103516
            ],
            [
              72.720117,
              19.102148
            ],
            [
              72.720117,
              19.098047
            ],
            [
              72.722852,
              19.095312
            ],
            [
              72.724219,
              19.095312
            ],
            [
              72.725586,
              19.093945
            ],
            [
              72.729688,
              19.093945
            ],
            [
              72.733789,
              19.098047
            ],
            [
              72.733789,
              19.103516
            ],
            [
              72.731055,
              19.10625
            ],
            [
              72.72832,
              19.10625
            ],
            [
              72.726953,
              19.107617
            ],
            [
              72.720117,
              19.107617
            ]
          ]
        ]
      }
    },
    {
      "type": "Feature",
      "properties": {
        "spill_id": "sentinel_700",
        "confidence": 0.77
      },
      "geometry": {
        "type": "Polygon",
        "coordinates": [
          [
            [
              72.5,
              19.108984
            ],
            [
              72.5,
              19.039258
            ],
            [
              72.504102,
              19.039258
            ],
            [
              72.505469,
              19.040625
            ],
            [
              72.508203,
              19.040625
            ],
            [
              72.508203,
              19.043359
            ],
            [
              72.50957,
              19.044727
            ],
            [
              72.508203,
              19.046094
            ],
            [
              72.508203,
              19.055664
            ],
            [
              72.504102,
              19.058398
            ],
            [
              72.504102,
              19.061133
            ],
            [
              72.506836,
              19.066602
            ],
            [
              72.506836,
              19.069336
            ],
            [
              72.505469,
              19.070703
            ],
            [
              72.505469,
              19.078906
            ],
            [
              72.513672,
              19.092578
            ],
            [
              72.515039,
              19.102148
            ],
            [
              72.505469,
              19.107617
            ],
            [
              72.5,
              19.108984
            ]
          ]
        ]
      }
    }
  ]
}