{
  "type": "FeatureCollection",
  "features": [
    {
      "type": "Feature",
      "properties": {
        "spill_id": "sentinel_623",
        "confidence": 0.83
      },
      "geometry": {
        "type": "Polygon",
        "coordinates": [
          [
            [
              72.614844,
              18.808203
            ],
            [
              72.614844,
              18.804102
            ],
            [
              72.617578,
              18.801367
            ],
            [
              72.646289,
              18.801367
            ],
            [
              72.650391,
              18.804102
            ],
            [
              72.653125,
              18.804102
            ],
            [
              72.654492,
              18.805469
            ],
            [
              72.659961,
              18.805469
            ],
            [
              72.661328,
              18.806836
            ],
            [
              72.664062,
              18.806836
            ],
            [
              72.666797,
              18.804102
            ],
            [
              72.672266,
              18.801367
            ],
            [
              72.676367,
              18.804102
            ],
            [
              72.676367,
              18.806836
            ],
            [
              72.675,
              18.808203
            ],
            [
              72.666797,
              18.80957
            ],
            [
              72.661328,
              18.816406
            ],
            [
              72.655859,
              18.817773
            ],
            [
              72.654492,
              18.819141
            ],
            [
              72.651758,
              18.819141
            ],
            [
              72.650391,
              18.820508
            ],
            [
              72.642187,
              18.820508
            ],
            [
              72.633984,
              18.815039
            ],
            [
              72.627148,
              18.813672
            ],
            [
              72.623047,
              18.810938
            ],
            [
              72.618945,
              18.810938
            ],
            [
              72.614844,
              18.808203
            ]
          ]
        ]
      }
    },
    {
      "type": "Feature",
      "properties": {
        "spill_id": "sentinel_623",
        "confidence": 0.83
      },
      "geometry": {
        "type": "Polygon",
        "coordinates": [
          [
            [
              72.62168,
              18.85332
            ],
            [
              72.620312,
              18.856055
            ],
            [
              72.614844,
              18.858789
            ],
            [
              72.601172,
              18.860156
            ],
            [
              72.586133,
              18.857422
            ],
            [
              72.569727,
              18.849219
            ],
            [
              72.54375,
              18.849219
            ],
            [
              72.536914,
              18.851953
            ],
            [
              72.528711,
              18.851953
            ],
            [
              72.517773,
              18.847852
            ],
            [
              72.513672,
              18.84375
            ],
            [
              72.513672,
              18.838281
            ],
            [
              72.519141,
              18.832812
            ],
            [
              72.527344,
              18.831445
            ],
            [
              72.561523,
              18.842383
            ],
            [
              72.616211,
              18.84375
            ],
            [
              72.620312,
              18.847852
            ],
            [
              72.62168,
              18.85332
            ]
          ]
        ]
      }
    },
    {
      "type": "Feature",
      "properties": {
        "spill_id": "sentinel_623",
        "confidence": 0.83
      },
      "geometry": {
        "type": "Polygon",
        "coordinates": [
          [
            [
              72.510938,
              18.883398
            ],
            [
              72.510938,
              18.882031
            ],
            [
              72.516406,
              18.876562
            ],
            [
              72.517773,
              18.876562
            ],
            [
              72.519141,
              18.875195
            ],
            [
              72.520508,
              18.875195
            ],
            [
              72.521875,
              18.873828
            ],
            [
              72.524609,
              18.873828
            ],
            [
              72.525977,
              18.872461
            ],
            [
              72.527344,
              18.872461
            ],
            [
              72.528711,
              18.873828
            ],
            [
              72.528711,
              18.875195
            ],
            [
              72.530078,
              18.876562
            ],
            [
              72.528711,
              18.87793
            ],
            [
              72.528711,
              18.879297
            ],
            [
              72.527344,
              18.880664
            ],
            [
              72.525977,
              18.880664
            ],
            [
              72.524609,
              18.882031
            ],
            [
              72.523242,
              18.882031
            ],
            [
              72.521875,
              18.883398
            ],
            [
              72.519141,
              18.883398
            ],
            [
              72.517773,
              18.884766
            ],
            [
              72.512305,
              18.884766
            ],
            [
              72.510938,
              18.883398
            ]
          ]
        ]
      }
    },
    {
      "type": "Feature",
      "properties": {
        "spill_id": "sentinel_623",
        "confidence": 0.83
      },
      "geometry": {
        "type": "Polygon",
        "coordinates": [
          [
            [
              72.591602,
              18.962695
            ],
            [
              72.586133,
              18.964062
            ],
            [
              72.57793,
              18.961328
            ],
            [
              72.566992,
              18.954492
            ],
            [
              72.557422,
              18.951758
            ],
            [
              72.551953,
              18.951758
            ],
            [
              72.546484,
              18.961328
            ],
            [
              72.53418,
              18.962695
            ],
            [
              72.527344,
              18.955859
            ],
            [
              72.524609,
              18.949023
            ],
            [
              72.524609,
              18.943555
            ],
            [
              72.53418,
              18.939453
            ],
            [
              72.542383,
              18.939453
            ],
            [
              72.546484,
              18.943555
            ],
            [
              72.551953,
              18.938086
            ],
            [
              72.558789,
              18.938086
            ],
            [
              72.560156,
              18.939453
            ],
            [
              72.564258,
              18.936719
            ],
            [
              72.562891,
              18.929883
            ],
            [
              72.565625,
              18.927148
            ],
            [
              72.571094,
              18.925781
            ],
            [
              72.584766,
              18.939453
            ],
            [
              72.583398,
              18.946289
            ],
            [
              72.588867,
              18.954492
            ],
            [
              72.591602,
              18.962695
            ]
          ]
        ]
      }
    },
    {
      "type": "Feature",
      "properties": {
        "spill_id": "sentinel_623",
        "confidence": 0.83
      },
      "geometry": {
        "type": "Polygon",
        "coordinates": [
          [
            [
              72.531445,
              18.999609
            ],
            [
              72.530078,
              18.999609
            ],
            [
              72.528711,
              19.000977
            ],
            [
              72.520508,
              19.000977
            ],
            [
              72.519141,
              18.999609
            ],
            [
              72.517773,
              18.999609
            ],
            [
              72.516406,
              18.998242
            ],
            [
              72.516406,
              18.996875
            ],
            [
              72.512305,
              18.992773
            ],
            [
              72.512305,
              18.987305
            ],
            [
              72.513672,
              18.985938
            ],
            [
              72.520508,
              18.985938
            ],
            [
              72.521875,
              18.987305
            ],
            [
              72.524609,
              18.987305
            ],
            [
              72.530078,
              18.992773
            ],
            [
              72.530078,
              18.994141
            ],
            [
              72.531445,
              18.995508
            ],
            [
              72.531445,
              18.999609
            ]
          ]
        ]
      }
    },
    {
      "type": "Feature",
      "properties": {
        "spill_id": "sentinel_623",
        "confidence": 0.83
      },
      "geometry": {
        "type": "Polygon",
        "coordinates": [
          [
            [
              72.646289,
              19.15
            ],
            [
              72.617578,
              19.104883
            ],
            [
              72.644922,
              19.102148
            ],
            [
              72.632617,
              19.083008
            ],
            [
              72.658594,
              19.046094
            ],
            [
              72.633984,
              19.002344
            ],
            [
              72.608008,
              19.000977
            ],
            [
              72.609375,
              18.985938
            ],
            [
              72.66543,
              18.998242
            ],
            [
              72.699609,
              18.981836
            ],
            [
              72.743359,
              18.985938
            ],
            [
              72.751562,
              18.972266
            ],
            [
              72.717383,
              18.955859
            ],
            [
              72.680469,
              18.962695
            ],
            [
              72.654492,
              18.949023
            ],
            [
              72.614844,
              18.949023
            ],
            [
              72.642187,
              18.939453
            ],
            [
              72.650391,
              18.92168
            ],
            [
              72.690039,
              18.932617
            ],
            [
              72.755664,
              18.929883
            ],
            [
              72.770703,
              18.906641
            ],
            [
              72.785742,
              18.910742
            ],
            [
              72.793945,
              18.894336
            ],
            [
              72.818555,
              18.884766
            ],
            [
              72.829492,
              18.861523
            ],
            [
              72.848633,
              18.868359
            ],
            [
              72.848633,
              18.892969
            ],
            [
              72.819922,
              18.905273
            ],
            [
              72.848633,
              18.92168
            ],
            [
              72.848633,
              19.091211
            ],
            [
              72.832227,
              19.084375
            ],
            [
              72.848633,
              19.113086
            ],
            [
              72.848633,
              19.145898
            ],
            [
              72.646289,
              19.15
            ]
          ]
        ]
      }
    }
  ]
}