{
  "type": "FeatureCollection",
  "features": [
    {
      "type": "Feature",
      "properties": {
        "spill_id": "sentinel_170",
        "confidence": 0.88
      },
      "geometry": {
        "type": "Polygon",
        "coordinates": [
          [
            [
              72.744727,
              19.093945
            ],
            [
              72.740625,
              19.093945
            ],
            [
              72.739258,
              19.092578
            ],
            [
              72.737891,
              19.092578
            ],
            [
              72.733789,
              19.088477
            ],
            [
              72.733789,
              19.087109
            ],
            [
              72.732422,
              19.085742
            ],
            [
              72.732422,
              19.084375
            ],
            [
              72.735156,
              19.081641
            ],
            [
              72.737891,
              19.081641
            ],
            [
              72.739258,
              19.083008
            ],
            [
              72.740625,
              19.083008
            ],
            [
              72.743359,
              19.085742
            ],
            [
              72.743359,
              19.087109
            ],
            [
              72.744727,
              19.088477
            ],
            [
              72.744727,
              19.089844
            ],
            [
              72.746094,
              19.091211
            ],
            [
              72.744727,
              19.092578
            ],
            [
              72.744727,
              19.093945
            ]
          ]
        ]
      }
    },
    {
      "type": "Feature",
      "properties": {
        "spill_id": "sentinel_170",
        "confidence": 0.88
      },
      "geometry": {
        "type": "Polygon",
        "coordinates": [
          [
            [
              72.680469,
              19.119922
            ],
            [
              72.680469,
              19.118555
            ],
            [
              72.677734,
              19.117188
            ],
            [
              72.679102,
              19.11582
            ],
            [
              72.679102,
              19.111719
            ],
            [
              72.676367,
              19.108984
            ],
            [
              72.676367,
              19.10625
            ],
            [
              72.675,
              19.104883
            ],
            [
              72.675,
              19.099414
            ],
            [
              72.677734,
              19.095312
            ],
            [
              72.673633,
              19.091211
            ],
            [
              72.670898,
              19.091211
            ],
            [
              72.669531,
              19.089844
            ],
            [
              72.672266,
              19.085742
            ],
            [
              72.669531,
              19.083008
            ],
            [
              72.673633,
              19.077539
            ],
            [
              72.677734,
              19.077539
            ],
            [
              72.680469,
              19.080273
            ],
            [
              72.688672,
              19.083008
            ],
            [
              72.688672,
              19.084375
            ],
            [
              72.692773,
              19.087109
            ],
            [
              72.694141,
              19.091211
            ],
            [
              72.700977,
              19.099414
            ],
            [
              72.700977,
              19.100781
            ],
            [
              72.698242,
              19.103516
            ],
            [
              72.694141,
              19.103516
            ],
            [
              72.691406,
              19.10625
            ],
            [
              72.691406,
              19.113086
            ],
            [
              72.685938,
              19.113086
            ],
            [
              72.683203,
              19.118555
            ],
            [
              72.680469,
              19.119922
            ]
          ]
        ]
      }
    },
    {
      "type": "Feature",
      "properties": {
        "spill_id": "sentinel_170",
        "confidence": 0.88
      },
      "geometry": {
        "type": "Polygon",
        "coordinates": [
          [
            [
              72.848633,
              19.122656
            ],
            [
              72.802148,
              19.107617
            ],
            [
              72.780273,
              19.058398
            ],
            [
              72.741992,
              19.029687
            ],
            [
              72.731055,
              18.98457
            ],
            [
              72.695508,
              18.973633
            ],
            [
              72.676367,
              18.939453
            ],
            [
              72.64082,
              18.946289
            ],
            [
              72.586133,
              18.929883
            ],
            [
              72.588867,
              18.950391
            ],
            [
              72.560156,
              18.950391
            ],
            [
              72.547852,
              18.916211
            ],
            [
              72.557422,
              18.903906
            ],
            [
              72.59707,
              18.898438
            ],
            [
              72.579297,
              18.884766
            ],
            [
              72.539648,
              18.890234
            ],
            [
              72.519141,
              18.935352
            ],
            [
              72.5,
              18.949023
            ],
            [
              72.5,
              18.801367
            ],
            [
              72.848633,
              18.801367
            ],
            [
              72.848633,
              19.031055
            ],
            [
              72.833594,
              19.017383
            ],
            [
              72.821289,
              19.044727
            ],
            [
              72.833594,
              19.059766
            ],
            [
              72.848633,
              19.039258
            ],
            [
              72.848633,
              19.122656
            ]
          ]
        ]
      }
    },
    {
      "type": "Feature",
      "properties": {
        "spill_id": "sentinel_170",
        "confidence": 0.88
      },
      "geometry": {
        "type": "Polygon",
        "coordinates": [
          [
            [
              72.784375,
              19.133594
            ],
            [
              72.783008,
              19.133594
            ],
            [
              72.780273,
              19.130859
            ],
            [
              72.780273,
              19.129492
            ],
            [
              72.777539,
              19.126758
            ],
            [
              72.777539,
              19.122656
            ],
            [
              72.785742,
              19.122656
            ],
            [
              72.787109,
              19.124023
            ],
            [
              72.787109,
              19.130859
            ],
            [
              72.784375,
              19.133594
            ]
          ]
        ]
      }
    },
    {
      "type": "Feature",
      "properties": {
        "spill_id": "sentinel_170",
        "confidence": 0.88
      },
      "geometry": {
        "type": "Polygon",
        "coordinates": [
          [
            [
              72.818555,
              19.15
            ],
            [
              72.818555,
              19.147266
            ],
            [
              72.819922,
              19.145898
            ],
            [
              72.81582,
              19.136328
            ],
            [
              72.821289,
              19.139062
            ],
            [
              72.824023,
              19.137695
            ],
            [
              72.825391,
              19.133594
            ],
            [
              72.822656,
              19.130859
            ],
            [
              72.824023,
              19.125391
            ],
            [
              72.826758,
              19.126758
            ],
            [
              72.826758,
              19.130859
            ],
            [
              72.825391,
              19.133594
            ],
            [
              72.828125,
              19.137695
            ],
            [
              72.825391,
              19.139062
            ],
            [
              72.824023,
              19.137695
            ],
            [
              72.822656,
              19.14043
            ],
            [
              72.826758,
              19.144531
            ],
            [
              72.828125,
              19.144531
            ],
            [
              72.828125,
              19.145898
            ],
            [
              72.830859,
              19.148633
            ],
            [
              72.833594,
              19.148633
            ],
            [
              72.834961,
              19.147266
            ],
            [
              72.834961,
              19.144531
            ],
            [
              72.837695,
              19.141797
            ],
            [
              72.837695,
              19.139062
            ],
            [
              72.841797,
              19.137695
            ],
            [
              72.844531,
              19.134961
            ],
            [
              72.845898,
              19.136328
            ],
            [
              72.848633,
              19.136328
            ],
            [
              72.848633,
              19.15
            ],
            [
              72.818555,
              19.15
            ]
          ]
        ]
      }
    },
    {
      "type": "Feature",
      "properties": {
        "spill_id": "sentinel_170",
        "confidence": 0.88
      },
      "geometry": {
        "type": "Polygon",
        "coordinates": [
          [
            [
              72.642187,
              19.15
            ],
            [
              72.642187,
              19.147266
            ],
            [
              72.643555,
              19.144531
            ],
            [
              72.649023,
              19.141797
            ],
            [
              72.649023,
              19.137695
            ],
            [
              72.644922,
              19.130859
            ],
            [
              72.646289,
              19.126758
            ],
            [
              72.649023,
              19.124023
            ],
            [
              72.653125,
              19.124023
            ],
            [
              72.654492,
              19.122656
            ],
            [
              72.657227,
              19.122656
            ],
            [
              72.658594,
              19.124023
            ],
            [
              72.669531,
              19.124023
            ],
            [
              72.670898,
              19.122656
            ],
            [
              72.680469,
              19.122656
            ],
            [
              72.680469,
              19.126758
            ],
            [
              72.677734,
              19.128125
            ],
            [
              72.677734,
              19.136328
            ],
            [
              72.676367,
              19.137695
            ],
            [
              72.676367,
              19.14043
            ],
            [
              72.677734,
              19.143164
            ],
            [
              72.676367,
              19.144531
            ],
            [
              72.676367,
              19.147266
            ],
            [
              72.675,
              19.15
            ],
            [
              72.642187,
              19.15
            ]
          ]
        ]
      }
    },
    {
      "type": "Feature",
      "properties": {
        "spill_id": "sentinel_170",
        "confidence": 0.88
      },
      "geometry": {
        "type": "Polygon",
        "coordinates": [
          [
            [
              72.623047,
              19.15
            ],
            [
              72.5,
              19.15
            ],
            [
              72.5,
              18.975
            ],
            [
              72.524609,
              18.976367
            ],
            [
              72.530078,
              19.000977
            ],
            [
              72.546484,
              19.016016
            ],
            [
              72.558789,
              19.014648
            ],
            [
              72.571094,
              19.032422
            ],
            [
              72.586133,
              19.026953
            ],
            [
              72.59707,
              19.031055
            ],
            [
              72.592969,
              19.041992
            ],
            [
              72.599805,
              19.046094
            ],
            [
              72.603906,
              19.061133
            ],
            [
              72.612109,
              19.066602
            ],
            [
              72.623047,
              19.087109
            ],
            [
              72.62168,
              19.092578
            ],
            [
              72.601172,
              19.100781
            ],
            [
              72.603906,
              19.108984
            ],
            [
              72.614844,
              19.110352
            ],
            [
              72.606641,
              19.108984
            ],
            [
              72.602539,
              19.119922
            ],
            [
              72.620312,
              19.133594
            ],
            [
              72.623047,
              19.15
            ]
          ]
        ]
      }
    }
  ]
}