{
  "type": "FeatureCollection",
  "features": [
    {
      "type": "Feature",
      "properties": {
        "spill_id": "sentinel_355",
        "confidence": 0.85
      },
      "geometry": {
        "type": "Polygon",
        "coordinates": [
          [
            [
              72.669531,
              18.806836
            ],
            [
              72.669531,
              18.802734
            ],
            [
              72.670898,
              18.801367
            ],
            [
              72.683203,
              18.801367
            ],
            [
              72.68457,
              18.802734
            ],
            [
              72.685938,
              18.802734
            ],
            [
              72.685938,
              18.805469
            ],
            [
              72.68457,
              18.806836
            ],
            [
              72.683203,
              18.806836
            ],
            [
              72.681836,
              18.808203
            ],
            [
              72.677734,
              18.808203
            ],
            [
              72.676367,
              18.80957
            ],
            [
              72.672266,
              18.80957
            ],
            [
              72.669531,
              18.806836
            ]
          ]
        ]
      }
    },
    {
      "type": "Feature",
      "properties": {
        "spill_id": "sentinel_355",
        "confidence": 0.85
      },
      "geometry": {
        "type": "Polygon",
        "coordinates": [
          [
            [
              72.788477,
              18.810938
            ],
            [
              72.788477,
              18.808203
            ],
            [
              72.789844,
              18.806836
            ],
            [
              72.789844,
              18.805469
            ],
            [
              72.791211,
              18.804102
            ],
            [
              72.791211,
              18.802734
            ],
            [
              72.792578,
              18.801367
            ],
            [
              72.800781,
              18.801367
            ],
            [
              72.802148,
              18.802734
            ],
            [
              72.802148,
              18.80957
            ],
            [
              72.800781,
              18.810938
            ],
            [
              72.788477,
              18.810938
            ]
          ]
        ]
      }
    },
    {
      "type": "Feature",
      "properties": {
        "spill_id": "sentinel_355",
        "confidence": 0.85
      },
      "geometry": {
        "type": "Polygon",
        "coordinates": [
          [
            [
              72.575195,
              18.820508
            ],
            [
              72.575195,
              18.817773
            ],
            [
              72.573828,
              18.816406
            ],
            [
              72.573828,
              18.812305
            ],
            [
              72.575195,
              18.810938
            ],
            [
              72.576562,
              18.810938
            ],
            [
              72.579297,
              18.808203
            ],
            [
              72.582031,
              18.808203
            ],
            [
              72.583398,
              18.806836
            ],
            [
              72.584766,
              18.806836
            ],
            [
              72.588867,
              18.802734
            ],
            [
              72.592969,
              18.802734
            ],
            [
              72.592969,
              18.804102
            ],
            [
              72.594336,
              18.805469
            ],
            [
              72.594336,
              18.808203
            ],
            [
              72.5875,
              18.815039
            ],
            [
              72.5875,
              18.816406
            ],
            [
              72.586133,
              18.817773
            ],
            [
              72.584766,
              18.817773
            ],
            [
              72.583398,
              18.819141
            ],
            [
              72.582031,
              18.819141
            ],
            [
              72.580664,
              18.820508
            ],
            [
              72.575195,
              18.820508
            ]
          ]
        ]
      }
    },
    {
      "type": "Feature",
      "properties": {
        "spill_id": "sentinel_355",
        "confidence": 0.85
      },
      "geometry": {
        "type": "Polygon",
        "coordinates": [
          [
            [
              72.810352,
              18.872461
            ],
            [
              72.804883,
              18.866992
            ],
            [
              72.804883,
              18.860156
            ],
            [
              72.81582,
              18.846484
            ],
            [
              72.81582,
              18.845117
            ],
            [
              72.817187,
              18.84375
            ],
            [
              72.817187,
              18.841016
            ],
            [
              72.818555,
              18.839648
            ],
            [
              72.819922,
              18.835547
            ],
            [
              72.824023,
              18.832812
            ],
            [
              72.826758,
              18.832812
            ],
            [
              72.828125,
              18.831445
            ],
            [
              72.832227,
              18.831445
            ],
            [
              72.833594,
              18.832812
            ],
            [
              72.833594,
              18.841016
            ],
            [
              72.834961,
              18.842383
            ],
            [
              72.834961,
              18.847852
            ],
            [
              72.833594,
              18.849219
            ],
            [
              72.833594,
              18.851953
            ],
            [
              72.830859,
              18.854688
            ],
            [
              72.826758,
              18.864258
            ],
            [
              72.821289,
              18.869727
            ],
            [
              72.819922,
              18.869727
            ],
            [
              72.818555,
              18.871094
            ],
            [
              72.814453,
              18.871094
            ],
            [
              72.813086,
              18.872461
            ],
            [
              72.810352,
              18.872461
            ]
          ]
        ]
      }
    },
    {
      "type": "Feature",
      "properties": {
        "spill_id": "sentinel_355",
        "confidence": 0.85
      },
      "geometry": {
        "type": "Polygon",
        "coordinates": [
          [
            [
              72.841797,
              18.886133
            ],
            [
              72.84043,
              18.884766
            ],
            [
              72.84043,
              18.882031
            ],
            [
              72.841797,
              18.880664
            ],
            [
              72.841797,
              18.879297
            ],
            [
              72.844531,
              18.876562
            ],
            [
              72.847266,
              18.876562
            ],
            [
              72.848633,
              18.87793
            ],
            [
              72.848633,
              18.886133
            ],
            [
              72.841797,
              18.886133
            ]
          ]
        ]
      }
    },
    {
      "type": "Feature",
      "properties": {
        "spill_id": "sentinel_355",
        "confidence": 0.85
      },
      "geometry": {
        "type": "Polygon",
        "coordinates": [
          [
            [
              72.836328,
              19.013281
            ],
            [
              72.829492,
              19.010547
            ],
            [
              72.825391,
              19.011914
            ],
            [
              72.822656,
              19.00918
            ],
            [
              72.818555,
              18.992773
            ],
            [
              72.822656,
              18.979102
            ],
            [
              72.819922,
              18.975
            ],
            [
              72.814453,
              18.975
            ],
            [
              72.80625,
              18.983203
            ],
            [
              72.795312,
              18.983203
            ],
            [
              72.795312,
              18.975
            ],
            [
              72.788477,
              18.969531
            ],
            [
              72.784375,
              18.972266
            ],
            [
              72.787109,
              18.979102
            ],
            [
              72.785742,
              18.98457
            ],
            [
              72.780273,
              18.98457
            ],
            [
              72.776172,
              18.979102
            ],
            [
              72.784375,
              18.970898
            ],
            [
              72.784375,
              18.961328
            ],
            [
              72.788477,
              18.951758
            ],
            [
              72.793945,
              18.946289
            ],
            [
              72.798047,
              18.946289
            ],
            [
              72.802148,
              18.958594
            ],
            [
              72.807617,
              18.953125
            ],
            [
              72.814453,
              18.951758
            ],
            [
              72.825391,
              18.928516
            ],
            [
              72.830859,
              18.923047
            ],
            [
              72.834961,
              18.923047
            ],
            [
              72.84043,
              18.93125
            ],
            [
              72.841797,
              18.951758
            ],
            [
              72.848633,
              18.959961
            ],
            [
              72.848633,
              18.998242
            ],
            [
              72.837695,
              19.002344
            ],
            [
              72.836328,
              19.013281
            ]
          ]
        ]
      }
    },
    {
      "type": "Feature",
      "properties": {
        "spill_id": "sentinel_355",
        "confidence": 0.85
      },
      "geometry": {
        "type": "Polygon",
        "coordinates": [
          [
            [
              72.828125,
              19.055664
            ],
            [
              72.822656,
              19.061133
            ],
            [
              72.819922,
              19.061133
            ],
            [
              72.818555,
              19.0625
            ],
            [
              72.811719,
              19.0625
            ],
            [
              72.810352,
              19.061133
            ],
            [
              72.808984,
              19.061133
            ],
            [
              72.803516,
              19.055664
            ],
            [
              72.803516,
              19.054297
            ],
            [
              72.800781,
              19.051562
            ],
            [
              72.800781,
              19.050195
            ],
            [
              72.799414,
              19.048828
            ],
            [
              72.799414,
              19.044727
            ],
            [
              72.803516,
              19.040625
            ],
            [
              72.804883,
              19.040625
            ],
            [
              72.80625,
              19.039258
            ],
            [
              72.811719,
              19.039258
            ],
            [
              72.813086,
              19.040625
            ],
            [
              72.81582,
              19.040625
            ],
            [
              72.819922,
              19.043359
            ],
            [
              72.822656,
              19.043359
            ],
            [
              72.824023,
              19.044727
            ],
            [
              72.825391,
              19.044727
            ],
            [
              72.828125,
              19.047461
            ],
            [
              72.828125,
              19.055664
            ]
          ]
        ]
      }
    },
    {
      "type": "Feature",
      "properties": {
        "spill_id": "sentinel_355",
        "confidence": 0.85
      },
      "geometry": {
        "type": "Polygon",
        "coordinates": [
          [
            [
              72.690039,
              19.15
            ],
            [
              72.700977,
              19.108984
            ],
            [
              72.713281,
              19.085742
            ],
            [
              72.710547,
              19.069336
            ],
            [
              72.714648,
              19.047461
            ],
            [
              72.725586,
              19.036523
            ],
            [
              72.733789,
              19.016016
            ],
            [
              72.739258,
              19.013281
            ],
            [
              72.743359,
              19.021484
            ],
            [
              72.740625,
              19.046094
            ],
            [
              72.744727,
              19.05293
            ],
            [
              72.765234,
              19.035156
            ],
            [
              72.773438,
              19.036523
            ],
            [
              72.777539,
              19.046094
            ],
            [
              72.773438,
              19.080273
            ],
            [
              72.763867,
              19.083008
            ],
            [
              72.757031,
              19.076172
            ],
            [
              72.75293,
              19.061133
            ],
            [
              72.744727,
              19.063867
            ],
            [
              72.740625,
              19.055664
            ],
            [
              72.731055,
              19.0625
            ],
            [
              72.735156,
              19.092578
            ],
            [
              72.754297,
              19.098047
            ],
            [
              72.746094,
              19.11582
            ],
            [
              72.747461,
              19.124023
            ],
            [
              72.72832,
              19.132227
            ],
            [
              72.731055,
              19.119922
            ],
            [
              72.720117,
              19.117188
            ],
            [
              72.710547,
              19.126758
            ],
            [
              72.707812,
              19.143164
            ],
            [
              72.698242,
              19.15
            ],
            [
              72.690039,
              19.15
            ]
          ]
        ]
      }
    },
    {
      "type": "Feature",
      "properties": {
        "spill_id": "sentinel_355",
        "confidence": 0.85
      },
      "geometry": {
        "type": "Polygon",
        "coordinates": [
          [
            [
              72.628516,
              19.15
            ],
            [
              72.62168,
              19.125391
            ],
            [
              72.661328,
              19.041992
            ],
            [
              72.659961,
              19.033789
            ],
            [
              72.638086,
              19.041992
            ],
            [
              72.629883,
              19.032422
            ],
            [
              72.653125,
              18.94082
            ],
            [
              72.649023,
              18.916211
            ],
            [
              72.679102,
              18.906641
            ],
            [
              72.698242,
              18.866992
            ],
            [
              72.71875,
              18.872461
            ],
            [
              72.726953,
              18.845117
            ],
            [
              72.70918,
              18.851953
            ],
            [
              72.699609,
              18.84375
            ],
            [
              72.670898,
              18.873828
            ],
            [
              72.644922,
              18.875195
            ],
            [
              72.670898,
              18.858789
            ],
            [
              72.691406,
              18.820508
            ],
            [
              72.703711,
              18.831445
            ],
            [
              72.720117,
              18.801367
            ],
            [
              72.754297,
              18.801367
            ],
            [
              72.770703,
              18.824609
            ],
            [
              72.746094,
              18.849219
            ],
            [
              72.711914,
              18.938086
            ],
            [
              72.724219,
              18.966797
            ],
            [
              72.683203,
              19.043359
            ],
            [
              72.673633,
              19.102148
            ],
            [
              72.650391,
              19.117188
            ],
            [
              72.636719,
              19.148633
            ],
            [
              72.628516,
              19.15
            ]
          ]
        ]
      }
    }
  ]
}