{
  "type": "FeatureCollection",
  "features": [
    {
      "type": "Feature",
      "properties": {
        "spill_id": "sentinel_815",
        "confidence": 0.87
      },
      "geometry": {
        "type": "Polygon",
        "coordinates": [
          [
            [
              72.5,
              18.861523
            ],
            [
              72.5,
              18.842383
            ],
            [
              72.501367,
              18.842383
            ],
            [
              72.502734,
              18.841016
            ],
            [
              72.504102,
              18.841016
            ],
            [
              72.505469,
              18.839648
            ],
            [
              72.506836,
              18.839648
            ],
            [
              72.508203,
              18.841016
            ],
            [
              72.50957,
              18.841016
            ],
            [
              72.50957,
              18.842383
            ],
            [
              72.510938,
              18.84375
            ],
            [
              72.510938,
              18.854688
            ],
            [
              72.50957,
              18.856055
            ],
            [
              72.50957,
              18.858789
            ],
            [
              72.508203,
              18.860156
            ],
            [
              72.506836,
              18.860156
            ],
            [
              72.505469,
              18.861523
            ],
            [
              72.5,
              18.861523
            ]
          ]
        ]
      }
    },
    {
      "type": "Feature",
      "properties": {
        "spill_id": "sentinel_815",
        "confidence": 0.87
      },
      "geometry": {
        "type": "Polygon",
        "coordinates": [
          [
            [
              72.832227,
              18.87793
            ],
            [
              72.832227,
              18.876562
            ],
            [
              72.830859,
              18.875195
            ],
            [
              72.830859,
              18.871094
            ],
            [
              72.832227,
              18.869727
            ],
            [
              72.832227,
              18.868359
            ],
            [
              72.833594,
              18.866992
            ],
            [
              72.834961,
              18.866992
            ],
            [
              72.837695,
              18.864258
            ],
            [
              72.839062,
              18.864258
            ],
            [
              72.84043,
              18.865625
            ],
            [
              72.84043,
              18.875195
            ],
            [
              72.837695,
              18.87793
            ],
            [
              72.832227,
              18.87793
            ]
          ]
        ]
      }
    },
    {
      "type": "Feature",
      "properties": {
        "spill_id": "sentinel_815",
        "confidence": 0.87
      },
      "geometry": {
        "type": "Polygon",
        "coordinates": [
          [
            [
              72.517773,
              18.917578
            ],
            [
              72.515039,
              18.913477
            ],
            [
              72.515039,
              18.906641
            ],
            [
              72.519141,
              18.902539
            ],
            [
              72.520508,
              18.902539
            ],
            [
              72.524609,
              18.899805
            ],
            [
              72.530078,
              18.899805
            ],
            [
              72.532812,
              18.89707
            ],
            [
              72.531445,
              18.895703
            ],
            [
              72.531445,
              18.894336
            ],
            [
              72.53418,
              18.891602
            ],
            [
              72.535547,
              18.891602
            ],
            [
              72.536914,
              18.892969
            ],
            [
              72.538281,
              18.892969
            ],
            [
              72.538281,
              18.898438
            ],
            [
              72.539648,
              18.899805
            ],
            [
              72.539648,
              18.902539
            ],
            [
              72.532812,
              18.909375
            ],
            [
              72.532812,
              18.910742
            ],
            [
              72.531445,
              18.912109
            ],
            [
              72.531445,
              18.913477
            ],
            [
              72.530078,
              18.913477
            ],
            [
              72.525977,
              18.917578
            ],
            [
              72.517773,
              18.917578
            ]
          ]
        ]
      }
    },
    {
      "type": "Feature",
      "properties": {
        "spill_id": "sentinel_815",
        "confidence": 0.87
      },
      "geometry": {
        "type": "Polygon",
        "coordinates": [
          [
            [
              72.588867,
              18.918945
            ],
            [
              72.580664,
              18.924414
            ],
            [
              72.565625,
              18.92168
            ],
            [
              72.565625,
              18.912109
            ],
            [
              72.560156,
              18.901172
            ],
            [
              72.542383,
              18.884766
            ],
            [
              72.531445,
              18.87793
            ],
            [
              72.523242,
              18.875195
            ],
            [
              72.519141,
              18.871094
            ],
            [
              72.517773,
              18.865625
            ],
            [
              72.520508,
              18.862891
            ],
            [
              72.53418,
              18.861523
            ],
            [
              72.545117,
              18.865625
            ],
            [
              72.549219,
              18.864258
            ],
            [
              72.551953,
              18.869727
            ],
            [
              72.564258,
              18.880664
            ],
            [
              72.591602,
              18.890234
            ],
            [
              72.595703,
              18.895703
            ],
            [
              72.595703,
              18.905273
            ],
            [
              72.588867,
              18.918945
            ]
          ]
        ]
      }
    },
    {
      "type": "Feature",
      "properties": {
        "spill_id": "sentinel_815",
        "confidence": 0.87
      },
      "geometry": {
        "type": "Polygon",
        "coordinates": [
          [
            [
              72.848633,
              19.063867
            ],
            [
              72.84043,
              19.065234
            ],
            [
              72.830859,
              19.054297
            ],
            [
              72.819922,
              19.051562
            ],
            [
              72.804883,
              19.010547
            ],
            [
              72.795312,
              19.010547
            ],
            [
              72.793945,
              19.02832
            ],
            [
              72.777539,
              19.013281
            ],
            [
              72.776172,
              18.987305
            ],
            [
              72.743359,
              18.946289
            ],
            [
              72.732422,
              18.918945
            ],
            [
              72.733789,
              18.908008
            ],
            [
              72.699609,
              18.873828
            ],
            [
              72.694141,
              18.850586
            ],
            [
              72.700977,
              18.851953
            ],
            [
              72.705078,
              18.845117
            ],
            [
              72.724219,
              18.850586
            ],
            [
              72.736523,
              18.84375
            ],
            [
              72.758398,
              18.857422
            ],
            [
              72.770703,
              18.875195
            ],
            [
              72.777539,
              18.862891
            ],
            [
              72.798047,
              18.876562
            ],
            [
              72.81582,
              18.865625
            ],
            [
              72.824023,
              18.871094
            ],
            [
              72.848633,
              18.912109
            ],
            [
              72.844531,
              18.927148
            ],
            [
              72.848633,
              19.063867
            ]
          ]
        ]
      }
    },
    {
      "type": "Feature",
      "properties": {
        "spill_id": "sentinel_815",
        "confidence": 0.87
      },
      "geometry": {
        "type": "Polygon",
        "coordinates": [
          [
            [
              72.839062,
              19.087109
            ],
            [
              72.837695,
              19.085742
            ],
            [
              72.837695,
              19.077539
            ],
            [
              72.839062,
              19.076172
            ],
            [
              72.843164,
              19.076172
            ],
            [
              72.844531,
              19.077539
            ],
            [
              72.844531,
              19.078906
            ],
            [
              72.845898,
              19.080273
            ],
            [
              72.845898,
              19.081641
            ],
            [
              72.844531,
              19.083008
            ],
            [
              72.844531,
              19.084375
            ],
            [
              72.843164,
              19.085742
            ],
            [
              72.841797,
              19.085742
            ],
            [
              72.84043,
              19.087109
            ],
            [
              72.839062,
              19.087109
            ]
          ]
        ]
      }
    },
    {
      "type": "Feature",
      "properties": {
        "spill_id": "sentinel_815",
        "confidence": 0.87
      },
      "geometry": {
        "type": "Polygon",
        "coordinates": [
          [
            [
              72.848633,
              19.143164
            ],
            [
              72.836328,
              19.133594
            ],
            [
              72.826758,
              19.133594
            ],
            [
              72.825391,
              19.121289
            ],
            [
              72.807617,
              19.111719
            ],
            [
              72.799414,
              19.098047
            ],
            [
              72.767969,
              19.083008
            ],
            [
              72.755664,
              19.084375
            ],
            [
              72.722852,
              19.037891
            ],
            [
              72.702344,
              19.020117
            ],
            [
              72.662695,
              18.999609
            ],
            [
              72.638086,
              18.972266
            ],
            [
              72.625781,
              18.966797
            ],
            [
              72.618945,
              18.954492
            ],
            [
              72.646289,
              18.959961
            ],
            [
              72.668164,
              18.985938
            ],
            [
              72.706445,
              19.007812
            ],
            [
              72.720117,
              19.00918
            ],
            [
              72.725586,
              18.998242
            ],
            [
              72.735156,
              18.998242
            ],
            [
              72.72832,
              19.01875
            ],
            [
              72.733789,
              19.033789
            ],
            [
              72.740625,
              19.040625
            ],
            [
              72.754297,
              19.041992
            ],
            [
              72.767969,
              19.061133
            ],
            [
              72.803516,
              19.077539
            ],
            [
              72.848633,
              19.126758
            ],
            [
              72.848633,
              19.143164
            ]
          ]
        ]
      }
    }
  ]
}