{
  "type": "FeatureCollection",
  "features": [
    {
      "type": "Feature",
      "properties": {
        "spill_id": "sentinel_542",
        "confidence": 0.88
      },
      "geometry": {
        "type": "Polygon",
        "coordinates": [
          [
            [
              72.822656,
              19.141797
            ],
            [
              72.817187,
              19.134961
            ],
            [
              72.817187,
              19.130859
            ],
            [
              72.818555,
              19.129492
            ],
            [
              72.818555,
              19.128125
            ],
            [
              72.826758,
              19.121289
            ],
            [
              72.826758,
              19.118555
            ],
            [
              72.828125,
              19.117188
            ],
            [
              72.828125,
              19.11582
            ],
            [
              72.833594,
              19.110352
            ],
            [
              72.836328,
              19.110352
            ],
            [
              72.837695,
              19.108984
            ],
            [
              72.839062,
              19.108984
            ],
            [
              72.84043,
              19.110352
            ],
            [
              72.845898,
              19.110352
            ],
            [
              72.847266,
              19.111719
            ],
            [
              72.848633,
              19.111719
            ],
            [
              72.848633,
              19.126758
            ],
            [
              72.847266,
              19.126758
            ],
            [
              72.843164,
              19.130859
            ],
            [
              72.843164,
              19.134961
            ],
            [
              72.841797,
              19.134961
            ],
            [
              72.84043,
              19.136328
            ],
            [
              72.84043,
              19.137695
            ],
            [
              72.841797,
              19.139062
            ],
            [
              72.84043,
              19.14043
            ],
            [
              72.839062,
              19.14043
            ],
            [
              72.836328,
              19.137695
            ],
            [
              72.834961,
              19.137695
            ],
            [
              72.830859,
              19.143164
            ],
            [
              72.825391,
              19.143164
            ],
            [
              72.824023,
              19.141797
            ],
            [
              72.822656,
              19.141797
            ]
          ]
        ]
      }
    },
    {
      "type": "Feature",
      "properties": {
        "spill_id": "sentinel_542",
        "confidence": 0.88
      },
      "geometry": {
        "type": "Polygon",
        "coordinates": [
          [
            [
              72.625781,
              19.124023
            ],
            [
              72.624414,
              19.084375
            ],
            [
              72.636719,
              19.089844
            ],
            [
              72.644922,
              19.117188
            ],
            [
              72.66543,
              19.11582
            ],
            [
              72.707812,
              19.063867
            ],
            [
              72.740625,
              19.043359
            ],
            [
              72.751562,
              19.041992
            ],
            [
              72.751562,
              19.05293
            ],
            [
              72.767969,
              19.058398
            ],
            [
              72.774805,
              19.067969
            ],
            [
              72.784375,
              19.05293
            ],
            [
              72.830859,
              19.057031
            ],
            [
              72.848633,
              19.05293
            ],
            [
              72.848633,
              19.078906
            ],
            [
              72.825391,
              19.066602
            ],
            [
              72.781641,
              19.092578
            ],
            [
              72.783008,
              19.10625
            ],
            [
              72.765234,
              19.119922
            ],
            [
              72.748828,
              19.15
            ],
            [
              72.729688,
              19.15
            ],
            [
              72.72832,
              19.14043
            ],
            [
              72.737891,
              19.126758
            ],
            [
              72.724219,
              19.126758
            ],
            [
              72.705078,
              19.114453
            ],
            [
              72.681836,
              19.124023
            ],
            [
              72.683203,
              19.134961
            ],
            [
              72.695508,
              19.137695
            ],
            [
              72.699609,
              19.15
            ],
            [
              72.683203,
              19.145898
            ],
            [
              72.647656,
              19.15
            ],
            [
              72.633984,
              19.14043
            ],
            [
              72.625781,
              19.124023
            ]
          ]
        ]
      }
    },
    {
      "type": "Feature",
      "properties": {
        "spill_id": "sentinel_542",
        "confidence": 0.88
      },
      "geometry": {
        "type": "Polygon",
        "coordinates": [
          [
            [
              72.5,
              19.15
            ],
            [
              72.5,
              18.901172
            ],
            [
              72.50957,
              18.856055
            ],
            [
              72.556055,
              18.847852
            ],
            [
              72.530078,
              18.823242
            ],
            [
              72.538281,
              18.801367
            ],
            [
              72.586133,
              18.812305
            ],
            [
              72.595703,
              18.858789
            ],
            [
              72.657227,
              18.854688
            ],
            [
              72.681836,
              18.830078
            ],
            [
              72.726953,
              18.816406
            ],
            [
              72.765234,
              18.841016
            ],
            [
              72.802148,
              18.830078
            ],
            [
              72.814453,
              18.839648
            ],
            [
              72.802148,
              18.868359
            ],
            [
              72.848633,
              18.871094
            ],
            [
              72.848633,
              18.933984
            ],
            [
              72.807617,
              18.966797
            ],
            [
              72.800781,
              19.000977
            ],
            [
              72.767969,
              19.029687
            ],
            [
              72.757031,
              19.025586
            ],
            [
              72.767969,
              18.987305
            ],
            [
              72.807617,
              18.935352
            ],
            [
              72.804883,
              18.909375
            ],
            [
              72.781641,
              18.891602
            ],
            [
              72.739258,
              18.932617
            ],
            [
              72.696875,
              18.949023
            ],
            [
              72.688672,
              18.983203
            ],
            [
              72.653125,
              18.969531
            ],
            [
              72.649023,
              19.016016
            ],
            [
              72.62168,
              19.054297
            ],
            [
              72.627148,
              19.07207
            ],
            [
              72.605273,
              19.078906
            ],
            [
              72.605273,
              19.108984
            ],
            [
              72.557422,
              19.15
            ],
            [
              72.5,
              19.15
            ]
          ]
        ]
      }
    }
  ]
}