{
  "type": "FeatureCollection",
  "features": [
    {
      "type": "Feature",
      "properties": {
        "spill_id": "sentinel_626",
        "confidence": 0.9
      },
      "geometry": {
        "type": "Polygon",
        "coordinates": [
          [
            [
              72.834961,
              19.022852
            ],
            [
              72.833594,
              19.021484
            ],
            [
              72.832227,
              19.021484
            ],
            [
              72.829492,
              19.01875
            ],
            [
              72.828125,
              19.01875
            ],
            [
              72.825391,
              19.014648
            ],
            [
              72.825391,
              19.007812
            ],
            [
              72.826758,
              19.006445
            ],
            [
              72.826758,
              19.002344
            ],
            [
              72.828125,
              19.000977
            ],
            [
              72.828125,
              18.996875
            ],
            [
              72.830859,
              18.994141
            ],
            [
              72.830859,
              18.992773
            ],
            [
              72.832227,
              18.992773
            ],
            [
              72.836328,
              18.990039
            ],
            [
              72.839062,
              18.990039
            ],
            [
              72.84043,
              18.991406
            ],
            [
              72.841797,
              18.990039
            ],
            [
              72.844531,
              18.990039
            ],
            [
              72.844531,
              18.996875
            ],
            [
              72.843164,
              18.998242
            ],
            [
              72.843164,
              19.000977
            ],
            [
              72.84043,
              19.003711
            ],
            [
              72.84043,
              19.020117
            ],
            [
              72.837695,
              19.022852
            ],
            [
              72.834961,
              19.022852
            ]
          ]
        ]
      }
    },
    {
      "type": "Feature",
      "properties": {
        "spill_id": "sentinel_626",
        "confidence": 0.9
      },
      "geometry": {
        "type": "Polygon",
        "coordinates": [
          [
            [
              72.536914,
              19.026953
            ],
            [
              72.527344,
              18.990039
            ],
            [
              72.536914,
              18.962695
            ],
            [
              72.5,
              18.954492
            ],
            [
              72.5,
              18.802734
            ],
            [
              72.748828,
              18.801367
            ],
            [
              72.751562,
              18.823242
            ],
            [
              72.740625,
              18.836914
            ],
            [
              72.748828,
              18.858789
            ],
            [
              72.736523,
              18.871094
            ],
            [
              72.792578,
              18.869727
            ],
            [
              72.72832,
              18.913477
            ],
            [
              72.720117,
              18.932617
            ],
            [
              72.672266,
              18.954492
            ],
            [
              72.707812,
              18.955859
            ],
            [
              72.763867,
              18.92168
            ],
            [
              72.777539,
              18.93125
            ],
            [
              72.733789,
              18.962695
            ],
            [
              72.680469,
              18.980469
            ],
            [
              72.642187,
              19.024219
            ],
            [
              72.62168,
              19.003711
            ],
            [
              72.63125,
              18.970898
            ],
            [
              72.623047,
              18.953125
            ],
            [
              72.612109,
              18.953125
            ],
            [
              72.606641,
              18.973633
            ],
            [
              72.566992,
              19.000977
            ],
            [
              72.584766,
              19.01875
            ],
            [
              72.586133,
              19.037891
            ],
            [
              72.568359,
              19.036523
            ],
            [
              72.562891,
              19.022852
            ],
            [
              72.536914,
              19.026953
            ]
          ]
        ]
      }
    },
    {
      "type": "Feature",
      "properties": {
        "spill_id": "sentinel_626",
        "confidence": 0.9
      },
      "geometry": {
        "type": "Polygon",
        "coordinates": [
          [
            [
              72.810352,
              19.07207
            ],
            [
              72.808984,
              19.070703
            ],
            [
              72.808984,
              19.065234
            ],
            [
              72.811719,
              19.0625
            ],
            [
              72.811719,
              19.061133
            ],
            [
              72.813086,
              19.059766
            ],
            [
              72.813086,
              19.057031
            ],
            [
              72.808984,
              19.05293
            ],
            [
              72.808984,
              19.047461
            ],
            [
              72.807617,
              19.046094
            ],
            [
              72.808984,
              19.044727
            ],
            [
              72.808984,
              19.039258
            ],
            [
              72.810352,
              19.037891
            ],
            [
              72.814453,
              19.036523
            ],
            [
              72.81582,
              19.037891
            ],
            [
              72.819922,
              19.039258
            ],
            [
              72.825391,
              19.044727
            ],
            [
              72.825391,
              19.050195
            ],
            [
              72.822656,
              19.05293
            ],
            [
              72.821289,
              19.05293
            ],
            [
              72.817187,
              19.055664
            ],
            [
              72.817187,
              19.058398
            ],
            [
              72.819922,
              19.061133
            ],
            [
              72.819922,
              19.067969
            ],
            [
              72.817187,
              19.070703
            ],
            [
              72.814453,
              19.070703
            ],
            [
              72.813086,
              19.07207
            ],
            [
              72.810352,
              19.07207
            ]
          ]
        ]
      }
    },
    {
      "type": "Feature",
      "properties": {
        "spill_id": "sentinel_626",
        "confidence": 0.9
      },
      "geometry": {
        "type": "Polygon",
        "coordinates": [
          [
            [
              72.531445,
              19.083008
            ],
            [
              72.525977,
              19.083008
            ],
            [
              72.517773,
              19.080273
            ],
            [
              72.510938,
              19.076172
            ],
            [
              72.506836,
              19.076172
            ],
            [
              72.5,
              19.073438
            ],
            [
              72.5,
              19.031055
            ],
            [
              72.504102,
              19.029687
            ],
            [
              72.513672,
              19.029687
            ],
            [
              72.517773,
              19.031055
            ],
            [
              72.524609,
              19.02832
            ],
            [
              72.532812,
              19.02832
            ],
            [
              72.538281,
              19.031055
            ],
            [
              72.54375,
              19.037891
            ],
            [
              72.54375,
              19.046094
            ],
            [
              72.532812,
              19.058398
            ],
            [
              72.532812,
              19.078906
            ],
            [
              72.531445,
              19.083008
            ]
          ]
        ]
      }
    },
    {
      "type": "Feature",
      "properties": {
        "spill_id": "sentinel_626",
        "confidence": 0.9
      },
      "geometry": {
        "type": "Polygon",
        "coordinates": [
          [
            [
              72.5,
              19.117188
            ],
            [
              72.502734,
              19.098047
            ],
            [
              72.525977,
              19.103516
            ],
            [
              72.530078,
              19.092578
            ],
            [
              72.565625,
              19.091211
            ],
            [
              72.576562,
              19.077539
            ],
            [
              72.586133,
              19.077539
            ],
            [
              72.598438,
              19.09668
            ],
            [
              72.606641,
              19.092578
            ],
            [
              72.629883,
              19.091211
            ],
            [
              72.638086,
              19.09668
            ],
            [
              72.64082,
              19.104883
            ],
            [
              72.638086,
              19.119922
            ],
            [
              72.627148,
              19.137695
            ],
            [
              72.62168,
              19.137695
            ],
            [
              72.613477,
              19.126758
            ],
            [
              72.613477,
              19.119922
            ],
            [
              72.603906,
              19.114453
            ],
            [
              72.5875,
              19.11582
            ],
            [
              72.573828,
              19.128125
            ],
            [
              72.571094,
              19.136328
            ],
            [
              72.560156,
              19.137695
            ],
            [
              72.554688,
              19.126758
            ],
            [
              72.557422,
              19.11582
            ],
            [
              72.531445,
              19.100781
            ],
            [
              72.528711,
              19.102148
            ],
            [
              72.531445,
              19.113086
            ],
            [
              72.536914,
              19.118555
            ],
            [
              72.549219,
              19.121289
            ],
            [
              72.550586,
              19.125391
            ],
            [
              72.535547,
              19.122656
            ],
            [
              72.527344,
              19.132227
            ],
            [
              72.515039,
              19.133594
            ],
            [
              72.5,
              19.117188
            ]
          ]
        ]
      }
    },
    {
      "type": "Feature",
      "properties": {
        "spill_id": "sentinel_626",
        "confidence": 0.9
      },
      "geometry": {
        "type": "Polygon",
        "coordinates": [
          [
            [
              72.694141,
              19.141797
            ],
            [
              72.695508,
              19.133594
            ],
            [
              72.692773,
              19.125391
            ],
            [
              72.677734,
              19.111719
            ],
            [
              72.668164,
              19.107617
            ],
            [
              72.662695,
              19.100781
            ],
            [
              72.66543,
              19.091211
            ],
            [
              72.702344,
              19.091211
            ],
            [
              72.724219,
              19.073438
            ],
            [
              72.729688,
              19.055664
            ],
            [
              72.741992,
              19.047461
            ],
            [
              72.75293,
              19.047461
            ],
            [
              72.757031,
              19.058398
            ],
            [
              72.751562,
              19.085742
            ],
            [
              72.743359,
              19.09668
            ],
            [
              72.726953,
              19.099414
            ],
            [
              72.720117,
              19.10625
            ],
            [
              72.717383,
              19.122656
            ],
            [
              72.70918,
              19.129492
            ],
            [
              72.703711,
              19.14043
            ],
            [
              72.694141,
              19.141797
            ]
          ]
        ]
      }
    },
    {
      "type": "Feature",
      "properties": {
        "spill_id": "sentinel_626",
        "confidence": 0.9
      },
      "geometry": {
        "type": "Polygon",
        "coordinates": [
          [
            [
              72.770703,
              19.15
            ],
            [
              72.77207,
              19.141797
            ],
            [
              72.776172,
              19.134961
            ],
            [
              72.776172,
              19.126758
            ],
            [
              72.769336,
              19.11582
            ],
            [
              72.769336,
              19.108984
            ],
            [
              72.773438,
              19.099414
            ],
            [
              72.774805,
              19.091211
            ],
            [
              72.781641,
              19.081641
            ],
            [
              72.787109,
              19.078906
            ],
            [
              72.79668,
              19.077539
            ],
            [
              72.798047,
              19.078906
            ],
            [
              72.798047,
              19.089844
            ],
            [
              72.802148,
              19.095312
            ],
            [
              72.791211,
              19.104883
            ],
            [
              72.788477,
              19.119922
            ],
            [
              72.783008,
              19.126758
            ],
            [
              72.793945,
              19.14043
            ],
            [
              72.792578,
              19.15
            ],
            [
              72.770703,
              19.15
            ]
          ]
        ]
      }
    },
    {
      "type": "Feature",
      "properties": {
        "spill_id": "sentinel_626",
        "confidence": 0.9
      },
      "geometry": {
        "type": "Polygon",
        "coordinates": [
          [
            [
              72.673633,
              19.15
            ],
            [
              72.675,
              19.15
            ],
            [
              72.676367,
              19.148633
            ],
            [
              72.677734,
              19.148633
            ],
            [
              72.679102,
              19.147266
            ],
            [
              72.679102,
              19.145898
            ],
            [
              72.680469,
              19.144531
            ],
            [
              72.681836,
              19.144531
            ],
            [
              72.683203,
              19.143164
            ],
            [
              72.68457,
              19.144531
            ],
            [
              72.688672,
              19.144531
            ],
            [
              72.688672,
              19.147266
            ],
            [
              72.687305,
              19.148633
            ],
            [
              72.687305,
              19.15
            ],
            [
              72.673633,
              19.15
            ]
          ]
        ]
      }
    }
  ]
}